{
"type": "FeatureCollection",
"name": "police_station_boundary.writing_20260805_172659",
"crs": { "type": "name", "properties": { "name": "urn:ogc:def:crs:OGC:1.3:CRS84" } },
"features": [
{ "type": "Feature", "properties": { "Shape.STArea()": 11072024.336370045, "Shape.STLength()": 17083.302567373339, "OBJECTID": 871, "KGISPS_BOUNDID": 123, "PS_BOUNDName": "Amruthahalli PS", "PS_BOUNDCode": "PSB - 123", "KGISPS_SUB_DIVID": 149, "_source_layer": "Police Station Boundary", "_source_layer_url": "https://kgis.ksrsac.in/kgismaps/rest/services/Home/Home_Department/MapServer/82", "_police_station": "Amruthahalli PS" }, "geometry": { "type": "Polygon", "coordinates": [ [ [ 77.610462993833309, 13.078994772599364 ], [ 77.60873116904763, 13.080608499968134 ], [ 77.607559013979994, 13.08158382910646 ], [ 77.607139101563632, 13.081966379091723 ], [ 77.606217696696817, 13.082806833884813 ], [ 77.604043951007782, 13.084789206466736 ], [ 77.603620619328566, 13.085176304187172 ], [ 77.603098934681995, 13.085632150561473 ], [ 77.602864305986003, 13.085836894576323 ], [ 77.602551863411847, 13.084285041603284 ], [ 77.601999183110564, 13.081809471723322 ], [ 77.601744773978638, 13.081267044683941 ], [ 77.597812756789253, 13.081607837670013 ], [ 77.594756355324975, 13.081738981545172 ], [ 77.594723422862742, 13.08278627582847 ], [ 77.593661953696994, 13.082667033538694 ], [ 77.593508271814855, 13.082005233648578 ], [ 77.593360430857913, 13.080809164454289 ], [ 77.593281480357248, 13.079555035779476 ], [ 77.593131620310615, 13.078165370320265 ], [ 77.593046220599533, 13.07699377176187 ], [ 77.592993153586704, 13.076115858563861 ], [ 77.592910029139588, 13.074811574371257 ], [ 77.592855915606677, 13.073833277716917 ], [ 77.592886459806195, 13.073574379527738 ], [ 77.592906314142155, 13.073406097010565 ], [ 77.592999483873726, 13.072171751895343 ], [ 77.593015208819011, 13.072033826348521 ], [ 77.593062683407965, 13.071617428563981 ], [ 77.593097888826136, 13.070902963382617 ], [ 77.593168369536244, 13.070180774735634 ], [ 77.593224099332005, 13.068980269578535 ], [ 77.593371000217857, 13.067310822686581 ], [ 77.593443783675511, 13.066420092410754 ], [ 77.593481142517462, 13.064160855942589 ], [ 77.593556550427451, 13.063209942656488 ], [ 77.593596510734031, 13.062366950274081 ], [ 77.593666802562026, 13.060926070585014 ], [ 77.593720451537848, 13.060226360359572 ], [ 77.593709221483323, 13.059150824702987 ], [ 77.593736164676159, 13.057644645451793 ], [ 77.593694899470776, 13.056611241595313 ], [ 77.593693679237376, 13.055326451149115 ], [ 77.593769152602306, 13.054381513441781 ], [ 77.593851966565211, 13.053556017837407 ], [ 77.593843360883014, 13.05273144020205 ], [ 77.593554323699848, 13.051318067170273 ], [ 77.59327674499373, 13.050418500352311 ], [ 77.592995007710343, 13.049704225796649 ], [ 77.592842130294002, 13.049072320265919 ], [ 77.592623086157175, 13.048524739056347 ], [ 77.592211622803603, 13.047644438409243 ], [ 77.591776191734482, 13.046569565075037 ], [ 77.591572684365175, 13.045921432515586 ], [ 77.591423277390859, 13.045621746430559 ], [ 77.591281623455117, 13.044662250010941 ], [ 77.591242315289989, 13.044165454004169 ], [ 77.591141914411565, 13.043889180616135 ], [ 77.590779921567943, 13.043309562637171 ], [ 77.590330921462453, 13.042623146330579 ], [ 77.590287769949555, 13.042492240753001 ], [ 77.590264028951822, 13.04243273344396 ], [ 77.590171127930049, 13.042138390578149 ], [ 77.590138960974528, 13.042036474588677 ], [ 77.59011563267309, 13.041953140482351 ], [ 77.590024058986955, 13.041620915886472 ], [ 77.59002043928443, 13.041605142025837 ], [ 77.590073637637531, 13.041593257961161 ], [ 77.590120990014668, 13.041582679134264 ], [ 77.590571458385241, 13.041482180442078 ], [ 77.591586846717178, 13.041266483311022 ], [ 77.592246511070172, 13.041124361791647 ], [ 77.592668561160309, 13.041060281655378 ], [ 77.593194252888821, 13.041049368291592 ], [ 77.593555205402453, 13.041090922849309 ], [ 77.594011337892297, 13.041147332927563 ], [ 77.594754643697499, 13.041239258867819 ], [ 77.595027397197953, 13.041272661255148 ], [ 77.595055085066448, 13.041276900771138 ], [ 77.595417858113123, 13.041272133560627 ], [ 77.596351108380432, 13.041243574625859 ], [ 77.596595808545729, 13.041237731723632 ], [ 77.597378843977552, 13.04121858122712 ], [ 77.597495729289165, 13.041216278813456 ], [ 77.598145214628772, 13.041202983534587 ], [ 77.598431951232683, 13.041196716885624 ], [ 77.598438861400098, 13.041196647504655 ], [ 77.599318448970294, 13.041158453175962 ], [ 77.599495727175707, 13.04114876757685 ], [ 77.599740343991655, 13.041135017569735 ], [ 77.600536104629327, 13.041121376177177 ], [ 77.60105317893769, 13.041112791994376 ], [ 77.60135720191299, 13.041107477671254 ], [ 77.601694612039822, 13.041100698071995 ], [ 77.603392858951992, 13.041036190284242 ], [ 77.604434841755548, 13.040997474368421 ], [ 77.605251822307068, 13.040975700048199 ], [ 77.606726296662927, 13.040936008727954 ], [ 77.607368061385074, 13.040845977308706 ], [ 77.607481543767719, 13.040812215917201 ], [ 77.60765088220505, 13.040761836074898 ], [ 77.607694157431325, 13.040748961723882 ], [ 77.60779175466088, 13.04071974638255 ], [ 77.608233775379716, 13.040528961329668 ], [ 77.608613860687726, 13.040308309425555 ], [ 77.608836394421402, 13.040166036050277 ], [ 77.608906642559518, 13.040109993383243 ], [ 77.609145941917475, 13.039918991908747 ], [ 77.60928684791989, 13.039791092439273 ], [ 77.609443735145902, 13.039649480480573 ], [ 77.609664329909378, 13.039377359360911 ], [ 77.60976482011408, 13.039239703731324 ], [ 77.609914685548446, 13.039032664381853 ], [ 77.610015478905524, 13.038869032297754 ], [ 77.610036429520193, 13.038834942762081 ], [ 77.610228717665734, 13.038334993103559 ], [ 77.610279192486999, 13.038205746671652 ], [ 77.610314875145193, 13.038258462802315 ], [ 77.610334903662064, 13.038301173306476 ], [ 77.610420823548495, 13.038476473846092 ], [ 77.610559118413917, 13.038758527285813 ], [ 77.610674470257663, 13.038994511708173 ], [ 77.610762729589624, 13.039173176270403 ], [ 77.610869742872879, 13.039327936823717 ], [ 77.611141078908233, 13.039720445912177 ], [ 77.611231940664425, 13.039817776152235 ], [ 77.611293126600955, 13.039886044609432 ], [ 77.611355279514754, 13.039991569357568 ], [ 77.611488363350034, 13.04032562114493 ], [ 77.611497237991642, 13.040348117089984 ], [ 77.611570923900558, 13.040537383497332 ], [ 77.611740896671492, 13.04123779600722 ], [ 77.61174164559884, 13.041242076981517 ], [ 77.611948620665629, 13.042424378106466 ], [ 77.611949417605288, 13.042428930523156 ], [ 77.61198087757937, 13.042415143898783 ], [ 77.612025801212567, 13.042404377917977 ], [ 77.613465752806619, 13.042059301040014 ], [ 77.613469980391045, 13.042057721630171 ], [ 77.61362957223669, 13.041998110377895 ], [ 77.613675658965136, 13.04198089553395 ], [ 77.613700670401911, 13.042144160707647 ], [ 77.613737466385331, 13.042384344018798 ], [ 77.613726757753241, 13.042757338924376 ], [ 77.613544552729977, 13.043050795443149 ], [ 77.613240611319412, 13.04335982314751 ], [ 77.612812215471905, 13.043890015739546 ], [ 77.612587735893911, 13.044336878315487 ], [ 77.612442318756777, 13.044883334951869 ], [ 77.612291015873225, 13.045797957198168 ], [ 77.612195097934205, 13.046043454105989 ], [ 77.611892788389483, 13.046508312573044 ], [ 77.611821221473576, 13.046658189629095 ], [ 77.611820314493897, 13.046850378626052 ], [ 77.611883222795839, 13.046990293809676 ], [ 77.612113960324052, 13.047231774225574 ], [ 77.612250666339577, 13.047434047871336 ], [ 77.612316651075318, 13.047588272677018 ], [ 77.612335709798785, 13.047731497937347 ], [ 77.612341019959132, 13.04799090166026 ], [ 77.613028279597515, 13.048156016953973 ], [ 77.613947202759618, 13.048366639684355 ], [ 77.614435868418113, 13.048466874102257 ], [ 77.614688997061535, 13.048426070200771 ], [ 77.614912268797937, 13.048328201821537 ], [ 77.615310458727393, 13.048171196909204 ], [ 77.61552498474812, 13.048169027803988 ], [ 77.615642300312018, 13.048196525010024 ], [ 77.615798720788163, 13.048233188466119 ], [ 77.616237422969704, 13.048219189885717 ], [ 77.617532013773669, 13.047986186031277 ], [ 77.618253799831948, 13.047998003706875 ], [ 77.618254806562206, 13.048093604625452 ], [ 77.61830829437163, 13.048542438018064 ], [ 77.618401592378063, 13.049067357761647 ], [ 77.618379487801434, 13.049746423630157 ], [ 77.618277863006867, 13.050282877461218 ], [ 77.618136225517873, 13.050724124383963 ], [ 77.617934067364189, 13.050974760838347 ], [ 77.617831535432316, 13.051425173621723 ], [ 77.617799298233038, 13.051485349389088 ], [ 77.617764585755324, 13.051550145883647 ], [ 77.616096321173842, 13.05163248481724 ], [ 77.616008261113763, 13.051632328582512 ], [ 77.615976415809783, 13.052660477222094 ], [ 77.616200950993672, 13.052978177472216 ], [ 77.616305534947529, 13.053763980981474 ], [ 77.616381544256171, 13.05449942164282 ], [ 77.616936669872274, 13.054426875762324 ], [ 77.617833195153693, 13.054360433150915 ], [ 77.618641250929088, 13.054227954999504 ], [ 77.618787925318131, 13.054264713673506 ], [ 77.619362473550567, 13.055109836301016 ], [ 77.619659652452938, 13.055546637730066 ], [ 77.619681372943973, 13.05575676302759 ], [ 77.619662575330509, 13.055823881995138 ], [ 77.619517009483104, 13.055892284581182 ], [ 77.619151190335003, 13.05634536533724 ], [ 77.618892637260458, 13.056797358225614 ], [ 77.618649857568585, 13.056895429603765 ], [ 77.618299206596888, 13.056937225685539 ], [ 77.618193148967563, 13.057053034419667 ], [ 77.618348690397468, 13.057931084611615 ], [ 77.618438268636893, 13.058102278523929 ], [ 77.618752534578888, 13.058309439412007 ], [ 77.618865848549348, 13.058881961005142 ], [ 77.619052942800849, 13.059052165580644 ], [ 77.619193578716619, 13.059112599913279 ], [ 77.61930719377024, 13.059620002645245 ], [ 77.619490165026349, 13.060555140665809 ], [ 77.619524849561287, 13.060607374992165 ], [ 77.620179519844996, 13.060725033578297 ], [ 77.620302222092221, 13.060800277868189 ], [ 77.620321027325573, 13.060965016956674 ], [ 77.620396138510699, 13.062075737633295 ], [ 77.62053464070145, 13.062796172449607 ], [ 77.620556208638064, 13.063381599947895 ], [ 77.620513166589035, 13.063692773361867 ], [ 77.620522801233335, 13.063912581618951 ], [ 77.620604557005151, 13.064497372388159 ], [ 77.620591434932237, 13.065102247068781 ], [ 77.620567417662969, 13.065367812077447 ], [ 77.620452186186114, 13.065538690554254 ], [ 77.620273568458003, 13.065710212818875 ], [ 77.620014019285932, 13.065837140335557 ], [ 77.619956037113468, 13.065887923788452 ], [ 77.619915197335715, 13.065945704676471 ], [ 77.619889792312392, 13.066079818287628 ], [ 77.619806964425308, 13.066179135688829 ], [ 77.619690893199746, 13.066200990975622 ], [ 77.619515556045954, 13.06622141359624 ], [ 77.619344471459172, 13.066228885016661 ], [ 77.619336390747137, 13.066294938697919 ], [ 77.619346680323787, 13.066438251209195 ], [ 77.619437302001444, 13.066985186425784 ], [ 77.619533910689171, 13.067544966964157 ], [ 77.619552891054056, 13.067818701038746 ], [ 77.619543836944999, 13.068069773627213 ], [ 77.619507287488148, 13.068210692763236 ], [ 77.619444873200266, 13.068275987512134 ], [ 77.6190228512978, 13.068299373280396 ], [ 77.619018626739447, 13.068245635019593 ], [ 77.618795362346191, 13.068229971390974 ], [ 77.618790835267021, 13.068147551904245 ], [ 77.618793188653271, 13.068071794895529 ], [ 77.618793329786598, 13.068067265556472 ], [ 77.617478102555211, 13.067970949330698 ], [ 77.615168849411674, 13.067832994944153 ], [ 77.614371315715502, 13.067769356836322 ], [ 77.613294700274679, 13.067683446490086 ], [ 77.613304872834121, 13.067807459523442 ], [ 77.613321246369125, 13.06792866162232 ], [ 77.613324391487964, 13.068227416907247 ], [ 77.613279475827582, 13.069172037859868 ], [ 77.613162733791469, 13.069663229715474 ], [ 77.613065779160948, 13.069717992898413 ], [ 77.612968259279072, 13.069718979541829 ], [ 77.612809473696231, 13.069690707234852 ], [ 77.61265577721943, 13.069566771070511 ], [ 77.612533877630369, 13.069568004159327 ], [ 77.612515969715076, 13.069604040135504 ], [ 77.612501143454807, 13.069932856083792 ], [ 77.612422291139097, 13.070549154734778 ], [ 77.612430593289048, 13.071337868898539 ], [ 77.612469182721242, 13.072108349187431 ], [ 77.612418981097107, 13.07255106179702 ], [ 77.612443494161909, 13.073142412104323 ], [ 77.612391412929085, 13.073985518412806 ], [ 77.61234800686897, 13.075073542808056 ], [ 77.612241320648167, 13.075941104285118 ], [ 77.612138646404176, 13.076031779371739 ], [ 77.61089410134116, 13.076516453141782 ], [ 77.610956499804729, 13.076653264447195 ], [ 77.611013180105928, 13.076825987512445 ], [ 77.61118969552102, 13.077379946795467 ], [ 77.611327312737842, 13.077713195956347 ], [ 77.610808028749645, 13.078184557423405 ], [ 77.609943638491103, 13.078880509844735 ], [ 77.609708060994052, 13.07908606806803 ], [ 77.609940247420198, 13.079137501679917 ], [ 77.610262289989521, 13.079038632541749 ], [ 77.610462993833309, 13.078994772599364 ] ] ] } }
]
}
