{
"type": "FeatureCollection",
"name": "police_station_boundary.writing_20260805_172659",
"crs": { "type": "name", "properties": { "name": "urn:ogc:def:crs:OGC:1.3:CRS84" } },
"features": [
{ "type": "Feature", "properties": { "Shape.STArea()": 195333630.21897447, "Shape.STLength()": 94635.063799929645, "OBJECTID": 227, "KGISPS_BOUNDID": 319, "PS_BOUNDName": "Bankapura PS", "PS_BOUNDCode": "PSB - 319", "KGISPS_SUB_DIVID": 152, "_source_layer": "Police Station Boundary", "_source_layer_url": "https://kgis.ksrsac.in/kgismaps/rest/services/Home/Home_Department/MapServer/82", "_police_station": "Bankapura PS" }, "geometry": { "type": "Polygon", "coordinates": [ [ [ 75.151405208085606, 14.970078626100401 ], [ 75.151263017183965, 14.97083888125556 ], [ 75.151168831778065, 14.971342472051987 ], [ 75.151153167209102, 14.97142621682131 ], [ 75.151090325401356, 14.971433111695106 ], [ 75.149546582298314, 14.971761292761078 ], [ 75.147323273684194, 14.972308160237715 ], [ 75.147044023136559, 14.972369986182768 ], [ 75.145467190996953, 14.972739917949209 ], [ 75.144572156002923, 14.97313802054239 ], [ 75.144536621501686, 14.973000530550109 ], [ 75.144522577607702, 14.972946189028134 ], [ 75.140001590361834, 14.972282280311511 ], [ 75.135406688901995, 14.971593038205954 ], [ 75.131183262463111, 14.970961059131286 ], [ 75.131090833985994, 14.970954725531948 ], [ 75.128971996920797, 14.970809504960764 ], [ 75.12479901784306, 14.970541498284133 ], [ 75.120619006335531, 14.970280172722987 ], [ 75.11877897403825, 14.970157147456474 ], [ 75.118020776149365, 14.970086096159669 ], [ 75.117797584662213, 14.970065179777272 ], [ 75.115367379487864, 14.970147061207175 ], [ 75.106811602797947, 14.970303070897849 ], [ 75.10499326975291, 14.970604329037727 ], [ 75.104521037085462, 14.970586262668899 ], [ 75.09302963088453, 14.970146329875829 ], [ 75.081519180536304, 14.969606288886213 ], [ 75.081577095892797, 14.96933875402741 ], [ 75.081577921249789, 14.969334937422845 ], [ 75.081606405843317, 14.969203341861949 ], [ 75.082983344906495, 14.962841844091358 ], [ 75.084440477805586, 14.956580476896605 ], [ 75.090614334088713, 14.956712929983819 ], [ 75.096601012206321, 14.956780514800686 ], [ 75.097710819812775, 14.956439252520896 ], [ 75.097740069661981, 14.95531418547165 ], [ 75.098695821709995, 14.955298367216757 ], [ 75.098780638287508, 14.95531094399608 ], [ 75.099876789970182, 14.95517600753101 ], [ 75.098513820385392, 14.954035276090996 ], [ 75.097389702481607, 14.953072587094953 ], [ 75.096778209407617, 14.952560806406851 ], [ 75.096166699735392, 14.952042838022644 ], [ 75.095548134818102, 14.951508512568417 ], [ 75.094964726237052, 14.950984842179592 ], [ 75.093643313667499, 14.951969067377663 ], [ 75.095317678654283, 14.949908282904154 ], [ 75.09728143512308, 14.947491245827818 ], [ 75.097604484040204, 14.947093613623574 ], [ 75.096909308671286, 14.942956765095817 ], [ 75.103059044760428, 14.934977661632701 ], [ 75.103186434656536, 14.934812365072874 ], [ 75.10145475005308, 14.93221145520914 ], [ 75.101924152435501, 14.928865743820259 ], [ 75.10203850464795, 14.927943228956932 ], [ 75.102091209655384, 14.927363772836546 ], [ 75.101487493384639, 14.92734484865683 ], [ 75.101420088246826, 14.927342733056973 ], [ 75.101266540226973, 14.927337921506425 ], [ 75.10028975033228, 14.927275197627601 ], [ 75.099077124496745, 14.927215059997494 ], [ 75.097830567938416, 14.927140304378321 ], [ 75.09648015315743, 14.927044446381823 ], [ 75.095132329650269, 14.926972946470126 ], [ 75.093738553979549, 14.926895616781893 ], [ 75.092874447434554, 14.926869611198413 ], [ 75.092784319476891, 14.926866903744145 ], [ 75.09223497003336, 14.926795818255055 ], [ 75.092209289841989, 14.926792492376658 ], [ 75.091177480556382, 14.9267532708008 ], [ 75.085473903345985, 14.926755297552187 ], [ 75.085495660840721, 14.926385744365353 ], [ 75.087322692569344, 14.921091968125886 ], [ 75.084478386145562, 14.921631827500148 ], [ 75.080308524686515, 14.922423213300787 ], [ 75.067516634067928, 14.919114617197252 ], [ 75.067253388975701, 14.919050564853213 ], [ 75.067242333528483, 14.91904787741451 ], [ 75.06708885980494, 14.918994719902969 ], [ 75.067103358747488, 14.918917681172292 ], [ 75.06760669294296, 14.916439898202466 ], [ 75.067743946303978, 14.915696761275475 ], [ 75.068237778727053, 14.913022942187538 ], [ 75.06839230108686, 14.911066009574 ], [ 75.068641485747307, 14.908577815136912 ], [ 75.069341613511909, 14.908484770012269 ], [ 75.069732627725472, 14.908432809405742 ], [ 75.070571210255054, 14.908321366304978 ], [ 75.077452514815704, 14.90743041943432 ], [ 75.08101121425446, 14.906907966768802 ], [ 75.084444410838813, 14.906407360690789 ], [ 75.091771141870339, 14.905399739127978 ], [ 75.094630195984195, 14.904898358168689 ], [ 75.095920706519507, 14.904701354118231 ], [ 75.096166921505898, 14.90467976606204 ], [ 75.096284072729674, 14.904669494764837 ], [ 75.09630947825589, 14.904667267159867 ], [ 75.096325075236535, 14.904665898983131 ], [ 75.096524566061305, 14.904648217941659 ], [ 75.101066879795553, 14.904546782084115 ], [ 75.101479815859378, 14.904560744625423 ], [ 75.101977677485579, 14.90460583305866 ], [ 75.102622648816052, 14.904664243799694 ], [ 75.103031608866132, 14.904668949753006 ], [ 75.103096399228832, 14.904845431920741 ], [ 75.10323742569193, 14.904851350124005 ], [ 75.103360786900112, 14.904857513093848 ], [ 75.104608586851555, 14.904919855960404 ], [ 75.104722183766938, 14.904927822776401 ], [ 75.104777793492573, 14.904931722170931 ], [ 75.10509414885864, 14.904958441634633 ], [ 75.105343243725343, 14.904973539187523 ], [ 75.105559674608728, 14.905019607997909 ], [ 75.105585759800007, 14.905025159985728 ], [ 75.105593928964666, 14.9050200858645 ], [ 75.105708816806768, 14.904948726026943 ], [ 75.105907875927741, 14.904825083943326 ], [ 75.106015590851072, 14.90402684547114 ], [ 75.106142498369522, 14.903816079417545 ], [ 75.106172435267723, 14.903766360142741 ], [ 75.10679607289886, 14.903453196380884 ], [ 75.107154395097382, 14.903250212101614 ], [ 75.107343018201888, 14.90315662690066 ], [ 75.107464818415309, 14.903087792694837 ], [ 75.107671186132748, 14.90297116801818 ], [ 75.108161072400662, 14.90259848577683 ], [ 75.108592918566004, 14.902264775367996 ], [ 75.10885466278117, 14.902115677791789 ], [ 75.109161027808483, 14.901949891039816 ], [ 75.109381073866743, 14.901798464702956 ], [ 75.109601708549718, 14.901566970904094 ], [ 75.109692473864172, 14.901471738936314 ], [ 75.109710130812658, 14.901428099015014 ], [ 75.109851565066592, 14.901162310383919 ], [ 75.109975645086394, 14.90087395117243 ], [ 75.1100320907303, 14.9008890474423 ], [ 75.110223049887139, 14.900940114906891 ], [ 75.110389373436092, 14.900890074461234 ], [ 75.110657194224103, 14.900924679203795 ], [ 75.110866927773941, 14.900850329819599 ], [ 75.110880587030607, 14.900838501720312 ], [ 75.11102663112888, 14.900756292667031 ], [ 75.111471756361453, 14.900920129881866 ], [ 75.11147622739621, 14.900921775029996 ], [ 75.111501145935591, 14.900865099319725 ], [ 75.111676816021372, 14.900465542354004 ], [ 75.111880833880178, 14.899981035693386 ], [ 75.111957322778949, 14.899744430197742 ], [ 75.112557384270971, 14.899299799176248 ], [ 75.113058787561741, 14.898906572536765 ], [ 75.113091110879353, 14.898859026508699 ], [ 75.113150983251856, 14.898770951935482 ], [ 75.113472188665597, 14.898677411013624 ], [ 75.113800366634294, 14.898581839122135 ], [ 75.114426684203323, 14.89834702502147 ], [ 75.11513635664474, 14.897985569352691 ], [ 75.115203017222328, 14.897940251629887 ], [ 75.115394675613047, 14.897494734976345 ], [ 75.115827799220298, 14.896607738239149 ], [ 75.115933436857844, 14.896117470367162 ], [ 75.116032152604987, 14.895862264227956 ], [ 75.117415877315167, 14.896225445394911 ], [ 75.117412138726408, 14.896329792884286 ], [ 75.11741097923472, 14.8963621604065 ], [ 75.11741085558026, 14.896365589832637 ], [ 75.117963494208439, 14.896546792846042 ], [ 75.118039497679248, 14.896469478681032 ], [ 75.118049570124327, 14.896465797303094 ], [ 75.118119843496928, 14.896410340677843 ], [ 75.118163749234796, 14.896375691698527 ], [ 75.118239063178635, 14.896316256980974 ], [ 75.118470746575355, 14.896496611502865 ], [ 75.118495549057243, 14.896515918116563 ], [ 75.118612561377873, 14.896552468497333 ], [ 75.11883605338214, 14.896622278988689 ], [ 75.118891163671393, 14.896639493960887 ], [ 75.118945892940786, 14.896384241604434 ], [ 75.118953642775764, 14.896348100436239 ], [ 75.119133638946039, 14.89639307869512 ], [ 75.119123401153416, 14.896429119899743 ], [ 75.119017869947641, 14.896800639878101 ], [ 75.119072847066846, 14.896813961694271 ], [ 75.119429437420024, 14.896900360089242 ], [ 75.119570411518922, 14.896267283949459 ], [ 75.120052805446292, 14.896372457770259 ], [ 75.120407751163967, 14.896613521292021 ], [ 75.121418355144911, 14.896665194346914 ], [ 75.12140831548254, 14.896562996894161 ], [ 75.121362430693736, 14.896095915460513 ], [ 75.121447340912482, 14.89608419455684 ], [ 75.121986199297766, 14.896009814085092 ], [ 75.122428373962862, 14.895793682185369 ], [ 75.122808784260741, 14.895607740674535 ], [ 75.123336504507265, 14.895349791304826 ], [ 75.123348689796444, 14.895344027252014 ], [ 75.123359299641891, 14.895339009049032 ], [ 75.123366488520205, 14.895186015651348 ], [ 75.123376305973196, 14.895098855917357 ], [ 75.123430029346693, 14.894672408857788 ], [ 75.123439258725156, 14.894599154039627 ], [ 75.123652707032051, 14.89426072282305 ], [ 75.12401799902328, 14.894197821387786 ], [ 75.124087631607338, 14.894144327053342 ], [ 75.124147460710688, 14.894195333663985 ], [ 75.125012677017978, 14.894424050257378 ], [ 75.125160515873944, 14.894568739668712 ], [ 75.125310491164285, 14.894285204144401 ], [ 75.125413639245366, 14.89415891952304 ], [ 75.125485968677452, 14.894055842646013 ], [ 75.125983086348086, 14.894297364879021 ], [ 75.126153932790515, 14.894442726330292 ], [ 75.126536588591847, 14.894488205578817 ], [ 75.126644103261555, 14.894500983027708 ], [ 75.127331179342633, 14.894533588627773 ], [ 75.127415293645143, 14.894537579726686 ], [ 75.127463543632302, 14.894540407236265 ], [ 75.127583978936983, 14.89454746386553 ], [ 75.128078005591476, 14.894642029694911 ], [ 75.128214640329389, 14.894671181090605 ], [ 75.128704477009634, 14.894549142965055 ], [ 75.128725045432176, 14.894546698403106 ], [ 75.129248251999499, 14.894484478357981 ], [ 75.129812758943103, 14.894484564399505 ], [ 75.130426242160439, 14.894484670914713 ], [ 75.130529221224734, 14.894494765665025 ], [ 75.13127957366909, 14.894568350049834 ], [ 75.131502738521618, 14.894589171700666 ], [ 75.131577087146852, 14.89459611162258 ], [ 75.131781069897613, 14.894789187837816 ], [ 75.132516066020273, 14.894723178558936 ], [ 75.132641536105311, 14.894888482039137 ], [ 75.132685533072234, 14.894946445602894 ], [ 75.132691263796971, 14.894953992667004 ], [ 75.132708478316587, 14.894976682668496 ], [ 75.13305812341072, 14.895158906073348 ], [ 75.133529122067117, 14.895842275725926 ], [ 75.134758153855572, 14.896061417034183 ], [ 75.135024273024868, 14.896317223813142 ], [ 75.13489796529187, 14.896758211091004 ], [ 75.134903393492309, 14.89677841427109 ], [ 75.134912373088284, 14.896811833723895 ], [ 75.135336491574463, 14.896926595177716 ], [ 75.135547272119595, 14.89685013230204 ], [ 75.135707412964337, 14.896897711338932 ], [ 75.136250699670455, 14.897059124065438 ], [ 75.136149036484056, 14.897424829521663 ], [ 75.136113570244376, 14.897448417608794 ], [ 75.135852587438507, 14.897621991592866 ], [ 75.135823093262829, 14.897763582976244 ], [ 75.135644023330869, 14.897932645380124 ], [ 75.13575287771053, 14.89810066206546 ], [ 75.135975489534388, 14.898444261725539 ], [ 75.135995639706337, 14.898517128867043 ], [ 75.136113657890675, 14.898943903351606 ], [ 75.136116828560574, 14.899278879308749 ], [ 75.136834251475108, 14.898976992951344 ], [ 75.136874520414494, 14.898979176783712 ], [ 75.136927661661417, 14.898700615562118 ], [ 75.137456713016746, 14.898485179505977 ], [ 75.137397190784583, 14.89775327605091 ], [ 75.137836892554787, 14.896762581513757 ], [ 75.138541388910539, 14.896674266371917 ], [ 75.138878232873225, 14.896621527198484 ], [ 75.13878203968288, 14.896443447698918 ], [ 75.138402514590993, 14.895740833718762 ], [ 75.138407902188007, 14.895686788878793 ], [ 75.138560427717735, 14.894156669294008 ], [ 75.138560145420371, 14.894135374516281 ], [ 75.138589650076511, 14.893955547135254 ], [ 75.13856241052045, 14.893606436018995 ], [ 75.138551250002919, 14.893463393288444 ], [ 75.138550045497098, 14.893372363598933 ], [ 75.139169203379083, 14.892945673638119 ], [ 75.139245999906592, 14.892798244934415 ], [ 75.139832941972415, 14.892742699621481 ], [ 75.139854493582092, 14.892800576948725 ], [ 75.139943750849199, 14.892794984686546 ], [ 75.140170263107365, 14.892780795225693 ], [ 75.140263621244671, 14.892720541214661 ], [ 75.140723798158533, 14.892423538523055 ], [ 75.141126959785993, 14.892342039323088 ], [ 75.141473924589917, 14.892913410351266 ], [ 75.141483934317833, 14.892929893676614 ], [ 75.141709495276359, 14.893083171461557 ], [ 75.142394092863199, 14.893049114537265 ], [ 75.142474451141013, 14.893045116275733 ], [ 75.142680209175722, 14.89290021014337 ], [ 75.143085649155466, 14.892895472048091 ], [ 75.143192310340439, 14.892746168128161 ], [ 75.143238784150341, 14.892681115049459 ], [ 75.143405724339885, 14.892612050055245 ], [ 75.143512738250507, 14.892567777512383 ], [ 75.14359544891137, 14.892533558687411 ], [ 75.143854965919815, 14.892383338615357 ], [ 75.144094877684452, 14.892143186929159 ], [ 75.144414005535907, 14.892047706302051 ], [ 75.145198905963426, 14.891553199014234 ], [ 75.145632223304332, 14.891325880219132 ], [ 75.145861104749571, 14.891368967442242 ], [ 75.146292987750698, 14.891215158515086 ], [ 75.146486180631484, 14.891146353004464 ], [ 75.146919394028544, 14.891128328646435 ], [ 75.147403433981779, 14.891068103131328 ], [ 75.147596496880979, 14.891433218036603 ], [ 75.14790429164951, 14.891487312604122 ], [ 75.148831189353771, 14.891437099577665 ], [ 75.148863086228658, 14.891893240757573 ], [ 75.148907300045778, 14.891867646898872 ], [ 75.149915480199894, 14.891284017569536 ], [ 75.150714843062758, 14.890821266683229 ], [ 75.150523832503183, 14.890392630796782 ], [ 75.150356474599249, 14.890017069663866 ], [ 75.150410336989026, 14.889510103755198 ], [ 75.150470387246031, 14.889239106874731 ], [ 75.150556897013843, 14.888848688816367 ], [ 75.150673595829659, 14.888147388741279 ], [ 75.150666013711913, 14.88814124745465 ], [ 75.150636198724854, 14.888117106004614 ], [ 75.150346393144901, 14.88788243423326 ], [ 75.150506726819515, 14.886601267705348 ], [ 75.150655042020801, 14.88583583225005 ], [ 75.15068693357388, 14.885671269736678 ], [ 75.150692063690229, 14.885644766340095 ], [ 75.150702481670862, 14.885596690563235 ], [ 75.150414006338366, 14.884741680399072 ], [ 75.150395941070059, 14.884688131629492 ], [ 75.150538736736024, 14.884013519537453 ], [ 75.150548035458741, 14.883969607107087 ], [ 75.150558864938219, 14.883918422663529 ], [ 75.150547975810937, 14.883828732950819 ], [ 75.15054360932595, 14.883792781306438 ], [ 75.15042011005599, 14.882775417537172 ], [ 75.150397508261747, 14.882589175371047 ], [ 75.15036973321287, 14.882360381930731 ], [ 75.15043671654044, 14.882310125374248 ], [ 75.150486192079143, 14.882224399533278 ], [ 75.150751645980506, 14.881764452802431 ], [ 75.151311065141556, 14.881173104772513 ], [ 75.151379919043819, 14.881038566467323 ], [ 75.151387229381797, 14.881029920877523 ], [ 75.151354953493026, 14.881005655448176 ], [ 75.151443632511175, 14.880813023665748 ], [ 75.151579975697501, 14.880516835718669 ], [ 75.151690283888044, 14.880404466301947 ], [ 75.151877300330298, 14.880213965434256 ], [ 75.152185865953555, 14.879915803247041 ], [ 75.15250442432145, 14.879657164355235 ], [ 75.152646377541529, 14.879557786577651 ], [ 75.153100827387519, 14.879364673608144 ], [ 75.153390527192045, 14.879294736450694 ], [ 75.153886934607513, 14.879145179248264 ], [ 75.153889576734215, 14.879191168738293 ], [ 75.154651863200897, 14.879194794363613 ], [ 75.155184121251494, 14.879196065107212 ], [ 75.155709825159377, 14.879149204114494 ], [ 75.155695122439468, 14.879103315054831 ], [ 75.155720601888689, 14.879101668521127 ], [ 75.155881593892246, 14.879069119027807 ], [ 75.155909906326642, 14.879064097241141 ], [ 75.156328492403787, 14.879006902880116 ], [ 75.156682780906678, 14.878965920223584 ], [ 75.15703735124336, 14.878926623933683 ], [ 75.157391920522343, 14.878887335234721 ], [ 75.157746482229513, 14.878848045089899 ], [ 75.158101052163559, 14.878808746255356 ], [ 75.158455621970148, 14.878769455915245 ], [ 75.158569926279228, 14.878756785133156 ], [ 75.158810187918888, 14.878730157797856 ], [ 75.159165717477805, 14.878696794074532 ], [ 75.159521936111275, 14.878667665168251 ], [ 75.159877835585633, 14.878642062940788 ], [ 75.159911672721591, 14.878639549387096 ], [ 75.159998802306276, 14.878636714773885 ], [ 75.16020547426838, 14.878662373503349 ], [ 75.160337377552281, 14.878678749174147 ], [ 75.160900574724408, 14.878785496935775 ], [ 75.161029718076193, 14.878814474992918 ], [ 75.161782376204272, 14.878983346773364 ], [ 75.162343410999043, 14.879109224779945 ], [ 75.162832783531002, 14.879177725608866 ], [ 75.163259539103251, 14.879237455601915 ], [ 75.163452824509875, 14.879340078588873 ], [ 75.164013856357954, 14.879637953114015 ], [ 75.164950875808955, 14.880135450111313 ], [ 75.165017006111157, 14.880170559611463 ], [ 75.165356548993969, 14.880350834432569 ], [ 75.165360029823987, 14.880401141278783 ], [ 75.165502467570207, 14.880496887088903 ], [ 75.165668663574451, 14.881116169615188 ], [ 75.165905757112853, 14.881251704404137 ], [ 75.165986317549212, 14.88131539987373 ], [ 75.166042218910135, 14.881359593021108 ], [ 75.166143833963943, 14.881439931768263 ], [ 75.166732620600925, 14.881279476471782 ], [ 75.166752327450169, 14.881371478056911 ], [ 75.166839970997557, 14.881780661932867 ], [ 75.167199675361658, 14.883017297034803 ], [ 75.16749900881679, 14.882963480987534 ], [ 75.167562423939259, 14.882954077841987 ], [ 75.167740713759315, 14.882918552697005 ], [ 75.168376343359526, 14.882791901355841 ], [ 75.168532495316683, 14.882819120296366 ], [ 75.168545553617179, 14.882862579401023 ], [ 75.168656961357939, 14.883233346683168 ], [ 75.168888499204826, 14.884669868300112 ], [ 75.168910924536533, 14.884734185955644 ], [ 75.168920530865776, 14.88476173038935 ], [ 75.168954450271187, 14.884858995058641 ], [ 75.168963351303859, 14.884945421379461 ], [ 75.169020278861765, 14.885498077700369 ], [ 75.16841468441153, 14.887143306424749 ], [ 75.168406777703879, 14.887161534938675 ], [ 75.16838657003386, 14.887191246778336 ], [ 75.168284577382011, 14.887359700186067 ], [ 75.168210622742308, 14.88751009923797 ], [ 75.168135687302907, 14.88765824860876 ], [ 75.16805856308028, 14.887792928046245 ], [ 75.168038884627066, 14.887835069423025 ], [ 75.168025917186355, 14.887876755624662 ], [ 75.168011013897384, 14.887898924017543 ], [ 75.167982586800662, 14.887957460029154 ], [ 75.167941266575738, 14.88803724707101 ], [ 75.167914517781142, 14.88809852225754 ], [ 75.16785750218628, 14.8881994014324 ], [ 75.167830248127103, 14.888261356883021 ], [ 75.167787217844221, 14.888342014015031 ], [ 75.167761688101521, 14.88840129468799 ], [ 75.167746513316601, 14.888419901900576 ], [ 75.167731867446392, 14.888458848899372 ], [ 75.167718673105156, 14.888480148059546 ], [ 75.167702976819626, 14.888501239291061 ], [ 75.167677256474661, 14.88855934924748 ], [ 75.167663890144425, 14.888589084047057 ], [ 75.167634717818814, 14.88864112982183 ], [ 75.167619213005324, 14.888663393561911 ], [ 75.167577179530738, 14.888744493851489 ], [ 75.167572911377547, 14.888763786547496 ], [ 75.167511295427914, 14.88888761486692 ], [ 75.167481205068782, 14.888941606072128 ], [ 75.167430442284228, 14.889048709109661 ], [ 75.167337118768899, 14.889216573495226 ], [ 75.167310762895525, 14.889266973466851 ], [ 75.167297661885073, 14.88928885840917 ], [ 75.167245503204697, 14.889383565920447 ], [ 75.167157941828094, 14.889556528927534 ], [ 75.167087005909721, 14.889693236901026 ], [ 75.167066771694692, 14.889730059609631 ], [ 75.167030486753717, 14.889818064050301 ], [ 75.16696892009189, 14.889900437000263 ], [ 75.16696503269209, 14.889915660829539 ], [ 75.166932161238336, 14.890044379277379 ], [ 75.166881284777673, 14.890200154203679 ], [ 75.166852532540105, 14.890285170412195 ], [ 75.166833554480718, 14.890339215826851 ], [ 75.166788398413416, 14.890516915291753 ], [ 75.166757111171705, 14.890593920947133 ], [ 75.166733916304963, 14.890684670693858 ], [ 75.166684145820597, 14.890828258022964 ], [ 75.166576187296727, 14.891211169655392 ], [ 75.166545064760939, 14.891456833024648 ], [ 75.166521447255832, 14.891620930443301 ], [ 75.166514464885182, 14.891665278476998 ], [ 75.166500760367626, 14.891841031038545 ], [ 75.166482098268631, 14.891952089601226 ], [ 75.166465791010111, 14.892104225509748 ], [ 75.16644948279945, 14.892256360511873 ], [ 75.166433175496778, 14.892408495510363 ], [ 75.166413640622267, 14.892563541428798 ], [ 75.166407577504458, 14.892617355009115 ], [ 75.166385229401641, 14.892846410362369 ], [ 75.166366506347984, 14.892947276716729 ], [ 75.166350971601332, 14.893070432934694 ], [ 75.166338699685767, 14.893173660706443 ], [ 75.166320725076915, 14.893401872935028 ], [ 75.16629355678559, 14.893453420706354 ], [ 75.16630314630568, 14.893616516622847 ], [ 75.166296480286874, 14.893639513432472 ], [ 75.166308705541326, 14.893840180277934 ], [ 75.166309555409484, 14.893856085079744 ], [ 75.166306105957403, 14.893930912304867 ], [ 75.166305506866252, 14.893935291431024 ], [ 75.166282709801095, 14.89410173260241 ], [ 75.166527603234357, 14.894132988631899 ], [ 75.166703821507639, 14.894098402418875 ], [ 75.167902982040417, 14.893742182317656 ], [ 75.168060946115546, 14.893759436661014 ], [ 75.168688163935798, 14.893827925633703 ], [ 75.170272347878296, 14.893922629848438 ], [ 75.170939008461701, 14.893962476745592 ], [ 75.171849972855881, 14.894197667132151 ], [ 75.171991135279342, 14.89424700980547 ], [ 75.173060161836872, 14.894620639674134 ], [ 75.172998476331145, 14.895208742562136 ], [ 75.172972403357036, 14.895301819567139 ], [ 75.173456166368467, 14.895122477409172 ], [ 75.173720427338438, 14.895069598280198 ], [ 75.174114781409926, 14.894990687874554 ], [ 75.174158105532868, 14.894982018733543 ], [ 75.174158688383315, 14.894913648168059 ], [ 75.175117674858214, 14.894669728898133 ], [ 75.175555982225148, 14.894655900411546 ], [ 75.17646120351003, 14.894663104661449 ], [ 75.176993610275233, 14.894684345300318 ], [ 75.177456086661124, 14.894702796276247 ], [ 75.177938277054565, 14.894684301932225 ], [ 75.177958707987429, 14.894611353731575 ], [ 75.177999049813891, 14.894234126787337 ], [ 75.178086016651662, 14.893436306914326 ], [ 75.178134640542666, 14.892857375289882 ], [ 75.178184367949115, 14.892858991195569 ], [ 75.178419468152654, 14.89286662541827 ], [ 75.178410359339168, 14.892804992711254 ], [ 75.17838298246383, 14.892619774563851 ], [ 75.178396683218267, 14.892618329955896 ], [ 75.178476948549815, 14.89260986451715 ], [ 75.178831954907508, 14.892572424590552 ], [ 75.179054490243018, 14.89254895422733 ], [ 75.179479134193173, 14.89235701312788 ], [ 75.179471264952426, 14.892242148082062 ], [ 75.179488103251018, 14.892058581644818 ], [ 75.179523782304798, 14.892034987623544 ], [ 75.179828143885842, 14.891833718131638 ], [ 75.179797636581057, 14.891179880636249 ], [ 75.179752989910028, 14.890610299891383 ], [ 75.180303876437037, 14.890651357730869 ], [ 75.180334786995417, 14.890652620897201 ], [ 75.180385917209222, 14.890654711702513 ], [ 75.180400494410122, 14.890437461879188 ], [ 75.180410978755432, 14.890225404964278 ], [ 75.180426908140319, 14.890136085415026 ], [ 75.180431313841652, 14.89011138027703 ], [ 75.180590968907808, 14.890104913026727 ], [ 75.180624605188925, 14.88936947543003 ], [ 75.180585982492687, 14.889270413458799 ], [ 75.18056693065202, 14.888817392673419 ], [ 75.180522914321642, 14.888512041914545 ], [ 75.180585067693286, 14.888515727924993 ], [ 75.181753886308243, 14.888585021696693 ], [ 75.181806403293436, 14.88850524142485 ], [ 75.18226951135658, 14.887801716472485 ], [ 75.182316962812621, 14.887779142461888 ], [ 75.182396909400623, 14.887741110040123 ], [ 75.182448937675403, 14.887716359742866 ], [ 75.182452937855317, 14.887697293931074 ], [ 75.182458118648697, 14.887672608025925 ], [ 75.182464905059348, 14.887640259264597 ], [ 75.182573348607605, 14.887123507338398 ], [ 75.182472556718352, 14.885878204832213 ], [ 75.182475963892699, 14.885746610829525 ], [ 75.182482122778168, 14.885508796786526 ], [ 75.182483810253601, 14.885443744345386 ], [ 75.182546259945056, 14.884636192672923 ], [ 75.182560474639132, 14.883860805710576 ], [ 75.182565342096154, 14.883764385623214 ], [ 75.182582398826639, 14.883426610603079 ], [ 75.182585095601993, 14.883243040622755 ], [ 75.182590007236627, 14.882908629570075 ], [ 75.182595374355131, 14.882543242715521 ], [ 75.182597104738903, 14.882425396373169 ], [ 75.182578901933496, 14.881783426523402 ], [ 75.182585863331113, 14.881241174609668 ], [ 75.18260082202714, 14.881214252230359 ], [ 75.182617594512109, 14.88118406450322 ], [ 75.182648193214803, 14.881128990486619 ], [ 75.182679987510696, 14.881069590164252 ], [ 75.183096484739707, 14.880386700054492 ], [ 75.182343450352292, 14.880086808262663 ], [ 75.182320790621304, 14.880071834015997 ], [ 75.181883787054019, 14.879783053303626 ], [ 75.18172103495985, 14.879656724551278 ], [ 75.181682916706279, 14.879638982289316 ], [ 75.181622104871991, 14.879610129071059 ], [ 75.181453921757409, 14.87949898926054 ], [ 75.181424740625346, 14.879478381032152 ], [ 75.180983116573373, 14.879166499927425 ], [ 75.180803167026454, 14.879072487678753 ], [ 75.180766829111633, 14.879053503394511 ], [ 75.180210309358827, 14.878870064065589 ], [ 75.179798183624101, 14.87883832248775 ], [ 75.179765078800429, 14.878835772566354 ], [ 75.17964053915729, 14.878800859542581 ], [ 75.179694544002544, 14.878665084952381 ], [ 75.18011833222873, 14.877848367039148 ], [ 75.180050779660021, 14.877395173146031 ], [ 75.179934283859581, 14.87712908182055 ], [ 75.179950275191274, 14.876670187806218 ], [ 75.179958724387106, 14.876427714653838 ], [ 75.179997945849991, 14.876313712136088 ], [ 75.18006330877968, 14.876081260891915 ], [ 75.180123763824, 14.875831725444753 ], [ 75.180252066595301, 14.875302142474297 ], [ 75.180487778344869, 14.874801360976429 ], [ 75.18074333110934, 14.873959182621922 ], [ 75.180746764178082, 14.873912260149671 ], [ 75.181449608484499, 14.873650192591064 ], [ 75.181545817418368, 14.873614317523771 ], [ 75.182473212849061, 14.874172768541275 ], [ 75.182797135772461, 14.874367825178313 ], [ 75.183022599356164, 14.874547784091739 ], [ 75.183232168100105, 14.874715049747618 ], [ 75.183267894674103, 14.874711943565329 ], [ 75.183335070005839, 14.874706109815046 ], [ 75.183671627837313, 14.874250426543876 ], [ 75.184464061043187, 14.873332044249567 ], [ 75.184553832931172, 14.873237454457659 ], [ 75.185862766142634, 14.872433873617533 ], [ 75.186308380346247, 14.872368434049019 ], [ 75.186794323206726, 14.8723185986112 ], [ 75.187320096269673, 14.872264677338745 ], [ 75.187346153892676, 14.872262072975195 ], [ 75.188329031378288, 14.872163844220548 ], [ 75.188347219717471, 14.872095780954307 ], [ 75.188743417654294, 14.870613084903146 ], [ 75.189076936104144, 14.869056115753214 ], [ 75.189330886650083, 14.869059888237731 ], [ 75.190334863287774, 14.869074798919851 ], [ 75.191197106705999, 14.869151012021341 ], [ 75.191698523392503, 14.869185156898457 ], [ 75.191728361648913, 14.869187188873138 ], [ 75.193445449383319, 14.869278120496226 ], [ 75.194088951114679, 14.869311793185426 ], [ 75.19412358223417, 14.86931360561346 ], [ 75.194152218210917, 14.869315254938746 ], [ 75.194253848369627, 14.869321110896855 ], [ 75.194516704785755, 14.869336253083306 ], [ 75.195286790332446, 14.869331353487309 ], [ 75.196023041042537, 14.869340780803448 ], [ 75.196438078423654, 14.869348237701743 ], [ 75.196488661649639, 14.869332728389434 ], [ 75.198703683643075, 14.868507135480392 ], [ 75.199254571329462, 14.868270959856268 ], [ 75.200498577909812, 14.867737626327511 ], [ 75.200569942475212, 14.867707030671241 ], [ 75.200629304210636, 14.867681580027694 ], [ 75.20068587546892, 14.867657327065936 ], [ 75.200735453363265, 14.867636071061913 ], [ 75.200769560578109, 14.867621448605096 ], [ 75.201162079891034, 14.867584654178293 ], [ 75.201215379073091, 14.867579657368985 ], [ 75.201271497464546, 14.867574396782723 ], [ 75.201307279049274, 14.86757104273963 ], [ 75.201340991538459, 14.867567883084854 ], [ 75.201370131754317, 14.867565151471712 ], [ 75.201801993378581, 14.867524666955969 ], [ 75.201865144428069, 14.867518747262597 ], [ 75.201928301050586, 14.867512826642869 ], [ 75.201980629784856, 14.867507920922645 ], [ 75.20208671311741, 14.8674979761887 ], [ 75.202250210065685, 14.867418274344686 ], [ 75.202301186227416, 14.867393425574733 ], [ 75.202301570903217, 14.867393237177071 ], [ 75.204994121615016, 14.866080643978092 ], [ 75.205068359564365, 14.866044452333636 ], [ 75.205382476982777, 14.865383688611654 ], [ 75.205402431705934, 14.865341712875122 ], [ 75.205417607641778, 14.865309787182753 ], [ 75.205522333367526, 14.865089489378679 ], [ 75.205554965545019, 14.865020847671049 ], [ 75.205577559606112, 14.864973317303352 ], [ 75.205595398092441, 14.864935793564218 ], [ 75.206195581460662, 14.863673252111935 ], [ 75.206254844542528, 14.863653460862967 ], [ 75.206749194098848, 14.863488367300011 ], [ 75.206842444562497, 14.863457224706332 ], [ 75.206898951280493, 14.863438353465215 ], [ 75.20705040618482, 14.863387772018296 ], [ 75.207147119169207, 14.863317572349917 ], [ 75.207187147765396, 14.863288516427923 ], [ 75.207247747534723, 14.863244529240168 ], [ 75.207318735514036, 14.863193003076681 ], [ 75.207341185911801, 14.863176707591398 ], [ 75.207989891137558, 14.862705836754422 ], [ 75.208282566752573, 14.862159758171568 ], [ 75.208315653233186, 14.862098026816318 ], [ 75.208229134479225, 14.862037889411637 ], [ 75.208258649070814, 14.862000869327028 ], [ 75.209302618693314, 14.86051419208815 ], [ 75.209497778902815, 14.86022631321241 ], [ 75.209778989720093, 14.859579146194921 ], [ 75.209834616659364, 14.859361886613968 ], [ 75.209976676314142, 14.858898186520632 ], [ 75.210787586701471, 14.857253981953944 ], [ 75.211701026545342, 14.855999318837702 ], [ 75.212669859325985, 14.854691638756698 ], [ 75.21305621942885, 14.854152598122781 ], [ 75.213036662913979, 14.854204743807376 ], [ 75.213306903079655, 14.8544075025785 ], [ 75.213610372572276, 14.854627958290491 ], [ 75.213653441828768, 14.854659246310534 ], [ 75.213722029325865, 14.854709071448424 ], [ 75.2142197694739, 14.85438242266647 ], [ 75.216445510403787, 14.853679571037466 ], [ 75.217472635293433, 14.853580329679721 ], [ 75.219109646159126, 14.853690962450328 ], [ 75.220574057510262, 14.853572861908415 ], [ 75.220815866216014, 14.853460450819755 ], [ 75.222889759794867, 14.852826936495658 ], [ 75.223312952070088, 14.852767215707853 ], [ 75.224851058688998, 14.852397438130012 ], [ 75.225126018689338, 14.852147274163345 ], [ 75.225129798637838, 14.852136980574697 ], [ 75.225340509822729, 14.852105328467594 ], [ 75.225736156830649, 14.852044367181392 ], [ 75.226432852155611, 14.852428274462575 ], [ 75.227142209450847, 14.852832909581704 ], [ 75.227605190146349, 14.853234267761493 ], [ 75.227989330849212, 14.853635906638448 ], [ 75.228448044340823, 14.854127299454223 ], [ 75.228559167526186, 14.854316636327724 ], [ 75.228976954529784, 14.8549979084863 ], [ 75.229394740858638, 14.855687489650565 ], [ 75.229812526281165, 14.856379839323095 ], [ 75.230445894928565, 14.856748729157449 ], [ 75.231145706229555, 14.857193867783613 ], [ 75.231898910053005, 14.857832486984906 ], [ 75.231918215695543, 14.857866290005385 ], [ 75.232205833177758, 14.85844726307371 ], [ 75.232593320061852, 14.859210776515814 ], [ 75.232700682551439, 14.859422326726445 ], [ 75.233122132295662, 14.860260101420025 ], [ 75.233195488695401, 14.860490642715817 ], [ 75.233575671939903, 14.861684940336026 ], [ 75.233614371190058, 14.861841861978819 ], [ 75.233853205199352, 14.862810314304152 ], [ 75.234042429092085, 14.863574321385475 ], [ 75.234110822821492, 14.863830783248744 ], [ 75.234153614940865, 14.863991232108493 ], [ 75.234404503451799, 14.864675753770907 ], [ 75.234558331764106, 14.86514379880917 ], [ 75.234850074685156, 14.866412320543395 ], [ 75.235210955270475, 14.866407388007399 ], [ 75.235540930403573, 14.866134639063779 ], [ 75.235983867355301, 14.865793063565711 ], [ 75.236364195885287, 14.865306576759934 ], [ 75.236569052190475, 14.86501186729531 ], [ 75.236763718098786, 14.864754869338341 ], [ 75.237377221871213, 14.86479999109323 ], [ 75.237494433144278, 14.864806491720513 ], [ 75.237937278232508, 14.864831047750412 ], [ 75.239141620289246, 14.864797465999798 ], [ 75.239246981918228, 14.864794378959516 ], [ 75.239441693685478, 14.864788679822608 ], [ 75.240415984806958, 14.864760153772984 ], [ 75.241180515474753, 14.864714295809794 ], [ 75.241404694499508, 14.86470084824265 ], [ 75.241386123818614, 14.864208518420135 ], [ 75.241415654398153, 14.863977461337683 ], [ 75.241494079163459, 14.863363838564569 ], [ 75.241521324778432, 14.863252476662717 ], [ 75.241592213414563, 14.862962738909017 ], [ 75.241615759100526, 14.862870476040788 ], [ 75.241714739608526, 14.862482612750423 ], [ 75.241725440641773, 14.862440687078468 ], [ 75.242353820173918, 14.862580800059012 ], [ 75.242520030640563, 14.862606340674136 ], [ 75.242552604332303, 14.862312990414503 ], [ 75.242636370993438, 14.861522635545231 ], [ 75.242793264105742, 14.861528622325492 ], [ 75.243181601872891, 14.861543440585477 ], [ 75.243282436111826, 14.861545624855371 ], [ 75.244624219842976, 14.861574651531646 ], [ 75.244640605791844, 14.861433097581479 ], [ 75.244700261309958, 14.860917851838206 ], [ 75.244744033344702, 14.860539760013838 ], [ 75.244874047526011, 14.860568836484337 ], [ 75.245851945774547, 14.860787557892305 ], [ 75.246892336856888, 14.861026859090366 ], [ 75.247273946017216, 14.861114628925154 ], [ 75.248691677644686, 14.861390916352727 ], [ 75.249702758680797, 14.861700427395673 ], [ 75.250622755179847, 14.861780230690396 ], [ 75.250639645731169, 14.86169269374496 ], [ 75.250708095728413, 14.861337876069117 ], [ 75.250771943798824, 14.861175225480247 ], [ 75.250868746401991, 14.861170185045802 ], [ 75.251599919867772, 14.861132104509332 ], [ 75.252457716912673, 14.861087427041429 ], [ 75.253069019469038, 14.861104065602445 ], [ 75.254797812012214, 14.861135257917741 ], [ 75.25491514952472, 14.861192084942953 ], [ 75.254839068710879, 14.860726218986043 ], [ 75.254818652099615, 14.860623400916957 ], [ 75.254681322358607, 14.859629478346276 ], [ 75.254628247038468, 14.8592736966425 ], [ 75.254663333227199, 14.859273026666653 ], [ 75.254666968144264, 14.859272538929254 ], [ 75.254666102058991, 14.85926482859742 ], [ 75.254716022487798, 14.859225647187287 ], [ 75.256073259181804, 14.859070811941509 ], [ 75.25686935137999, 14.858804249271111 ], [ 75.257348027098672, 14.858643967091048 ], [ 75.257561138327645, 14.858580694384894 ], [ 75.25784855215889, 14.858484494810089 ], [ 75.257881300254553, 14.858473534398442 ], [ 75.258134223176, 14.858450416623166 ], [ 75.25813613772597, 14.858244323466172 ], [ 75.258210092974323, 14.85819367167781 ], [ 75.258355239280007, 14.858094262570935 ], [ 75.258962495794236, 14.858227252037752 ], [ 75.259064627016812, 14.858249617974874 ], [ 75.25933815160613, 14.858296211783799 ], [ 75.260167064513922, 14.858435546915759 ], [ 75.260444103170158, 14.858485171474694 ], [ 75.261531597160158, 14.858642921935694 ], [ 75.262619449909892, 14.858807085200336 ], [ 75.263654658489742, 14.858986921581545 ], [ 75.264671945730669, 14.859145177975616 ], [ 75.265725476914497, 14.859314955295961 ], [ 75.265732124823217, 14.859296496212957 ], [ 75.265826237225568, 14.859311443721575 ], [ 75.266012767957491, 14.858963554473387 ], [ 75.266219544189497, 14.858610733113156 ], [ 75.26663215020497, 14.858047503357406 ], [ 75.266738439268423, 14.858070829364804 ], [ 75.266844558786033, 14.857938640509634 ], [ 75.266896521958657, 14.857947370051889 ], [ 75.267094255123027, 14.857753459378085 ], [ 75.267370126411905, 14.857319909555329 ], [ 75.267693148042255, 14.856828512762858 ], [ 75.26781731664984, 14.856854318258124 ], [ 75.270748723590685, 14.857436034887748 ], [ 75.270930055560925, 14.857575382788339 ], [ 75.271647123243312, 14.857827317650644 ], [ 75.27305263560396, 14.858321124553779 ], [ 75.27327741445184, 14.858400095685475 ], [ 75.274261254999516, 14.858644969936748 ], [ 75.274683888300828, 14.858750158966824 ], [ 75.274538467885165, 14.859879188794398 ], [ 75.274381647413819, 14.860995408860855 ], [ 75.274246664578826, 14.862063706656418 ], [ 75.274325833821919, 14.862079180228701 ], [ 75.274209962664884, 14.86295202583773 ], [ 75.274169633622563, 14.863292579976639 ], [ 75.274153419025239, 14.86342951453886 ], [ 75.274037013220322, 14.864008534607793 ], [ 75.273902819901025, 14.864605661018894 ], [ 75.273731830507003, 14.865357818930196 ], [ 75.273704363086225, 14.865478643605911 ], [ 75.273572213637692, 14.866020108536219 ], [ 75.273551723206538, 14.866106009399484 ], [ 75.273390712920403, 14.866780982666576 ], [ 75.27332946112675, 14.86701476993597 ], [ 75.273285432621691, 14.867182819503185 ], [ 75.27299801751748, 14.867752502101332 ], [ 75.2729062102092, 14.868191110641508 ], [ 75.272801664329094, 14.868591982562519 ], [ 75.272793727893742, 14.868613788621328 ], [ 75.272581595608031, 14.869196661887482 ], [ 75.272538573643544, 14.869317188426535 ], [ 75.272496308446989, 14.869435590270895 ], [ 75.272621993489494, 14.869453201661237 ], [ 75.273055025001923, 14.869513878120499 ], [ 75.274361675080442, 14.869740990347507 ], [ 75.276313193264514, 14.870042455182951 ], [ 75.276356943231789, 14.870049209666067 ], [ 75.277610663122545, 14.870169798826963 ], [ 75.279526325149988, 14.870379510102691 ], [ 75.280938187273264, 14.870479805100407 ], [ 75.280955905227231, 14.870480337642849 ], [ 75.280986925155531, 14.870483267911434 ], [ 75.281930181255859, 14.87057223346946 ], [ 75.283052044986192, 14.870696684225058 ], [ 75.283149449239872, 14.87071423970764 ], [ 75.283808955357173, 14.870833104954158 ], [ 75.284457114093655, 14.870947399354085 ], [ 75.285410846047185, 14.871143669652019 ], [ 75.285976419237358, 14.871257738727261 ], [ 75.286770106006898, 14.871081958001451 ], [ 75.286829383372009, 14.871075845298261 ], [ 75.286569599818861, 14.872470088005029 ], [ 75.286520883402545, 14.872861537358641 ], [ 75.286271557778448, 14.87406962478936 ], [ 75.286234357951827, 14.874249872835835 ], [ 75.286229831751143, 14.874271807078602 ], [ 75.286167739888057, 14.874537684898357 ], [ 75.285937163053646, 14.875525007784779 ], [ 75.285842910996053, 14.875927745574876 ], [ 75.285812879292664, 14.876056080723227 ], [ 75.285811645574739, 14.876060941920015 ], [ 75.285760691276508, 14.8762623942158 ], [ 75.285380656799447, 14.877764852878546 ], [ 75.285258513005658, 14.878292874093662 ], [ 75.285141643182172, 14.878798091222219 ], [ 75.28511503194666, 14.878944964660779 ], [ 75.28499588271707, 14.879615661569643 ], [ 75.284933765986707, 14.879965360217135 ], [ 75.284929650795178, 14.880333050273473 ], [ 75.284897500556042, 14.883209260977718 ], [ 75.284892490753521, 14.883657453283341 ], [ 75.284874121193639, 14.88388434931078 ], [ 75.284790219993837, 14.884327981526669 ], [ 75.284677761119994, 14.886156448756502 ], [ 75.284605767983379, 14.886355088752394 ], [ 75.28437889613032, 14.886981061560478 ], [ 75.284399600641635, 14.88709079901319 ], [ 75.284449059380009, 14.887074643391843 ], [ 75.284647735249905, 14.887009745808014 ], [ 75.284589610132869, 14.88765573628163 ], [ 75.284394224225025, 14.888551139002056 ], [ 75.284602506602226, 14.888886263691868 ], [ 75.284566185332352, 14.889602093014345 ], [ 75.284469769856869, 14.890298747204092 ], [ 75.284413174205511, 14.890707628739507 ], [ 75.284593863970699, 14.891468626181311 ], [ 75.284442032455601, 14.891935613543181 ], [ 75.284128236681084, 14.892300711796551 ], [ 75.283936766776932, 14.89289393077396 ], [ 75.283961813089917, 14.893083658602322 ], [ 75.283972298769356, 14.893583029034902 ], [ 75.283919066848242, 14.893829272810102 ], [ 75.283389799732277, 14.894389277941332 ], [ 75.283310756068687, 14.89459747911777 ], [ 75.2833948311727, 14.894680045342719 ], [ 75.283393716517494, 14.89490125180261 ], [ 75.283280784601885, 14.89538739016062 ], [ 75.282998673989908, 14.895910651784092 ], [ 75.282978254080803, 14.896093846577296 ], [ 75.283141717851848, 14.896111077056583 ], [ 75.283099814067739, 14.896487007353764 ], [ 75.282949068888314, 14.896725755889598 ], [ 75.283032316152614, 14.896972649110822 ], [ 75.283375505194599, 14.897227106765969 ], [ 75.28356077917519, 14.897364473106553 ], [ 75.283417786985098, 14.897865675132001 ], [ 75.283252468875361, 14.898427412064303 ], [ 75.283025630770766, 14.899198187156612 ], [ 75.282713536605542, 14.899613093004277 ], [ 75.282742020133327, 14.899698943042225 ], [ 75.282706053341997, 14.899744292027862 ], [ 75.282671867691732, 14.90008169526004 ], [ 75.282638819213361, 14.900407855234171 ], [ 75.283149879286128, 14.900444903499238 ], [ 75.283378853323754, 14.900461498557727 ], [ 75.283487085845209, 14.900546020240393 ], [ 75.283515497029384, 14.900560617382016 ], [ 75.287507653088554, 14.900660443067929 ], [ 75.287565831193476, 14.900665541629115 ], [ 75.287625190539828, 14.902296528886257 ], [ 75.287624863101499, 14.902634650518273 ], [ 75.287699887401331, 14.904993171649567 ], [ 75.287735063419731, 14.906098952569936 ], [ 75.287770720194018, 14.907219830672387 ], [ 75.287781880423324, 14.907570640610837 ], [ 75.287879897114237, 14.908971974175277 ], [ 75.287881596570358, 14.909066274476292 ], [ 75.287882312287863, 14.909105987051134 ], [ 75.287893143540373, 14.909171333179476 ], [ 75.288060536773074, 14.910181240831223 ], [ 75.288060543477442, 14.910184183733312 ], [ 75.288062886038134, 14.911308312886559 ], [ 75.288063256451181, 14.911486089513886 ], [ 75.287932346562215, 14.912473824280918 ], [ 75.287908380196001, 14.912654648544052 ], [ 75.287786607613867, 14.913517707110447 ], [ 75.287745131060774, 14.913811670484943 ], [ 75.287680841800537, 14.914100537963133 ], [ 75.287678123525183, 14.914112750611313 ], [ 75.287680254632832, 14.914119772943456 ], [ 75.287762959018536, 14.914392383143676 ], [ 75.287758848441257, 14.914514099091917 ], [ 75.287749368709527, 14.914794879036531 ], [ 75.287743954895305, 14.914853201558046 ], [ 75.287773674612637, 14.915066424321786 ], [ 75.287743797662358, 14.915270695264651 ], [ 75.287701969048243, 14.915556776016887 ], [ 75.287605908514493, 14.915887196018033 ], [ 75.287600098019894, 14.915923429580946 ], [ 75.287444575480976, 14.916461586905887 ], [ 75.287426719878169, 14.916523375156938 ], [ 75.286996142336491, 14.917588325372773 ], [ 75.286935591313394, 14.917738086403142 ], [ 75.286599346721559, 14.918535784625069 ], [ 75.286580974582549, 14.918579951260938 ], [ 75.286411266017751, 14.918987958621674 ], [ 75.286347864146151, 14.9191403775536 ], [ 75.286198708820521, 14.919768900871436 ], [ 75.286070882369728, 14.920534382336136 ], [ 75.286077020876007, 14.920642583277042 ], [ 75.286104870527197, 14.92065368992311 ], [ 75.285838257662263, 14.921171514751116 ], [ 75.285494227970901, 14.921839687826907 ], [ 75.28532109362061, 14.922058389608502 ], [ 75.285263024955, 14.922176592417241 ], [ 75.28479908071499, 14.923120922515002 ], [ 75.284781598388676, 14.923162097067431 ], [ 75.284751700485231, 14.9232325443666 ], [ 75.284717184503165, 14.923313887523781 ], [ 75.284496387513855, 14.923834123813327 ], [ 75.284484778290107, 14.923861469770124 ], [ 75.284367782013021, 14.924133449481218 ], [ 75.284362897412919, 14.924144615998749 ], [ 75.28433197175508, 14.924222119360467 ], [ 75.284181598026606, 14.924598997474497 ], [ 75.284140835957643, 14.924676822235785 ], [ 75.283937834019767, 14.925064441379245 ], [ 75.283749609691796, 14.925414824855839 ], [ 75.283630838080867, 14.925629063915537 ], [ 75.28355412750841, 14.925767436784934 ], [ 75.283332184239768, 14.926193860146979 ], [ 75.283178583578305, 14.926552897891325 ], [ 75.283037489351258, 14.926918038229454 ], [ 75.283009371764223, 14.926987625988083 ], [ 75.282927696596843, 14.927189800328051 ], [ 75.282785300596942, 14.927495131931233 ], [ 75.282691690466422, 14.927703714867903 ], [ 75.282676952553743, 14.927736555311844 ], [ 75.282479037162972, 14.928033854418484 ], [ 75.282309713951832, 14.928427916659247 ], [ 75.282301318921895, 14.928482496927089 ], [ 75.282193414987916, 14.929184021118179 ], [ 75.282173726892694, 14.929312039709968 ], [ 75.281930021155972, 14.930003462259625 ], [ 75.281937070850745, 14.930073699082902 ], [ 75.284607092903272, 14.930678738339484 ], [ 75.28556367544266, 14.930946527544576 ], [ 75.285861373608924, 14.931009625662002 ], [ 75.286119133859486, 14.931075806674267 ], [ 75.288183550514375, 14.931605826228793 ], [ 75.288278557356008, 14.93163021532694 ], [ 75.289655621278328, 14.931919887087092 ], [ 75.289856551816669, 14.931962154987676 ], [ 75.290571536867347, 14.932105682322433 ], [ 75.290652567350207, 14.932120363489101 ], [ 75.292199597602021, 14.932432960897815 ], [ 75.292263185263693, 14.932445810334599 ], [ 75.292903197529029, 14.932625877445972 ], [ 75.293494171509124, 14.932832680780441 ], [ 75.293535279956984, 14.932851119034012 ], [ 75.293694640158122, 14.932922598304048 ], [ 75.29393870429378, 14.932856124992931 ], [ 75.294049205996956, 14.933115866156653 ], [ 75.294003775403823, 14.933600636558785 ], [ 75.293441700409289, 14.934216740859499 ], [ 75.292999721475624, 14.93489195394648 ], [ 75.292764054746854, 14.935584862401264 ], [ 75.292854697337773, 14.93574873698495 ], [ 75.293079397646991, 14.936154954802676 ], [ 75.293137966305949, 14.936481339393403 ], [ 75.293282362967204, 14.936841582469986 ], [ 75.293209450190687, 14.937085908873721 ], [ 75.293065479593992, 14.937216835195567 ], [ 75.292676432741999, 14.937624717186512 ], [ 75.292367510498551, 14.938083634760087 ], [ 75.292028095822744, 14.938201956474821 ], [ 75.291118931397648, 14.938518892693347 ], [ 75.290747350884516, 14.938642462107152 ], [ 75.29042606887981, 14.938837356147824 ], [ 75.290005647280253, 14.939251085195828 ], [ 75.289998765761993, 14.939848833153029 ], [ 75.290020268671597, 14.940003292429482 ], [ 75.290038982596073, 14.940497018088831 ], [ 75.290244293054428, 14.940715402001313 ], [ 75.291678353098334, 14.94114865309855 ], [ 75.291806310141624, 14.941358299225939 ], [ 75.291754673598305, 14.943080579129205 ], [ 75.291648241475386, 14.943723925595062 ], [ 75.291696866184125, 14.944317844035245 ], [ 75.291623879832528, 14.945222964645971 ], [ 75.291327156140113, 14.945223794293243 ], [ 75.291325095629887, 14.945210149274146 ], [ 75.291331046998067, 14.945074919235307 ], [ 75.29130467817879, 14.945074923920439 ], [ 75.290674816199754, 14.94507504068874 ], [ 75.287964627301108, 14.945075523807809 ], [ 75.287083137931887, 14.945075672785604 ], [ 75.285712620509912, 14.945047497677576 ], [ 75.284727383890399, 14.944954780587729 ], [ 75.283288750255366, 14.944828472344438 ], [ 75.283251242116165, 14.944620120639552 ], [ 75.283158157091094, 14.944615771470083 ], [ 75.283062590787765, 14.944621160874689 ], [ 75.282914166204819, 14.944629535987261 ], [ 75.282914219210483, 14.944628826189295 ], [ 75.282913914133545, 14.944628777744644 ], [ 75.278851344362579, 14.943986484385603 ], [ 75.278807191277139, 14.943979503316672 ], [ 75.277808921447843, 14.943799760747115 ], [ 75.277627003596876, 14.943767005023126 ], [ 75.277485601513092, 14.943766271740989 ], [ 75.27707054569575, 14.94376412265966 ], [ 75.276885082986752, 14.943748660995043 ], [ 75.276665779846041, 14.943730379521252 ], [ 75.276234934118477, 14.943754415927909 ], [ 75.275540618116679, 14.94379315025383 ], [ 75.274358802105354, 14.943832304623403 ], [ 75.273466431370807, 14.943903025695857 ], [ 75.273176237167718, 14.94392602274897 ], [ 75.2730531080567, 14.943935780681732 ], [ 75.272977635080736, 14.943950504004089 ], [ 75.272777014008099, 14.943989644159856 ], [ 75.271973257297418, 14.943993682484631 ], [ 75.269463101596031, 14.944081449789717 ], [ 75.26941879019887, 14.944080049117044 ], [ 75.269091582959575, 14.944069700048448 ], [ 75.268928890697225, 14.944035790924675 ], [ 75.268852615389378, 14.944579177283563 ], [ 75.268814807121871, 14.944848519802383 ], [ 75.268765557998591, 14.945017021345093 ], [ 75.268621420567001, 14.945510153316974 ], [ 75.268557533139543, 14.945728711359958 ], [ 75.268519595731249, 14.945851230547696 ], [ 75.268491577948339, 14.945941700634574 ], [ 75.26847496154565, 14.946037816199123 ], [ 75.268429628942158, 14.946299999621004 ], [ 75.26833977971414, 14.946513601880117 ], [ 75.268054023606936, 14.947192936569866 ], [ 75.268008189612246, 14.947280230531531 ], [ 75.26771589113126, 14.947746422031459 ], [ 75.267534097737368, 14.94798759789972 ], [ 75.267489312461905, 14.948076496243235 ], [ 75.267062669593528, 14.948923355029406 ], [ 75.266932561028085, 14.949091947047087 ], [ 75.266646077219974, 14.949392319604813 ], [ 75.266498885349733, 14.94952124052295 ], [ 75.266080445999464, 14.94986676695963 ], [ 75.266074843217226, 14.949871395338345 ], [ 75.265920646180376, 14.950085510979942 ], [ 75.265597423424538, 14.950534327885956 ], [ 75.265516263354968, 14.950647022033433 ], [ 75.265448840176077, 14.950740644088281 ], [ 75.265358499483099, 14.950920656838418 ], [ 75.265248697821548, 14.951139443564827 ], [ 75.265208074807603, 14.951220388523994 ], [ 75.265201750584296, 14.951241121873831 ], [ 75.265140661273804, 14.951584887923104 ], [ 75.265087866362009, 14.951881975548151 ], [ 75.265003949650236, 14.952354188084136 ], [ 75.264981574201713, 14.952480097131735 ], [ 75.264917516380578, 14.952584854762808 ], [ 75.264890361677828, 14.952515103702996 ], [ 75.264182001052788, 14.952314124927735 ], [ 75.26356005031991, 14.952139201287661 ], [ 75.262408613496845, 14.951781987115913 ], [ 75.262332695433585, 14.951853474358565 ], [ 75.26194440736846, 14.951966346197937 ], [ 75.261407055657088, 14.95216201631659 ], [ 75.261637369558599, 14.953164059158002 ], [ 75.26058753931386, 14.953668329830027 ], [ 75.259303828437154, 14.954064577843992 ], [ 75.259306675754573, 14.954004779835264 ], [ 75.259340685948899, 14.953290782385233 ], [ 75.259215911536444, 14.953280647821332 ], [ 75.258522459932834, 14.953224326058168 ], [ 75.258304834793023, 14.953202456642591 ], [ 75.256895078805272, 14.953163802533474 ], [ 75.256894519523087, 14.953265078011473 ], [ 75.25688434271666, 14.953711865095968 ], [ 75.256916866516562, 14.95453256112336 ], [ 75.256865573658573, 14.95453586551011 ], [ 75.255448549589516, 14.954630640601035 ], [ 75.255439942147646, 14.954630898861305 ], [ 75.255457748635465, 14.954692585039032 ], [ 75.255520993553318, 14.954911686194261 ], [ 75.255512551725261, 14.955392029423304 ], [ 75.255460326753166, 14.955708014896034 ], [ 75.25517075080613, 14.956720020135789 ], [ 75.254771583085827, 14.957666933205466 ], [ 75.254706549565952, 14.958525611729128 ], [ 75.254692280184941, 14.958904827535145 ], [ 75.25461330282927, 14.960642311760878 ], [ 75.254612236680387, 14.960679818484742 ], [ 75.254542535179965, 14.96069113892136 ], [ 75.253918540893309, 14.960761772784112 ], [ 75.253430642477412, 14.960816998716442 ], [ 75.253406714204232, 14.960819707797437 ], [ 75.252226759561964, 14.960892237347341 ], [ 75.252084544350893, 14.960900979034045 ], [ 75.251127168307619, 14.960930388251171 ], [ 75.250056608120076, 14.961138643593824 ], [ 75.249966696793294, 14.961143757207005 ], [ 75.249459639635319, 14.961172596300154 ], [ 75.248325868638815, 14.961237078221417 ], [ 75.247864392549559, 14.961263321808447 ], [ 75.246767217180022, 14.961346152365206 ], [ 75.246646648158162, 14.961342892220266 ], [ 75.245968281791875, 14.961375323452847 ], [ 75.244475002474459, 14.96151121086905 ], [ 75.24355115420515, 14.961577793108452 ], [ 75.242656130577359, 14.961571670619223 ], [ 75.242360095434051, 14.961540919582259 ], [ 75.242193613879451, 14.961534746644668 ], [ 75.241010517707139, 14.961490872399244 ], [ 75.240901254634849, 14.961486819740731 ], [ 75.240266479041495, 14.961484804397688 ], [ 75.240043142821051, 14.961476545152687 ], [ 75.239282828354646, 14.961474672608309 ], [ 75.23917543147742, 14.961471997756798 ], [ 75.239217488676232, 14.961379781464711 ], [ 75.239464973497604, 14.960837124697333 ], [ 75.239703554085395, 14.96000294379396 ], [ 75.239996823913273, 14.958866515944049 ], [ 75.240071619556034, 14.958132435351663 ], [ 75.240262332270973, 14.957612713356161 ], [ 75.240352866748779, 14.957258005310241 ], [ 75.240445213400633, 14.956558491320241 ], [ 75.240583828375662, 14.955828174896348 ], [ 75.240714391599681, 14.955140274564794 ], [ 75.240746838130377, 14.954969323811721 ], [ 75.241043218912878, 14.954123626916303 ], [ 75.241405655522286, 14.95308943404622 ], [ 75.241709986326882, 14.952099428514908 ], [ 75.241924118148489, 14.951402838916529 ], [ 75.242141043151591, 14.950697160634398 ], [ 75.242261056610744, 14.950306740269776 ], [ 75.242764088825851, 14.949253040534446 ], [ 75.243028319269655, 14.94823714733459 ], [ 75.243161320618782, 14.9477257856995 ], [ 75.243158320737848, 14.947117144404762 ], [ 75.243300807741292, 14.946321329177245 ], [ 75.243222636545042, 14.945672690912861 ], [ 75.243276334060525, 14.9449005703528 ], [ 75.243273613477413, 14.944066105618068 ], [ 75.243285927030641, 14.943941861876011 ], [ 75.243296342373014, 14.943870252605887 ], [ 75.243251296441244, 14.943667321053502 ], [ 75.243249039240695, 14.943657153007882 ], [ 75.24331874168368, 14.943352095548295 ], [ 75.243298607346858, 14.942858512534036 ], [ 75.243257928242258, 14.942490993871381 ], [ 75.243167686916834, 14.941675691799462 ], [ 75.243132158470772, 14.941294439426221 ], [ 75.242994766929627, 14.940989707992131 ], [ 75.242984285824804, 14.94086803718117 ], [ 75.242940495355896, 14.940867783561735 ], [ 75.242880902762749, 14.940935151428601 ], [ 75.242352194386001, 14.941397614219394 ], [ 75.242258390796252, 14.941479664949698 ], [ 75.241764404064639, 14.941480558702905 ], [ 75.241571733155794, 14.941668145009581 ], [ 75.24129620216442, 14.941873938128747 ], [ 75.241009498064003, 14.941805740854841 ], [ 75.240766240931677, 14.942095130451444 ], [ 75.240514574117043, 14.942171664324205 ], [ 75.240323188251864, 14.942226109263551 ], [ 75.240109267744529, 14.942269685779818 ], [ 75.23998477979444, 14.942295044206237 ], [ 75.239727035781129, 14.942189990991837 ], [ 75.239663454093872, 14.942164075962841 ], [ 75.23922087827232, 14.941856412630191 ], [ 75.239170993915778, 14.941821735757465 ], [ 75.239050626943069, 14.941734001052769 ], [ 75.238652924710621, 14.941358192183229 ], [ 75.238228081372924, 14.940956734756455 ], [ 75.238188542389651, 14.940946340602254 ], [ 75.238176183577195, 14.940935048355627 ], [ 75.237827817102229, 14.940790240957382 ], [ 75.237294876289056, 14.940788690075314 ], [ 75.237193955624576, 14.940820995992919 ], [ 75.237139606850704, 14.94083839342316 ], [ 75.237061591098183, 14.940851612130853 ], [ 75.237058428573206, 14.940804225919679 ], [ 75.237055221630087, 14.940756188787356 ], [ 75.237123109274393, 14.940695086598755 ], [ 75.237140619709479, 14.940681822158536 ], [ 75.237187201765749, 14.940646533908632 ], [ 75.237264164861017, 14.940187094658327 ], [ 75.237732181054341, 14.93955041652077 ], [ 75.238149170261934, 14.939064077180877 ], [ 75.23856325781442, 14.938626259760527 ], [ 75.23853782498395, 14.938596621190472 ], [ 75.238509395896003, 14.93856348589167 ], [ 75.237957637311027, 14.93856417030452 ], [ 75.236833508181959, 14.938570798583861 ], [ 75.236348655447941, 14.938579052322403 ], [ 75.236099440297707, 14.939181460764523 ], [ 75.235655390316055, 14.939231692639986 ], [ 75.235195437146515, 14.939159049177098 ], [ 75.235196425386434, 14.939153700284411 ], [ 75.235068230011805, 14.939111377337085 ], [ 75.235058461853328, 14.939137414314125 ], [ 75.234924707188242, 14.939949209274593 ], [ 75.234822828335737, 14.94045688927743 ], [ 75.234878614023813, 14.940546527085436 ], [ 75.234914775163858, 14.940604630324158 ], [ 75.234912198736978, 14.940657972490294 ], [ 75.234911271118762, 14.94067718239682 ], [ 75.23490968504224, 14.940709999095773 ], [ 75.233724242497772, 14.940158894963041 ], [ 75.232830479246005, 14.939919068592975 ], [ 75.231981062017979, 14.939725914156838 ], [ 75.230773587034392, 14.939378547929481 ], [ 75.2303647020303, 14.939405044258471 ], [ 75.229787992656938, 14.939442413421617 ], [ 75.229074668678408, 14.939414063689219 ], [ 75.228768787263178, 14.939434207345679 ], [ 75.228675911360583, 14.9395297447528 ], [ 75.228589092723155, 14.939684150639653 ], [ 75.228371753085398, 14.939825516596125 ], [ 75.228053114094237, 14.939848692717716 ], [ 75.227852082178927, 14.939937659834056 ], [ 75.227599566932255, 14.940084872720425 ], [ 75.227374432296088, 14.940216122956059 ], [ 75.227394655633233, 14.940258338868196 ], [ 75.227187510783381, 14.940386204980101 ], [ 75.226930419405576, 14.940662672161714 ], [ 75.226829762884421, 14.940770914031198 ], [ 75.226643935194829, 14.941423467129614 ], [ 75.226665891216015, 14.941711485748439 ], [ 75.226689681234006, 14.942023573862913 ], [ 75.226695323888947, 14.942033276720357 ], [ 75.226762627729798, 14.942148989913779 ], [ 75.226851454107546, 14.942237790445201 ], [ 75.226946865169481, 14.942422985424193 ], [ 75.226986700884424, 14.942530168311611 ], [ 75.226989727708613, 14.942637217777619 ], [ 75.226990259844925, 14.942656018449615 ], [ 75.227034298788325, 14.942725987138958 ], [ 75.22717515386924, 14.942779932602685 ], [ 75.22722869450601, 14.942796603809208 ], [ 75.227297889425273, 14.942884065684227 ], [ 75.227344700387789, 14.942943235442616 ], [ 75.227488977240398, 14.943043476445141 ], [ 75.227552771934029, 14.94308113196398 ], [ 75.227612465027818, 14.943116365792651 ], [ 75.228643383595994, 14.943724868909271 ], [ 75.228637345599154, 14.944027955302992 ], [ 75.228672285385514, 14.944439855948835 ], [ 75.228592571438, 14.944488072007939 ], [ 75.227166787776014, 14.945236812229089 ], [ 75.22693588059137, 14.94529236483053 ], [ 75.226898332247927, 14.94530139902602 ], [ 75.226705846075362, 14.945273988167076 ], [ 75.225863736363721, 14.945154071299433 ], [ 75.225857403997438, 14.945210504658537 ], [ 75.225793463803114, 14.945780348549775 ], [ 75.225787432683489, 14.945834098175474 ], [ 75.225791644980475, 14.945850735264608 ], [ 75.225788540071392, 14.945970943030057 ], [ 75.225786370005295, 14.946054933495445 ], [ 75.225795274541966, 14.946316013140432 ], [ 75.225798733933587, 14.946417466561661 ], [ 75.225743169208059, 14.947009579647988 ], [ 75.225680671337329, 14.947413736424876 ], [ 75.225682708716377, 14.947525760416513 ], [ 75.225684214738379, 14.947625865002108 ], [ 75.22568425576533, 14.947628639708569 ], [ 75.225699208874772, 14.948623186800072 ], [ 75.225695952303241, 14.948660632372203 ], [ 75.225593764204646, 14.949245693121787 ], [ 75.225529437862207, 14.949613980605882 ], [ 75.225527229683749, 14.94984411948445 ], [ 75.225426547966762, 14.950458485696535 ], [ 75.225548794619172, 14.950919968345975 ], [ 75.225409748315855, 14.951645743760325 ], [ 75.225245003940742, 14.951853933573245 ], [ 75.225085261683319, 14.952058754105813 ], [ 75.224360521335768, 14.952988003489738 ], [ 75.224402745763939, 14.953307051454841 ], [ 75.224401676787565, 14.953320930754916 ], [ 75.22443731193421, 14.953431846695318 ], [ 75.223992253178594, 14.953676531768815 ], [ 75.223522509630499, 14.953964548419552 ], [ 75.223043385560686, 14.954258313535476 ], [ 75.222560443222463, 14.954554418527943 ], [ 75.222125408192028, 14.954821148959748 ], [ 75.221854556059327, 14.954971142736149 ], [ 75.221211855251269, 14.955367455447396 ], [ 75.220921615548178, 14.955547347185496 ], [ 75.220520315099208, 14.955796074362278 ], [ 75.220293598520357, 14.955949307444877 ], [ 75.220290268034077, 14.956012837781676 ], [ 75.220221495249987, 14.957324873322225 ], [ 75.220224275546073, 14.957366465604421 ], [ 75.22022953965427, 14.957445265470213 ], [ 75.218933680426076, 14.958261578929564 ], [ 75.21737968292507, 14.959339359435571 ], [ 75.214856135955813, 14.961308802406103 ], [ 75.214822933343854, 14.96129673742676 ], [ 75.214731896673896, 14.961263657229058 ], [ 75.214669911107606, 14.961322073785198 ], [ 75.214532359781117, 14.961451704776383 ], [ 75.214451693105971, 14.961527728490973 ], [ 75.214449250785762, 14.961597751292343 ], [ 75.214445566103223, 14.961703444617225 ], [ 75.213961942634569, 14.961620976116606 ], [ 75.212016344617382, 14.962603866977236 ], [ 75.211895930181811, 14.962664697707671 ], [ 75.211809743215596, 14.962708236958534 ], [ 75.211260563723854, 14.963047582202581 ], [ 75.210101983472626, 14.963763477221077 ], [ 75.210038942752846, 14.963827206113804 ], [ 75.209732087762234, 14.963949304044354 ], [ 75.209074250466159, 14.964165495093853 ], [ 75.207810869270034, 14.964580683616646 ], [ 75.206923917204989, 14.964858983033894 ], [ 75.205986807073756, 14.965471123784685 ], [ 75.205920104991861, 14.965386743642625 ], [ 75.205847040762563, 14.96541834979781 ], [ 75.205358454660725, 14.965408754212405 ], [ 75.204993844247554, 14.965372975942879 ], [ 75.204594129715673, 14.965379403073525 ], [ 75.204284998646884, 14.965565735342556 ], [ 75.203801494218496, 14.965745525252018 ], [ 75.203438924777373, 14.965869410378325 ], [ 75.202713372857119, 14.965926442378509 ], [ 75.202013901300916, 14.965997735002421 ], [ 75.201708558410658, 14.966021597205007 ], [ 75.201333712931643, 14.965997062169134 ], [ 75.200919361252062, 14.965798672667479 ], [ 75.200581513865444, 14.965608873940619 ], [ 75.200233765633882, 14.965413516718634 ], [ 75.200120156579231, 14.965458144313498 ], [ 75.19937392401188, 14.965842852575888 ], [ 75.198960437392401, 14.966099110350182 ], [ 75.198720896152551, 14.966158055264739 ], [ 75.198361381801575, 14.96624651438499 ], [ 75.19800359752702, 14.966334553736671 ], [ 75.197463660639059, 14.966467407452559 ], [ 75.197098944892019, 14.966451397025699 ], [ 75.196762016880683, 14.966404445645651 ], [ 75.196589226997432, 14.966373880666541 ], [ 75.196293182455634, 14.966291816191097 ], [ 75.195921463142454, 14.966227724230363 ], [ 75.195777506742516, 14.966241111224464 ], [ 75.195064587736354, 14.966378719529539 ], [ 75.194641135717347, 14.966472605161655 ], [ 75.194577305591082, 14.966483760390338 ], [ 75.1943636535308, 14.96652110453789 ], [ 75.193309769859553, 14.96668359322689 ], [ 75.191791017637541, 14.966859663871636 ], [ 75.190778769809171, 14.966930387345432 ], [ 75.190338859522669, 14.966870003168099 ], [ 75.18956187586636, 14.966816104267961 ], [ 75.188751876710015, 14.966759911860695 ], [ 75.187397143096049, 14.96628101859427 ], [ 75.186594075316719, 14.966327247946793 ], [ 75.186552735169073, 14.966325205881212 ], [ 75.186463423562927, 14.966320794429121 ], [ 75.186083678394354, 14.966299095358558 ], [ 75.185268508411994, 14.966232255973816 ], [ 75.184410245195238, 14.966196482466009 ], [ 75.183804898924279, 14.96634980260329 ], [ 75.183314338017141, 14.966444606446057 ], [ 75.18272327834805, 14.966601475392864 ], [ 75.182450651825036, 14.966742619838808 ], [ 75.18187747599903, 14.966899580801778 ], [ 75.180872889433061, 14.966803914886505 ], [ 75.180118217911982, 14.966793009540691 ], [ 75.179141226907817, 14.966881779431676 ], [ 75.177890169689746, 14.966725694055826 ], [ 75.176742610752484, 14.966611875251767 ], [ 75.175976511718275, 14.966517563431525 ], [ 75.175800341970032, 14.966507460934476 ], [ 75.175529420405212, 14.966559574203782 ], [ 75.175411670833697, 14.966548421081924 ], [ 75.175401433586785, 14.966462012986929 ], [ 75.175526260827667, 14.965998097085713 ], [ 75.175620527645179, 14.965647760521378 ], [ 75.175713613797043, 14.965509549898036 ], [ 75.175868032119581, 14.965409735245736 ], [ 75.175908497145585, 14.965176059976622 ], [ 75.175873868680569, 14.964863122150042 ], [ 75.175820802765358, 14.964600282348048 ], [ 75.175809860894233, 14.964299824828432 ], [ 75.175805006425009, 14.964166537480372 ], [ 75.175874061540853, 14.963982955653188 ], [ 75.176003063830223, 14.963765073115431 ], [ 75.176155558909869, 14.96350751125299 ], [ 75.176179405628829, 14.96324383278049 ], [ 75.176281893625742, 14.962923455757775 ], [ 75.17643773013998, 14.962568003627101 ], [ 75.176573288407155, 14.962337547485712 ], [ 75.176531631734335, 14.962282936372898 ], [ 75.176436882429726, 14.962217168742491 ], [ 75.176401121281827, 14.962108196321729 ], [ 75.176404492677591, 14.962004867927227 ], [ 75.17647797917877, 14.961869272369494 ], [ 75.176495987047417, 14.961649077580393 ], [ 75.176572856892363, 14.961408028892992 ], [ 75.176688173626829, 14.961296535542473 ], [ 75.176625584030916, 14.96123535139836 ], [ 75.176572748315422, 14.961217401144181 ], [ 75.176459663708371, 14.961178982019968 ], [ 75.17599154410189, 14.960990517459521 ], [ 75.175428354422067, 14.961128827772276 ], [ 75.174486691951898, 14.961351632627844 ], [ 75.173572033150577, 14.961581821461618 ], [ 75.173568886627876, 14.961582557097222 ], [ 75.173507235215226, 14.961034444553732 ], [ 75.173445300202246, 14.960543828937956 ], [ 75.173439519583596, 14.960315025270337 ], [ 75.173431853387882, 14.960011549752036 ], [ 75.173418260978522, 14.959868495361823 ], [ 75.173341893187683, 14.958793328419665 ], [ 75.173303494168678, 14.95849354782661 ], [ 75.173269580802142, 14.958228801275933 ], [ 75.17322496305384, 14.957989087139381 ], [ 75.173182260261655, 14.957692613430849 ], [ 75.17317524912778, 14.957643934458194 ], [ 75.173153357499018, 14.957423870435779 ], [ 75.173095866033592, 14.956964609773294 ], [ 75.173086738412607, 14.956891701911099 ], [ 75.173079907675884, 14.956837139668602 ], [ 75.173011474073007, 14.95639134330999 ], [ 75.172949640769644, 14.95605809976983 ], [ 75.172918955826816, 14.955892728215437 ], [ 75.172749434970953, 14.955041454020359 ], [ 75.172664210238509, 14.9546363683629 ], [ 75.172640030700862, 14.954542899433088 ], [ 75.172610026464454, 14.954426917721586 ], [ 75.172457365737358, 14.953844846605437 ], [ 75.172366562715354, 14.953640648462772 ], [ 75.172271236780119, 14.953426281402551 ], [ 75.172184522889637, 14.953172775552417 ], [ 75.172130230683806, 14.953014049762118 ], [ 75.172136018010306, 14.95288597637381 ], [ 75.172165806678464, 14.95263779113348 ], [ 75.172152816283543, 14.952573918302425 ], [ 75.172042122837809, 14.952029656323564 ], [ 75.171903818783704, 14.951418957467993 ], [ 75.17188723311456, 14.95134896098067 ], [ 75.171660364204698, 14.951116152604559 ], [ 75.171321551386455, 14.950603833293625 ], [ 75.171105292727603, 14.950214923112091 ], [ 75.170819435734586, 14.949717909908658 ], [ 75.17069223985925, 14.949532624436779 ], [ 75.17054295489497, 14.94931515954654 ], [ 75.170483478272061, 14.94907004274477 ], [ 75.170413387417142, 14.948723588835515 ], [ 75.170286606495011, 14.948573920746323 ], [ 75.169989414495731, 14.948427362145793 ], [ 75.169935489876693, 14.948413078234299 ], [ 75.169934361963271, 14.948400213396203 ], [ 75.169732150167434, 14.947265902963359 ], [ 75.169662396643076, 14.946906176870671 ], [ 75.16956632300807, 14.946467722012391 ], [ 75.169510175179894, 14.946153333876778 ], [ 75.169494864449874, 14.946067594528841 ], [ 75.169483474283794, 14.946070687847632 ], [ 75.169427346262268, 14.946085930504475 ], [ 75.168945646703008, 14.946211355508369 ], [ 75.168834089615231, 14.946240402472005 ], [ 75.16897039382718, 14.946451166864495 ], [ 75.168874684314417, 14.946492999999077 ], [ 75.168439444283308, 14.946683234254477 ], [ 75.168287382049357, 14.946749697227801 ], [ 75.167806559096434, 14.946946909330631 ], [ 75.167753951732465, 14.946968486899825 ], [ 75.167249699968195, 14.947129755325767 ], [ 75.166629526275216, 14.947361116225304 ], [ 75.166486911629534, 14.947404056666942 ], [ 75.165792701362605, 14.947510975024539 ], [ 75.16477061512181, 14.947669894480242 ], [ 75.16410801499741, 14.947828831721825 ], [ 75.163869612165144, 14.947886674182003 ], [ 75.163485964365961, 14.947979754623296 ], [ 75.163130209323668, 14.948073437449725 ], [ 75.162505731140484, 14.948115711773539 ], [ 75.162077060076825, 14.948138066955726 ], [ 75.161978682683667, 14.948143197105736 ], [ 75.161812301288776, 14.948232452573748 ], [ 75.161034655506626, 14.948607842722341 ], [ 75.160231995706283, 14.948982647443898 ], [ 75.159808201708188, 14.949177930344671 ], [ 75.15968298754062, 14.949228509599736 ], [ 75.159348685213573, 14.949363545175702 ], [ 75.1586467161993, 14.949733205579248 ], [ 75.15786795062435, 14.95012598202322 ], [ 75.157219516640353, 14.950477747325458 ], [ 75.157158196355269, 14.950499147637693 ], [ 75.157154934710363, 14.950512782260475 ], [ 75.157146743520045, 14.95054703610554 ], [ 75.157069639251461, 14.950852389139351 ], [ 75.156840286956239, 14.951424791980939 ], [ 75.156681626364502, 14.951904072886311 ], [ 75.156277724245783, 14.95312420049842 ], [ 75.156132389526192, 14.953427437179121 ], [ 75.156050826272192, 14.954523714734895 ], [ 75.1561867097749, 14.95533369660998 ], [ 75.15580535754637, 14.956097114153053 ], [ 75.155719452021401, 14.956581810922609 ], [ 75.15555098016462, 14.957939328609942 ], [ 75.155475244066025, 14.959566879750531 ], [ 75.155357165842361, 14.959857333746305 ], [ 75.155149910423091, 14.960228175116413 ], [ 75.154784349790845, 14.961137234230792 ], [ 75.154374442548843, 14.962046045143651 ], [ 75.154203662700084, 14.962424657199129 ], [ 75.154026948945642, 14.962701829623294 ], [ 75.153690203636486, 14.963416978262341 ], [ 75.153335644265383, 14.963842564964544 ], [ 75.153076461164744, 14.964148157978205 ], [ 75.152988666279526, 14.964251672911939 ], [ 75.152285150040896, 14.965904424263034 ], [ 75.151673853775492, 14.968235645217577 ], [ 75.15158337261181, 14.968766671227145 ], [ 75.151529772732786, 14.969143341684655 ], [ 75.151405208085606, 14.970078626100401 ] ], [ [ 75.291136657003051, 14.937292304420243 ], [ 75.291131106631383, 14.937302060588916 ], [ 75.290946245501033, 14.937627013391209 ], [ 75.290968536777868, 14.937778952725729 ], [ 75.291137756340632, 14.937840535529672 ], [ 75.291652381170508, 14.937774302108314 ], [ 75.291738760296113, 14.937763186069033 ], [ 75.291795064639089, 14.937384759090246 ], [ 75.291290358550086, 14.937251987509372 ], [ 75.291136657003051, 14.937292304420243 ] ] ] } }
]
}
