{
"type": "FeatureCollection",
"name": "hoblis_in_police_area.writing_20260805_172659",
"crs": { "type": "name", "properties": { "name": "urn:ogc:def:crs:OGC:1.3:CRS84" } },
"features": [
{ "type": "Feature", "properties": { "OBJECTID": 490, "KGISHobliID": 772, "KGISHobliCode": "250104", "KGISHobliName": "Napoklu", "BhuCodeHobli": null, "SHAPE.STArea()": 374416515.5590083, "SHAPE.STLength()": 144021.72593914488, "KGISTalukCode": "2501", "created_user": null, "created_date": null, "last_edited_user": "SURESHBV1", "last_edited_date": 1659944457000.0, "_overlap_percent": 88.59132825141856, "_police_station": "Napoklu PS", "_police_feature_index": "462", "_admin_layer": "Hobli", "_geometry_clipped": true }, "geometry": { "type": "MultiPolygon", "coordinates": [ [ [ [ 75.707135152997168, 12.352492838168702 ], [ 75.707074852840535, 12.352230053387974 ], [ 75.707449213452833, 12.352137678697469 ], [ 75.708139093472539, 12.35183417608722 ], [ 75.708528053359203, 12.351537029308 ], [ 75.708724221099686, 12.351086153411728 ], [ 75.708832836733308, 12.35100210903094 ], [ 75.70914338541327, 12.351065778593762 ], [ 75.709322950873457, 12.351260203742852 ], [ 75.709457779682907, 12.351276560536382 ], [ 75.709513270729886, 12.351171399779682 ], [ 75.709557841302427, 12.35107610029476 ], [ 75.709709434853067, 12.350831848486678 ], [ 75.710204277814285, 12.350141458209388 ], [ 75.710452101021716, 12.349745227084302 ], [ 75.710506959671662, 12.349657517155267 ], [ 75.710400472737618, 12.349459307828043 ], [ 75.710182562447855, 12.349235601414993 ], [ 75.710098700662172, 12.349149507283716 ], [ 75.710088020524807, 12.349099380760455 ], [ 75.710062746838915, 12.348980753554873 ], [ 75.710022766023528, 12.348793100584423 ], [ 75.709545870496456, 12.349027812659319 ], [ 75.709121750091782, 12.34920905559388 ], [ 75.70849011315309, 12.348989029289369 ], [ 75.707790456262842, 12.34885881763396 ], [ 75.7074943574207, 12.348640525019112 ], [ 75.707400197454135, 12.348383271721959 ], [ 75.707342541363332, 12.347977930883657 ], [ 75.707305270564177, 12.347624557870262 ], [ 75.707259759493695, 12.347511518680905 ], [ 75.7075398932583, 12.347002718012725 ], [ 75.707495544787221, 12.346703389783546 ], [ 75.70758218183839, 12.346581021083065 ], [ 75.707634780307089, 12.346506726731999 ], [ 75.707660629186194, 12.346470216412298 ], [ 75.707698849204434, 12.34629217646536 ], [ 75.707291470527665, 12.346083383992173 ], [ 75.707060986837973, 12.345771097804866 ], [ 75.707776907510862, 12.345490233243954 ], [ 75.708656006926518, 12.345288635371091 ], [ 75.709352944509007, 12.34537870537347 ], [ 75.70976580556615, 12.344835870186602 ], [ 75.709937811614012, 12.344261392693937 ], [ 75.710072461910627, 12.343628555193414 ], [ 75.710079173742415, 12.343597008226752 ], [ 75.710052552756579, 12.34313071465424 ], [ 75.709932006555391, 12.342808317076615 ], [ 75.709923172333589, 12.342784691159428 ], [ 75.709904022142965, 12.342768483467855 ], [ 75.709714340980668, 12.342607945289917 ], [ 75.70969165005458, 12.34258874106318 ], [ 75.709680105567273, 12.342598641035991 ], [ 75.709605349474614, 12.342662752745014 ], [ 75.709589123318594, 12.342676668027773 ], [ 75.709565904948093, 12.342696580429083 ], [ 75.709493451089998, 12.342758716654775 ], [ 75.708735275183841, 12.342470196622113 ], [ 75.708381161159863, 12.342598578697601 ], [ 75.708118045670261, 12.342470459545638 ], [ 75.707874745355241, 12.342127061044666 ], [ 75.707913148497767, 12.342061243823419 ], [ 75.70804969296745, 12.341827231117962 ], [ 75.708203501472298, 12.341264323754805 ], [ 75.708260059352966, 12.341116873993903 ], [ 75.708270943218722, 12.341023374876752 ], [ 75.708165498673608, 12.340642857794558 ], [ 75.708152755558288, 12.340596870731526 ], [ 75.708142868299419, 12.340561191971402 ], [ 75.708170502322005, 12.34047731310463 ], [ 75.708240236586235, 12.340070962216643 ], [ 75.708053685216456, 12.339564530441503 ], [ 75.708155304193781, 12.339116691902746 ], [ 75.708201742850406, 12.338912035525528 ], [ 75.708277032975872, 12.338826138467571 ], [ 75.708289393819967, 12.338812037084496 ], [ 75.708324802978865, 12.33877163892357 ], [ 75.708799593503173, 12.338229958388636 ], [ 75.708777079120807, 12.337893809200486 ], [ 75.708754446524011, 12.337877645716807 ], [ 75.708628970226783, 12.337683500351362 ], [ 75.708411854342557, 12.337400237362292 ], [ 75.708367262953047, 12.337342060490387 ], [ 75.70706449045332, 12.337069349006338 ], [ 75.706966650696927, 12.337048868104993 ], [ 75.706907642027602, 12.336990948982688 ], [ 75.70687842126037, 12.336962267643464 ], [ 75.706959722226514, 12.336851895302157 ], [ 75.707014304351418, 12.336777795808697 ], [ 75.706918324592294, 12.336462409412897 ], [ 75.70689868032018, 12.336397860440865 ], [ 75.706875294815333, 12.336321014269267 ], [ 75.706920058335356, 12.336257317458809 ], [ 75.707169213481194, 12.335902780127654 ], [ 75.707226482241765, 12.335821289498467 ], [ 75.707375944989082, 12.335243959114575 ], [ 75.707388149032184, 12.335196818558837 ], [ 75.707591435000793, 12.335057838293947 ], [ 75.707552566637005, 12.334998296352222 ], [ 75.707112100588091, 12.334646243323812 ], [ 75.70697985863869, 12.33437168026469 ], [ 75.706914709465138, 12.334287242590307 ], [ 75.706502841102889, 12.333942495770332 ], [ 75.706290161744036, 12.333826772995646 ], [ 75.706031808021194, 12.333686198185758 ], [ 75.705833899887296, 12.333440399634902 ], [ 75.705302541644059, 12.333299697483422 ], [ 75.705225842258656, 12.333279388184382 ], [ 75.705226912891348, 12.333242282056736 ], [ 75.705176030341278, 12.33316793830121 ], [ 75.705231093485153, 12.332727967597913 ], [ 75.705229103630685, 12.332411678156401 ], [ 75.705228770120698, 12.332358837110117 ], [ 75.705228689132397, 12.332345746429954 ], [ 75.705235642640645, 12.332292314154369 ], [ 75.705362571675565, 12.33229946963537 ], [ 75.705320608549812, 12.332074853748992 ], [ 75.705059102593296, 12.332129038909635 ], [ 75.704377432047082, 12.33249517349336 ], [ 75.70327207609273, 12.332907835955439 ], [ 75.702798634516824, 12.332451378319414 ], [ 75.702636714697775, 12.332035175363888 ], [ 75.702316655321781, 12.331590857373071 ], [ 75.701973358368207, 12.331834966406129 ], [ 75.70199022476514, 12.331870247728917 ], [ 75.702413338168611, 12.332755291397886 ], [ 75.702776782068483, 12.333034850706042 ], [ 75.702540781527787, 12.333455699172083 ], [ 75.702499639164031, 12.333466928357712 ], [ 75.701966092199214, 12.333612552111783 ], [ 75.701808174490907, 12.333550941905736 ], [ 75.701789894725223, 12.333555175631046 ], [ 75.70125721363398, 12.333239815678299 ], [ 75.701171182973411, 12.333159565348293 ], [ 75.700976967975279, 12.332790376962343 ], [ 75.700521203275613, 12.332599491966477 ], [ 75.700371220280132, 12.332536676831548 ], [ 75.700118176975465, 12.331947969831294 ], [ 75.700106638018298, 12.331921124070981 ], [ 75.700130011915022, 12.331906153827612 ], [ 75.700406083311094, 12.331604715302751 ], [ 75.700444941905531, 12.331560244649562 ], [ 75.700491163266392, 12.331507350036677 ], [ 75.700545257177865, 12.331445445098678 ], [ 75.700585193372092, 12.331396038044373 ], [ 75.700625555815876, 12.331346106326553 ], [ 75.700688814475797, 12.331278338149415 ], [ 75.700951834019847, 12.330996581201829 ], [ 75.701292321819054, 12.330680376269321 ], [ 75.701271237856503, 12.330654422271364 ], [ 75.701088301211868, 12.330429230970333 ], [ 75.700787324039084, 12.330371438215373 ], [ 75.700618854306697, 12.330246507594277 ], [ 75.699829834376089, 12.329661401086922 ], [ 75.699685004451254, 12.329571901236749 ], [ 75.699452172182561, 12.329203770755797 ], [ 75.699373247058162, 12.329047533210108 ], [ 75.699361826983278, 12.32901028906295 ], [ 75.699364591787216, 12.329000313464258 ], [ 75.699372026232368, 12.328973486851494 ], [ 75.699440192423481, 12.328727521022707 ], [ 75.699679894409329, 12.328509300192906 ], [ 75.699474175892533, 12.327938751248125 ], [ 75.699523891220807, 12.327791340483044 ], [ 75.699547369140035, 12.327764039606224 ], [ 75.699645969576224, 12.327649388580806 ], [ 75.6996394680653, 12.327632634923047 ], [ 75.699598639196154, 12.327598447498316 ], [ 75.699573481558957, 12.327577384051741 ], [ 75.699508061936385, 12.327522605539869 ], [ 75.699259344119071, 12.327314348969773 ], [ 75.699234744215147, 12.327220193072208 ], [ 75.699142677483394, 12.326867783659466 ], [ 75.699059087994769, 12.326192635349566 ], [ 75.69903940713364, 12.326130228804823 ], [ 75.698932602965925, 12.325791573658289 ], [ 75.698839013935412, 12.325816539251187 ], [ 75.698773789643269, 12.325860305830451 ], [ 75.698768707349174, 12.325863716130119 ], [ 75.698620711925983, 12.325891397146906 ], [ 75.698619565655804, 12.325891610772286 ], [ 75.698447169478797, 12.325923855532681 ], [ 75.698405131690535, 12.325925819531868 ], [ 75.698369483020088, 12.325927485050375 ], [ 75.69833225821921, 12.325929224224252 ], [ 75.698363071003257, 12.326061262609276 ], [ 75.698364157497736, 12.326065914938978 ], [ 75.698428998032128, 12.326343765227323 ], [ 75.698344214793053, 12.326349319074575 ], [ 75.698252119538594, 12.326355350962935 ], [ 75.698030136817721, 12.326369892202676 ], [ 75.697968836539147, 12.326096914824358 ], [ 75.697963745025802, 12.326074244581994 ], [ 75.697898672698543, 12.32582120481425 ], [ 75.697771258545416, 12.325325747749746 ], [ 75.697756838785608, 12.325269674614773 ], [ 75.697732331571089, 12.325248899579627 ], [ 75.697626036609378, 12.325158797182576 ], [ 75.697418461529935, 12.325044582000634 ], [ 75.697418291143038, 12.32504448839331 ], [ 75.697346181592977, 12.325044903196682 ], [ 75.696753317086163, 12.325026449276777 ], [ 75.696539916991625, 12.325019806844331 ], [ 75.696425034340479, 12.325222694968195 ], [ 75.696393884844468, 12.325277706198872 ], [ 75.69629732663536, 12.325448231214935 ], [ 75.696016686679656, 12.325379075036887 ], [ 75.69571737085576, 12.325305317378897 ], [ 75.695666803744331, 12.325292856289467 ], [ 75.695428898739493, 12.325234230060103 ], [ 75.695263680988674, 12.32522056350275 ], [ 75.695139702831028, 12.325139344238814 ], [ 75.69505188926145, 12.325371767362089 ], [ 75.694939148262137, 12.325447231580757 ], [ 75.694770346265173, 12.325353862731934 ], [ 75.694592488778909, 12.325238293802835 ], [ 75.694975057638118, 12.324815732151871 ], [ 75.695000399881238, 12.324723787929099 ], [ 75.695089116266303, 12.324401909841225 ], [ 75.695134666390231, 12.324236648571125 ], [ 75.695151662270874, 12.324174985631533 ], [ 75.695387048495959, 12.323800201162268 ], [ 75.695710637091182, 12.323284975934182 ], [ 75.696142447580783, 12.322363370128986 ], [ 75.696363533375461, 12.321891506038639 ], [ 75.696441552289741, 12.321724990763576 ], [ 75.696448936744872, 12.321670100737258 ], [ 75.696511233210842, 12.321207029396495 ], [ 75.696719110605031, 12.321061811696493 ], [ 75.697298826913013, 12.32065683552921 ], [ 75.697403517010258, 12.320583701385848 ], [ 75.697691842692905, 12.320382279635169 ], [ 75.697790319801555, 12.320313484476621 ], [ 75.698048001819146, 12.319971139980217 ], [ 75.698105718953371, 12.319894459798489 ], [ 75.698220538513425, 12.319833147941381 ], [ 75.698161438584691, 12.31956772979318 ], [ 75.697897529004834, 12.319144929299759 ], [ 75.69714090397558, 12.3183980351033 ], [ 75.697140865245515, 12.318397995414868 ], [ 75.697094398990259, 12.318351307884491 ], [ 75.696345637844502, 12.31749805324738 ], [ 75.696059343001707, 12.316888690799933 ], [ 75.695951025824868, 12.316367488139665 ], [ 75.696000048102519, 12.315888626078664 ], [ 75.696052086075227, 12.315754305367026 ], [ 75.696079709022825, 12.315683005753709 ], [ 75.696379504922191, 12.314909175208689 ], [ 75.696419439708109, 12.314806095718849 ], [ 75.696496383508261, 12.314607488399343 ], [ 75.697182926967287, 12.313577044635776 ], [ 75.697647720744712, 12.313425982152973 ], [ 75.697708212826541, 12.313406321960283 ], [ 75.697692722137447, 12.313500878965884 ], [ 75.697645863573982, 12.313786913787071 ], [ 75.697826147502823, 12.314055944512409 ], [ 75.6979118694871, 12.314471557067787 ], [ 75.698028715168959, 12.314802994173551 ], [ 75.698064777797967, 12.314905286494003 ], [ 75.698362963713933, 12.315751098491491 ], [ 75.698525473686317, 12.315825274208967 ], [ 75.698590103358896, 12.315836430229316 ], [ 75.698606515403839, 12.31583926288936 ], [ 75.699349415547047, 12.315996807717182 ], [ 75.700472732263123, 12.316147271515769 ], [ 75.700724796255926, 12.316181033790963 ], [ 75.700964307256186, 12.316096319853816 ], [ 75.701489837279865, 12.315910441984926 ], [ 75.702140200138103, 12.315260281244518 ], [ 75.702773691589925, 12.314595854450252 ], [ 75.703094965970152, 12.314156261173776 ], [ 75.703099355034311, 12.314150256470663 ], [ 75.703108357577847, 12.314090578638838 ], [ 75.703159663465939, 12.313750451816341 ], [ 75.703165220318724, 12.313729194735796 ], [ 75.703167255548792, 12.31372715311355 ], [ 75.70320499760831, 12.313689279781812 ], [ 75.70321401718077, 12.313680229380669 ], [ 75.703705850523519, 12.313111709809348 ], [ 75.703782204123812, 12.312821541817655 ], [ 75.703787106076334, 12.312747448032573 ], [ 75.703795180752664, 12.312625374398589 ], [ 75.703800617504612, 12.312543183432521 ], [ 75.703801805650826, 12.31252522818089 ], [ 75.703819623217825, 12.312255893086025 ], [ 75.703820476876956, 12.311862803626113 ], [ 75.703820627183788, 12.31179322526984 ], [ 75.704061639832389, 12.311304186863456 ], [ 75.704056572843456, 12.311077503872154 ], [ 75.704052518609117, 12.310896117871312 ], [ 75.704042336559638, 12.31044055284262 ], [ 75.703784334641099, 12.309925262484715 ], [ 75.703727684564598, 12.309918127293949 ], [ 75.703393857517582, 12.309876080640871 ], [ 75.70333791510528, 12.309863244924882 ], [ 75.702962363540308, 12.309777075231917 ], [ 75.702888750333656, 12.309752351404175 ], [ 75.702398147210289, 12.309587576814064 ], [ 75.702348461601986, 12.309560413144833 ], [ 75.702072921703021, 12.30940977391216 ], [ 75.702025541409967, 12.308835585211973 ], [ 75.702014779539766, 12.30879730764862 ], [ 75.702374898577062, 12.308477028041896 ], [ 75.702514566472558, 12.308279002275718 ], [ 75.702550985689015, 12.308227366056318 ], [ 75.70257185490658, 12.308197777593838 ], [ 75.702888920122049, 12.307913547700073 ], [ 75.703180208222534, 12.307722397389879 ], [ 75.703777871980279, 12.307269601025695 ], [ 75.703881863169087, 12.307190815797759 ], [ 75.703990195399356, 12.30721891870779 ], [ 75.704784299869203, 12.307424917301391 ], [ 75.704850418696068, 12.307442068743182 ], [ 75.705223318575847, 12.307538801833603 ], [ 75.706021624337978, 12.307909916552363 ], [ 75.706334641822906, 12.308214433404133 ], [ 75.70657146363834, 12.308425758935122 ], [ 75.706910019415631, 12.308823541765181 ], [ 75.706959956049573, 12.308882214532051 ], [ 75.707050845929245, 12.30898900529321 ], [ 75.707254165104104, 12.309409411958161 ], [ 75.707441090130871, 12.309600755103091 ], [ 75.707531504595622, 12.309693306692994 ], [ 75.707554328615402, 12.309716670530531 ], [ 75.707567422720231, 12.309727879237167 ], [ 75.707679399124473, 12.309823701703111 ], [ 75.70790286410012, 12.310127340666142 ], [ 75.707931365700205, 12.310166068430322 ], [ 75.708097583353606, 12.310391920443728 ], [ 75.709071674603109, 12.310766584867407 ], [ 75.709375806296379, 12.310359684709001 ], [ 75.709388948165767, 12.310347540813046 ], [ 75.709636056550281, 12.310119197917855 ], [ 75.709806858936162, 12.309857746179034 ], [ 75.709892259878657, 12.309727019986438 ], [ 75.709969102510371, 12.309609395640065 ], [ 75.710375325092087, 12.308681359444121 ], [ 75.710593154195649, 12.308100362835606 ], [ 75.710598258445827, 12.308032452680736 ], [ 75.710598258937793, 12.3080324513904 ], [ 75.71066030945417, 12.307206956170841 ], [ 75.710834790913083, 12.306654220644925 ], [ 75.711268465606793, 12.306279409258751 ], [ 75.712019773989468, 12.305784804565986 ], [ 75.712352351622457, 12.305459385755849 ], [ 75.712786532521903, 12.304878912555251 ], [ 75.713098575392323, 12.304113752232148 ], [ 75.713410290632652, 12.303476243386553 ], [ 75.713701097364449, 12.303099636448284 ], [ 75.71418914770021, 12.302486473838785 ], [ 75.714789962757905, 12.301731634615072 ], [ 75.715094934194866, 12.30086211542995 ], [ 75.715662137238965, 12.300214074393848 ], [ 75.716390342461139, 12.299382072307875 ], [ 75.717563310340907, 12.29920554439356 ], [ 75.719551020381559, 12.298906381183491 ], [ 75.720905379713273, 12.298793837009969 ], [ 75.722172254496556, 12.298348203028938 ], [ 75.723084350931302, 12.298524053410272 ], [ 75.723718054654526, 12.298192681333061 ], [ 75.724475277769443, 12.297593478277761 ], [ 75.725119655751826, 12.296821078818711 ], [ 75.725710122040667, 12.296113301482801 ], [ 75.726549725123903, 12.295840303572442 ], [ 75.72752132860829, 12.295755766481321 ], [ 75.72872806794264, 12.295816513560238 ], [ 75.72995291335026, 12.295989081962741 ], [ 75.730772643612767, 12.296327890655576 ], [ 75.732697398266595, 12.297123419359899 ], [ 75.732698197368634, 12.297123749984198 ], [ 75.733287503781881, 12.297154744812099 ], [ 75.734202800125871, 12.297202883553698 ], [ 75.735815714990196, 12.297287705428591 ], [ 75.737510071357278, 12.29777795498444 ], [ 75.738557117907206, 12.298150901256779 ], [ 75.73940377036449, 12.298616010997387 ], [ 75.740167063008144, 12.299474587424791 ], [ 75.740412832878619, 12.300100395664716 ], [ 75.740647350053464, 12.300506183043067 ], [ 75.741035719547554, 12.300588135716657 ], [ 75.741460303736815, 12.300299655961119 ], [ 75.741626174334698, 12.299871638054116 ], [ 75.741803459294559, 12.29959416296758 ], [ 75.741963993443662, 12.298908454508309 ], [ 75.741966182940587, 12.297736867248625 ], [ 75.741474966757806, 12.296092159458668 ], [ 75.741276197464657, 12.294618917780117 ], [ 75.741637052388612, 12.291421560069988 ], [ 75.740097068371639, 12.290583568653993 ], [ 75.738924923692338, 12.289036393886461 ], [ 75.738727831833273, 12.288156485554374 ], [ 75.739174796514078, 12.287906458983574 ], [ 75.740674602635565, 12.288304344595144 ], [ 75.742131622981745, 12.287324258239032 ], [ 75.74457878393126, 12.285461034258194 ], [ 75.745266415133003, 12.284444346216212 ], [ 75.745139068960725, 12.284142872177895 ], [ 75.745341831575374, 12.283663190769234 ], [ 75.7452643818132, 12.283518297445202 ], [ 75.745077236468148, 12.283364983792971 ], [ 75.74457874706296, 12.282865053996234 ], [ 75.744264337082001, 12.282560341647534 ], [ 75.744200746472799, 12.282456422574622 ], [ 75.744139553986386, 12.282356421414264 ], [ 75.744111988146727, 12.282311373311977 ], [ 75.744073897033999, 12.282249125118545 ], [ 75.744018273971264, 12.282158225446171 ], [ 75.743791527312027, 12.281787675441603 ], [ 75.743705839077435, 12.281647642598543 ], [ 75.743666650740849, 12.281583599664254 ], [ 75.74358288679538, 12.281531536089306 ], [ 75.743532300709049, 12.281500094279268 ], [ 75.743312165973975, 12.281363266501417 ], [ 75.743278338789452, 12.281342240433712 ], [ 75.742877837959568, 12.280924307165819 ], [ 75.742817122422323, 12.28086094821726 ], [ 75.742383252768221, 12.280832325850577 ], [ 75.741782949143641, 12.280511874343347 ], [ 75.741722671599831, 12.280479697040757 ], [ 75.741695592813585, 12.280469138183614 ], [ 75.741619975283868, 12.280439650946125 ], [ 75.741320897643106, 12.280296162874757 ], [ 75.740994358926798, 12.280146995900937 ], [ 75.740940277184123, 12.28013650820416 ], [ 75.740718722766317, 12.280093543310214 ], [ 75.740401534575355, 12.280032032844611 ], [ 75.740357392631864, 12.280023473153703 ], [ 75.740248358292988, 12.279975783740106 ], [ 75.74008092396808, 12.279867786594027 ], [ 75.740013293665839, 12.279824163756832 ], [ 75.739964185301048, 12.279792488474948 ], [ 75.739533315097177, 12.279512236359404 ], [ 75.739320125134711, 12.279371390512685 ], [ 75.738903233732401, 12.279040720119871 ], [ 75.738500950328401, 12.27815543566838 ], [ 75.738059524552995, 12.277686632218611 ], [ 75.737796421719025, 12.277282592294453 ], [ 75.737767497476, 12.277238173753874 ], [ 75.737490402224438, 12.276942014962351 ], [ 75.737324061316755, 12.276852806973155 ], [ 75.736876870445741, 12.276612979836155 ], [ 75.736455952673083, 12.276298878362894 ], [ 75.736414184362047, 12.276267708923449 ], [ 75.736371485439122, 12.276235844799567 ], [ 75.735848243769496, 12.275609492285184 ], [ 75.735839377040151, 12.275598878471021 ], [ 75.735830897174111, 12.275588727074636 ], [ 75.735794002750652, 12.275544561608484 ], [ 75.735777994511324, 12.275547926818074 ], [ 75.735135168658047, 12.275683054764151 ], [ 75.734373212654617, 12.275892968469494 ], [ 75.734372925072734, 12.275893047910243 ], [ 75.73435272355232, 12.275898613472961 ], [ 75.734324161962789, 12.275915786724644 ], [ 75.734273384671781, 12.275946317448366 ], [ 75.733657188805793, 12.276300833707857 ], [ 75.733193224284847, 12.276481219889815 ], [ 75.732745963147764, 12.276358846603332 ], [ 75.732514921470496, 12.276383273366431 ], [ 75.732010242712391, 12.276436629362532 ], [ 75.731706080378729, 12.276288500465618 ], [ 75.731670882507743, 12.276271358490247 ], [ 75.731252172052194, 12.276029473599751 ], [ 75.731191899536441, 12.275994655219597 ], [ 75.731081355146344, 12.275985066704687 ], [ 75.730737718789115, 12.275955258648334 ], [ 75.730614626636481, 12.275889852197222 ], [ 75.730438439304464, 12.275681050567096 ], [ 75.730315017840738, 12.275534781982417 ], [ 75.730263885237804, 12.275166920554334 ], [ 75.730240261303621, 12.274996959439729 ], [ 75.729888571221977, 12.274682929539214 ], [ 75.729496763077464, 12.274133845721286 ], [ 75.729220279156607, 12.273934790334961 ], [ 75.729103675040761, 12.273855917797983 ], [ 75.728888651546697, 12.273710472687579 ], [ 75.72863388176502, 12.273602561949112 ], [ 75.728407156108688, 12.27350652885316 ], [ 75.728381367559976, 12.273499624693295 ], [ 75.728265133691835, 12.273468505822102 ], [ 75.72811785348955, 12.273429075147499 ], [ 75.727922416982565, 12.273376751522761 ], [ 75.727690925177242, 12.273164522062508 ], [ 75.727355189413402, 12.272816137001561 ], [ 75.727163696007239, 12.272543185105105 ], [ 75.727102598243818, 12.272456097518123 ], [ 75.727012052048707, 12.27232703305782 ], [ 75.726981904707372, 12.272284061393819 ], [ 75.726944542536529, 12.272188560017016 ], [ 75.726923284936191, 12.272134222789196 ], [ 75.72690747628539, 12.27209381331909 ], [ 75.726817474877691, 12.271863758803905 ], [ 75.726826668644762, 12.271728896538912 ], [ 75.726957657482743, 12.271336377669769 ], [ 75.727076217185754, 12.271187861345112 ], [ 75.72725051177872, 12.270969902289428 ], [ 75.727363659060046, 12.270828407280547 ], [ 75.727423756169117, 12.269994297452874 ], [ 75.727430867355693, 12.269968812971751 ], [ 75.727454268712407, 12.269884951814136 ], [ 75.727867319773736, 12.2693512541404 ], [ 75.728007130451275, 12.269139643668709 ], [ 75.728055569265223, 12.269066329211954 ], [ 75.728104564781503, 12.268992173216924 ], [ 75.726897517655232, 12.268416557590678 ], [ 75.726826939686603, 12.268382900269922 ], [ 75.726461829159305, 12.268208784700311 ], [ 75.72643657318396, 12.268196740619214 ], [ 75.726289949247132, 12.267774197411171 ], [ 75.726251731555209, 12.267663080744734 ], [ 75.72615529956839, 12.267382711556319 ], [ 75.726141272678873, 12.267341929741869 ], [ 75.726119657711109, 12.267279087025072 ], [ 75.72610435106165, 12.267277990348392 ], [ 75.726102911362304, 12.267291140781307 ], [ 75.725802764744856, 12.267493908021502 ], [ 75.725527615825996, 12.267484156843414 ], [ 75.725314573998588, 12.267486432261538 ], [ 75.724548713161383, 12.267101729924939 ], [ 75.724274348094596, 12.266780931526448 ], [ 75.724245775238259, 12.266471684825737 ], [ 75.724232975892789, 12.266333155997327 ], [ 75.724227916421313, 12.266278397720816 ], [ 75.724208782340341, 12.266071304193572 ], [ 75.724156139502185, 12.265627845457653 ], [ 75.724093699977544, 12.26510185043348 ], [ 75.724227657922583, 12.264501440130697 ], [ 75.724228440024078, 12.263960475470288 ], [ 75.723719318309264, 12.263622571751098 ], [ 75.72309549827223, 12.263489229910641 ], [ 75.7229873157263, 12.263456675262882 ], [ 75.72260898113683, 12.263342825532204 ], [ 75.722080581079879, 12.263526264676173 ], [ 75.721199721880794, 12.263654310133314 ], [ 75.721158715259619, 12.26365876833721 ], [ 75.721201675498364, 12.263453680453175 ], [ 75.721148435119929, 12.263403183925575 ], [ 75.721258028347179, 12.262825833978471 ], [ 75.72125872542459, 12.262822162674818 ], [ 75.721219656576267, 12.262525072649746 ], [ 75.721213984562496, 12.262294434234265 ], [ 75.721213119339794, 12.262259257573591 ], [ 75.721212384351873, 12.26222936562589 ], [ 75.721205497736719, 12.261949338447867 ], [ 75.721453408212852, 12.261870989216312 ], [ 75.721586421629567, 12.261507170192742 ], [ 75.721608163317512, 12.261447701419762 ], [ 75.721634446042373, 12.261375813556656 ], [ 75.721707041724201, 12.261190168713174 ], [ 75.721626575876485, 12.260997640956077 ], [ 75.72156903027664, 12.260859953877258 ], [ 75.72107046858801, 12.260523441996654 ], [ 75.721009527285574, 12.260482308414964 ], [ 75.720919770182704, 12.260421724943667 ], [ 75.721032350621329, 12.260337480638245 ], [ 75.721032388242079, 12.260337452507422 ], [ 75.721068737175614, 12.260310252794302 ], [ 75.721171064244331, 12.259978506123515 ], [ 75.721171013988609, 12.259812367144818 ], [ 75.721171009225429, 12.259796890943941 ], [ 75.721170948401607, 12.25959554490791 ], [ 75.72117093995098, 12.259571460067326 ], [ 75.721395293070643, 12.25946638071207 ], [ 75.721515327832691, 12.259356792938934 ], [ 75.721025543164458, 12.258732910392732 ], [ 75.720880475494411, 12.258714098752392 ], [ 75.720580614050434, 12.259202886464434 ], [ 75.720326082352599, 12.259152625340416 ], [ 75.720312798521505, 12.259150002607811 ], [ 75.720214682154904, 12.259130626978898 ], [ 75.720130391381659, 12.258909980904752 ], [ 75.720089601554278, 12.258494280122532 ], [ 75.720139891380157, 12.258499798828765 ], [ 75.720310914433725, 12.258518567538523 ], [ 75.7202997196909, 12.258445829214148 ], [ 75.720223827374753, 12.258021956597997 ], [ 75.720219929653766, 12.258000187813034 ], [ 75.72019177083051, 12.257842910253661 ], [ 75.720142919191233, 12.2575700651488 ], [ 75.720057996840694, 12.25746918309957 ], [ 75.720019384895338, 12.257423315639159 ], [ 75.719865736045136, 12.257240792203739 ], [ 75.71972141380347, 12.25706865762478 ], [ 75.719709937487096, 12.257040530984231 ], [ 75.719425591580162, 12.256343674270237 ], [ 75.719425555482431, 12.256343585747718 ], [ 75.719771753651159, 12.255951128453956 ], [ 75.719151973108495, 12.255969822107074 ], [ 75.71831867145319, 12.255994952834685 ], [ 75.718265965442853, 12.255897197746052 ], [ 75.718178799209866, 12.255735526810602 ], [ 75.718101937793776, 12.255627465782089 ], [ 75.717750148035947, 12.2553639325014 ], [ 75.717615940521114, 12.255263394605889 ], [ 75.717495597395938, 12.255115327903837 ], [ 75.717397749405151, 12.254994938617795 ], [ 75.717582756512655, 12.254762023789345 ], [ 75.718191105378622, 12.253990617681056 ], [ 75.718341097903078, 12.253551174897746 ], [ 75.718126726042811, 12.253146786919825 ], [ 75.717847658586166, 12.252873819052539 ], [ 75.717853705474596, 12.252851667926519 ], [ 75.717979636506385, 12.25239032201732 ], [ 75.717997556974382, 12.252375403729603 ], [ 75.718057142625781, 12.252325798561234 ], [ 75.718226359911569, 12.252184922003831 ], [ 75.718242813375966, 12.252171224320676 ], [ 75.718569047683602, 12.251899627247095 ], [ 75.718459810525886, 12.251556228536881 ], [ 75.718263965293829, 12.251430482312902 ], [ 75.717786058239412, 12.251224181762417 ], [ 75.717429824079247, 12.251021258090766 ], [ 75.717374714448226, 12.250815669981517 ], [ 75.717451536832428, 12.250522334292505 ], [ 75.717314667212676, 12.250091504912376 ], [ 75.717302847943117, 12.250054302991236 ], [ 75.717179909421148, 12.249564806857347 ], [ 75.71700702852371, 12.249225555950243 ], [ 75.716741742435843, 12.248971843853859 ], [ 75.716719246290864, 12.248950328798454 ], [ 75.716307201652143, 12.248758627169604 ], [ 75.715784798338703, 12.248755431157305 ], [ 75.715784798353198, 12.24875543106433 ], [ 75.715721380433465, 12.248755043068412 ], [ 75.715716581062466, 12.248755013982894 ], [ 75.71571489944408, 12.248755003898149 ], [ 75.715714159115308, 12.248752197203048 ], [ 75.715714221318251, 12.248750714962304 ], [ 75.715737961781457, 12.248186242448028 ], [ 75.715747327965275, 12.247963528252578 ], [ 75.715789702008649, 12.247927261949449 ], [ 75.715892607928978, 12.247839187896517 ], [ 75.715906765468361, 12.247696551862298 ], [ 75.715982566253743, 12.246826001481987 ], [ 75.7161319395167, 12.246173416869974 ], [ 75.716280094712374, 12.246137989594599 ], [ 75.716686255499241, 12.246103016666479 ], [ 75.716908064787503, 12.246103567149181 ], [ 75.717092613257748, 12.246140385963246 ], [ 75.717215947088945, 12.246237656647038 ], [ 75.717231507944803, 12.246200922300444 ], [ 75.71727320614481, 12.246102487122391 ], [ 75.717499263090886, 12.246349523062507 ], [ 75.718044963901534, 12.246466778785628 ], [ 75.718019802115791, 12.246618581708203 ], [ 75.718034123725417, 12.246794496507176 ], [ 75.71804170390395, 12.246887599842584 ], [ 75.718070520266878, 12.247241541317225 ], [ 75.71808517765021, 12.247421575021274 ], [ 75.718081239705285, 12.247462329353699 ], [ 75.718079167451506, 12.24748378285638 ], [ 75.718075623938134, 12.247520459764397 ], [ 75.718053599913318, 12.24774840742668 ], [ 75.718049506355143, 12.247790778073268 ], [ 75.717962569985033, 12.248690563443541 ], [ 75.717635480448322, 12.24952539432231 ], [ 75.717637951922342, 12.249550274012996 ], [ 75.717895590117578, 12.249840099492062 ], [ 75.718227367310902, 12.250131981446748 ], [ 75.718413707577454, 12.25029897186344 ], [ 75.71852360009872, 12.250299218220542 ], [ 75.718627841859288, 12.250490870123615 ], [ 75.718632319257324, 12.250494882581997 ], [ 75.71878019182013, 12.250567968171996 ], [ 75.719038399389561, 12.250640763813744 ], [ 75.719041766491713, 12.250640298531149 ], [ 75.719399160693229, 12.250363218213893 ], [ 75.719487245810484, 12.249867128971516 ], [ 75.719913856621289, 12.249378060001105 ], [ 75.720187726325605, 12.249078058897027 ], [ 75.720244311949671, 12.248432346923495 ], [ 75.720284060989201, 12.247199066582192 ], [ 75.720472058639018, 12.245749498634249 ], [ 75.720768809149888, 12.245206168413402 ], [ 75.72125003279443, 12.244880501058574 ], [ 75.721730120291369, 12.244772984290929 ], [ 75.72209988204736, 12.24466463550262 ], [ 75.721989816768655, 12.244338263823558 ], [ 75.721363246434805, 12.243829003939524 ], [ 75.720810814705303, 12.243320679166382 ], [ 75.720811174099012, 12.243030185570266 ], [ 75.721254861723068, 12.242850431956965 ], [ 75.721994280895359, 12.242597557265185 ], [ 75.722382330854145, 12.24245411027356 ], [ 75.722861575143895, 12.242672133723739 ], [ 75.722878780826235, 12.2428988931578 ], [ 75.723169001053591, 12.243007635793173 ], [ 75.723652894198651, 12.243502739637034 ], [ 75.723994673367272, 12.243933489545531 ], [ 75.724149965907458, 12.243904099655916 ], [ 75.724171300031955, 12.243325468359799 ], [ 75.724273811374673, 12.242600576525046 ], [ 75.724621640507593, 12.241875780978567 ], [ 75.724783140251759, 12.241539251786909 ], [ 75.724968725005922, 12.240988541832685 ], [ 75.725059139349995, 12.240621929178497 ], [ 75.725176159254772, 12.240030905619129 ], [ 75.723926209715557, 12.239562186937079 ], [ 75.722439886117797, 12.240429962055623 ], [ 75.722424864511055, 12.240429644372423 ], [ 75.721437469289498, 12.240408789663807 ], [ 75.720660638919654, 12.240210430446313 ], [ 75.719101653702978, 12.239927608624061 ], [ 75.718449741567767, 12.239918105766547 ], [ 75.717842457920568, 12.239899518142778 ], [ 75.717088764837897, 12.23991633504904 ], [ 75.715814043044887, 12.240020931387289 ], [ 75.715798398630298, 12.239859668722117 ], [ 75.715733816530673, 12.239193961843455 ], [ 75.715718059723685, 12.239031542905179 ], [ 75.71568255724452, 12.238742637075351 ], [ 75.715621815533098, 12.238341754807545 ], [ 75.7154843507343, 12.237434518360104 ], [ 75.714527090821221, 12.236441175847091 ], [ 75.713743540600547, 12.236160109158574 ], [ 75.713012555807296, 12.235961453598991 ], [ 75.712330196835993, 12.236101791661005 ], [ 75.711815804604527, 12.235903559765427 ], [ 75.711573610270818, 12.235810225319145 ], [ 75.711281281560431, 12.235025058412146 ], [ 75.711030214892745, 12.234670883771843 ], [ 75.710503988844252, 12.234557696503042 ], [ 75.709866853179378, 12.234672920412796 ], [ 75.709598328788843, 12.234136334191861 ], [ 75.709362804136887, 12.233641892321462 ], [ 75.709135780237887, 12.233192777802481 ], [ 75.709233044797372, 12.232680778998194 ], [ 75.709240889567297, 12.232130182835039 ], [ 75.709241142764867, 12.232112396290162 ], [ 75.709246976339898, 12.231702926841404 ], [ 75.709193563162415, 12.231712565688143 ], [ 75.709178101668854, 12.231715355426028 ], [ 75.708665171537149, 12.231807914272833 ], [ 75.708416420323971, 12.231513583839179 ], [ 75.707732083114266, 12.230810581994886 ], [ 75.70774026394362, 12.230471798747978 ], [ 75.707719878190815, 12.229695570715219 ], [ 75.708461752350203, 12.229266019285969 ], [ 75.708703200661802, 12.228758572735629 ], [ 75.708936120541111, 12.228543430264232 ], [ 75.70889481981952, 12.228035008716912 ], [ 75.707750232892707, 12.228216112365136 ], [ 75.707298378083919, 12.228004911968238 ], [ 75.706500885904973, 12.227130755701578 ], [ 75.704479074127136, 12.224914546222859 ], [ 75.702574156952096, 12.221969612088998 ], [ 75.70107542131845, 12.22098275431841 ], [ 75.699822782120265, 12.220301780760725 ], [ 75.697867163244524, 12.217355531439068 ], [ 75.697129045321518, 12.215218627649573 ], [ 75.697040495625942, 12.214962267154302 ], [ 75.695109842754235, 12.211075059947182 ], [ 75.694961138011649, 12.210775650066243 ], [ 75.694532120314392, 12.210532574808756 ], [ 75.694664524318483, 12.210178429436681 ], [ 75.694578600070386, 12.210005422621403 ], [ 75.691162701045926, 12.20170311454798 ], [ 75.689392333319603, 12.197512905710932 ], [ 75.686723453048657, 12.19464838874055 ], [ 75.684692759161223, 12.190701269817223 ], [ 75.681520269678117, 12.186700193818348 ], [ 75.680123631370691, 12.183768008665087 ], [ 75.679269857089281, 12.181448920295729 ], [ 75.67898380456684, 12.17879463505308 ], [ 75.677121226783527, 12.175226308267144 ], [ 75.674717043041653, 12.171968850527962 ], [ 75.673043092080903, 12.169928576547987 ], [ 75.671175241651653, 12.167533758760252 ], [ 75.668130623192653, 12.164484721107211 ], [ 75.666186219991843, 12.161138993143219 ], [ 75.663738069682637, 12.157630606460232 ], [ 75.661839290608981, 12.154485784093318 ], [ 75.660448061739501, 12.152327771100113 ], [ 75.659750794311265, 12.149862777529838 ], [ 75.658861852988679, 12.148891221413795 ], [ 75.656011249379091, 12.147170506220032 ], [ 75.653310365108226, 12.145553463039477 ], [ 75.65086861480286, 12.143743224204647 ], [ 75.647956005978173, 12.140522533204305 ], [ 75.645847873459175, 12.137621989852358 ], [ 75.643246083794338, 12.136223705112789 ], [ 75.643205608080734, 12.136547909367124 ], [ 75.643204349061406, 12.136979702093734 ], [ 75.643225319294174, 12.138060265867777 ], [ 75.643149905113887, 12.138709262789881 ], [ 75.642904040019346, 12.139176667850787 ], [ 75.642560836172549, 12.139535782617516 ], [ 75.64221826296486, 12.139678997473041 ], [ 75.641705367932573, 12.139700536468496 ], [ 75.641388126285904, 12.13962779624001 ], [ 75.64095321429059, 12.139402390201623 ], [ 75.640953214239573, 12.139402390272339 ], [ 75.640389902709899, 12.14018331401755 ], [ 75.639670107505381, 12.140217922536806 ], [ 75.63899532865193, 12.140409829354974 ], [ 75.638303465520423, 12.140785934359867 ], [ 75.638476449634467, 12.141059893796534 ], [ 75.638962571511129, 12.141854535961514 ], [ 75.639278173617882, 12.142443851346574 ], [ 75.639326480132695, 12.142708239229739 ], [ 75.639170498549646, 12.143184118642596 ], [ 75.63930529213296, 12.143755279914011 ], [ 75.639309257248158, 12.143891394390604 ], [ 75.639318968251715, 12.144224711321133 ], [ 75.639106720863424, 12.144731727196325 ], [ 75.638655994269755, 12.145276356054264 ], [ 75.638400715872592, 12.145369367610591 ], [ 75.63840071512098, 12.145369367884445 ], [ 75.638166241042498, 12.146354029310199 ], [ 75.637944658335456, 12.146893713972466 ], [ 75.637627276607901, 12.147343412203877 ], [ 75.637627276502982, 12.147343413010081 ], [ 75.637606566312527, 12.14750254850347 ], [ 75.636842863150719, 12.148443233260792 ], [ 75.636818602310271, 12.148801563957068 ], [ 75.636416396933157, 12.149144949309397 ], [ 75.636267237607015, 12.14927229546414 ], [ 75.636128618662127, 12.149312419605753 ], [ 75.635966088890612, 12.149359467535453 ], [ 75.635654216454398, 12.149523820534148 ], [ 75.634812335969443, 12.149967478775 ], [ 75.634020754004965, 12.149746915630173 ], [ 75.632710382388936, 12.149003657781718 ], [ 75.632100462411444, 12.148809498872318 ], [ 75.631685100138625, 12.14878444943194 ], [ 75.63136708880549, 12.14887899959208 ], [ 75.63102454854814, 12.149045943112545 ], [ 75.630461883119125, 12.149404414975228 ], [ 75.629236906756802, 12.150493468602779 ], [ 75.627105206180161, 12.152456072226094 ], [ 75.626468365030604, 12.153030604884353 ], [ 75.625978577322229, 12.153365162188031 ], [ 75.625709446555689, 12.153484462309805 ], [ 75.625244843404886, 12.153530725094715 ], [ 75.624683041608193, 12.153528597106092 ], [ 75.624341365041886, 12.153575720121362 ], [ 75.624071715062087, 12.153718751774537 ], [ 75.623459880818345, 12.154185832848544 ], [ 75.622528135533088, 12.155167947401759 ], [ 75.621010153025068, 12.156267794964485 ], [ 75.620006923589486, 12.156648716015738 ], [ 75.619371836242124, 12.156754128715562 ], [ 75.61871237008215, 12.156752214877967 ], [ 75.617540172407629, 12.156604500330545 ], [ 75.616099838800309, 12.156264083782014 ], [ 75.615124181481264, 12.155900019331423 ], [ 75.614611828989808, 12.15567057502016 ], [ 75.614003101553379, 12.154995976282489 ], [ 75.613321724241217, 12.15420171989393 ], [ 75.612420806603168, 12.153358209586138 ], [ 75.611664590940748, 12.152994786493746 ], [ 75.611078967609146, 12.152872866179559 ], [ 75.610834778299534, 12.152848535977071 ], [ 75.610614336910814, 12.152907806421114 ], [ 75.60970806466095, 12.153745131289353 ], [ 75.608727845619782, 12.154654962323814 ], [ 75.60779787948978, 12.155180361681232 ], [ 75.606892494459998, 12.155658229307575 ], [ 75.606598601320741, 12.15575269337055 ], [ 75.606061876217154, 12.155666838407299 ], [ 75.605036835036202, 12.155303973481532 ], [ 75.60388954182099, 12.154987722399666 ], [ 75.603206507704002, 12.154721320158954 ], [ 75.602475367197712, 12.154262856344985 ], [ 75.601987591873154, 12.15397228539992 ], [ 75.601255460628252, 12.153838242693567 ], [ 75.599081670032305, 12.153783047204278 ], [ 75.598201682757377, 12.153804173268306 ], [ 75.597468449190245, 12.1539459175528 ], [ 75.596832504573769, 12.15418353918864 ], [ 75.596416517470928, 12.154399200296984 ], [ 75.596025581968334, 12.154517597219893 ], [ 75.595830220657575, 12.154493149451508 ], [ 75.595463932571576, 12.154323253827982 ], [ 75.594734882044563, 12.153252119203188 ], [ 75.594152412708354, 12.152217963814152 ], [ 75.593982310327632, 12.151928958166911 ], [ 75.593646708647313, 12.150054416188123 ], [ 75.593552155100483, 12.149117558809682 ], [ 75.593504722660555, 12.148709605791439 ], [ 75.593359058086506, 12.148300721297568 ], [ 75.593213245130528, 12.148084011961252 ], [ 75.593091834117487, 12.147988188356406 ], [ 75.59272529413947, 12.147962976452797 ], [ 75.592505292070442, 12.147962317256139 ], [ 75.592285132443862, 12.148152693799405 ], [ 75.591842830008929, 12.148932455437539 ], [ 75.591619971796149, 12.149724174872834 ], [ 75.591421931092142, 12.150564453627934 ], [ 75.591174947261209, 12.151356227016702 ], [ 75.590879503720686, 12.152050897637427 ], [ 75.590339443634136, 12.152793570512854 ], [ 75.589677943539044, 12.153427980849182 ], [ 75.58909010111536, 12.153858766039308 ], [ 75.588183597968339, 12.154623687502475 ], [ 75.587472504724019, 12.155437924112187 ], [ 75.587251348645253, 12.155701768632388 ], [ 75.586737798760339, 12.155963970085688 ], [ 75.585979036161405, 12.156261733192435 ], [ 75.584854740099061, 12.156474355993176 ], [ 75.584071985306636, 12.156832076373812 ], [ 75.583851395701316, 12.157094779557998 ], [ 75.583605326399493, 12.157527098918699 ], [ 75.583455608784178, 12.158414739511123 ], [ 75.583405119208379, 12.15896759410332 ], [ 75.583330954412332, 12.159207386210632 ], [ 75.583183640393202, 12.159350119220745 ], [ 75.583086141220278, 12.15942267583517 ], [ 75.582988482835049, 12.159421749617998 ], [ 75.582183072365225, 12.159143117387883 ], [ 75.580205494838182, 12.158727908383389 ], [ 75.578033392188289, 12.158144678336049 ], [ 75.57744765990293, 12.157974078783695 ], [ 75.577277056457007, 12.157974436829548 ], [ 75.577203206062919, 12.158094414368158 ], [ 75.57715322747957, 12.158357884853402 ], [ 75.576732201835341, 12.159977439520391 ], [ 75.575820697975217, 12.16218353567327 ], [ 75.574714255446523, 12.164305257734236 ], [ 75.573809507041503, 12.165721055466062 ], [ 75.573412302442094, 12.166342613781774 ], [ 75.571986668332201, 12.16884705095471 ], [ 75.570855229496544, 12.171124795677649 ], [ 75.570485539354323, 12.172060369164068 ], [ 75.570239638707648, 12.172587622887134 ], [ 75.569969673518301, 12.172875289274792 ], [ 75.569749375226763, 12.173018168034645 ], [ 75.56935788516914, 12.173161400507485 ], [ 75.568894213705576, 12.173246958343572 ], [ 75.569011241718613, 12.175101161029499 ], [ 75.56832390925058, 12.175251044974358 ], [ 75.568051464426887, 12.175258242131633 ], [ 75.567735736992432, 12.175452151965068 ], [ 75.567247662983078, 12.175551876012188 ], [ 75.566989174180577, 12.175586191959443 ], [ 75.566665729835705, 12.175724983907712 ], [ 75.566330428438434, 12.175670212814314 ], [ 75.565944808036264, 12.175848667776602 ], [ 75.565602116776986, 12.175907427882708 ], [ 75.565262532116463, 12.176070023186062 ], [ 75.564775563053672, 12.176026448276831 ], [ 75.564641708989797, 12.176092324435396 ], [ 75.564459080554528, 12.176296630834534 ], [ 75.563740112519824, 12.176609679949742 ], [ 75.563154685189588, 12.176981628743439 ], [ 75.562650194947395, 12.177287686021149 ], [ 75.562239409609717, 12.177582747182473 ], [ 75.561679734985987, 12.17782419168649 ], [ 75.561233248955446, 12.178187803017007 ], [ 75.560996739697515, 12.178179571818479 ], [ 75.560732289213746, 12.178352766474083 ], [ 75.560072542041524, 12.178459919116376 ], [ 75.559928066198296, 12.17836221274271 ], [ 75.559780801589525, 12.17803589268277 ], [ 75.55963163253135, 12.177871387791892 ], [ 75.559523336208443, 12.177811388072811 ], [ 75.559134365331488, 12.177832868931922 ], [ 75.558759911296576, 12.178103246753084 ], [ 75.558480201704711, 12.178690667414594 ], [ 75.557982761641867, 12.179219268227138 ], [ 75.557753615827579, 12.179626592062501 ], [ 75.557416289546339, 12.179853771300815 ], [ 75.55700592668947, 12.17990390053483 ], [ 75.556700564304663, 12.180208246943359 ], [ 75.556123782307651, 12.180260964872001 ], [ 75.555975656538166, 12.180717916908758 ], [ 75.55564127070987, 12.181111316172002 ], [ 75.555429441468164, 12.181450724811468 ], [ 75.555354146053659, 12.181795930897085 ], [ 75.555017690269679, 12.182120105870213 ], [ 75.554856679377707, 12.182348882599912 ], [ 75.554560334999422, 12.182560418779872 ], [ 75.554281445584905, 12.182893650329898 ], [ 75.55403022805055, 12.183814842044422 ], [ 75.553848859229092, 12.184106881498105 ], [ 75.553230801920833, 12.184651191493277 ], [ 75.553242009280524, 12.185083517260839 ], [ 75.553151602386833, 12.185193713291053 ], [ 75.552987247122488, 12.185265523986855 ], [ 75.552895568205486, 12.185287978515937 ], [ 75.552722506042343, 12.185327820933033 ], [ 75.552600134394325, 12.18536084738807 ], [ 75.552277586659741, 12.185360956039611 ], [ 75.552058287096102, 12.185421284096766 ], [ 75.551744160042844, 12.185623303734245 ], [ 75.551530266249685, 12.185909819222722 ], [ 75.550839403015075, 12.186623625696155 ], [ 75.550596959467399, 12.1871054523367 ], [ 75.550424242648063, 12.188516926990703 ], [ 75.550229071362082, 12.188719454611276 ], [ 75.549808545722428, 12.189592521591438 ], [ 75.550009766512346, 12.19036880265103 ], [ 75.549839277418755, 12.190935308322699 ], [ 75.549938628423774, 12.191203634963092 ], [ 75.549887497225285, 12.191455374962315 ], [ 75.549291830935601, 12.192292345762718 ], [ 75.54918714485845, 12.192500195083046 ], [ 75.54837193757254, 12.193057648030033 ], [ 75.547901629969601, 12.193505437814554 ], [ 75.547912788831297, 12.194184218654463 ], [ 75.547684490569495, 12.194797537241914 ], [ 75.547428400120225, 12.195127461720702 ], [ 75.547241805246941, 12.195482103311994 ], [ 75.547108213961877, 12.195658857461787 ], [ 75.547160979010329, 12.195900090074177 ], [ 75.547212728462597, 12.196572491062053 ], [ 75.547580291516027, 12.196815344768908 ], [ 75.547552489595745, 12.197227803253821 ], [ 75.547283312169625, 12.197394217669187 ], [ 75.547032067783263, 12.197728552378825 ], [ 75.546668070164813, 12.197989213899778 ], [ 75.546196169097058, 12.198180612341121 ], [ 75.545479034552827, 12.198331797014133 ], [ 75.545442808746188, 12.198529750473257 ], [ 75.545560564682987, 12.198838869895571 ], [ 75.545494401160624, 12.198971117348069 ], [ 75.544750029346702, 12.199169685474251 ], [ 75.544054825799904, 12.198575962700998 ], [ 75.543951386852925, 12.198226946937359 ], [ 75.543263225644566, 12.198144304713669 ], [ 75.542755079250753, 12.197889046615794 ], [ 75.542499552692377, 12.197853896234919 ], [ 75.541378742415063, 12.198133437000374 ], [ 75.541081537262613, 12.198305716069067 ], [ 75.540500631255981, 12.198922315675688 ], [ 75.540163266607607, 12.199149470650225 ], [ 75.540512676844855, 12.199755852841154 ], [ 75.540512300535184, 12.200116293145532 ], [ 75.54067251871578, 12.200629339081368 ], [ 75.540856384132013, 12.201041879234481 ], [ 75.540857725748793, 12.201245137182799 ], [ 75.540627311295751, 12.201798912687751 ], [ 75.540242653646686, 12.202305362478908 ], [ 75.540065598780032, 12.202437784524797 ], [ 75.539642712568352, 12.202543875845382 ], [ 75.539337304759641, 12.202848199967214 ], [ 75.539102876093239, 12.202966929747836 ], [ 75.538757522325611, 12.20302807772085 ], [ 75.537866608984288, 12.202766263219461 ], [ 75.537659472153251, 12.202601943086879 ], [ 75.53692648879165, 12.202300949089981 ], [ 75.536661654933425, 12.202247712233287 ], [ 75.536229430464743, 12.202277957530734 ], [ 75.535926591577649, 12.202170914550953 ], [ 75.53561797745563, 12.202198124202384 ], [ 75.535379202703297, 12.202476457335502 ], [ 75.534528123516239, 12.202929135694831 ], [ 75.534154768731185, 12.203113939581504 ], [ 75.534008404773232, 12.203235788718999 ], [ 75.533960781905421, 12.203639858760301 ], [ 75.533590449747066, 12.203812978980194 ], [ 75.533223700173806, 12.203902769644909 ], [ 75.533087529331937, 12.203846277217162 ], [ 75.532868000659221, 12.203560036647369 ], [ 75.532824335214457, 12.203169156901863 ], [ 75.532697291096213, 12.202841952024102 ], [ 75.532890118854283, 12.202401569917383 ], [ 75.533080977451164, 12.201714058170102 ], [ 75.532952175391785, 12.201676252981853 ], [ 75.532506829793718, 12.201718611767776 ], [ 75.53218387654556, 12.202079135747235 ], [ 75.531704389054696, 12.202446427132788 ], [ 75.531200174479011, 12.203681186435082 ], [ 75.531066144427854, 12.204160612600873 ], [ 75.531223086187794, 12.20449576628687 ], [ 75.531316171110333, 12.205501005029781 ], [ 75.531243426139142, 12.205786018268361 ], [ 75.531400558923607, 12.205765363268098 ], [ 75.531870431184927, 12.205855948908743 ], [ 75.532669882670092, 12.205842179180573 ], [ 75.533405248590199, 12.205736451057547 ], [ 75.534045716803689, 12.206020661795048 ], [ 75.534889185074803, 12.205979568512605 ], [ 75.535123959790667, 12.206087246552348 ], [ 75.535396050929691, 12.206440523691155 ], [ 75.535616994746974, 12.207045536481548 ], [ 75.53579236984929, 12.207128058128839 ], [ 75.535840219986525, 12.207421720604975 ], [ 75.536084876119702, 12.207827012555098 ], [ 75.536312050058186, 12.208052849614132 ], [ 75.536575038338185, 12.209028018883306 ], [ 75.536815368870762, 12.209209582067333 ], [ 75.536889192477048, 12.209368117317863 ], [ 75.536823708204267, 12.209953172333471 ], [ 75.536982596022582, 12.210477692690541 ], [ 75.53732425104478, 12.210877265285866 ], [ 75.537509764316312, 12.211017107749946 ], [ 75.537719476380644, 12.211414668438556 ], [ 75.53770135855504, 12.211835946682688 ], [ 75.538030742946148, 12.212380818844316 ], [ 75.538264292494048, 12.213103114785254 ], [ 75.538414931919448, 12.213350744427377 ], [ 75.538443310931584, 12.213511245299125 ], [ 75.53892847845114, 12.214125621594469 ], [ 75.538863248228139, 12.214470383414376 ], [ 75.538862597484211, 12.214719935640378 ], [ 75.538799521815648, 12.21495601498027 ], [ 75.538915212234244, 12.215195913170618 ], [ 75.53846050590559, 12.215807045473426 ], [ 75.537780972555936, 12.216361123592405 ], [ 75.537472485899315, 12.216619368651996 ], [ 75.537289249159173, 12.216873555543092 ], [ 75.536991673519239, 12.217464026018693 ], [ 75.536793320935914, 12.217612767735774 ], [ 75.536631673012067, 12.217855419519438 ], [ 75.53606206308109, 12.218208128545919 ], [ 75.535141030398506, 12.218645344803653 ], [ 75.534747326618103, 12.218951167215266 ], [ 75.534222092609141, 12.21920953781302 ], [ 75.533625095638484, 12.219378594391788 ], [ 75.533155900444143, 12.219447396865435 ], [ 75.532813781178632, 12.219549981825459 ], [ 75.532647407610526, 12.219668073919932 ], [ 75.532252529379875, 12.219708247744085 ], [ 75.531917755240315, 12.219932966008379 ], [ 75.531507596486833, 12.220093939692584 ], [ 75.531200226398681, 12.220208883220105 ], [ 75.530758504636381, 12.220283426044226 ], [ 75.530537811766891, 12.220433898456728 ], [ 75.530287384174869, 12.220514034543644 ], [ 75.530110510922285, 12.220641819480056 ], [ 75.529574703766457, 12.220794358453725 ], [ 75.529342014533896, 12.220813656983729 ], [ 75.529168362643489, 12.220925129001795 ], [ 75.5286354130061, 12.221128371411282 ], [ 75.528441395936412, 12.221303105480541 ], [ 75.528123724491067, 12.22142311048067 ], [ 75.52745326890664, 12.222068956628918 ], [ 75.527088684970821, 12.222107814497269 ], [ 75.526821578763773, 12.222436047700029 ], [ 75.526595200318184, 12.222542865271132 ], [ 75.526502381210022, 12.223410963391302 ], [ 75.526152348103736, 12.223814231639583 ], [ 75.526095348862555, 12.224027912048408 ], [ 75.525685181851031, 12.224188876502295 ], [ 75.525616145235162, 12.224270413436161 ], [ 75.525567971778173, 12.224452704380145 ], [ 75.525327704100363, 12.224647915563214 ], [ 75.524828032541379, 12.225482759671122 ], [ 75.524592181316208, 12.225985061171057 ], [ 75.52472434070441, 12.226427568073051 ], [ 75.524524877336219, 12.226615331719666 ], [ 75.524221414900751, 12.227224521336717 ], [ 75.52374067361589, 12.227619569889963 ], [ 75.523738942840481, 12.228127930229554 ], [ 75.523987293709922, 12.228628540965115 ], [ 75.524158524582802, 12.228866045402812 ], [ 75.524404641921336, 12.229003278610465 ], [ 75.524502648830961, 12.229419535793218 ], [ 75.524301914575076, 12.229870014901923 ], [ 75.524004298588522, 12.230109287391178 ], [ 75.5236086712369, 12.230283482783411 ], [ 75.523391653158583, 12.230523895189229 ], [ 75.522943328587957, 12.231102371942184 ], [ 75.522581287649459, 12.23137446188159 ], [ 75.522392709068768, 12.231539712852742 ], [ 75.522121469821556, 12.231634600601657 ], [ 75.521995484323924, 12.23175093970746 ], [ 75.521798428104148, 12.232195795430869 ], [ 75.521640746551185, 12.232345848568778 ], [ 75.521493826899629, 12.232597094683463 ], [ 75.521079120532136, 12.232980043614353 ], [ 75.520912468252618, 12.233336910751865 ], [ 75.520612386262982, 12.233516216507565 ], [ 75.520064582226979, 12.233946497848795 ], [ 75.519677587221253, 12.234037139603203 ], [ 75.519122051917591, 12.234003365092367 ], [ 75.518552519804885, 12.234235889328783 ], [ 75.518340345837998, 12.234480708104366 ], [ 75.517994579688406, 12.234608843924612 ], [ 75.517706989082782, 12.234732157505256 ], [ 75.517337138269482, 12.234775847389235 ], [ 75.51727985548608, 12.234935426670141 ], [ 75.517087279799924, 12.235193260165627 ], [ 75.517757887590037, 12.235832011396264 ], [ 75.518167058700655, 12.236396564982316 ], [ 75.518461244859381, 12.236880596242479 ], [ 75.518660635408892, 12.23763441537713 ], [ 75.518687240544907, 12.237894340185269 ], [ 75.517816401926225, 12.239796411536037 ], [ 75.517915597738309, 12.240184894410252 ], [ 75.518086651758935, 12.240835970286144 ], [ 75.518264120763902, 12.241396661954736 ], [ 75.518376830218827, 12.242114945836487 ], [ 75.518003840503539, 12.242348222585957 ], [ 75.517845035054847, 12.242749901531743 ], [ 75.517026689859918, 12.24314102338278 ], [ 75.5166709671782, 12.243558383696701 ], [ 75.516473028767351, 12.243998968413459 ], [ 75.516186548410289, 12.244330164778804 ], [ 75.516195038695471, 12.244717942368586 ], [ 75.516162896411601, 12.245054335025724 ], [ 75.51637054092339, 12.245382688162072 ], [ 75.516281419690529, 12.245696125850738 ], [ 75.516316167914638, 12.246177449750681 ], [ 75.516528601969739, 12.246394697274052 ], [ 75.516432035024692, 12.246763905647761 ], [ 75.515963540717067, 12.247107577809707 ], [ 75.51464678375126, 12.247578902693046 ], [ 75.51410879731462, 12.247546668754607 ], [ 75.513779711802442, 12.247930529677655 ], [ 75.51375547079769, 12.248317407353596 ], [ 75.513161572188977, 12.248763521356246 ], [ 75.512775487977706, 12.24892551449463 ], [ 75.512672346019741, 12.249096311218539 ], [ 75.512189550666506, 12.249537629195883 ], [ 75.511885473427824, 12.249458333053406 ], [ 75.511452003228356, 12.249574068802728 ], [ 75.511205453847822, 12.249797258973461 ], [ 75.511050439590505, 12.250060397369085 ], [ 75.51091443722575, 12.250759375948627 ], [ 75.510684176973683, 12.250838620425005 ], [ 75.510503455084944, 12.25104257087453 ], [ 75.510578590815541, 12.251404369373205 ], [ 75.510546210975122, 12.251687630430155 ], [ 75.51028736161166, 12.25196217923123 ], [ 75.510251269878609, 12.252097736907105 ], [ 75.510332555341336, 12.252318636634104 ], [ 75.510256578009432, 12.252677712033835 ], [ 75.510263320383061, 12.253222669481632 ], [ 75.510097035075717, 12.253571776518001 ], [ 75.510225015046288, 12.25387812708731 ], [ 75.510199481327817, 12.254119506757629 ], [ 75.510037586927567, 12.25436676815468 ], [ 75.509913276314776, 12.255028275145548 ], [ 75.509904920129358, 12.255280467103788 ], [ 75.510069307449328, 12.255559862806614 ], [ 75.509908267795282, 12.255904122037526 ], [ 75.509967793119515, 12.256160316828414 ], [ 75.509844896766438, 12.256441288091034 ], [ 75.509805210164231, 12.256660174483988 ], [ 75.510012114769552, 12.257122566313152 ], [ 75.509852960595083, 12.257441765964087 ], [ 75.509833509428503, 12.257892743048791 ], [ 75.510227321395703, 12.257513380687234 ], [ 75.510463590414716, 12.257432071589731 ], [ 75.510803029867759, 12.257509845391921 ], [ 75.51179050864728, 12.257873874310604 ], [ 75.511846062136257, 12.257934489159911 ], [ 75.512267150706947, 12.258393940191432 ], [ 75.512448798970041, 12.258448484082189 ], [ 75.513420092461487, 12.2583696147663 ], [ 75.514277922479323, 12.258817782337111 ], [ 75.514835565597295, 12.258920792081232 ], [ 75.51541955180447, 12.259172838485114 ], [ 75.515742110071997, 12.259408440557582 ], [ 75.516495590169342, 12.259646239873572 ], [ 75.516925483139588, 12.259613825349639 ], [ 75.517218675051168, 12.259712069852835 ], [ 75.517540007456148, 12.259917687646883 ], [ 75.517997411183799, 12.259948775599149 ], [ 75.518126762612482, 12.259914725438831 ], [ 75.518354339689338, 12.259854817819194 ], [ 75.518639291004362, 12.260027349116726 ], [ 75.518983618421657, 12.260167282149927 ], [ 75.519204246911386, 12.260194725791688 ], [ 75.519708491893596, 12.260542619868177 ], [ 75.520236857214897, 12.261032717072139 ], [ 75.521162111880997, 12.262080963253506 ], [ 75.521602660720944, 12.262678816488325 ], [ 75.522392667201231, 12.26318071791095 ], [ 75.523418357916043, 12.263887306538008 ], [ 75.52382264802435, 12.26417069867721 ], [ 75.524688209711428, 12.264777421087178 ], [ 75.525178283767943, 12.265045056157978 ], [ 75.526504866055589, 12.265693481148734 ], [ 75.526585412781372, 12.265732851942605 ], [ 75.527734667156821, 12.266263122541345 ], [ 75.529623182708775, 12.266484206501762 ], [ 75.530405870553622, 12.266512774715679 ], [ 75.530709173219904, 12.266259391149985 ], [ 75.531133162044824, 12.266130173414865 ], [ 75.53197060853978, 12.266174854916947 ], [ 75.532765953552698, 12.266085038974163 ], [ 75.533685744378047, 12.26632484923285 ], [ 75.533871422669833, 12.26634454936247 ], [ 75.534330497498672, 12.266102912731348 ], [ 75.534514807372233, 12.265861598567353 ], [ 75.535186285180771, 12.266072858312382 ], [ 75.535719064976576, 12.26610990193902 ], [ 75.537169893487416, 12.265841565635066 ], [ 75.538028912504544, 12.2651505886124 ], [ 75.538229928489045, 12.2648138227948 ], [ 75.538675672133721, 12.26458892732294 ], [ 75.539184320508383, 12.264483761392878 ], [ 75.539734512873835, 12.264584734904025 ], [ 75.540127461620841, 12.265235449512755 ], [ 75.540636653607763, 12.265352056481197 ], [ 75.540793765800075, 12.265567060449811 ], [ 75.540897404349579, 12.265560269239591 ], [ 75.541224827067822, 12.265449073543977 ], [ 75.541448051155058, 12.265416317385002 ], [ 75.541737657752321, 12.265246686746721 ], [ 75.542369115673594, 12.26509923843339 ], [ 75.543075552149105, 12.264673608091295 ], [ 75.543519516479677, 12.264196947582271 ], [ 75.543973166048147, 12.264022528695179 ], [ 75.544659881423954, 12.263410604025253 ], [ 75.552312755199836, 12.257832752644505 ], [ 75.556613755183562, 12.254758301029963 ], [ 75.560133419102826, 12.256202366224096 ], [ 75.563761863586421, 12.256581193759608 ], [ 75.565341588342079, 12.255010967394282 ], [ 75.565523953832098, 12.258686705276725 ], [ 75.566475464390564, 12.258862803533058 ], [ 75.568389167908663, 12.259964244245126 ], [ 75.570313273950489, 12.260676284963402 ], [ 75.573163361144253, 12.260866662412592 ], [ 75.574904908726609, 12.260989478995542 ], [ 75.575703272793902, 12.261536087631923 ], [ 75.576981948143654, 12.262660072858456 ], [ 75.577973902385082, 12.264127358829231 ], [ 75.578453805648124, 12.2654645527874 ], [ 75.580124061041232, 12.269754833160148 ], [ 75.583083889078694, 12.274019852378265 ], [ 75.585029355281861, 12.276914423035707 ], [ 75.58616023558406, 12.27912560339861 ], [ 75.587003998706237, 12.280167645203763 ], [ 75.586391917278092, 12.281430734603202 ], [ 75.586114035633599, 12.281689838677389 ], [ 75.585613928972521, 12.282156149939883 ], [ 75.584908933117006, 12.282813501542709 ], [ 75.584749719826974, 12.282952346951559 ], [ 75.584847781176222, 12.283061090282747 ], [ 75.585106880888702, 12.283348413428108 ], [ 75.583602470225486, 12.285681093137301 ], [ 75.583408199720481, 12.286055517068885 ], [ 75.582595298399468, 12.287622236198892 ], [ 75.582363799926611, 12.287759051245821 ], [ 75.582115582836963, 12.287714876216031 ], [ 75.581680258177471, 12.287747394260739 ], [ 75.581322084656037, 12.287625379525725 ], [ 75.581167381587463, 12.287754135260439 ], [ 75.580520648632486, 12.288093331018331 ], [ 75.580489979936786, 12.28810366502664 ], [ 75.580223128360842, 12.288193581500247 ], [ 75.579850675759786, 12.288223090521806 ], [ 75.579378033667084, 12.288287850954848 ], [ 75.578967281648787, 12.2883664652507 ], [ 75.578451001299499, 12.288525181319665 ], [ 75.578308666764002, 12.288694577456253 ], [ 75.577929624410416, 12.289145683852613 ], [ 75.577821981140531, 12.289732671580799 ], [ 75.577813759655285, 12.289777501321169 ], [ 75.577624655896088, 12.29002876878671 ], [ 75.576962431241171, 12.290256004350338 ], [ 75.576254250838986, 12.290479939551505 ], [ 75.575716805759697, 12.290908205331087 ], [ 75.575472486959768, 12.290937430874838 ], [ 75.574987005436114, 12.291503087830385 ], [ 75.574549023578555, 12.291721412364121 ], [ 75.574490031211297, 12.291738515832659 ], [ 75.574141410711348, 12.291839590633817 ], [ 75.574011009297536, 12.291738358048937 ], [ 75.573453889764238, 12.291568575806769 ], [ 75.573030745284711, 12.291579053787752 ], [ 75.57297870604863, 12.291564011559585 ], [ 75.572666147768373, 12.291473661894937 ], [ 75.571988398594954, 12.29178337122495 ], [ 75.571774089368262, 12.291717067024798 ], [ 75.571525149729936, 12.291640047834854 ], [ 75.571060230878274, 12.291665678004149 ], [ 75.570698454809687, 12.292073111139219 ], [ 75.570258600194251, 12.292370229016642 ], [ 75.569886926722248, 12.292760344040751 ], [ 75.569323680380734, 12.292742420761254 ], [ 75.568808499264662, 12.292788481751352 ], [ 75.56847545441147, 12.292656233054368 ], [ 75.568168651040736, 12.292868766262462 ], [ 75.56794205546791, 12.292921263414812 ], [ 75.567278451876533, 12.29304056507236 ], [ 75.566852561204641, 12.292977605511011 ], [ 75.566121471381578, 12.293528863687531 ], [ 75.565342275474137, 12.294364014775478 ], [ 75.564678699867855, 12.295214032994705 ], [ 75.564223086287171, 12.295896374482277 ], [ 75.564085708305328, 12.296102115432099 ], [ 75.563976817504582, 12.296263083699342 ], [ 75.563959073297966, 12.296733836505213 ], [ 75.563715448065793, 12.296999516699163 ], [ 75.563011729183472, 12.297622137045387 ], [ 75.562374629193627, 12.298267606422657 ], [ 75.56190548604657, 12.298779659299322 ], [ 75.561584210252505, 12.298961833295079 ], [ 75.561142552035975, 12.299169064639704 ], [ 75.560553326941914, 12.299284847751418 ], [ 75.56023225557017, 12.29942188539518 ], [ 75.559769508514833, 12.299532929773404 ], [ 75.559476526726343, 12.299646063212455 ], [ 75.559183047424412, 12.299809335152185 ], [ 75.55912872068204, 12.300158175350605 ], [ 75.558924820304384, 12.300325196606465 ], [ 75.558558034483866, 12.300489077992586 ], [ 75.558158847624654, 12.300505289224411 ], [ 75.557984461395804, 12.300536397810093 ], [ 75.558192903554882, 12.300060892793697 ], [ 75.557712037661062, 12.299809354507346 ], [ 75.55762434077829, 12.299997610876996 ], [ 75.557415628879468, 12.30025312102655 ], [ 75.557139633779698, 12.300669927061495 ], [ 75.557046619458077, 12.300812983715574 ], [ 75.55697072333264, 12.30092971082702 ], [ 75.556872017390972, 12.301081519787788 ], [ 75.556793602282156, 12.301295198931559 ], [ 75.556731128852988, 12.301472328065095 ], [ 75.556717292872875, 12.301528488504204 ], [ 75.556663332065085, 12.301783740026684 ], [ 75.556583194068622, 12.301926598513917 ], [ 75.556382241270157, 12.302276081198315 ], [ 75.556200375387974, 12.302624180261574 ], [ 75.555999421581816, 12.302973662691526 ], [ 75.555885285300505, 12.30310200408387 ], [ 75.55578161373559, 12.303322439543344 ], [ 75.555577208223127, 12.303658683717289 ], [ 75.555498250013528, 12.303799409033729 ], [ 75.555317899568777, 12.30399481048163 ], [ 75.55520249226214, 12.304144921115787 ], [ 75.555128927797838, 12.304283690275847 ], [ 75.555085417711922, 12.304377888838529 ], [ 75.55497818257858, 12.304532705849025 ], [ 75.55489199895365, 12.304742962195135 ], [ 75.554758795241852, 12.304944702470122 ], [ 75.554689898523336, 12.305112037298739 ], [ 75.554572172290477, 12.305410446173045 ], [ 75.554543917124789, 12.305496554769512 ], [ 75.554477322135014, 12.305570146313466 ], [ 75.554348907630882, 12.305671701460074 ], [ 75.554272547752731, 12.305858364034011 ], [ 75.554093746560028, 12.306226231305715 ], [ 75.553954062740374, 12.306538997386143 ], [ 75.553857809535103, 12.306596070723591 ], [ 75.553457725529285, 12.306919753305856 ], [ 75.553238302588312, 12.30700658515155 ], [ 75.553158468091979, 12.307107992621765 ], [ 75.552856156057828, 12.307221904170074 ], [ 75.552414254136181, 12.307321240200515 ], [ 75.552192239104983, 12.307489573816593 ], [ 75.55215240842243, 12.307519774039502 ], [ 75.551843574358884, 12.307600676979037 ], [ 75.551543913427651, 12.307723428339314 ], [ 75.551174343430034, 12.307723223392081 ], [ 75.551011037992694, 12.307825498483261 ], [ 75.551058941111947, 12.308041259049423 ], [ 75.551062878270855, 12.308058993091384 ], [ 75.551062705751207, 12.308059171582409 ], [ 75.550959967202729, 12.308165319647939 ], [ 75.550868095603079, 12.308346312047588 ], [ 75.550749388356721, 12.308463538910479 ], [ 75.550695532936331, 12.308516722346457 ], [ 75.550596718255647, 12.30858362836887 ], [ 75.550577847237349, 12.308596405864755 ], [ 75.550586538656361, 12.308737468730651 ], [ 75.550628597592933, 12.308847592297376 ], [ 75.55060073765091, 12.308967917702477 ], [ 75.550600737526096, 12.308967918241501 ], [ 75.550606708410086, 12.309064826468546 ], [ 75.550606708469616, 12.309064826436416 ], [ 75.550849351286502, 12.308933874290837 ], [ 75.550856530022998, 12.309155800039795 ], [ 75.550857573926436, 12.30918805903811 ], [ 75.550874177685955, 12.30970138726923 ], [ 75.55088294619911, 12.309918534496928 ], [ 75.553664282486125, 12.315307478146451 ], [ 75.556455424345302, 12.319378647437349 ], [ 75.558347858497811, 12.321160174965083 ], [ 75.558916621985844, 12.321329159780433 ], [ 75.560216644405344, 12.321763375113012 ], [ 75.560661709694543, 12.321922721394165 ], [ 75.560946828239224, 12.322493902442524 ], [ 75.561529654732908, 12.322646232914963 ], [ 75.563448167682367, 12.322538953239508 ], [ 75.567194175161035, 12.321746979124757 ], [ 75.570087361879402, 12.322004590438569 ], [ 75.571502196619818, 12.322825206197081 ], [ 75.572167000180727, 12.323835572427001 ], [ 75.572834597840682, 12.324741461675384 ], [ 75.57409131647988, 12.325505712813236 ], [ 75.576421568798636, 12.327918150213829 ], [ 75.57842000690124, 12.32880604649797 ], [ 75.580050394655885, 12.32952762634106 ], [ 75.580116903129976, 12.329541335740831 ], [ 75.583093469650535, 12.330154887273595 ], [ 75.586187346125044, 12.328997904767588 ], [ 75.586121731184491, 12.32872946097509 ], [ 75.586049262837818, 12.32832069126839 ], [ 75.586219560888381, 12.32810436953546 ], [ 75.586518765237173, 12.327845167657751 ], [ 75.58745841024205, 12.327188496820973 ], [ 75.587869168060109, 12.327264945914846 ], [ 75.588739270365366, 12.326985941330943 ], [ 75.588995085521873, 12.327069308722086 ], [ 75.589485460316439, 12.327066067162493 ], [ 75.589517967405158, 12.327061291114184 ], [ 75.590115184818757, 12.326973544779005 ], [ 75.590489415588777, 12.326997537832728 ], [ 75.590834947832832, 12.326880090899056 ], [ 75.591431954707588, 12.327018489157854 ], [ 75.591627438883208, 12.326717287948686 ], [ 75.592236727471985, 12.326192308358339 ], [ 75.593841779624995, 12.32612558719212 ], [ 75.594389145894596, 12.325999555526586 ], [ 75.595096515325324, 12.326554649322977 ], [ 75.595411560392478, 12.32680766230162 ], [ 75.595867360175959, 12.327133176047045 ], [ 75.596017513473413, 12.327273175022325 ], [ 75.596748103285776, 12.327687743802938 ], [ 75.597077056601904, 12.3279401229575 ], [ 75.597680641090676, 12.32851714359661 ], [ 75.598225878463822, 12.32877005848322 ], [ 75.598238104052996, 12.32877572950235 ], [ 75.598655952457364, 12.328353371799642 ], [ 75.59835143037472, 12.327702129033778 ], [ 75.598270608959339, 12.32757876906601 ], [ 75.598365983848808, 12.327152273420468 ], [ 75.598448107603502, 12.326785033008294 ], [ 75.599086786537342, 12.325689259177921 ], [ 75.599442207751608, 12.325949974508724 ], [ 75.599928089228499, 12.326738255142692 ], [ 75.6004042228858, 12.327374900747506 ], [ 75.600522707993505, 12.327792544787458 ], [ 75.600559001483177, 12.328275128142549 ], [ 75.600295335599938, 12.328775666538167 ], [ 75.600354189928893, 12.328946953545445 ], [ 75.600412222771936, 12.329052250397501 ], [ 75.600489305055731, 12.329192109085149 ], [ 75.600895268847609, 12.329631093922963 ], [ 75.601155802915571, 12.329717870032637 ], [ 75.60137240950516, 12.329652257187949 ], [ 75.602080502626663, 12.329748670923252 ], [ 75.602842255307024, 12.32986995922464 ], [ 75.603522477820519, 12.330119993170827 ], [ 75.604008656360548, 12.330302611101269 ], [ 75.604338584135959, 12.330155443850648 ], [ 75.604804001807835, 12.329577893793969 ], [ 75.605291297621463, 12.329512822631665 ], [ 75.605291947551777, 12.329855006370753 ], [ 75.605348471265458, 12.330410298667545 ], [ 75.605224613460194, 12.330686520726706 ], [ 75.604915287548422, 12.331400574237126 ], [ 75.604862758096928, 12.331574959974494 ], [ 75.605230396068322, 12.331194156544012 ], [ 75.606557522536477, 12.330313406868004 ], [ 75.608275842187112, 12.329730198610314 ], [ 75.610959661094057, 12.328858094033558 ], [ 75.612676575180473, 12.328327097160161 ], [ 75.615132420433511, 12.32802413061402 ], [ 75.617740863503641, 12.327986426844264 ], [ 75.621474332534689, 12.327663860396049 ], [ 75.623799292431059, 12.327279052224229 ], [ 75.624055492231378, 12.327651536877994 ], [ 75.623826182566319, 12.328272968735364 ], [ 75.623219092859486, 12.329093829861291 ], [ 75.622842738979259, 12.32985404981383 ], [ 75.62288149599307, 12.329839412937229 ], [ 75.623964473132062, 12.329890770778874 ], [ 75.624325630833184, 12.330089641466941 ], [ 75.62440600543394, 12.330133899622803 ], [ 75.624591887108849, 12.330236255124058 ], [ 75.625068195452386, 12.330994798298457 ], [ 75.6253177591244, 12.331738706514319 ], [ 75.625562922629356, 12.332616555864016 ], [ 75.626915851808704, 12.332168136344823 ], [ 75.629158446853879, 12.331120867239365 ], [ 75.629492147393194, 12.330499967062547 ], [ 75.629582113349642, 12.330332570453256 ], [ 75.629606810820675, 12.330286617389973 ], [ 75.629758066788156, 12.329896659428599 ], [ 75.629793392143071, 12.329805585115846 ], [ 75.629991351185907, 12.329295216451682 ], [ 75.630588311113442, 12.328604784358511 ], [ 75.631057329037674, 12.328264938288662 ], [ 75.6311348721201, 12.328208751388622 ], [ 75.632382407243895, 12.327882870278618 ], [ 75.633302316269067, 12.327923802942522 ], [ 75.633816702801695, 12.328072662858647 ], [ 75.63407049826786, 12.32871896965797 ], [ 75.635806245380621, 12.32800437122018 ], [ 75.637498586718309, 12.327394176343878 ], [ 75.639517934357329, 12.327498039177685 ], [ 75.642198225949983, 12.328768818764383 ], [ 75.643444129344886, 12.329950683717579 ], [ 75.643970373891648, 12.330327387978155 ], [ 75.643363523952502, 12.332109727546367 ], [ 75.642867329155834, 12.332514229136622 ], [ 75.642567122133158, 12.332539369591803 ], [ 75.641771088094487, 12.332039143751444 ], [ 75.641141032466066, 12.331112454668723 ], [ 75.641072685615143, 12.330839244109557 ], [ 75.640600336903205, 12.330503205344957 ], [ 75.639903413255055, 12.330576286600756 ], [ 75.638809380450098, 12.330934024778465 ], [ 75.637891596175848, 12.331768405672289 ], [ 75.636640895756287, 12.333230582329675 ], [ 75.636834147695751, 12.333318216555842 ], [ 75.637125708376402, 12.332958104789324 ], [ 75.637620685979584, 12.332363598167674 ], [ 75.638970843625216, 12.331202449618392 ], [ 75.639855734147645, 12.33084628006077 ], [ 75.640468804204801, 12.330787420885061 ], [ 75.640710667509694, 12.330972893006646 ], [ 75.640829617310487, 12.331064108139076 ], [ 75.64090378412503, 12.331177689611279 ], [ 75.641050633537162, 12.331402578126308 ], [ 75.641572133069957, 12.33220121288222 ], [ 75.642469133963331, 12.332821162235167 ], [ 75.643101628407209, 12.332743110645046 ], [ 75.643577497911295, 12.332301760766125 ], [ 75.644129294347252, 12.331065909352917 ], [ 75.644331220234676, 12.33005099581999 ], [ 75.644512928600307, 12.328729885220806 ], [ 75.644879827640992, 12.327513608765187 ], [ 75.645140428248141, 12.326613398553883 ], [ 75.645730396078577, 12.32661200347658 ], [ 75.646094294041561, 12.326611142343342 ], [ 75.647020813625616, 12.327364989666069 ], [ 75.647197727169157, 12.328063191398185 ], [ 75.647179833001744, 12.328704433285765 ], [ 75.64701621947853, 12.32946086316354 ], [ 75.647397373248936, 12.330091589631989 ], [ 75.647923449339089, 12.330281743911607 ], [ 75.648653129177887, 12.330146028253877 ], [ 75.649401685423001, 12.329771011973856 ], [ 75.649592233417962, 12.329801428210143 ], [ 75.650029073191376, 12.329871158379607 ], [ 75.650287782128117, 12.329912454618805 ], [ 75.651184698546913, 12.330494093916043 ], [ 75.651605015850265, 12.330941108824408 ], [ 75.651858081094304, 12.33121024708193 ], [ 75.652550767929469, 12.331859360758429 ], [ 75.653643576702095, 12.332928600550883 ], [ 75.65407899784465, 12.333355820464396 ], [ 75.654840723342545, 12.333874369258609 ], [ 75.655565629677014, 12.334141524272734 ], [ 75.655711465016694, 12.334195269474252 ], [ 75.656135550801267, 12.334139109643502 ], [ 75.656528755276071, 12.334087038410637 ], [ 75.656821924915533, 12.33422718875166 ], [ 75.656915656795078, 12.334271997129306 ], [ 75.656970210153887, 12.333976912516258 ], [ 75.656707234880713, 12.333421282276309 ], [ 75.656492649641478, 12.332753085689573 ], [ 75.656325893670257, 12.332236699877782 ], [ 75.656460423118148, 12.331537756424408 ], [ 75.656805138833406, 12.331239726437653 ], [ 75.657004330212402, 12.331067511122033 ], [ 75.658443258761906, 12.330413272925634 ], [ 75.658997259547476, 12.330293318928499 ], [ 75.660097056503346, 12.330055182649593 ], [ 75.660615038691191, 12.329972409917717 ], [ 75.660759872489649, 12.329949266419959 ], [ 75.661080355875072, 12.329898053178963 ], [ 75.66181500718001, 12.329780654400084 ], [ 75.66204297179452, 12.329744224838921 ], [ 75.663590701206942, 12.329620499831421 ], [ 75.664018467308168, 12.329586302718974 ], [ 75.664368131038572, 12.329589749611515 ], [ 75.664797162691343, 12.329593977507917 ], [ 75.664805184410113, 12.328914478708233 ], [ 75.664392961717979, 12.327992302939005 ], [ 75.664113014181964, 12.32734021405034 ], [ 75.664006091848009, 12.327091155669043 ], [ 75.663894030756211, 12.326830126453519 ], [ 75.664007116979832, 12.326428794987496 ], [ 75.664426536883582, 12.325999251945472 ], [ 75.664938319654539, 12.325567069863732 ], [ 75.665660714118417, 12.325159135695539 ], [ 75.666601221803205, 12.324958461958582 ], [ 75.666910151327926, 12.324909506655127 ], [ 75.667103300941122, 12.325146268590499 ], [ 75.667252020518774, 12.325328569517284 ], [ 75.66755556941267, 12.326031876132483 ], [ 75.667892490113829, 12.327026695910849 ], [ 75.668379226268854, 12.327237343840784 ], [ 75.668411647629668, 12.327251375436818 ], [ 75.668822326684761, 12.327623911436167 ], [ 75.668828737309966, 12.327629513899609 ], [ 75.668920229058259, 12.327709462352354 ], [ 75.66911682852411, 12.327881257496577 ], [ 75.669310063002186, 12.328050111942312 ], [ 75.669796772231706, 12.32847541336306 ], [ 75.670109670028211, 12.328886381333 ], [ 75.669573095322946, 12.329638226588015 ], [ 75.669405010688834, 12.329947209776684 ], [ 75.669322092733225, 12.330259263738458 ], [ 75.669335093543978, 12.330467308553461 ], [ 75.669399676883728, 12.330790009145561 ], [ 75.66957893503178, 12.331071449042915 ], [ 75.669607911054896, 12.331117817140321 ], [ 75.670106465015763, 12.331915604051618 ], [ 75.670470565597256, 12.332187611713971 ], [ 75.671022932572825, 12.332554160161132 ], [ 75.671605767721886, 12.332775725624545 ], [ 75.672190406585912, 12.332693885317909 ], [ 75.672944623311736, 12.332793563542889 ], [ 75.673755203425117, 12.332503969462969 ], [ 75.674557481561905, 12.332217338756111 ], [ 75.675774693903819, 12.331476659742973 ], [ 75.676475371460128, 12.331193039573437 ], [ 75.677007405697651, 12.33124459746951 ], [ 75.677789226715447, 12.33158650644393 ], [ 75.678497202216718, 12.332402789219023 ], [ 75.678554794614129, 12.332830216684833 ], [ 75.678442836388186, 12.333291069459342 ], [ 75.678040483921393, 12.333961123727354 ], [ 75.677972753981976, 12.33394076628921 ], [ 75.677898875683653, 12.333909627260418 ], [ 75.677875864838484, 12.334076088887747 ], [ 75.677953159184227, 12.334082981673962 ], [ 75.678238137130492, 12.334162361692822 ], [ 75.678215178427209, 12.334202045206736 ], [ 75.677875876100302, 12.334788502928848 ], [ 75.678055731335533, 12.33532798436007 ], [ 75.678096592043431, 12.33545054549451 ], [ 75.678109102830376, 12.335488070069795 ], [ 75.678127785609405, 12.335544110275791 ], [ 75.678515724299828, 12.335868647027457 ], [ 75.679457223072447, 12.335360907761316 ], [ 75.680208207142115, 12.33482558683208 ], [ 75.680484248851613, 12.334628816227976 ], [ 75.680558978481741, 12.334575547112387 ], [ 75.680920549399218, 12.334335170046375 ], [ 75.681036677898362, 12.334638809529581 ], [ 75.681058490799032, 12.334695843613645 ], [ 75.681096594177845, 12.334795470089233 ], [ 75.680638299765604, 12.335260740017389 ], [ 75.680981135170867, 12.335636090156699 ], [ 75.681127316664202, 12.335796135153394 ], [ 75.68145519889795, 12.336155111476108 ], [ 75.681498927806615, 12.336242348134022 ], [ 75.681810790617035, 12.336864515760462 ], [ 75.682540611318586, 12.33689275146231 ], [ 75.682866987710725, 12.337286577049161 ], [ 75.682856454316351, 12.337302609691887 ], [ 75.682520531040709, 12.337813890611512 ], [ 75.682402255421536, 12.338078745332847 ], [ 75.682369570366347, 12.338151938179866 ], [ 75.682309445322829, 12.33828657618562 ], [ 75.682492557634433, 12.338880991251804 ], [ 75.68261933006643, 12.339309477515902 ], [ 75.682757680447423, 12.339790150156507 ], [ 75.682729517185393, 12.340011601054112 ], [ 75.682711646619211, 12.340152114099507 ], [ 75.682689531484399, 12.340326003072146 ], [ 75.682679784057186, 12.340402647946762 ], [ 75.682673149068791, 12.340454822144189 ], [ 75.682788653566703, 12.340671139717829 ], [ 75.682803496446013, 12.340698936503442 ], [ 75.682823055598547, 12.340735566925474 ], [ 75.682952649107861, 12.34097827063208 ], [ 75.683021666852397, 12.341107525944706 ], [ 75.683277755357452, 12.341944114642706 ], [ 75.683307214874617, 12.342608642030095 ], [ 75.683356143151073, 12.342700546573708 ], [ 75.683572770360655, 12.343107449200058 ], [ 75.68366744817294, 12.343347767744433 ], [ 75.683937047899107, 12.344032080835548 ], [ 75.684019082805861, 12.344416980065672 ], [ 75.68401823522305, 12.344436627180826 ], [ 75.68399793735118, 12.344906733621634 ], [ 75.683840291934303, 12.345445601685499 ], [ 75.683730293003634, 12.346184856511565 ], [ 75.683711817603992, 12.346940940498303 ], [ 75.68363994956232, 12.346989313173534 ], [ 75.683161033670743, 12.347311667398925 ], [ 75.682548213241887, 12.34791124796104 ], [ 75.682027965441108, 12.348525378372479 ], [ 75.68190442679979, 12.348671210583964 ], [ 75.680886165399968, 12.349439801279146 ], [ 75.680823712208266, 12.350033422389387 ], [ 75.681115027822727, 12.350314699616979 ], [ 75.6811525946747, 12.350350973122699 ], [ 75.681837002285505, 12.351014208553405 ], [ 75.681994247788396, 12.351530370952808 ], [ 75.682009590274674, 12.351580733123027 ], [ 75.682070416673696, 12.351780396339395 ], [ 75.68208093537757, 12.351814925283696 ], [ 75.682379419353524, 12.351629487821883 ], [ 75.682888473471081, 12.351302482642559 ], [ 75.683646986521254, 12.351016715091305 ], [ 75.684694962658568, 12.351213478294557 ], [ 75.685343289702544, 12.351647850807671 ], [ 75.6859200981865, 12.351691242119337 ], [ 75.686407183043627, 12.351473741602307 ], [ 75.686486273731532, 12.351438423715255 ], [ 75.686702874078705, 12.351341706559381 ], [ 75.687124802963609, 12.351145966296551 ], [ 75.687195136013315, 12.35111333604757 ], [ 75.688069875716508, 12.350707524372554 ], [ 75.688121698633083, 12.350683481340562 ], [ 75.688218571235566, 12.350638540179599 ], [ 75.688831498237889, 12.350381841825937 ], [ 75.688994561757738, 12.350356047954138 ], [ 75.689517367424116, 12.350273338722442 ], [ 75.69033762734179, 12.35014356987095 ], [ 75.690574329215536, 12.350149971685704 ], [ 75.691245122336795, 12.350168109143189 ], [ 75.691535813663307, 12.350253453905355 ], [ 75.691593207840612, 12.350270304612307 ], [ 75.691976636050072, 12.350382873906154 ], [ 75.691980155165496, 12.350387464011623 ], [ 75.692366970696185, 12.350477812909919 ], [ 75.692746260894893, 12.350873018404673 ], [ 75.692865834999878, 12.350925523749957 ], [ 75.692908308417728, 12.350923634347801 ], [ 75.692989698016831, 12.350920012869784 ], [ 75.693084928444236, 12.350915776529989 ], [ 75.693147349446761, 12.350946287351402 ], [ 75.69327059087297, 12.35100652270274 ], [ 75.6933239267468, 12.351032592291793 ], [ 75.693429559687118, 12.351084221368152 ], [ 75.695040692609368, 12.351871679777236 ], [ 75.695304525445252, 12.351888900827996 ], [ 75.695491734927032, 12.35190112049745 ], [ 75.695777653380091, 12.351919783956211 ], [ 75.696136239307393, 12.352010585525443 ], [ 75.696190590905246, 12.351841785060662 ], [ 75.696300557138088, 12.351418765886832 ], [ 75.696403287632222, 12.351270984109647 ], [ 75.696648894676287, 12.351221080634319 ], [ 75.697329462213077, 12.350831285034191 ], [ 75.697487077465084, 12.35058544610952 ], [ 75.697381365236026, 12.350292896500932 ], [ 75.697381242942384, 12.350292562239778 ], [ 75.697513809616979, 12.350312226808329 ], [ 75.697667862071555, 12.350340623839381 ], [ 75.697755102560606, 12.350266068908129 ], [ 75.698734036068004, 12.349429476868037 ], [ 75.699541338933855, 12.349397321797223 ], [ 75.6999125507743, 12.349350757030933 ], [ 75.699946419665949, 12.349346507747933 ], [ 75.699976281386483, 12.349333341054033 ], [ 75.701065713477476, 12.348852993741215 ], [ 75.701356844806412, 12.348717332580355 ], [ 75.701777490280321, 12.348521321370081 ], [ 75.701964904412421, 12.348615692154821 ], [ 75.702506992573532, 12.348888650243961 ], [ 75.702907624104483, 12.349483436102894 ], [ 75.702929593109204, 12.34951605372728 ], [ 75.702876758741311, 12.349921054194994 ], [ 75.703035577205682, 12.350100221059744 ], [ 75.703096958329823, 12.350157084897225 ], [ 75.703101241204109, 12.350161051656237 ], [ 75.703284741148465, 12.350017285531701 ], [ 75.703297611081638, 12.35000720153382 ], [ 75.703351888488157, 12.349848313395098 ], [ 75.703499759854935, 12.350002545414144 ], [ 75.703556341978327, 12.350061561903416 ], [ 75.703635058197776, 12.350143664680695 ], [ 75.703779527520041, 12.350280963221921 ], [ 75.703831635509843, 12.350330484787818 ], [ 75.70446856436503, 12.350935796964778 ], [ 75.704866606565361, 12.351056222203233 ], [ 75.705112942578694, 12.351489594598714 ], [ 75.704965510116409, 12.351866193354494 ], [ 75.704954482127121, 12.35189436315183 ], [ 75.704902487390626, 12.352027176939888 ], [ 75.704877331815851, 12.35209143495584 ], [ 75.704822603750699, 12.352231229402962 ], [ 75.705164322924759, 12.352409521891305 ], [ 75.705472810290118, 12.352484783504639 ], [ 75.705797043822486, 12.352452151007922 ], [ 75.705821233612284, 12.352449716477913 ], [ 75.706539458053129, 12.352560219771519 ], [ 75.707135152997168, 12.352492838168702 ] ] ], [ [ [ 75.724539805650323, 12.244226656197828 ], [ 75.724617739617315, 12.244291139309647 ], [ 75.724629270058983, 12.24430067955489 ], [ 75.724629270852532, 12.244300679539 ], [ 75.724361664934335, 12.244079260743218 ], [ 75.724539805650323, 12.244226656197828 ] ] ], [ [ [ 75.72421265589675, 12.243955969820414 ], [ 75.72423282201693, 12.243972655314568 ], [ 75.724149965907458, 12.243904099655916 ], [ 75.72421265589675, 12.243955969820414 ] ] ] ] } }
]
}
