{
"type": "FeatureCollection",
"name": "wards_in_police_area.writing_20260805_172659",
"crs": { "type": "name", "properties": { "name": "urn:ogc:def:crs:OGC:1.3:CRS84" } },
"features": [
{ "type": "Feature", "properties": { "KGISWardID": 1747, "KGISWardCode": "2401027", "KGISWardName": "PANE MANGALURE 27", "SHAPE.STArea()": 2701356.218370615, "SHAPE.STLength()": 8436.991351700517, "OBJECTID": 19672, "KGISWardNo": "27", "KGISTownCode": "2401", "LGD_WardCode": 1887180, "created_user": "SA", "created_date": 1634898537000, "last_edited_user": "SURESHBV1", "last_edited_date": 1692254035000, "_overlap_percent": 0.35318703045656624, "_police_station": "Buntwala Rural PS", "_police_feature_index": "553", "_admin_layer": "Ward", "_geometry_clipped": true }, "geometry": { "type": "MultiPolygon", "coordinates": [ [ [ [ 75.074613828127823, 12.864740608424336 ], [ 75.074618211942962, 12.864735724063323 ], [ 75.074614263197134, 12.864705426653071 ], [ 75.07458998343607, 12.864732934249348 ], [ 75.074587205480753, 12.864736082715817 ], [ 75.074613828127823, 12.864740608424336 ] ] ], [ [ [ 75.071421616897993, 12.864897115637461 ], [ 75.07142876700749, 12.864890125411449 ], [ 75.071483948561408, 12.86483616522094 ], [ 75.071478073018625, 12.864837787602479 ], [ 75.071400911404481, 12.864915306353668 ], [ 75.07139382768861, 12.864922422255836 ], [ 75.071330038196649, 12.864986506481321 ], [ 75.071421616897993, 12.864897115637461 ] ] ], [ [ [ 75.070814202196331, 12.866816977065534 ], [ 75.070870588343425, 12.866460405927057 ], [ 75.070877702058411, 12.866415492923693 ], [ 75.070523370935064, 12.86580105400939 ], [ 75.070507470311753, 12.86577768263774 ], [ 75.070502035518672, 12.865770179056165 ], [ 75.070474579611698, 12.86579017054693 ], [ 75.070493120487725, 12.865815723239388 ], [ 75.070509111456147, 12.865839169642822 ], [ 75.070866346512673, 12.866455976099905 ], [ 75.070859661482444, 12.866501291391728 ], [ 75.070806567504249, 12.866861132419709 ], [ 75.07078215708286, 12.867062771758684 ], [ 75.070814202196331, 12.866816977065534 ] ] ], [ [ [ 75.069511356768359, 12.870120681029356 ], [ 75.069699064804524, 12.870146100243169 ], [ 75.06985453383632, 12.870172975666447 ], [ 75.069982573148778, 12.870217801949554 ], [ 75.070174641855985, 12.870316444638808 ], [ 75.070183936646472, 12.870321787350083 ], [ 75.070351470632559, 12.870418081729843 ], [ 75.070586208624974, 12.870492786316168 ], [ 75.070607518851062, 12.870394086551737 ], [ 75.070625780142578, 12.870295389414842 ], [ 75.070637809561688, 12.870231559376274 ], [ 75.070640999367953, 12.870214634915929 ], [ 75.070634870645833, 12.870100987555665 ], [ 75.070589101032539, 12.869936511340949 ], [ 75.070537252129469, 12.86983484081088 ], [ 75.070467112648643, 12.869730183827617 ], [ 75.070412225026843, 12.869661412701127 ], [ 75.070345121130771, 12.869511894437094 ], [ 75.07033104141837, 12.869415382591058 ], [ 75.070320384821699, 12.869345323635647 ], [ 75.069961346453596, 12.869488209129763 ], [ 75.069961344904087, 12.869488209746399 ], [ 75.069921674671463, 12.869584624109518 ], [ 75.069659721411526, 12.869549665643438 ], [ 75.06963215485888, 12.869545986216025 ], [ 75.069511356565556, 12.870120681001765 ], [ 75.069511356768359, 12.870120681029356 ] ] ] ] } },
{ "type": "Feature", "properties": { "KGISWardID": 1727, "KGISWardCode": "2401005", "KGISWardName": "Bantwal Kasaba 5", "SHAPE.STArea()": 924883.04951614502, "SHAPE.STLength()": 6730.8747704669731, "OBJECTID": 19650, "KGISWardNo": "5", "KGISTownCode": "2401", "LGD_WardCode": 28377, "created_user": "SA", "created_date": 1634898537000, "last_edited_user": "SURESHBV1", "last_edited_date": 1692254035000, "_overlap_percent": 0.020326208102611865, "_police_station": "Buntwala Rural PS", "_police_feature_index": "553", "_admin_layer": "Ward", "_geometry_clipped": true }, "geometry": { "type": "MultiPolygon", "coordinates": [ [ [ [ 75.064989421039272, 12.898439932592948 ], [ 75.064833914944785, 12.898267499004248 ], [ 75.06504199740408, 12.898507095797227 ], [ 75.064989421039272, 12.898439932592948 ] ] ], [ [ [ 75.065833765598725, 12.899558086586051 ], [ 75.065730340246546, 12.899385569094362 ], [ 75.065638693546845, 12.899269339917224 ], [ 75.065047232794413, 12.898513783699512 ], [ 75.065678590105435, 12.899353369895884 ], [ 75.065768249160342, 12.899471900041252 ], [ 75.065828806824797, 12.899577599391369 ], [ 75.065833765598725, 12.899558086586051 ] ] ] ] } },
{ "type": "Feature", "properties": { "KGISWardID": 1725, "KGISWardCode": "2401003", "KGISWardName": "Bantwal Kasaba 3", "SHAPE.STArea()": 1358166.3159315151, "SHAPE.STLength()": 7504.2460389837797, "OBJECTID": 19648, "KGISWardNo": "3", "KGISTownCode": "2401", "LGD_WardCode": 28375, "created_user": "SA", "created_date": 1634898537000, "last_edited_user": "SURESHBV1", "last_edited_date": 1692254035000, "_overlap_percent": 0.78506240202762223, "_police_station": "Buntwala Rural PS", "_police_feature_index": "553", "_admin_layer": "Ward", "_geometry_clipped": true }, "geometry": { "type": "MultiPolygon", "coordinates": [ [ [ [ 75.065980172033193, 12.910337712055791 ], [ 75.065959680441892, 12.91024867936564 ], [ 75.066016786860743, 12.910231794752333 ], [ 75.066082247086641, 12.910208739034855 ], [ 75.066106783274023, 12.910204967420514 ], [ 75.066328897396346, 12.910170098289433 ], [ 75.066765713539809, 12.91014041270309 ], [ 75.066837257385544, 12.909706659591064 ], [ 75.066858557400323, 12.909648949491977 ], [ 75.066806891732583, 12.909561338645927 ], [ 75.066750326279774, 12.909712577689938 ], [ 75.066653177172455, 12.909657490387117 ], [ 75.066623915912388, 12.909640898025746 ], [ 75.066584718663748, 12.909618671830893 ], [ 75.066187540087327, 12.909669667227892 ], [ 75.066184301919648, 12.909670434874917 ], [ 75.066091202518251, 12.909692513753194 ], [ 75.065962581768019, 12.909863248489312 ], [ 75.066014215133507, 12.910183259218705 ], [ 75.065950257961163, 12.910204614498561 ], [ 75.065894446357731, 12.910220153206287 ], [ 75.065925271795351, 12.910359585420961 ], [ 75.065980172033193, 12.910337712055791 ] ] ], [ [ [ 75.064530022983149, 12.913219732628876 ], [ 75.064514851541119, 12.913080207309321 ], [ 75.064553799213272, 12.912778733378039 ], [ 75.064614723339943, 12.912577742713331 ], [ 75.06478834674553, 12.912435949758395 ], [ 75.064862178452927, 12.912375653231493 ], [ 75.06490149504441, 12.912244829823104 ], [ 75.064836550236478, 12.912091995053963 ], [ 75.064930637933131, 12.911991403408345 ], [ 75.065094595783222, 12.91160909569143 ], [ 75.065216444434242, 12.911378062261187 ], [ 75.065235354782686, 12.911342174010981 ], [ 75.06531366725018, 12.911278980739286 ], [ 75.065467823612465, 12.911121509306723 ], [ 75.065473162366999, 12.911116107625528 ], [ 75.065428814255355, 12.911069569967827 ], [ 75.065410418200656, 12.911088452447713 ], [ 75.065258769271409, 12.911246195408383 ], [ 75.065181735444995, 12.911309642446898 ], [ 75.065163061136403, 12.911345748565322 ], [ 75.065042669394686, 12.911578518725543 ], [ 75.064879809679979, 12.911965531093058 ], [ 75.06475201339012, 12.911973401962031 ], [ 75.064630460403109, 12.912109396460837 ], [ 75.064566912702247, 12.912180494687831 ], [ 75.064609336767845, 12.9122644092716 ], [ 75.064529385206342, 12.912304052642225 ], [ 75.064377804545785, 12.912258130129286 ], [ 75.064244743154319, 12.912387369617734 ], [ 75.064286391801559, 12.912968663135976 ], [ 75.064298328460978, 12.913191425268462 ], [ 75.064282335733026, 12.913215815762733 ], [ 75.064530022983149, 12.913219732628876 ] ] ] ] } },
{ "type": "Feature", "properties": { "KGISWardID": 1723, "KGISWardCode": "2401001", "KGISWardName": "Bantwal Kasaba 1", "SHAPE.STArea()": 2406627.8434214001, "SHAPE.STLength()": 10573.362818420197, "OBJECTID": 19646, "KGISWardNo": "1", "KGISTownCode": "2401", "LGD_WardCode": 28373, "created_user": "SA", "created_date": 1634898537000, "last_edited_user": "SURESHBV1", "last_edited_date": 1692254035000, "_overlap_percent": 1.8620077357661196, "_police_station": "Buntwala Rural PS", "_police_feature_index": "553", "_admin_layer": "Ward", "_geometry_clipped": true }, "geometry": { "type": "MultiPolygon", "coordinates": [ [ [ [ 75.042081320870892, 12.930384370169163 ], [ 75.043321441719399, 12.930069681719164 ], [ 75.044685048946263, 12.92974099429823 ], [ 75.045114108847287, 12.929541160440568 ], [ 75.046274027734469, 12.929091259897859 ], [ 75.046544509058037, 12.928985627605867 ], [ 75.046541322968395, 12.929144743732875 ], [ 75.046581138955091, 12.929145873306974 ], [ 75.046699121448555, 12.929101539071938 ], [ 75.046962527302242, 12.928962721575919 ], [ 75.047103988805844, 12.928900490921619 ], [ 75.047501583736548, 12.928812242896583 ], [ 75.047706450009144, 12.928676307275554 ], [ 75.047870328925313, 12.928498269574703 ], [ 75.048065439254231, 12.928371906319867 ], [ 75.048217628237268, 12.928285745933563 ], [ 75.048498573196923, 12.928036866880122 ], [ 75.048771736651915, 12.927910488584764 ], [ 75.048988323328373, 12.927845369977582 ], [ 75.049136620368074, 12.927820459137093 ], [ 75.049241859468168, 12.927832884865948 ], [ 75.049411765234083, 12.927852945787389 ], [ 75.049684966640768, 12.927921800704436 ], [ 75.049839131717363, 12.92796770856088 ], [ 75.049974220968721, 12.92728559519654 ], [ 75.04999625222743, 12.92726679559359 ], [ 75.050041657810198, 12.927242491700822 ], [ 75.050209328584259, 12.927128812764499 ], [ 75.050456264856564, 12.926982219934029 ], [ 75.050669651424002, 12.926775819112812 ], [ 75.050800722545858, 12.926611304855509 ], [ 75.050814433851443, 12.926593477090165 ], [ 75.050846386337781, 12.926551931122686 ], [ 75.051118512026306, 12.926128053558477 ], [ 75.051186692178149, 12.925740346125126 ], [ 75.051186978655394, 12.925738733359561 ], [ 75.050297305283493, 12.926364071848315 ], [ 75.050146558374493, 12.926465132035217 ], [ 75.048811914400872, 12.927397386507465 ], [ 75.047467231265998, 12.928320054237526 ], [ 75.046687122286116, 12.928879617337078 ], [ 75.046585881230257, 12.928952236152716 ], [ 75.046316861230665, 12.92905322386517 ], [ 75.045163228753665, 12.929486284981902 ], [ 75.044735162968735, 12.929681935568174 ], [ 75.043371163701508, 12.930007033339391 ], [ 75.042123121611382, 12.930328877938372 ], [ 75.042098559852306, 12.930335211758281 ], [ 75.042081320870892, 12.930384370169163 ] ] ], [ [ [ 75.064008874547596, 12.915311311770115 ], [ 75.064125217055746, 12.91505144737609 ], [ 75.064199931374432, 12.914884408154448 ], [ 75.064367019579549, 12.914925384156895 ], [ 75.064473814228535, 12.914738269236068 ], [ 75.064631831267349, 12.9146099883422 ], [ 75.064734484541461, 12.914529800580118 ], [ 75.064767544946264, 12.914402387885822 ], [ 75.06476318750731, 12.914298999348283 ], [ 75.06476029089599, 12.914230265059347 ], [ 75.064888226545861, 12.913864878243771 ], [ 75.064885761735582, 12.913761998342343 ], [ 75.064583887273471, 12.913350515783039 ], [ 75.064572046728955, 12.913334376456911 ], [ 75.064532571423371, 12.913243163629845 ], [ 75.064530022983149, 12.913219732628876 ], [ 75.064282335733026, 12.913215815762733 ], [ 75.06417889189909, 12.913373577855989 ], [ 75.064264424162189, 12.913490709563062 ], [ 75.064285922925677, 12.914102385366689 ], [ 75.064249417640397, 12.914274059598243 ], [ 75.064247606173865, 12.914324387585959 ], [ 75.064177701345841, 12.914733610040008 ], [ 75.064164175591571, 12.914840147147675 ], [ 75.064154467806176, 12.914916611582809 ], [ 75.064152433362992, 12.914920484196623 ], [ 75.06407939215714, 12.91509116994353 ], [ 75.063971237995958, 12.915343904793376 ], [ 75.064008874547596, 12.915311311770115 ] ] ], [ [ [ 75.063815907440116, 12.915594623745134 ], [ 75.063862467882615, 12.91544990881928 ], [ 75.063827582459254, 12.915481393654236 ], [ 75.063786330623131, 12.915615978208145 ], [ 75.063815907440116, 12.915594623745134 ] ] ], [ [ [ 75.063521354067205, 12.916143932568451 ], [ 75.063707636403578, 12.915698179168846 ], [ 75.063686005392967, 12.915714439587212 ], [ 75.063510570065759, 12.916154467920453 ], [ 75.063521354067205, 12.916143932568451 ] ] ], [ [ [ 75.06390289936968, 12.917285118430744 ], [ 75.063886755574899, 12.917178675422056 ], [ 75.063660845376631, 12.917112362060402 ], [ 75.063652986041689, 12.917070145094124 ], [ 75.06359422577593, 12.916754668030094 ], [ 75.063463641091587, 12.916743937978977 ], [ 75.063449984242723, 12.916701555121991 ], [ 75.063321303146409, 12.916584409224621 ], [ 75.063328116559617, 12.916533249008399 ], [ 75.063353978545251, 12.91634478508797 ], [ 75.063331960332079, 12.916367201121927 ], [ 75.063301651346563, 12.91660350055999 ], [ 75.063295164522174, 12.916655697901867 ], [ 75.063421883704251, 12.916775544458529 ], [ 75.063435450439712, 12.916818833424118 ], [ 75.063563604378501, 12.916830106646589 ], [ 75.063622519342644, 12.917152267188824 ], [ 75.063630403791208, 12.917195377575243 ], [ 75.063852257503981, 12.917263739236745 ], [ 75.063861677802464, 12.917326663751799 ], [ 75.06390289936968, 12.917285118430744 ] ] ], [ [ [ 75.063595682972732, 12.918411874441762 ], [ 75.063632534811163, 12.917831582874092 ], [ 75.063666537178648, 12.917584576657919 ], [ 75.063647297127247, 12.917604782115427 ], [ 75.063605768582164, 12.917929238633524 ], [ 75.063576248372001, 12.918452010581905 ], [ 75.063595682972732, 12.918411874441762 ] ] ], [ [ [ 75.054365127316004, 12.923539976006172 ], [ 75.054371438666848, 12.923528721653302 ], [ 75.053730696525335, 12.92354570386663 ], [ 75.053717968943488, 12.923551844545075 ], [ 75.054365127316004, 12.923539976006172 ] ] ], [ [ [ 75.05311158597199, 12.923833150835126 ], [ 75.05312988069528, 12.923824401382857 ], [ 75.052990268092344, 12.923764007360381 ], [ 75.052962814362303, 12.923770489490302 ], [ 75.05311158597199, 12.923833150835126 ] ] ] ] } }
]
}
