{
"type": "FeatureCollection",
"name": "villages_in_police_area.writing_20260805_172659",
"crs": { "type": "name", "properties": { "name": "urn:ogc:def:crs:OGC:1.3:CRS84" } },
"features": [
{ "type": "Feature", "properties": { "OBJECTID": 22440, "KGISVillageID": 28460, "KGISVillageCode": "2604010001", "KGISVillageName": "Mysore", "KGISHobliID": 542, "UniqueVillageCode": "2604010001_1", "Bhucode": "260401003032", "CensusVillageCode": "2957705572803194", "BhoomiVillageCode": "2604010001", "created_user": "SA", "created_date": 1556019584000.0, "last_edited_user": "SURESHBV2", "last_edited_date": 1724226116000.0, "LGDGPCode": " ", "LGDGPCode_Secondary": null, "Category": "Cadastral data available and has bhoomi linkage", "SHAPE.STArea()": 20169906.987751231, "SHAPE.STLength()": 28934.047686873681, "LGD_VillageCode": 938899.0, "_overlap_percent": 5.1756489686736842, "_police_station": "Jayalakshmipuram PS", "_police_feature_index": "321", "_admin_layer": "Village", "_geometry_clipped": true }, "geometry": { "type": "Polygon", "coordinates": [ [ [ 76.635694983229214, 12.312975129283787 ], [ 76.636109282294939, 12.312900079340128 ], [ 76.63647728399863, 12.312833414857103 ], [ 76.636733165214693, 12.312787060677264 ], [ 76.636745157744656, 12.312783883649638 ], [ 76.637299323452453, 12.312609395869289 ], [ 76.637404164653702, 12.31258679442759 ], [ 76.638447351454772, 12.312361907107455 ], [ 76.63753648798621, 12.307923116521673 ], [ 76.637043055385689, 12.307539775659054 ], [ 76.635707331689716, 12.307157237565377 ], [ 76.632728212974598, 12.306877252171599 ], [ 76.627838186260661, 12.3062353937424 ], [ 76.627357595006785, 12.306123528295018 ], [ 76.627280209434034, 12.306142254233684 ], [ 76.627281641309125, 12.306197798126838 ], [ 76.626839833887928, 12.306308271883042 ], [ 76.626421999481849, 12.306388731923265 ], [ 76.626031855278114, 12.306443984409022 ], [ 76.6260747795112, 12.306611567472245 ], [ 76.626083942488748, 12.306661167062794 ], [ 76.626804848784047, 12.310575612743921 ], [ 76.627752488705511, 12.315615242368013 ], [ 76.627779904425836, 12.315715364256361 ], [ 76.62780978115471, 12.315896290360488 ], [ 76.627897501840465, 12.316303320575757 ], [ 76.627944356644733, 12.316520770347378 ], [ 76.627965311075428, 12.316618028014814 ], [ 76.627984925827846, 12.316704222572705 ], [ 76.627987905378362, 12.316764441782363 ], [ 76.628898899244035, 12.316709135845803 ], [ 76.629004902545702, 12.316644674178297 ], [ 76.629031287727685, 12.316628629278478 ], [ 76.6291010302497, 12.316586218694477 ], [ 76.629240061831993, 12.316501672284963 ], [ 76.629335111371716, 12.316443871318763 ], [ 76.629345324264534, 12.316440241460615 ], [ 76.629600667556829, 12.316349483920272 ], [ 76.630064367734406, 12.31618466858434 ], [ 76.630197348850231, 12.316131462794601 ], [ 76.630320249164612, 12.316082290129984 ], [ 76.630653736956106, 12.315948861839917 ], [ 76.63192042501997, 12.315564086589427 ], [ 76.632393598635687, 12.315417254504847 ], [ 76.632499571377892, 12.315323704385744 ], [ 76.632591166509016, 12.315242847111772 ], [ 76.632664348023283, 12.315178244102807 ], [ 76.632732235988442, 12.315103528357469 ], [ 76.632730444163144, 12.315093296829666 ], [ 76.632783078354834, 12.315047572558974 ], [ 76.632812934088193, 12.315014714108067 ], [ 76.632843479566958, 12.314964573833349 ], [ 76.632992569060363, 12.314719845090641 ], [ 76.633069718234552, 12.314568116899984 ], [ 76.633106593792462, 12.314495593228179 ], [ 76.633326168222411, 12.314063755285883 ], [ 76.633381182634679, 12.313895670772299 ], [ 76.633403970321098, 12.313826048127911 ], [ 76.633439288988541, 12.313755862398303 ], [ 76.633457678046682, 12.313719319249724 ], [ 76.633512437411923, 12.313610499494228 ], [ 76.633522941112332, 12.313595798501812 ], [ 76.633585040880121, 12.313508881712242 ], [ 76.633627603430114, 12.313449310592773 ], [ 76.633966188965374, 12.313217766326559 ], [ 76.63456543650436, 12.313136884093138 ], [ 76.634579233839801, 12.313124466160659 ], [ 76.635472543451797, 12.313011217844915 ], [ 76.635694983229214, 12.312975129283787 ] ] ] } },
{ "type": "Feature", "properties": { "OBJECTID": 22412, "KGISVillageID": 28432, "KGISVillageCode": "2604010016", "KGISVillageName": "Bogadhi", "KGISHobliID": 542, "UniqueVillageCode": "2604010016_1", "Bhucode": "260401003005", "CensusVillageCode": "2957705572803194", "BhoomiVillageCode": "2604010016", "created_user": "SA", "created_date": 1556019584000.0, "last_edited_user": "SURESHBV2", "last_edited_date": 1724226116000.0, "LGDGPCode": " ", "LGDGPCode_Secondary": null, "Category": "Cadastral data available and has bhoomi linkage", "SHAPE.STArea()": 8496476.6460948195, "SHAPE.STLength()": 14502.434609863507, "LGD_VillageCode": 618830.0, "_overlap_percent": 0.13526985096722238, "_police_station": "Jayalakshmipuram PS", "_police_feature_index": "321", "_admin_layer": "Village", "_geometry_clipped": true }, "geometry": { "type": "MultiPolygon", "coordinates": [ [ [ [ 76.618170143214869, 12.306852494914365 ], [ 76.618242045731407, 12.307107598716197 ], [ 76.618930605856363, 12.307248287183041 ], [ 76.619396894674765, 12.307278888043891 ], [ 76.61979249799613, 12.307304021195002 ], [ 76.619829887201362, 12.307201552227788 ], [ 76.619830095404566, 12.307200564672181 ], [ 76.619456087066155, 12.307178074385856 ], [ 76.618987789922272, 12.30714991361528 ], [ 76.618295766389508, 12.307014544953866 ], [ 76.618223515071321, 12.306760132976297 ], [ 76.617652776110958, 12.306799871087382 ], [ 76.617654711017778, 12.306884194578533 ], [ 76.618170143214869, 12.306852494914365 ] ] ], [ [ [ 76.616384822216958, 12.307129441022854 ], [ 76.617108130766155, 12.307258802378291 ], [ 76.617368993400873, 12.307247756852764 ], [ 76.617610128516418, 12.307203921752802 ], [ 76.617608369880969, 12.307125917165614 ], [ 76.617417367463958, 12.307162049943724 ], [ 76.617154793438374, 12.307175401764093 ], [ 76.616426209601826, 12.307052895923457 ], [ 76.615270143513726, 12.30699629276344 ], [ 76.615259095489222, 12.307034137600898 ], [ 76.615250999681393, 12.307061869153044 ], [ 76.616384822216958, 12.307129441022854 ] ] ], [ [ [ 76.607738222910626, 12.311619056588299 ], [ 76.608007744394357, 12.310789613061122 ], [ 76.608506177988829, 12.309736183085699 ], [ 76.608985371458971, 12.309163992226111 ], [ 76.609405385163569, 12.308662979788423 ], [ 76.609960755623717, 12.308347776884633 ], [ 76.610298276366578, 12.308156621577185 ], [ 76.610089469589326, 12.307573990734502 ], [ 76.609770296909971, 12.307265988879013 ], [ 76.609386388621473, 12.306770192770118 ], [ 76.60918017575672, 12.306086525301154 ], [ 76.609266956352201, 12.306090860656951 ], [ 76.609389449073646, 12.306014811534874 ], [ 76.609522182639026, 12.305932643504029 ], [ 76.610699628226158, 12.306097780207201 ], [ 76.611615745587315, 12.306339012130584 ], [ 76.612382249080298, 12.306580191462627 ], [ 76.613082611481119, 12.306657287704533 ], [ 76.615187906701493, 12.307234050805297 ], [ 76.615207640534322, 12.307166479124529 ], [ 76.613092151546979, 12.306613628311405 ], [ 76.612383499756589, 12.306543037287703 ], [ 76.61160781355342, 12.306307808828223 ], [ 76.610679598163102, 12.306073418153126 ], [ 76.609483402986811, 12.30591600789376 ], [ 76.609345965264353, 12.306000758287421 ], [ 76.609218785517314, 12.306079184462865 ], [ 76.60912805986375, 12.306075724782291 ], [ 76.609337974066776, 12.306768485465913 ], [ 76.609728127539555, 12.307264462730954 ], [ 76.610050696097659, 12.307569577172933 ], [ 76.61026217111008, 12.308151366084926 ], [ 76.609916609279892, 12.308347574125936 ], [ 76.609346570633292, 12.308671237011851 ], [ 76.60891529224773, 12.309178174474292 ], [ 76.608423752546699, 12.309755938701441 ], [ 76.607926393427874, 12.310809691298051 ], [ 76.607674489970449, 12.311618666358617 ], [ 76.607738222910626, 12.311619056588299 ] ] ] ] } },
{ "type": "Feature", "properties": { "OBJECTID": 22430, "KGISVillageID": 28450, "KGISVillageCode": "2604010035", "KGISVillageName": "Kukkarahalli", "KGISHobliID": 542, "UniqueVillageCode": "2604010035_1", "Bhucode": "260401003022", "CensusVillageCode": "2957705572803194", "BhoomiVillageCode": "2604010035", "created_user": "SA", "created_date": 1556019584000.0, "last_edited_user": "SURESHBV2", "last_edited_date": 1724226116000.0, "LGDGPCode": " ", "LGDGPCode_Secondary": null, "Category": "Cadastral data available and has bhoomi linkage", "SHAPE.STArea()": 1069024.70353533, "SHAPE.STLength()": 4936.8773802827291, "LGD_VillageCode": 939291.0, "_overlap_percent": 0.67749174111600119, "_police_station": "Jayalakshmipuram PS", "_police_feature_index": "321", "_admin_layer": "Village", "_geometry_clipped": true }, "geometry": { "type": "Polygon", "coordinates": [ [ [ 76.619829887201362, 12.307201552227788 ], [ 76.61979249799613, 12.307304021195002 ], [ 76.62022119707018, 12.307577076868411 ], [ 76.62108737680478, 12.307683138728464 ], [ 76.623004189309839, 12.30807645103604 ], [ 76.62329002826614, 12.308046529887235 ], [ 76.623578293336195, 12.307898875127785 ], [ 76.625781345828045, 12.306594637728308 ], [ 76.626031855278114, 12.306443984409022 ], [ 76.626421999481849, 12.306388731923265 ], [ 76.626839833887928, 12.306308271883042 ], [ 76.627281641309125, 12.306197798126838 ], [ 76.627280209434034, 12.306142254233684 ], [ 76.626914914890861, 12.306230649046402 ], [ 76.626496364097036, 12.306307909724257 ], [ 76.626105645314055, 12.306360150927809 ], [ 76.625854363626999, 12.306509290199484 ], [ 76.623645417089222, 12.307806439674307 ], [ 76.62335618643786, 12.307953876940292 ], [ 76.623069795054747, 12.307983046598002 ], [ 76.621150651083269, 12.307583030076236 ], [ 76.620282447086254, 12.307475883844727 ], [ 76.619853168182644, 12.307201952110193 ], [ 76.619830095404566, 12.307200564672181 ], [ 76.619829887201362, 12.307201552227788 ] ] ] } },
{ "type": "Feature", "properties": { "OBJECTID": 31643, "KGISVillageID": 28471, "KGISVillageCode": "2604010017", "KGISVillageName": "Vijayashripura", "KGISHobliID": 542, "UniqueVillageCode": "2604010017_1", "Bhucode": "260401003042", "CensusVillageCode": "2957705572803194", "BhoomiVillageCode": "2604010017", "created_user": "SA", "created_date": 1556019584000.0, "last_edited_user": "SURESHBV2", "last_edited_date": 1724226116000.0, "LGDGPCode": " ", "LGDGPCode_Secondary": null, "Category": "Cadastral data available and has bhoomi linkage", "SHAPE.STArea()": 3291500.4134058249, "SHAPE.STLength()": 8587.0028620823377, "LGD_VillageCode": 939297.0, "_overlap_percent": 99.552346267190003, "_police_station": "Jayalakshmipuram PS", "_police_feature_index": "321", "_admin_layer": "Village", "_geometry_clipped": true }, "geometry": { "type": "Polygon", "coordinates": [ [ [ 76.619355770877007, 12.326188643710543 ], [ 76.619263064318503, 12.325078700929376 ], [ 76.619472796489291, 12.325083144368914 ], [ 76.620020654125327, 12.325094750818446 ], [ 76.620023163893109, 12.324885982786071 ], [ 76.620024111897237, 12.324807086236611 ], [ 76.620209659276554, 12.324804084624132 ], [ 76.620525573507194, 12.324798972755916 ], [ 76.620684313276854, 12.324801998673859 ], [ 76.620901037495415, 12.324759507032097 ], [ 76.621039317503659, 12.324732395120712 ], [ 76.621081864716075, 12.324724056251808 ], [ 76.621007582820752, 12.324551790857168 ], [ 76.620803746755342, 12.324079076580528 ], [ 76.620747458165397, 12.323475615648695 ], [ 76.620729670744851, 12.32328491954093 ], [ 76.620816948312822, 12.323044759899725 ], [ 76.620872412805042, 12.322892137753703 ], [ 76.620847578487229, 12.32152066370282 ], [ 76.620819562566453, 12.321218189784135 ], [ 76.620813319094992, 12.320996926402895 ], [ 76.620786292851392, 12.320751985335052 ], [ 76.620678638914981, 12.320332050026803 ], [ 76.620668204061033, 12.320291343975315 ], [ 76.620669120838954, 12.3202862780154 ], [ 76.620707671106885, 12.320073300415102 ], [ 76.620720996046856, 12.319999687418342 ], [ 76.620735508384087, 12.319979607795554 ], [ 76.620737355357903, 12.319977052108859 ], [ 76.62073754315054, 12.319976791549873 ], [ 76.620778487449314, 12.319920138816876 ], [ 76.620858039476417, 12.319810066305983 ], [ 76.620889877649105, 12.319794649638315 ], [ 76.621227274933005, 12.319630344658595 ], [ 76.622807551141847, 12.318860777679049 ], [ 76.622956578465249, 12.318785276023707 ], [ 76.623268990410139, 12.318704494640222 ], [ 76.623925872415924, 12.318423849842441 ], [ 76.624123159430042, 12.318494736761322 ], [ 76.624525668693991, 12.318334394432048 ], [ 76.624572400875763, 12.318313246997533 ], [ 76.624659565737019, 12.318273801886162 ], [ 76.624896668174188, 12.318166505477885 ], [ 76.626015139618758, 12.317660358950777 ], [ 76.626393760411688, 12.317497243748077 ], [ 76.626745147143311, 12.317399187352548 ], [ 76.626901471503814, 12.317298524900663 ], [ 76.627392087275851, 12.31724139777439 ], [ 76.627454729139998, 12.317129049751578 ], [ 76.627454083732204, 12.317109360302922 ], [ 76.6274500334127, 12.316985782685512 ], [ 76.627448253439781, 12.316931479211995 ], [ 76.627694274945597, 12.316878929716433 ], [ 76.627716476015735, 12.316874187975499 ], [ 76.627713182062578, 12.316797260484359 ], [ 76.627987905378362, 12.316764441782363 ], [ 76.627984925827846, 12.316704222572705 ], [ 76.627965311075428, 12.316618028014814 ], [ 76.627944356644733, 12.316520770347378 ], [ 76.627897501840465, 12.316303320575757 ], [ 76.62780978115471, 12.315896290360488 ], [ 76.627779904425836, 12.315715364256361 ], [ 76.627752488705511, 12.315615242368013 ], [ 76.626804848784047, 12.310575612743921 ], [ 76.626083942488748, 12.306661167062794 ], [ 76.6260747795112, 12.306611567472245 ], [ 76.626031855278114, 12.306443984409022 ], [ 76.625781345828045, 12.306594637728308 ], [ 76.623578293336195, 12.307898875127785 ], [ 76.62329002826614, 12.308046529887235 ], [ 76.623004189309839, 12.30807645103604 ], [ 76.62108737680478, 12.307683138728464 ], [ 76.62022119707018, 12.307577076868411 ], [ 76.61979249799613, 12.307304021195002 ], [ 76.619396894674765, 12.307278888043891 ], [ 76.618930605856363, 12.307248287183041 ], [ 76.618242045731407, 12.307107598716197 ], [ 76.618170143214869, 12.306852494914365 ], [ 76.617654711017778, 12.306884194578533 ], [ 76.617660033378485, 12.307116143751635 ], [ 76.617608369880969, 12.307125917165614 ], [ 76.617610128516418, 12.307203921752802 ], [ 76.617368993400873, 12.307247756852764 ], [ 76.617108130766155, 12.307258802378291 ], [ 76.616384822216958, 12.307129441022854 ], [ 76.615250999681393, 12.307061869153044 ], [ 76.615219551648607, 12.307169591912759 ], [ 76.615207640534322, 12.307166479124529 ], [ 76.615187906701493, 12.307234050805297 ], [ 76.613082611481119, 12.306657287704533 ], [ 76.612382249080298, 12.306580191462627 ], [ 76.611615745587315, 12.306339012130584 ], [ 76.610699628226158, 12.306097780207201 ], [ 76.609522182639026, 12.305932643504029 ], [ 76.609389449073646, 12.306014811534874 ], [ 76.609266956352201, 12.306090860656951 ], [ 76.60918017575672, 12.306086525301154 ], [ 76.609386388621473, 12.306770192770118 ], [ 76.609770296909971, 12.307265988879013 ], [ 76.610089469589326, 12.307573990734502 ], [ 76.610298276366578, 12.308156621577185 ], [ 76.609960755623717, 12.308347776884633 ], [ 76.609405385163569, 12.308662979788423 ], [ 76.608985371458971, 12.309163992226111 ], [ 76.608506177988829, 12.309736183085699 ], [ 76.608007744394357, 12.310789613061122 ], [ 76.607738222910626, 12.311619056588299 ], [ 76.607704647987475, 12.3120131399897 ], [ 76.607830684668087, 12.312498695567985 ], [ 76.608528442824735, 12.313992814611877 ], [ 76.608667319835945, 12.314270999600842 ], [ 76.608599987132393, 12.314721953898289 ], [ 76.608304704442475, 12.3155447652862 ], [ 76.608318569261414, 12.316671027875108 ], [ 76.608010513712358, 12.317607742394051 ], [ 76.60802409805504, 12.318417635645904 ], [ 76.608243584401208, 12.319202043955928 ], [ 76.608862118171615, 12.320062038349572 ], [ 76.609288882861421, 12.320339106946568 ], [ 76.60969916747878, 12.320605475565461 ], [ 76.609969349583309, 12.320693163295619 ], [ 76.610205839428204, 12.320769916805942 ], [ 76.610666464136884, 12.320919410918256 ], [ 76.610684958623196, 12.320928160010622 ], [ 76.611064401991612, 12.32110766660904 ], [ 76.611333255332241, 12.32118599265802 ], [ 76.611602078711428, 12.321149475660924 ], [ 76.611712938155975, 12.321320432019178 ], [ 76.611964691881084, 12.321485427163587 ], [ 76.612249596368756, 12.321462895097794 ], [ 76.612751551083207, 12.321423196571285 ], [ 76.613215427213447, 12.321386509158698 ], [ 76.613494873713876, 12.321438099057502 ], [ 76.614057970417704, 12.321747691728545 ], [ 76.614270143733705, 12.321805440542599 ], [ 76.614459971844511, 12.321857109118513 ], [ 76.61471340317506, 12.32228710767817 ], [ 76.614835332386249, 12.322723053779711 ], [ 76.614835098422574, 12.322779024737288 ], [ 76.614799528959495, 12.322772841630018 ], [ 76.614813060863071, 12.322820692497075 ], [ 76.614813029087898, 12.322876951535214 ], [ 76.61473564810484, 12.322863525656901 ], [ 76.614701387064471, 12.32311810649164 ], [ 76.614698253724981, 12.323141389184084 ], [ 76.61467709800317, 12.323153185732394 ], [ 76.614541770226495, 12.323228646673039 ], [ 76.614528156111675, 12.323323750921265 ], [ 76.614528010616809, 12.3233247651536 ], [ 76.614524491810727, 12.323349363621968 ], [ 76.614168251820729, 12.32357632158072 ], [ 76.61412391273079, 12.323594763011185 ], [ 76.61412072135353, 12.323596090860113 ], [ 76.613411365510075, 12.323891128485581 ], [ 76.613411544120893, 12.323911904275661 ], [ 76.613471606959664, 12.323980086093886 ], [ 76.613232633584687, 12.324085993648669 ], [ 76.613233213792071, 12.324124204439553 ], [ 76.613514073339331, 12.324451043158851 ], [ 76.613583937768283, 12.32470139135674 ], [ 76.614861169544014, 12.324912607029809 ], [ 76.616157862041447, 12.325141877723881 ], [ 76.616444867634826, 12.325254260397335 ], [ 76.616667870938329, 12.325341852138813 ], [ 76.617918154102156, 12.325618850085531 ], [ 76.617982159230351, 12.326163173672729 ], [ 76.618225276650847, 12.326168971323447 ], [ 76.61825848552968, 12.326444916323823 ], [ 76.618336107637845, 12.326417412324867 ], [ 76.61880795348813, 12.326250218233255 ], [ 76.61911092641769, 12.326292463083991 ], [ 76.619356665028747, 12.326199348934846 ], [ 76.619355770877007, 12.326188643710543 ] ] ] } },
{ "type": "Feature", "properties": { "OBJECTID": 31642, "KGISVillageID": 28463, "KGISVillageCode": "2604010042", "KGISVillageName": "Paduvarahalli", "KGISHobliID": 542, "UniqueVillageCode": "2604010042_1", "Bhucode": "260401003035", "CensusVillageCode": "2957705572803194", "BhoomiVillageCode": "2604010042", "created_user": "SA", "created_date": 1556019584000.0, "last_edited_user": "SURESHBV2", "last_edited_date": 1724226116000.0, "LGDGPCode": " ", "LGDGPCode_Secondary": null, "Category": "Cadastral data available and has bhoomi linkage", "SHAPE.STArea()": 2571840.0511483252, "SHAPE.STLength()": 6980.2246910405111, "LGD_VillageCode": 939296.0, "_overlap_percent": 36.619739521970018, "_police_station": "Jayalakshmipuram PS", "_police_feature_index": "321", "_admin_layer": "Village", "_geometry_clipped": true }, "geometry": { "type": "MultiPolygon", "coordinates": [ [ [ [ 76.632664348023283, 12.315178244102807 ], [ 76.632591166509016, 12.315242847111772 ], [ 76.632499571377892, 12.315323704385744 ], [ 76.632393598635687, 12.315417254504847 ], [ 76.63192042501997, 12.315564086589427 ], [ 76.630653736956106, 12.315948861839917 ], [ 76.630320249164612, 12.316082290129984 ], [ 76.630197348850231, 12.316131462794601 ], [ 76.630064367734406, 12.31618466858434 ], [ 76.629600667556829, 12.316349483920272 ], [ 76.629345324264534, 12.316440241460615 ], [ 76.629335111371716, 12.316443871318763 ], [ 76.629240061831993, 12.316501672284963 ], [ 76.6291010302497, 12.316586218694477 ], [ 76.629031287727685, 12.316628629278478 ], [ 76.629004902545702, 12.316644674178297 ], [ 76.628898899244035, 12.316709135845803 ], [ 76.627987905378362, 12.316764441782363 ], [ 76.627713182062578, 12.316797260484359 ], [ 76.627716476015735, 12.316874187975499 ], [ 76.627694274945597, 12.316878929716433 ], [ 76.627448253439781, 12.316931479211995 ], [ 76.6274500334127, 12.316985782685512 ], [ 76.627454083732204, 12.317109360302922 ], [ 76.627454729139998, 12.317129049751578 ], [ 76.627392087275851, 12.31724139777439 ], [ 76.626901471503814, 12.317298524900663 ], [ 76.626745147143311, 12.317399187352548 ], [ 76.626393760411688, 12.317497243748077 ], [ 76.626015139618758, 12.317660358950777 ], [ 76.624896668174188, 12.318166505477885 ], [ 76.624659565737019, 12.318273801886162 ], [ 76.624572400875763, 12.318313246997533 ], [ 76.624525668693991, 12.318334394432048 ], [ 76.624123159430042, 12.318494736761322 ], [ 76.623925872415924, 12.318423849842441 ], [ 76.623268990410139, 12.318704494640222 ], [ 76.622956578465249, 12.318785276023707 ], [ 76.622807551141847, 12.318860777679049 ], [ 76.621227274933005, 12.319630344658595 ], [ 76.620889877649105, 12.319794649638315 ], [ 76.620858039476417, 12.319810066305983 ], [ 76.620778487449314, 12.319920138816876 ], [ 76.62073754315054, 12.319976791549873 ], [ 76.620737355357903, 12.319977052108859 ], [ 76.620735508384087, 12.319979607795554 ], [ 76.620720996046856, 12.319999687418342 ], [ 76.620707671106885, 12.320073300415102 ], [ 76.620669120838954, 12.3202862780154 ], [ 76.620668204061033, 12.320291343975315 ], [ 76.620678638914981, 12.320332050026803 ], [ 76.620786292851392, 12.320751985335052 ], [ 76.620813319094992, 12.320996926402895 ], [ 76.620819562566453, 12.321218189784135 ], [ 76.620847578487229, 12.32152066370282 ], [ 76.620872412805042, 12.322892137753703 ], [ 76.620816948312822, 12.323044759899725 ], [ 76.620729670744851, 12.32328491954093 ], [ 76.620747458165397, 12.323475615648695 ], [ 76.620803746755342, 12.324079076580528 ], [ 76.621007582820752, 12.324551790857168 ], [ 76.621081864716075, 12.324724056251808 ], [ 76.621082187954514, 12.324723992860827 ], [ 76.621109060971591, 12.324786235417857 ], [ 76.621142887599007, 12.324871104122629 ], [ 76.621201816233025, 12.325115720797484 ], [ 76.621246130742293, 12.325299674577387 ], [ 76.621252384883235, 12.325337741347132 ], [ 76.621291577538159, 12.325576310028282 ], [ 76.621301833232792, 12.325627442741851 ], [ 76.621302824940585, 12.32563238703723 ], [ 76.621452304983634, 12.325663929501047 ], [ 76.621489330373308, 12.325671742335922 ], [ 76.621868580284115, 12.325739185152139 ], [ 76.621889079102147, 12.325732880967841 ], [ 76.621884956563221, 12.325847600489345 ], [ 76.622181052746626, 12.32601183680427 ], [ 76.622271147555352, 12.326163880477685 ], [ 76.622453662225553, 12.326417364121269 ], [ 76.622612969040958, 12.326514387269818 ], [ 76.622711921888168, 12.326649252065344 ], [ 76.622939854635248, 12.326743514729408 ], [ 76.623209119843423, 12.326999684593055 ], [ 76.623513839363511, 12.327010203074931 ], [ 76.623645671825813, 12.327080259489877 ], [ 76.623714471092953, 12.327261035849805 ], [ 76.623789260636642, 12.327261270606797 ], [ 76.623838926235251, 12.327258174511643 ], [ 76.624134676343886, 12.327239733144689 ], [ 76.624142880954651, 12.327239408595686 ], [ 76.624617848715573, 12.327220669242317 ], [ 76.625051287226171, 12.327204087414799 ], [ 76.625090731417501, 12.327202578795749 ], [ 76.625157937462845, 12.327311428686958 ], [ 76.625160891113552, 12.32731106577369 ], [ 76.625353711978789, 12.327287427084588 ], [ 76.625584638330423, 12.327397453992569 ], [ 76.626100962372718, 12.327349440535148 ], [ 76.626960567772954, 12.32709559153753 ], [ 76.626946736438683, 12.326979614508137 ], [ 76.626948743586013, 12.326979501649705 ], [ 76.626938940239455, 12.326893948864248 ], [ 76.627224333214158, 12.326877900958197 ], [ 76.624653005545312, 12.324418219195113 ], [ 76.627664124069028, 12.323468356484673 ], [ 76.629105452945907, 12.322265483949007 ], [ 76.631352336919562, 12.319869893060613 ], [ 76.633040211969657, 12.318612953312986 ], [ 76.632772087710435, 12.315331086256332 ], [ 76.632732235988442, 12.315103528357469 ], [ 76.632664348023283, 12.315178244102807 ] ] ], [ [ [ 76.633966188965374, 12.313217766326559 ], [ 76.633627603430114, 12.313449310592773 ], [ 76.633585040880121, 12.313508881712242 ], [ 76.633522941112332, 12.313595798501812 ], [ 76.633512437411923, 12.313610499494228 ], [ 76.633457678046682, 12.313719319249724 ], [ 76.633439288988541, 12.313755862398303 ], [ 76.633403970321098, 12.313826048127911 ], [ 76.633381182634679, 12.313895670772299 ], [ 76.633326168222411, 12.314063755285883 ], [ 76.633106593792462, 12.314495593228179 ], [ 76.633069718234552, 12.314568116899984 ], [ 76.632992569060363, 12.314719845090641 ], [ 76.632843479566958, 12.314964573833349 ], [ 76.632812934088193, 12.315014714108067 ], [ 76.632783078354834, 12.315047572558974 ], [ 76.633418609864336, 12.314495474885556 ], [ 76.633942724615963, 12.313697339712508 ], [ 76.63456543650436, 12.313136884093138 ], [ 76.633966188965374, 12.313217766326559 ] ] ], [ [ [ 76.637404164653702, 12.31258679442759 ], [ 76.637299323452453, 12.312609395869289 ], [ 76.636745157744656, 12.312783883649638 ], [ 76.636733165214693, 12.312787060677264 ], [ 76.63647728399863, 12.312833414857103 ], [ 76.636109282294939, 12.312900079340128 ], [ 76.635694983229214, 12.312975129283787 ], [ 76.635472543451797, 12.313011217844915 ], [ 76.635551347405141, 12.313001227562856 ], [ 76.636792391419576, 12.312787338599826 ], [ 76.637389690391231, 12.312634835534402 ], [ 76.638468019734518, 12.312462627104154 ], [ 76.638447351454772, 12.312361907107455 ], [ 76.637404164653702, 12.31258679442759 ] ] ] ] } },
{ "type": "Feature", "properties": { "OBJECTID": 22424, "KGISVillageID": 28444, "KGISVillageCode": "2604010019", "KGISVillageName": "Hinakallu", "KGISHobliID": 542, "UniqueVillageCode": "2604010019_1", "Bhucode": "260401003016", "CensusVillageCode": "2957705572618829", "BhoomiVillageCode": "2604010019", "created_user": "SA", "created_date": 1556019584000.0, "last_edited_user": "SURESHBV2", "last_edited_date": 1724226116000.0, "LGDGPCode": " ", "LGDGPCode_Secondary": null, "Category": "Cadastral data available and has bhoomi linkage", "SHAPE.STArea()": 7360883.32497722, "SHAPE.STLength()": 16162.240186213541, "LGD_VillageCode": 618829.0, "_overlap_percent": 1.1436116610414426, "_police_station": "Jayalakshmipuram PS", "_police_feature_index": "321", "_admin_layer": "Village", "_geometry_clipped": true }, "geometry": { "type": "MultiPolygon", "coordinates": [ [ [ [ 76.607830684668087, 12.312498695567985 ], [ 76.607704647987475, 12.3120131399897 ], [ 76.607738222910626, 12.311619056588299 ], [ 76.607674489970449, 12.311618666358617 ], [ 76.607669136186743, 12.311635859760957 ], [ 76.607645235141561, 12.312027304435624 ], [ 76.607787225610053, 12.312508063589963 ], [ 76.608406076795305, 12.31374770282377 ], [ 76.608528442824735, 12.313992814611877 ], [ 76.607830684668087, 12.312498695567985 ] ] ], [ [ [ 76.614813029087898, 12.322876951535214 ], [ 76.614813060863071, 12.322820692497075 ], [ 76.614799528959495, 12.322772841630018 ], [ 76.614749033491961, 12.322764063907069 ], [ 76.61473564810484, 12.322863525656901 ], [ 76.614813029087898, 12.322876951535214 ] ] ], [ [ [ 76.61412072135353, 12.323596090860113 ], [ 76.61412391273079, 12.323594763011185 ], [ 76.614168251820729, 12.32357632158072 ], [ 76.614524491810727, 12.323349363621968 ], [ 76.614528010616809, 12.3233247651536 ], [ 76.614528156111675, 12.323323750921265 ], [ 76.614541770226495, 12.323228646673039 ], [ 76.614389767036599, 12.323313406091785 ], [ 76.614345220022727, 12.323333617888002 ], [ 76.61370790815154, 12.323622772235208 ], [ 76.613572713582855, 12.323684110753794 ], [ 76.613410563558688, 12.323797846486176 ], [ 76.613411365510075, 12.323891128485581 ], [ 76.61412072135353, 12.323596090860113 ] ] ], [ [ [ 76.617918154102156, 12.325618850085531 ], [ 76.617013918977634, 12.325418519487837 ], [ 76.616667870938329, 12.325341852138813 ], [ 76.616444867634826, 12.325254260397335 ], [ 76.616157862041447, 12.325141877723881 ], [ 76.615400709007844, 12.325008004898413 ], [ 76.614861169544014, 12.324912607029809 ], [ 76.614615853177341, 12.324872039219716 ], [ 76.613583937768283, 12.32470139135674 ], [ 76.613514073339331, 12.324451043158851 ], [ 76.613233213792071, 12.324124204439553 ], [ 76.613232633584687, 12.324085993648669 ], [ 76.612842297431328, 12.324258981738026 ], [ 76.613116846052591, 12.325755336794428 ], [ 76.616317525858761, 12.326123476958095 ], [ 76.617982159230351, 12.326163173672729 ], [ 76.617918154102156, 12.325618850085531 ] ] ], [ [ [ 76.621301833232792, 12.325627442741851 ], [ 76.621291577538159, 12.325576310028282 ], [ 76.621252384883235, 12.325337741347132 ], [ 76.621246130742293, 12.325299674577387 ], [ 76.621201816233025, 12.325115720797484 ], [ 76.621142887599007, 12.324871104122629 ], [ 76.621109060971591, 12.324786235417857 ], [ 76.621082187954514, 12.324723992860827 ], [ 76.621081864716075, 12.324724056251808 ], [ 76.621039317503659, 12.324732395120712 ], [ 76.620901037495415, 12.324759507032097 ], [ 76.620684313276854, 12.324801998673859 ], [ 76.620525573507194, 12.324798972755916 ], [ 76.620209659276554, 12.324804084624132 ], [ 76.620024111897237, 12.324807086236611 ], [ 76.620023163893109, 12.324885982786071 ], [ 76.620020654125327, 12.325094750818446 ], [ 76.619472796489291, 12.325083144368914 ], [ 76.619263064318503, 12.325078700929376 ], [ 76.619315936006089, 12.325711720515276 ], [ 76.619355770877007, 12.326188643710543 ], [ 76.619356665028747, 12.326199348934846 ], [ 76.619874036888589, 12.32600330875901 ], [ 76.619867871085475, 12.325992779560886 ], [ 76.619880244508977, 12.325990400948948 ], [ 76.620309632118449, 12.325815859373987 ], [ 76.620520238570435, 12.325730248843792 ], [ 76.620768577622329, 12.325631107399866 ], [ 76.620839985189136, 12.325602599164993 ], [ 76.620885048796268, 12.325748975281192 ], [ 76.621167760770859, 12.325651091079617 ], [ 76.621252470643441, 12.325621761547945 ], [ 76.621302824940585, 12.32563238703723 ], [ 76.621301833232792, 12.325627442741851 ] ] ] ] } }
]
}
