{
"type": "FeatureCollection",
"name": "wards_in_police_area.writing_20260805_172659",
"crs": { "type": "name", "properties": { "name": "urn:ogc:def:crs:OGC:1.3:CRS84" } },
"features": [
{ "type": "Feature", "properties": { "KGISWardID": 6777, "KGISWardCode": "0105058", "KGISWardName": " ", "SHAPE.STArea()": 10749447.41503018, "SHAPE.STLength()": 14389.940958833888, "OBJECTID": 14146, "KGISWardNo": "58", "KGISTownCode": "0105", "LGD_WardCode": 25634, "created_user": "SA", "created_date": 1634898537000, "last_edited_user": "SURESHBV1", "last_edited_date": 1692253928000, "_overlap_percent": 0.23134040756683144, "_police_station": "Marihal PS", "_police_feature_index": "69", "_admin_layer": "Ward", "_geometry_clipped": true }, "geometry": { "type": "MultiPolygon", "coordinates": [ [ [ [ 74.577062238009717, 15.85714414777712 ], [ 74.577509524372587, 15.856929938671531 ], [ 74.577979015249454, 15.856441108805583 ], [ 74.57806621028837, 15.856322100814364 ], [ 74.577667190667768, 15.856593702951336 ], [ 74.576970542796658, 15.857067898958237 ], [ 74.576955398920234, 15.857127462588696 ], [ 74.577062238009717, 15.85714414777712 ] ] ], [ [ [ 74.576517029334227, 15.840346067007557 ], [ 74.576530965361044, 15.839311127789218 ], [ 74.576300475961261, 15.837973279275984 ], [ 74.576299918170633, 15.837971579967318 ], [ 74.576204579575204, 15.838205132002775 ], [ 74.575609595593846, 15.839662651734269 ], [ 74.575495185567391, 15.839942538910494 ], [ 74.575543182900176, 15.840275610947959 ], [ 74.575577940075135, 15.840516811789099 ], [ 74.575595943275673, 15.840641750980613 ], [ 74.575645367804697, 15.84094608892002 ], [ 74.576517029334227, 15.840346067007557 ] ] ], [ [ [ 74.576213560867274, 15.843643375068217 ], [ 74.576251633794811, 15.843785744893983 ], [ 74.576508390403717, 15.844193625672586 ], [ 74.576213560867274, 15.843643375068217 ] ] ], [ [ [ 74.578702109605359, 15.848518365557117 ], [ 74.578136570598573, 15.847384295267632 ], [ 74.578171310420231, 15.847475865472116 ], [ 74.578449774467657, 15.848154851443788 ], [ 74.578592669559669, 15.848662456342975 ], [ 74.57870403831437, 15.84905806883234 ], [ 74.578762123994537, 15.849264405006268 ], [ 74.578702109605359, 15.848518365557117 ] ] ], [ [ [ 74.5790869039798, 15.85444142269708 ], [ 74.579074129001171, 15.853142942244505 ], [ 74.579069943189694, 15.853090908381837 ], [ 74.579069566032231, 15.853159453672259 ], [ 74.579070812259999, 15.853354788609401 ], [ 74.579074949092089, 15.854001008165122 ], [ 74.579069194982893, 15.854089744956529 ], [ 74.579064373968563, 15.854164030791763 ], [ 74.579034693203866, 15.854621359743332 ], [ 74.5790869039798, 15.85444142269708 ] ] ] ] } },
{ "type": "Feature", "properties": { "KGISWardID": 6769, "KGISWardCode": "0105050", "KGISWardName": " ", "SHAPE.STArea()": 3808360.11303388, "SHAPE.STLength()": 14710.420041571468, "OBJECTID": 14138, "KGISWardNo": "50", "KGISTownCode": "0105", "LGD_WardCode": 25626, "created_user": "SA", "created_date": 1634898537000, "last_edited_user": "SURESHBV1", "last_edited_date": 1692253928000, "_overlap_percent": 6.3336446561380546, "_police_station": "Marihal PS", "_police_feature_index": "69", "_admin_layer": "Ward", "_geometry_clipped": true }, "geometry": { "type": "MultiPolygon", "coordinates": [ [ [ [ 74.576753815577277, 15.857956652597913 ], [ 74.576779093962344, 15.857953338987814 ], [ 74.577062238009717, 15.85714414777712 ], [ 74.576955398920234, 15.857127462588696 ], [ 74.576828500710789, 15.857626576411347 ], [ 74.576728298833387, 15.857959997274724 ], [ 74.576753815577277, 15.857956652597913 ] ] ], [ [ [ 74.57659921394027, 15.858979127893997 ], [ 74.576479296540597, 15.858780226541974 ], [ 74.576384807769287, 15.859191859992727 ], [ 74.57659921394027, 15.858979127893997 ] ] ], [ [ [ 74.575554193709266, 15.86111250769228 ], [ 74.576128688334279, 15.859490874763573 ], [ 74.575742487282085, 15.859732779149123 ], [ 74.575544426985559, 15.859824768689537 ], [ 74.575031995065132, 15.860050206647921 ], [ 74.574658052580176, 15.860084820271044 ], [ 74.573915060137836, 15.860990482282562 ], [ 74.575554193709266, 15.86111250769228 ] ] ], [ [ [ 74.569269365549218, 15.866569310445104 ], [ 74.572366827434578, 15.862421906121609 ], [ 74.572351705108403, 15.862422852590635 ], [ 74.572085789928792, 15.862431039478704 ], [ 74.571928406337051, 15.862435880519627 ], [ 74.571446213188665, 15.862402222635195 ], [ 74.571295449863115, 15.862397734963729 ], [ 74.570607327269983, 15.862377267712725 ], [ 74.570019167657094, 15.862359774858978 ], [ 74.568942292101298, 15.862306753444713 ], [ 74.568684743288514, 15.862294068793441 ], [ 74.568024517845245, 15.862268858447981 ], [ 74.567569799179637, 15.862251497610885 ], [ 74.567288802272529, 15.862192576650765 ], [ 74.567145139763014, 15.8622873357281 ], [ 74.566946171045856, 15.863481565554403 ], [ 74.566945015818391, 15.863488506198708 ], [ 74.566918463315929, 15.864452739932458 ], [ 74.566887264208717, 15.864889182296382 ], [ 74.566845816418592, 15.865468938147984 ], [ 74.566846421155773, 15.865490605349279 ], [ 74.566851258990638, 15.865663098593616 ], [ 74.566844329180782, 15.865743767630493 ], [ 74.566842733445029, 15.86644730071105 ], [ 74.566865261641212, 15.866542301503106 ], [ 74.566838518255977, 15.866630556390293 ], [ 74.566828885684714, 15.86674650069603 ], [ 74.566813332436539, 15.866933706897974 ], [ 74.566777000396556, 15.867293074808584 ], [ 74.566775777151321, 15.867305170997057 ], [ 74.566743726264789, 15.867690446109567 ], [ 74.566717263470593, 15.867976914658851 ], [ 74.566698630330791, 15.868178641522944 ], [ 74.566696000519698, 15.868207054501507 ], [ 74.569269365549218, 15.866569310445104 ] ] ] ] } }
]
}
