{
"type": "FeatureCollection",
"name": "police_station_boundary.writing_20260805_172659",
"crs": { "type": "name", "properties": { "name": "urn:ogc:def:crs:OGC:1.3:CRS84" } },
"features": [
{ "type": "Feature", "properties": { "Shape.STArea()": 144881795.49193427, "Shape.STLength()": 81778.680664289364, "OBJECTID": 357, "KGISPS_BOUNDID": 457, "PS_BOUNDName": "Ankali PS", "PS_BOUNDCode": "PSB - 457", "KGISPS_SUB_DIVID": 36, "_source_layer": "Police Station Boundary", "_source_layer_url": "https://kgis.ksrsac.in/kgismaps/rest/services/Home/Home_Department/MapServer/82", "_police_station": "Ankali PS" }, "geometry": { "type": "Polygon", "coordinates": [ [ [ 74.65833797853935, 16.605372207363462 ], [ 74.657201635836458, 16.605571521383055 ], [ 74.655179067443569, 16.606415344119888 ], [ 74.653904922378146, 16.607026964071785 ], [ 74.653033310607654, 16.607582620491307 ], [ 74.650548856468433, 16.609251484004112 ], [ 74.648828978349499, 16.610498587695552 ], [ 74.648048079276663, 16.611102589225307 ], [ 74.647283939585179, 16.611493413744711 ], [ 74.646405490555267, 16.61184833125537 ], [ 74.644163498454702, 16.612543524939031 ], [ 74.642596580250554, 16.612755848484735 ], [ 74.640060460228426, 16.612461120081829 ], [ 74.638717575611338, 16.611751547324712 ], [ 74.637388151065821, 16.610659663730356 ], [ 74.635201438383845, 16.60892417387663 ], [ 74.633217491103863, 16.606848590870079 ], [ 74.63274028921235, 16.605473372916286 ], [ 74.632326549737414, 16.603718664766653 ], [ 74.632140399549584, 16.602040577816872 ], [ 74.631807101033189, 16.599146998440666 ], [ 74.631491833164645, 16.593959371008523 ], [ 74.631364252197855, 16.591945488639599 ], [ 74.632775766514101, 16.591907895983816 ], [ 74.632770690833809, 16.591642351587485 ], [ 74.633010923775629, 16.589164800454459 ], [ 74.633144632171124, 16.588025221815073 ], [ 74.633789852678319, 16.586012148780448 ], [ 74.634734758770932, 16.584116489600291 ], [ 74.634548320480917, 16.583721658257112 ], [ 74.634807234662716, 16.583643374529927 ], [ 74.634830879786037, 16.583762153246958 ], [ 74.635178426060094, 16.58372249140702 ], [ 74.635226008906301, 16.583662758704136 ], [ 74.635217914535758, 16.583655224344081 ], [ 74.635187819402219, 16.583627205300381 ], [ 74.635157725216501, 16.583599185350085 ], [ 74.635119554456608, 16.583563647334476 ], [ 74.635080352502385, 16.583527147481867 ], [ 74.63504114868816, 16.583490647618753 ], [ 74.635001945826119, 16.58345414775005 ], [ 74.634902732800342, 16.583436689748627 ], [ 74.634828068856535, 16.583423551476034 ], [ 74.634753404925135, 16.583410412272876 ], [ 74.634366671863148, 16.583342359136921 ], [ 74.634162549101703, 16.583506048632429 ], [ 74.634013530000914, 16.583668518617536 ], [ 74.633120302989695, 16.583777542291877 ], [ 74.632753860700532, 16.58334148536462 ], [ 74.631964411008894, 16.582146767213302 ], [ 74.631654079705882, 16.581677565668723 ], [ 74.631595054788306, 16.581588322884151 ], [ 74.631413262899571, 16.581313464558583 ], [ 74.631297268033649, 16.58113808582663 ], [ 74.631210573460052, 16.581007008551847 ], [ 74.631136599344643, 16.580895162361514 ], [ 74.630995305481918, 16.580681533004675 ], [ 74.630952350489764, 16.580616586657328 ], [ 74.630895835872209, 16.580531139401682 ], [ 74.630823869844278, 16.580422328596811 ], [ 74.630752151588524, 16.580313893356816 ], [ 74.630691187068052, 16.580221717093952 ], [ 74.630672839957484, 16.58019397768912 ], [ 74.630661317985613, 16.580176557522879 ], [ 74.630650926999195, 16.580160845164823 ], [ 74.630636594410859, 16.580139174036624 ], [ 74.630560842541598, 16.580019072095077 ], [ 74.630503379182429, 16.579927965065956 ], [ 74.630458180104853, 16.579856303518682 ], [ 74.630408263408555, 16.579777160418917 ], [ 74.630308200689754, 16.579640365803463 ], [ 74.630233996832615, 16.579538920939598 ], [ 74.630161452811578, 16.579439132369924 ], [ 74.630074189597266, 16.579317004787995 ], [ 74.629965857932405, 16.579165394522242 ], [ 74.629857931781771, 16.579010634565897 ], [ 74.629832340444651, 16.578973765613206 ], [ 74.629760146121995, 16.578869753248291 ], [ 74.629702095354773, 16.578786197675456 ], [ 74.629669972300078, 16.578740065797632 ], [ 74.629625048849377, 16.578659866509856 ], [ 74.629566838398333, 16.578424147965169 ], [ 74.629485844385329, 16.578098640322644 ], [ 74.628795352109591, 16.578099611720955 ], [ 74.628253415187729, 16.578100372412521 ], [ 74.628246015629912, 16.577891810165642 ], [ 74.62824477601562, 16.577856861149783 ], [ 74.62824353546597, 16.577821911228163 ], [ 74.628179543603039, 16.577546987404666 ], [ 74.62816286751827, 16.577417695403447 ], [ 74.628112840462649, 16.577027306333726 ], [ 74.628042251926843, 16.576539515978105 ], [ 74.62804825224255, 16.576395427502895 ], [ 74.628042749411918, 16.576238507332068 ], [ 74.628035527598058, 16.576095665322647 ], [ 74.628029666571706, 16.575951505032865 ], [ 74.628029539586649, 16.575804823850131 ], [ 74.628029444033572, 16.575693023540623 ], [ 74.628029909378597, 16.575545896848062 ], [ 74.628031135245905, 16.575431792853063 ], [ 74.628032071072482, 16.575344738014426 ], [ 74.628032424997954, 16.575311755272025 ], [ 74.628032596047305, 16.5752959025493 ], [ 74.628033052745664, 16.57525333332411 ], [ 74.628033464539683, 16.575215110335463 ], [ 74.628038448523057, 16.574794351814443 ], [ 74.628042936955609, 16.574595996735511 ], [ 74.628046996956797, 16.574451847816672 ], [ 74.628049143694426, 16.574375603974961 ], [ 74.628051519714262, 16.57429125368396 ], [ 74.628055868425733, 16.574136842434712 ], [ 74.628085702356131, 16.57355118332022 ], [ 74.628214758584917, 16.572533868204665 ], [ 74.628292730487161, 16.571919234743973 ], [ 74.628187505006437, 16.571361265484015 ], [ 74.627857278519286, 16.570031112648643 ], [ 74.627734596711377, 16.569383678805924 ], [ 74.627615311437282, 16.568738300252257 ], [ 74.627575129598114, 16.568520903410743 ], [ 74.62753548684374, 16.568306414711223 ], [ 74.627514359932178, 16.568178862900346 ], [ 74.627494177238759, 16.568057006019416 ], [ 74.627478775573522, 16.567761246134719 ], [ 74.627488309808086, 16.566832978540809 ], [ 74.627497379071031, 16.566079714519915 ], [ 74.627501346552847, 16.565817452624554 ], [ 74.627501919421761, 16.565572065517717 ], [ 74.627502114393693, 16.565489154916524 ], [ 74.627499811235836, 16.565419503901424 ], [ 74.627495735720856, 16.565296151682919 ], [ 74.627494389247644, 16.565255439580891 ], [ 74.627493454727102, 16.565227162417262 ], [ 74.62749038541854, 16.565134294096218 ], [ 74.627489671184463, 16.565051876341631 ], [ 74.62749006806915, 16.564911216436411 ], [ 74.627484970815914, 16.564754253427378 ], [ 74.62747542069134, 16.564460097626259 ], [ 74.627401651928906, 16.563713778843852 ], [ 74.627403036224763, 16.563560240822827 ], [ 74.627381579801622, 16.563291349744972 ], [ 74.627352578688004, 16.562976330585951 ], [ 74.627313817241216, 16.562860842382115 ], [ 74.627306617548697, 16.562799059848832 ], [ 74.6272842632916, 16.562607238419218 ], [ 74.62729396210942, 16.56237393927406 ], [ 74.627283520338196, 16.562157119766258 ], [ 74.627260420705014, 16.561947908086665 ], [ 74.627236834705087, 16.561734285026759 ], [ 74.627214856344082, 16.561535219772971 ], [ 74.62719758301661, 16.561329457227259 ], [ 74.627177831177434, 16.561003970212301 ], [ 74.627199774061509, 16.560737923763288 ], [ 74.62723289750717, 16.559991403537392 ], [ 74.627264340826372, 16.559529219997888 ], [ 74.627265686351009, 16.559509450611227 ], [ 74.627276440519822, 16.55926094386324 ], [ 74.627281247566387, 16.559116292573396 ], [ 74.627288764496441, 16.558890110980187 ], [ 74.627315458107859, 16.55827145756243 ], [ 74.627338754144759, 16.558104255242345 ], [ 74.627363672354917, 16.557933264534455 ], [ 74.627389150213915, 16.557753909412366 ], [ 74.627404556008983, 16.557656503539668 ], [ 74.627417189973798, 16.557579729613735 ], [ 74.627495339047954, 16.557216926806905 ], [ 74.627579204327262, 16.556463174686343 ], [ 74.627604514835156, 16.55630241583507 ], [ 74.627635856156488, 16.556103351751439 ], [ 74.627642305162524, 16.556069373709182 ], [ 74.627654436222812, 16.556005456130109 ], [ 74.627661717507749, 16.555967090761563 ], [ 74.627710415130039, 16.555724555535832 ], [ 74.627733858266126, 16.555607798955407 ], [ 74.627774667348376, 16.555396181024005 ], [ 74.627799012071677, 16.555260369285442 ], [ 74.627870418537682, 16.554830668871404 ], [ 74.62789929026475, 16.554630292246852 ], [ 74.627960893697534, 16.554134967173155 ], [ 74.628009885086769, 16.553895670392674 ], [ 74.628039374280178, 16.553769519550691 ], [ 74.628070750084689, 16.553635577065958 ], [ 74.628107482140692, 16.553479224570502 ], [ 74.628154992453716, 16.553277001749542 ], [ 74.628208791801526, 16.553054171292047 ], [ 74.628243990438321, 16.552908980153997 ], [ 74.628260129185193, 16.552842411963066 ], [ 74.62827327314821, 16.5527881940029 ], [ 74.628283651895501, 16.552745382026608 ], [ 74.628303694214239, 16.552662710997037 ], [ 74.62831711926512, 16.552575755064854 ], [ 74.628360606933754, 16.552234824932849 ], [ 74.628435805052433, 16.551875012039922 ], [ 74.628538263823458, 16.551470620975991 ], [ 74.628728780301003, 16.550701930638215 ], [ 74.628783222469565, 16.550307968065198 ], [ 74.628814350586794, 16.550089807633007 ], [ 74.628823909320346, 16.550022809118612 ], [ 74.628838553274946, 16.54992018121261 ], [ 74.628951732757287, 16.549122928157985 ], [ 74.629066001017449, 16.54841648605835 ], [ 74.629075971953512, 16.548343604255781 ], [ 74.629084754729078, 16.548279410284188 ], [ 74.629092119861795, 16.548231186186538 ], [ 74.629117432692013, 16.548065466856354 ], [ 74.629139405561659, 16.54792161153312 ], [ 74.629154358781932, 16.547823715551925 ], [ 74.629169129769622, 16.547727006168262 ], [ 74.629444682573677, 16.546463317076345 ], [ 74.629494027174957, 16.545585350320778 ], [ 74.629594424935931, 16.545596788586337 ], [ 74.629664412713382, 16.545604762103533 ], [ 74.629703686904051, 16.545609236916661 ], [ 74.629757767863524, 16.545615398613613 ], [ 74.629837391954382, 16.545624470335632 ], [ 74.629884986880185, 16.545629892786643 ], [ 74.629915500895777, 16.545633368487188 ], [ 74.629956954605404, 16.545638091194039 ], [ 74.629994935724028, 16.545642419022013 ], [ 74.63021198117211, 16.545667146254683 ], [ 74.630327033241713, 16.545681146712347 ], [ 74.630387948707011, 16.545688660959549 ], [ 74.630436415159252, 16.54569464077656 ], [ 74.630465491284966, 16.545698227750755 ], [ 74.630514861950971, 16.545704318532955 ], [ 74.630561585604866, 16.545710073759068 ], [ 74.630611992622022, 16.545716282063168 ], [ 74.630693722720963, 16.545726348853986 ], [ 74.630754232679436, 16.545733715832192 ], [ 74.630811415335685, 16.545740677345172 ], [ 74.631032149541824, 16.54579025159622 ], [ 74.631241384118212, 16.545812214946352 ], [ 74.631384618552616, 16.545825288347416 ], [ 74.631656225726758, 16.545849568110704 ], [ 74.63192280196877, 16.545875819261731 ], [ 74.632072879471252, 16.545890714032943 ], [ 74.632272798146403, 16.545910774219639 ], [ 74.632478445000601, 16.54593142375888 ], [ 74.632683531526993, 16.545955494573867 ], [ 74.632900068447185, 16.545980908765713 ], [ 74.634501730124072, 16.546210480100292 ], [ 74.635790162137525, 16.546380304454765 ], [ 74.636675279605953, 16.546563091431516 ], [ 74.637547007858942, 16.546774890844731 ], [ 74.638864982435749, 16.546997619595899 ], [ 74.639144905991444, 16.547075110472669 ], [ 74.640759730616111, 16.547365926722435 ], [ 74.64148877520752, 16.547516474284723 ], [ 74.644948519147363, 16.548245030459015 ], [ 74.646435399971068, 16.548763231754972 ], [ 74.647158511428756, 16.548792730177276 ], [ 74.647234175688112, 16.548795816901837 ], [ 74.647316059008091, 16.548799157286663 ], [ 74.647245139383628, 16.548284004688593 ], [ 74.647243982234727, 16.547684285199388 ], [ 74.647442650105603, 16.547653544090597 ], [ 74.647455793763669, 16.545932720754003 ], [ 74.647733529955389, 16.544365327421435 ], [ 74.648071807381896, 16.542984863913894 ], [ 74.648421477399452, 16.541496118287665 ], [ 74.648468305505133, 16.541374630772943 ], [ 74.648788781354028, 16.54054320987288 ], [ 74.648882623751533, 16.539700350530712 ], [ 74.649205420764616, 16.53680102897502 ], [ 74.649298503600576, 16.536698750794919 ], [ 74.649330077021887, 16.536371422542011 ], [ 74.649379560868312, 16.536021180415442 ], [ 74.649401783927104, 16.535729085359002 ], [ 74.649408881456296, 16.535550882797061 ], [ 74.649462191006847, 16.535369584879501 ], [ 74.649555596897926, 16.535177674638604 ], [ 74.649715508716909, 16.534853988714076 ], [ 74.650010036056173, 16.534309845767062 ], [ 74.650068329942684, 16.534202145529992 ], [ 74.650115132374907, 16.534115677711423 ], [ 74.650491904646969, 16.533366554827481 ], [ 74.650552716230763, 16.533278593473387 ], [ 74.650679745735758, 16.533094851274132 ], [ 74.650722925220833, 16.532979870177396 ], [ 74.650699800039192, 16.532870305067323 ], [ 74.650620867938031, 16.532633042312849 ], [ 74.650396354297442, 16.532271078270163 ], [ 74.65026377212024, 16.531963163420603 ], [ 74.650197792280565, 16.531722329778219 ], [ 74.650218604529854, 16.531529858136313 ], [ 74.650281830785673, 16.531066567670987 ], [ 74.650356261847193, 16.53065711900333 ], [ 74.650350072031969, 16.530365531115631 ], [ 74.650299958923995, 16.530173407087585 ], [ 74.649883707654411, 16.529563220460876 ], [ 74.649690264654851, 16.529103327860597 ], [ 74.649315558301311, 16.528278680448093 ], [ 74.64900140803131, 16.527419331761379 ], [ 74.648750889377155, 16.526794029324083 ], [ 74.648472663562373, 16.526115715627558 ], [ 74.648361206101455, 16.525683304319191 ], [ 74.648331139891525, 16.525568029421507 ], [ 74.648229873553461, 16.525249895817144 ], [ 74.647979586231472, 16.525361020903652 ], [ 74.64719688654904, 16.523508988343107 ], [ 74.647333600745512, 16.523107203924042 ], [ 74.647343433855312, 16.523078306658419 ], [ 74.64746084334368, 16.522859667064907 ], [ 74.647997611863516, 16.52186009547097 ], [ 74.646625326078862, 16.520654589457973 ], [ 74.646277122367138, 16.51999678953127 ], [ 74.646185185109445, 16.519746726084822 ], [ 74.645708665614521, 16.519419264353683 ], [ 74.643276636600007, 16.518227233776969 ], [ 74.641910192670366, 16.517583725732159 ], [ 74.640440017878817, 16.517215881416998 ], [ 74.637816838769439, 16.516190170489054 ], [ 74.63662630469112, 16.515773505438055 ], [ 74.635244879047463, 16.515306995742151 ], [ 74.633971708962349, 16.514960531962952 ], [ 74.631605494400958, 16.514316597404715 ], [ 74.630509227327025, 16.514061883988347 ], [ 74.630350085178222, 16.513962072327566 ], [ 74.630179510009498, 16.513856843542349 ], [ 74.630028204709021, 16.513756149665504 ], [ 74.629844244184099, 16.513695558117465 ], [ 74.627311856586616, 16.513099269709617 ], [ 74.627277786220716, 16.513091246671372 ], [ 74.625453716311242, 16.51247618136863 ], [ 74.624051902516669, 16.511993951957127 ], [ 74.622362600470552, 16.511532323573551 ], [ 74.621476827545763, 16.511320025620886 ], [ 74.620244229273354, 16.511016500622631 ], [ 74.618576409967829, 16.510680747627919 ], [ 74.617365976014824, 16.510446399869526 ], [ 74.616945808040839, 16.51039678807183 ], [ 74.616670577711417, 16.510364289726919 ], [ 74.615376583103554, 16.510119034328746 ], [ 74.615373173141322, 16.509899189016572 ], [ 74.615389228626114, 16.509899615412174 ], [ 74.615526121646923, 16.506851485172618 ], [ 74.615580953907738, 16.505630477749726 ], [ 74.615661497185357, 16.503836915002992 ], [ 74.615663867129257, 16.503784146749254 ], [ 74.615795685332344, 16.502034310321495 ], [ 74.615912992566336, 16.501121821084791 ], [ 74.615913052678991, 16.500990238567432 ], [ 74.615913238372471, 16.500585649369441 ], [ 74.615730126139042, 16.499474287162919 ], [ 74.615681483101866, 16.498927952461944 ], [ 74.615669505776197, 16.498640716521255 ], [ 74.615656715889543, 16.498448967559675 ], [ 74.615638696817982, 16.498343027572989 ], [ 74.615572276340842, 16.497952503845784 ], [ 74.615521802949388, 16.497332269697708 ], [ 74.615514614994908, 16.496876075678436 ], [ 74.615438708967773, 16.496764071993638 ], [ 74.615409467018452, 16.496713584177225 ], [ 74.615101921798328, 16.496182591753634 ], [ 74.61480604306243, 16.495647625674621 ], [ 74.61470073091408, 16.495429050491094 ], [ 74.614619780160069, 16.494957371794399 ], [ 74.614535603904997, 16.494611035941105 ], [ 74.614428301659061, 16.494169553104989 ], [ 74.61420036431376, 16.493316504338512 ], [ 74.614067056531354, 16.492817603921054 ], [ 74.61393739085203, 16.492254228191886 ], [ 74.613703178470104, 16.491979629835381 ], [ 74.613430261972681, 16.491659650319619 ], [ 74.613103818906154, 16.491276913765656 ], [ 74.61236731073484, 16.490424270548388 ], [ 74.611152079948567, 16.489186285624214 ], [ 74.611553632265043, 16.489155007978553 ], [ 74.612984883165751, 16.48907186794855 ], [ 74.613121599674173, 16.489063925295973 ], [ 74.613194480691206, 16.488943369387236 ], [ 74.613493559560936, 16.488113550215026 ], [ 74.613794361783334, 16.487278939862748 ], [ 74.613821920747185, 16.487202471329514 ], [ 74.613982366539773, 16.486757293882498 ], [ 74.61401736430048, 16.486660186656312 ], [ 74.614155838182825, 16.486275966534311 ], [ 74.614720898521782, 16.484708101544975 ], [ 74.61497232729036, 16.484010450050899 ], [ 74.615012610098219, 16.483898675272474 ], [ 74.615269440541198, 16.483270464571909 ], [ 74.61556081243647, 16.482557761987135 ], [ 74.615573401695855, 16.482423423411781 ], [ 74.615728376879417, 16.480769746265349 ], [ 74.61575959093247, 16.480436662277274 ], [ 74.615797707685857, 16.480208274905682 ], [ 74.61592646944024, 16.479436747280388 ], [ 74.6159525923605, 16.47928022349921 ], [ 74.61609985103631, 16.478164275787794 ], [ 74.616176409028654, 16.477584106728944 ], [ 74.616221742511058, 16.477240555895918 ], [ 74.616281213616233, 16.476789862802203 ], [ 74.616200542855509, 16.475284790206608 ], [ 74.616186194817203, 16.47524133201183 ], [ 74.615955961197699, 16.474543961051157 ], [ 74.615105134808843, 16.471966800946166 ], [ 74.615247394920914, 16.471443707239164 ], [ 74.615426053874614, 16.470786776711808 ], [ 74.615450307062574, 16.470697598030007 ], [ 74.61547223014216, 16.470615128954947 ], [ 74.61553542091589, 16.470368730342653 ], [ 74.615902482278329, 16.468937440618337 ], [ 74.61588584412155, 16.468915395379913 ], [ 74.61554155495503, 16.468459192755137 ], [ 74.614827224992283, 16.467487365713506 ], [ 74.614282410308505, 16.46674615111872 ], [ 74.614376506368458, 16.46672163384163 ], [ 74.614424971623322, 16.466709005806198 ], [ 74.61521764445321, 16.466473637554458 ], [ 74.615444195315376, 16.466406366845455 ], [ 74.615523493979069, 16.466385984728966 ], [ 74.615780750083516, 16.466319863826385 ], [ 74.615768151590018, 16.466301733007491 ], [ 74.614842104052499, 16.464969105279682 ], [ 74.615983498124251, 16.464492040025302 ], [ 74.615993347977977, 16.464401134410476 ], [ 74.615993077297432, 16.464401102274877 ], [ 74.616043158188504, 16.463925697275382 ], [ 74.616046789677412, 16.463907910801904 ], [ 74.616067729118043, 16.46380536229103 ], [ 74.616067362738448, 16.463778271008895 ], [ 74.616065710413906, 16.463655817841037 ], [ 74.616032953037063, 16.461228870709412 ], [ 74.616034919541661, 16.461161207432646 ], [ 74.616089603600059, 16.4592793737527 ], [ 74.616150140907834, 16.458073981707209 ], [ 74.616177710478539, 16.457525022143347 ], [ 74.616475993085643, 16.456932997767051 ], [ 74.617446379485685, 16.45500697266159 ], [ 74.617316413883742, 16.453429580776497 ], [ 74.617246859956666, 16.452585402399649 ], [ 74.617166212726346, 16.452615714030344 ], [ 74.615579175587385, 16.453212203685428 ], [ 74.615578224994934, 16.453212559920448 ], [ 74.615498687357004, 16.453249995434053 ], [ 74.615442305788719, 16.453276532461683 ], [ 74.61480700296832, 16.453575545236685 ], [ 74.614857910730365, 16.453065381506498 ], [ 74.614888727858613, 16.452767634585463 ], [ 74.615074930076318, 16.450968560807485 ], [ 74.615143628598261, 16.450126024038148 ], [ 74.615208814955807, 16.449326533948419 ], [ 74.61521421327879, 16.449253911310358 ], [ 74.615222183687379, 16.449146710511492 ], [ 74.615224558972784, 16.449119306021291 ], [ 74.615289221489661, 16.448373257596284 ], [ 74.615369637891618, 16.44744543285444 ], [ 74.615399998341687, 16.447095140644731 ], [ 74.615486151251389, 16.446101105650481 ], [ 74.615653207309833, 16.444173568274866 ], [ 74.615654802362883, 16.444117974235265 ], [ 74.615655076790702, 16.444117991913913 ], [ 74.615670485174974, 16.443659975726806 ], [ 74.615759374946066, 16.440472238539549 ], [ 74.615781704822638, 16.439693702888647 ], [ 74.615785619878537, 16.439557197226524 ], [ 74.615784017535688, 16.439504136602665 ], [ 74.615782420575414, 16.439451197122622 ], [ 74.615786811168817, 16.439275308340363 ], [ 74.615909061000082, 16.43927916532342 ], [ 74.615938771572445, 16.439280103816863 ], [ 74.619052465290594, 16.437297479615921 ], [ 74.619230616253503, 16.437184040744725 ], [ 74.619159425506197, 16.436747962809857 ], [ 74.619029241127024, 16.435950517309699 ], [ 74.618951050628453, 16.435471558579948 ], [ 74.618949698269049, 16.435463277408431 ], [ 74.61888670576019, 16.43503339116694 ], [ 74.618869033336921, 16.434912784334539 ], [ 74.61879218925057, 16.434388386322432 ], [ 74.619068706916025, 16.432951621645067 ], [ 74.618712376691207, 16.432459259566926 ], [ 74.619920508837865, 16.429372234700416 ], [ 74.619932772690774, 16.429410710744619 ], [ 74.620228088726137, 16.430337234418062 ], [ 74.620871183499347, 16.430213615090558 ], [ 74.621062424644862, 16.430038619334507 ], [ 74.6215152306319, 16.429624275339211 ], [ 74.622223149066585, 16.428976483597776 ], [ 74.623825077560468, 16.429425240159738 ], [ 74.625598479870192, 16.429228686462071 ], [ 74.626512598891608, 16.429127364278887 ], [ 74.626695651428449, 16.429074472111434 ], [ 74.62825916478009, 16.428529745322887 ], [ 74.630609919774642, 16.427826962397315 ], [ 74.631190061777573, 16.427931775786988 ], [ 74.631198393303819, 16.427933282006851 ], [ 74.631491832617613, 16.427584455304537 ], [ 74.632014827114403, 16.427722670630068 ], [ 74.632183166267211, 16.427776599337029 ], [ 74.632184062106305, 16.427776886567276 ], [ 74.634854497006557, 16.428632294883812 ], [ 74.636302970089687, 16.429096260017122 ], [ 74.637071478107487, 16.428019937154197 ], [ 74.638226522290296, 16.428075282649285 ], [ 74.638882486092385, 16.428106715688511 ], [ 74.639998126970781, 16.428160163930944 ], [ 74.641837242600403, 16.428634973942714 ], [ 74.642186861138498, 16.428725227922509 ], [ 74.642156508275022, 16.428871279924614 ], [ 74.64251275676132, 16.428956076437768 ], [ 74.643358737283052, 16.429724554592735 ], [ 74.645550503045754, 16.43164988874253 ], [ 74.645680484074958, 16.433384334978594 ], [ 74.645710861667609, 16.433410169862686 ], [ 74.646756727902698, 16.434299667238832 ], [ 74.64675675143846, 16.434300638163464 ], [ 74.648274237022733, 16.435594466156093 ], [ 74.648288825196687, 16.435606905100965 ], [ 74.64828998521665, 16.435604084789272 ], [ 74.649213721767396, 16.436416451228904 ], [ 74.649237496469539, 16.436430341907187 ], [ 74.651752187516607, 16.437899474482695 ], [ 74.651870576311055, 16.437968638158075 ], [ 74.653026927880916, 16.438387498322186 ], [ 74.653137027089997, 16.438427378196568 ], [ 74.653166524108883, 16.438575097334532 ], [ 74.653221553756083, 16.438850681942736 ], [ 74.654561348395447, 16.439732955485205 ], [ 74.654561693641028, 16.439733182955191 ], [ 74.654569181884767, 16.439724623653095 ], [ 74.654593974744643, 16.439742699075676 ], [ 74.65475992947087, 16.439863697402654 ], [ 74.654760289643633, 16.439863959248509 ], [ 74.655811745109645, 16.440751491451554 ], [ 74.657259540015218, 16.442045324726951 ], [ 74.65730852239578, 16.442068800019133 ], [ 74.659647716257922, 16.443189808479648 ], [ 74.659747835592228, 16.443280941248876 ], [ 74.659763209223129, 16.443294934642537 ], [ 74.659665236831884, 16.443418873634489 ], [ 74.659507127366169, 16.443618887867284 ], [ 74.659529616251191, 16.44364534800302 ], [ 74.65952839682069, 16.443647384520922 ], [ 74.659528317906791, 16.443647515471383 ], [ 74.659529804257488, 16.443649268912839 ], [ 74.661315256823102, 16.445756657565056 ], [ 74.661337279966915, 16.445772158591488 ], [ 74.661340577552266, 16.445774178006346 ], [ 74.66379037001262, 16.44727345321294 ], [ 74.664971055910513, 16.448013724727378 ], [ 74.666147835631222, 16.448751536371613 ], [ 74.666233986884251, 16.448803403453532 ], [ 74.669408596681251, 16.450714614637498 ], [ 74.669425363695439, 16.450778916584095 ], [ 74.669703529762501, 16.452349218807907 ], [ 74.66981509505338, 16.452979019091114 ], [ 74.669836762921221, 16.45310133413771 ], [ 74.669841519928042, 16.453172763167064 ], [ 74.671274590408331, 16.454888058326244 ], [ 74.672341552224836, 16.456165118642421 ], [ 74.672534728669675, 16.456149528402165 ], [ 74.672765214360965, 16.456410782589824 ], [ 74.674843615276103, 16.458952670650948 ], [ 74.674864474915609, 16.459016934207867 ], [ 74.674869078184514, 16.459031116814902 ], [ 74.675248970958933, 16.460201464206147 ], [ 74.675477707843129, 16.460892304045291 ], [ 74.675756127645556, 16.461782232933828 ], [ 74.675973233408243, 16.462460805128039 ], [ 74.676190339705045, 16.463139376174958 ], [ 74.676971948662924, 16.465692272237717 ], [ 74.677682169148454, 16.468182510044102 ], [ 74.677690949977872, 16.468213299871426 ], [ 74.67827193619631, 16.470264192989575 ], [ 74.678392695710869, 16.470902258510826 ], [ 74.678406769396389, 16.470976623283008 ], [ 74.678420250539915, 16.471047853917803 ], [ 74.678585930509442, 16.471923262795652 ], [ 74.678798045832394, 16.473044021147459 ], [ 74.678824052945899, 16.473181432103413 ], [ 74.678845532023118, 16.473446892470854 ], [ 74.678777120446142, 16.473357477951478 ], [ 74.678678918561573, 16.473229125383895 ], [ 74.678649174446477, 16.473348563572916 ], [ 74.678572645742108, 16.473655871950797 ], [ 74.678518389661619, 16.473873740378316 ], [ 74.678464655947224, 16.474089511429334 ], [ 74.67839659973437, 16.474362792119102 ], [ 74.678321755586211, 16.474663332074176 ], [ 74.678241353295704, 16.474986188355278 ], [ 74.678170369871012, 16.475271220813106 ], [ 74.677883829023671, 16.476421818989792 ], [ 74.677780683871319, 16.476835993492266 ], [ 74.677808923928751, 16.47701725863439 ], [ 74.677938345052041, 16.477500204817591 ], [ 74.678558986563701, 16.479816154687565 ], [ 74.678756747108338, 16.480554095583972 ], [ 74.678888713991128, 16.481046522413106 ], [ 74.676693305935302, 16.479217752991524 ], [ 74.676409505788385, 16.478981344621292 ], [ 74.676039731840362, 16.481561975215271 ], [ 74.675643315940519, 16.48432844826883 ], [ 74.675632697057608, 16.484402555189916 ], [ 74.675764701583546, 16.484770539024158 ], [ 74.675772009133581, 16.484773106823237 ], [ 74.67644102852519, 16.486449228773751 ], [ 74.676603746889981, 16.487001822173408 ], [ 74.67670330004789, 16.487339905555462 ], [ 74.676931079979013, 16.487998494103902 ], [ 74.677206253322453, 16.488748124676512 ], [ 74.677265783486462, 16.488914939826724 ], [ 74.677522207823301, 16.489586049616221 ], [ 74.677679371797964, 16.489896917253581 ], [ 74.678025643092269, 16.490887614065876 ], [ 74.678112108793343, 16.49122658689684 ], [ 74.678149252980518, 16.491372206799582 ], [ 74.678164039924695, 16.491430174232843 ], [ 74.679004990288078, 16.493654291502722 ], [ 74.679723999255472, 16.495402357921623 ], [ 74.679883347478622, 16.495753375986457 ], [ 74.680037210076179, 16.496142097163677 ], [ 74.680621125831536, 16.497617306652813 ], [ 74.68076218409837, 16.497973672105768 ], [ 74.681058282402859, 16.498721727441293 ], [ 74.680977386607651, 16.499594002906644 ], [ 74.680934631482216, 16.500055014340148 ], [ 74.680885430806896, 16.500585524349717 ], [ 74.680846595651943, 16.50100425862323 ], [ 74.680819889056835, 16.50130070741227 ], [ 74.680737771221743, 16.502212200129453 ], [ 74.680735302100032, 16.502239092672202 ], [ 74.680654711801424, 16.503116820987248 ], [ 74.680633555952383, 16.503321641955953 ], [ 74.680593534997868, 16.503709104449072 ], [ 74.680512502307138, 16.504493621855076 ], [ 74.680476470411747, 16.504842461226691 ], [ 74.680453107032193, 16.505068643576166 ], [ 74.680399162563077, 16.505590905186214 ], [ 74.680384042405606, 16.505731332607468 ], [ 74.680359880571828, 16.505955722906368 ], [ 74.680345838458436, 16.506086142128009 ], [ 74.680265934974557, 16.50682824592521 ], [ 74.680233961427774, 16.507125185391644 ], [ 74.680229358683434, 16.507167939606244 ], [ 74.680174215019932, 16.507671615054349 ], [ 74.680136791528781, 16.508013445317427 ], [ 74.680103140899874, 16.50832081144419 ], [ 74.680099343995309, 16.508364110179123 ], [ 74.680074810172087, 16.508643889742814 ], [ 74.680038374565996, 16.509059392702568 ], [ 74.680032350637347, 16.509128096356417 ], [ 74.679977833136832, 16.509576832857054 ], [ 74.679926528956386, 16.509999114575365 ], [ 74.679938660151407, 16.510030381233687 ], [ 74.680106892271198, 16.510464024996956 ], [ 74.68010179816396, 16.510505206409949 ], [ 74.68007582124774, 16.51076144662488 ], [ 74.680117224882821, 16.51092342290254 ], [ 74.680165574222073, 16.511071062642479 ], [ 74.680217099274103, 16.51122842507711 ], [ 74.680246221831482, 16.511329516265956 ], [ 74.680251760232707, 16.511415353669246 ], [ 74.680257595644278, 16.511505776541995 ], [ 74.680319796424797, 16.511625763719628 ], [ 74.68033167176236, 16.511670833823949 ], [ 74.680341870852274, 16.511709540015666 ], [ 74.680410613459784, 16.511841458032695 ], [ 74.680440168358601, 16.511900246936325 ], [ 74.680537059940434, 16.512092980204997 ], [ 74.680587300963495, 16.512190928829483 ], [ 74.68079754584042, 16.512700585478893 ], [ 74.680983300069002, 16.513095713830939 ], [ 74.681259775686726, 16.513974514208652 ], [ 74.68154864771931, 16.514779390677635 ], [ 74.684501814624966, 16.515552207274357 ], [ 74.6846427855847, 16.515589097518571 ], [ 74.684901090426351, 16.515656690453 ], [ 74.684798865852215, 16.516182203043371 ], [ 74.684742091226212, 16.516673091882009 ], [ 74.684801893049482, 16.517251823314641 ], [ 74.684806907528952, 16.517353480444697 ], [ 74.684809619385817, 16.517408440532197 ], [ 74.68471548916672, 16.517876134521522 ], [ 74.684714849174981, 16.518469497895349 ], [ 74.684714776828145, 16.518533170907851 ], [ 74.684720780335638, 16.518806750380307 ], [ 74.684767491770799, 16.519089359721676 ], [ 74.684838785733987, 16.51944917756536 ], [ 74.684845980248284, 16.519519448878331 ], [ 74.684859822387736, 16.519654564956941 ], [ 74.68492371824388, 16.520195930728562 ], [ 74.684962093487727, 16.520538271814385 ], [ 74.685110798414712, 16.520772930182776 ], [ 74.6851737365117, 16.520874098753069 ], [ 74.685454072937304, 16.52128765687069 ], [ 74.685379528195313, 16.521348750725647 ], [ 74.685083442720128, 16.521603834018308 ], [ 74.684866802914271, 16.521750869505048 ], [ 74.684555915986849, 16.521943810536676 ], [ 74.684430017430586, 16.522051922290771 ], [ 74.684376712262733, 16.522097696388972 ], [ 74.68400462947703, 16.522234359604425 ], [ 74.684219620079006, 16.522672795735943 ], [ 74.684400987199751, 16.523061421880488 ], [ 74.68448834878339, 16.52324861731941 ], [ 74.68472851003861, 16.523813419238785 ], [ 74.684832279260092, 16.524019771239395 ], [ 74.684843802823735, 16.52406614046215 ], [ 74.684924417640033, 16.524390523335903 ], [ 74.684983223574363, 16.524677546831178 ], [ 74.684844940676768, 16.524821229084168 ], [ 74.684760685018304, 16.524967680354692 ], [ 74.684584373841616, 16.524987939096505 ], [ 74.684460576804838, 16.525117614924898 ], [ 74.684167500021104, 16.525142638020391 ], [ 74.684164795094617, 16.525142868965336 ], [ 74.683785304699171, 16.525181732796035 ], [ 74.68386289645035, 16.525460867006306 ], [ 74.683974973737548, 16.525849570233238 ], [ 74.684041728220691, 16.526170105836197 ], [ 74.684029195019093, 16.526597103958533 ], [ 74.68402852757437, 16.526619703470931 ], [ 74.684021436075682, 16.526776560305581 ], [ 74.684014237692523, 16.526818773634435 ], [ 74.683971909737608, 16.527067292711543 ], [ 74.683962938075823, 16.52711999409544 ], [ 74.683988345520689, 16.527280879449378 ], [ 74.683898467803147, 16.527415993065802 ], [ 74.683762071254662, 16.527520616200405 ], [ 74.683668839815226, 16.527842433612836 ], [ 74.683634783536604, 16.527997019425101 ], [ 74.683689400113494, 16.528177774342716 ], [ 74.683674844273781, 16.528381605329848 ], [ 74.683562647632272, 16.528761294132796 ], [ 74.683520125127274, 16.528988806873926 ], [ 74.683398916571463, 16.529107208689421 ], [ 74.683091926569006, 16.529300435149946 ], [ 74.682916557125424, 16.529465227387899 ], [ 74.682659747646511, 16.529776043751035 ], [ 74.682330151986477, 16.530166842946041 ], [ 74.682037944693448, 16.530431073844287 ], [ 74.681640654577492, 16.530706066024404 ], [ 74.681465173774981, 16.530768655071501 ], [ 74.681365256050498, 16.530868151474305 ], [ 74.681211435212333, 16.530888656741205 ], [ 74.681032792783967, 16.530968550079116 ], [ 74.680045921521867, 16.531092227180647 ], [ 74.679625961481165, 16.531135226533319 ], [ 74.679087842763849, 16.531244544104467 ], [ 74.679003749883677, 16.531294961075304 ], [ 74.678673796463087, 16.531714760767532 ], [ 74.678621793502742, 16.531782158589763 ], [ 74.678606189140083, 16.532029483538047 ], [ 74.678515375022585, 16.532387004903491 ], [ 74.678430765091974, 16.532607245038346 ], [ 74.678325025694633, 16.533052090728646 ], [ 74.678258442191051, 16.5332985894476 ], [ 74.678268824669956, 16.533421584301657 ], [ 74.67828307692433, 16.533748685655475 ], [ 74.678350108331685, 16.533986661424361 ], [ 74.678490165947963, 16.534522512848476 ], [ 74.678100665616753, 16.535058543363725 ], [ 74.677668140937882, 16.535594067309365 ], [ 74.677255449097075, 16.536131958665909 ], [ 74.677159352043674, 16.536251163864293 ], [ 74.6771463455011, 16.5363133721522 ], [ 74.677155383025124, 16.536647445957868 ], [ 74.67716806208071, 16.53669033969479 ], [ 74.677195852577512, 16.5367843553691 ], [ 74.677303947329492, 16.537078143567214 ], [ 74.677483338223709, 16.537795453222319 ], [ 74.677568534513171, 16.538136162385964 ], [ 74.67793058544261, 16.538465889826888 ], [ 74.677934699444251, 16.538466052565649 ], [ 74.678120326190339, 16.538473404515528 ], [ 74.67854037222736, 16.538507104366484 ], [ 74.678967097847732, 16.538541337960879 ], [ 74.679857767141556, 16.538612788548392 ], [ 74.680652634779307, 16.538735903273452 ], [ 74.680748684805124, 16.538750779753787 ], [ 74.680919226506603, 16.538777193750377 ], [ 74.681391274672393, 16.538820745781027 ], [ 74.681411561100845, 16.539044085986429 ], [ 74.681422846276661, 16.539168336760273 ], [ 74.681419704214861, 16.539246933324772 ], [ 74.681412760341075, 16.539420660205561 ], [ 74.681475747128815, 16.539924644861365 ], [ 74.681513391450636, 16.540209216633095 ], [ 74.681233293911163, 16.540533518703004 ], [ 74.680291979303149, 16.541623362476724 ], [ 74.67938294146154, 16.541468689939922 ], [ 74.679148976891383, 16.541428668011928 ], [ 74.679044597897004, 16.541410818326497 ], [ 74.67824012405741, 16.541273220612837 ], [ 74.6781005367299, 16.541217819844519 ], [ 74.678101871873295, 16.541362158163185 ], [ 74.678103633000504, 16.54155254151182 ], [ 74.678358948311825, 16.541974705720651 ], [ 74.678383468801314, 16.542015250095659 ], [ 74.678395930399319, 16.542030805157228 ], [ 74.678440602859183, 16.542086572927001 ], [ 74.678742888983365, 16.542463937152444 ], [ 74.679000056374591, 16.542772527917606 ], [ 74.679029361294951, 16.543031427623205 ], [ 74.679326088627988, 16.543355441137241 ], [ 74.679345591856631, 16.543412871320712 ], [ 74.679599016977349, 16.544265492405867 ], [ 74.679543403888218, 16.544514868286836 ], [ 74.679526922664692, 16.544588766165788 ], [ 74.679487025851358, 16.544767664544434 ], [ 74.679393226802802, 16.545306014822792 ], [ 74.679360708078221, 16.545357532536897 ], [ 74.679305907519705, 16.54544434634856 ], [ 74.679351175538429, 16.545495946573016 ], [ 74.679317546627416, 16.545583477245088 ], [ 74.679345753771912, 16.545662651642186 ], [ 74.679346747312024, 16.545665439244345 ], [ 74.679619774135261, 16.546010830343786 ], [ 74.6805960649029, 16.547129273335692 ], [ 74.680872814051739, 16.547485461164754 ], [ 74.681483699265826, 16.548145012371833 ], [ 74.681697920080097, 16.548342168092482 ], [ 74.681949069122439, 16.548683090562605 ], [ 74.681990724312485, 16.548718277426154 ], [ 74.681821833237024, 16.54893554156147 ], [ 74.681767879506396, 16.549004940250274 ], [ 74.681714507876521, 16.549067986622532 ], [ 74.68206721797165, 16.54934870228724 ], [ 74.682515713792853, 16.550236471822949 ], [ 74.682979852712677, 16.551155183080965 ], [ 74.683320369663903, 16.552038945650693 ], [ 74.683501363504419, 16.552326725752732 ], [ 74.683704233774691, 16.552294206362983 ], [ 74.683776574227039, 16.552286160352619 ], [ 74.683856881881823, 16.552277227838115 ], [ 74.68414513463226, 16.552245167406397 ], [ 74.68445875222244, 16.552210288374894 ], [ 74.684507421451912, 16.552207858890807 ], [ 74.684980494141314, 16.552184292250065 ], [ 74.685032562461927, 16.552164175030814 ], [ 74.685325533480793, 16.552050954199366 ], [ 74.686140302381745, 16.551753618375663 ], [ 74.686213996612963, 16.5517341499224 ], [ 74.686657375957864, 16.551617021368507 ], [ 74.687013344708831, 16.551522982191567 ], [ 74.687173481119785, 16.551483614480485 ], [ 74.68788621953864, 16.551308397704005 ], [ 74.687963182649852, 16.551794632386159 ], [ 74.687922564835716, 16.551941969619165 ], [ 74.687907692882561, 16.551995866320855 ], [ 74.6878827513479, 16.552086256199154 ], [ 74.687754243902603, 16.552041984699645 ], [ 74.687697529540799, 16.552180498409012 ], [ 74.687871449635566, 16.552257657926862 ], [ 74.688073843358367, 16.552222029282458 ], [ 74.688425486160853, 16.55240283812325 ], [ 74.688707936685375, 16.552659361939725 ], [ 74.68893300899795, 16.552837421763311 ], [ 74.689137111472718, 16.552854032197139 ], [ 74.689333108487958, 16.553046815708726 ], [ 74.689768963052487, 16.554071645562203 ], [ 74.691252630931345, 16.554306724735078 ], [ 74.694531376463061, 16.555502698389475 ], [ 74.697338176010405, 16.556943348723394 ], [ 74.698282424171168, 16.557274177769543 ], [ 74.702289700344693, 16.560333149908992 ], [ 74.702939099332127, 16.560828844536505 ], [ 74.705875971561341, 16.564847571824952 ], [ 74.70621828283177, 16.565479146027215 ], [ 74.709186603844813, 16.569083041656416 ], [ 74.709565112956369, 16.569542598615609 ], [ 74.713751018737469, 16.574133397267829 ], [ 74.71498591412616, 16.575107451746302 ], [ 74.716784409485086, 16.576262068393614 ], [ 74.722318282542105, 16.578804635320861 ], [ 74.726948578502856, 16.580716754638644 ], [ 74.730731771519316, 16.58116023123895 ], [ 74.732928093082947, 16.581162915612634 ], [ 74.734572654020951, 16.580629166280715 ], [ 74.735672399790786, 16.580272233541372 ], [ 74.736066192081068, 16.580144420770552 ], [ 74.737945540373701, 16.57923035126662 ], [ 74.739524102061054, 16.576919215013252 ], [ 74.740865944020371, 16.573864221609643 ], [ 74.742138934092281, 16.571765444813163 ], [ 74.743036953844154, 16.570913348396576 ], [ 74.744626264888311, 16.569715204927476 ], [ 74.745785148916212, 16.569138503045707 ], [ 74.746963986128904, 16.568733872541049 ], [ 74.747064345527519, 16.568699416973896 ], [ 74.748138230065592, 16.568330797246027 ], [ 74.752496851158369, 16.567921729628363 ], [ 74.75492672645926, 16.56788206138539 ], [ 74.756041985541046, 16.567675948004574 ], [ 74.758005741662075, 16.567691202230517 ], [ 74.760534719883793, 16.567906085539519 ], [ 74.763284465161533, 16.568356941539736 ], [ 74.767880404455923, 16.56935033357194 ], [ 74.770786517088069, 16.569978428371257 ], [ 74.777059202815877, 16.571611615452284 ], [ 74.776806168144105, 16.572227870597114 ], [ 74.776748475252489, 16.572350030469675 ], [ 74.776315585432926, 16.573266663995334 ], [ 74.776290447947034, 16.573540312575794 ], [ 74.776144629145747, 16.573967784881422 ], [ 74.77609838510206, 16.574100645583453 ], [ 74.775988764729249, 16.574415593181069 ], [ 74.775737495389109, 16.575342794655967 ], [ 74.775695545004979, 16.575453667689921 ], [ 74.77564050833422, 16.575721916046078 ], [ 74.775280860963974, 16.577595136287542 ], [ 74.775037348382043, 16.579051622366123 ], [ 74.774950553363936, 16.579539425130477 ], [ 74.774938844719273, 16.57960523439818 ], [ 74.77493091056148, 16.57965445508426 ], [ 74.774465096011085, 16.581878273954207 ], [ 74.774360965578396, 16.582012892948665 ], [ 74.774285429851176, 16.582576767909512 ], [ 74.774231630852256, 16.582982723838015 ], [ 74.774156244134147, 16.583551578908803 ], [ 74.77408616733203, 16.58408035425288 ], [ 74.774083918342839, 16.584097326850635 ], [ 74.774051874759095, 16.584407161098614 ], [ 74.773928058567165, 16.585334907071481 ], [ 74.773882085127298, 16.585679384013577 ], [ 74.773876274713331, 16.585722925384609 ], [ 74.77383873347857, 16.586069610858885 ], [ 74.773797614699689, 16.586449327661207 ], [ 74.773745413779551, 16.586931389730747 ], [ 74.773703494786474, 16.587318488455725 ], [ 74.773688688429246, 16.587455219995032 ], [ 74.773670076905205, 16.587652953732391 ], [ 74.773662554257797, 16.587732875914373 ], [ 74.773655449272724, 16.587808354558906 ], [ 74.773647562104458, 16.587892151726638 ], [ 74.77362439131096, 16.588138328667473 ], [ 74.773611849064238, 16.588271579597585 ], [ 74.773568799373464, 16.588428348857107 ], [ 74.773505069654917, 16.588660428286214 ], [ 74.773473965904842, 16.588773694489383 ], [ 74.773382374663186, 16.589213537141784 ], [ 74.773343637222439, 16.589399568504529 ], [ 74.773313917065792, 16.589569530498817 ], [ 74.77329233213581, 16.589692975957 ], [ 74.773272176052572, 16.589808243712557 ], [ 74.773249983273089, 16.589935169746475 ], [ 74.773234066561358, 16.590026194528061 ], [ 74.773189456714391, 16.590304928515692 ], [ 74.773172844369554, 16.590408735780173 ], [ 74.77313357190674, 16.590654123041684 ], [ 74.773071505977882, 16.591041932643904 ], [ 74.772899759484659, 16.591559970804909 ], [ 74.772796633166863, 16.592425122535893 ], [ 74.77248529762204, 16.594699240871602 ], [ 74.772479801448085, 16.594742102706782 ], [ 74.772345076718295, 16.595792760327296 ], [ 74.772215634807111, 16.596802209073701 ], [ 74.772130492494, 16.597466174486307 ], [ 74.771922466280174, 16.598372116459757 ], [ 74.771802001459349, 16.599135252417319 ], [ 74.771776885257637, 16.599270986986301 ], [ 74.771672772430179, 16.599833660598975 ], [ 74.77166064609095, 16.600206697046669 ], [ 74.771645051581359, 16.600686375361647 ], [ 74.771644727534479, 16.600688479480301 ], [ 74.771589538568918, 16.601046668581798 ], [ 74.771394181319337, 16.602314566892229 ], [ 74.771211255340859, 16.603806124957003 ], [ 74.771201182993224, 16.603888257958122 ], [ 74.771054937519153, 16.605328902055426 ], [ 74.771021868457836, 16.605525877077287 ], [ 74.770971982438795, 16.605823007582085 ], [ 74.770970287627932, 16.605833098689775 ], [ 74.770911383839518, 16.60584188741128 ], [ 74.770712046222329, 16.605897513066513 ], [ 74.770307015713826, 16.605992526661289 ], [ 74.769790747339428, 16.606113630940261 ], [ 74.769195954887479, 16.606249689961313 ], [ 74.768919652366094, 16.606312894212152 ], [ 74.768690002375209, 16.60638276715736 ], [ 74.768214827749418, 16.606482592765335 ], [ 74.767780189584329, 16.606572942713363 ], [ 74.767611428934615, 16.606607354110576 ], [ 74.767415537943791, 16.606648869256968 ], [ 74.767282153443816, 16.60668750268599 ], [ 74.766799498303811, 16.606827303453795 ], [ 74.766384458628636, 16.606950305329981 ], [ 74.766238588279563, 16.606978388131331 ], [ 74.766216800820786, 16.606982445117037 ], [ 74.766175828132148, 16.606990072953387 ], [ 74.766064714978356, 16.607008670353402 ], [ 74.765945658974672, 16.607028108496266 ], [ 74.765892196738008, 16.607030894946622 ], [ 74.765837787594421, 16.607040647313784 ], [ 74.764800669630205, 16.607233641338034 ], [ 74.764313838935422, 16.607319219713052 ], [ 74.764101808252917, 16.60735813706961 ], [ 74.762872436155973, 16.607488908057341 ], [ 74.762066708170678, 16.607588982274521 ], [ 74.761811518976316, 16.607603861610393 ], [ 74.761440191162691, 16.607665025105049 ], [ 74.761131086936473, 16.60774001895518 ], [ 74.761051272418371, 16.607759380944032 ], [ 74.760399257563961, 16.607913151000243 ], [ 74.760233339547327, 16.607946348314254 ], [ 74.759752228627505, 16.608042633842697 ], [ 74.759469202003118, 16.608090203195523 ], [ 74.759202155681734, 16.608126352579877 ], [ 74.75892255988893, 16.608156119414911 ], [ 74.758496554045465, 16.608198549686179 ], [ 74.758042413416945, 16.608233592442094 ], [ 74.757806676209114, 16.608243843015568 ], [ 74.757454783043357, 16.608283277604727 ], [ 74.757360162626895, 16.608294240977099 ], [ 74.757074207467511, 16.608327395967041 ], [ 74.75674340328014, 16.608343464349254 ], [ 74.7563490956246, 16.608362085665132 ], [ 74.756239817422383, 16.608367310946523 ], [ 74.756107333237381, 16.608377818939761 ], [ 74.755988300027781, 16.608389678722563 ], [ 74.755667748836714, 16.608400331722748 ], [ 74.755416829915262, 16.608413472561907 ], [ 74.755183400511115, 16.608429714465931 ], [ 74.755129322450699, 16.608433471909422 ], [ 74.75483590546817, 16.60846765369941 ], [ 74.754504894506823, 16.608594547397985 ], [ 74.753937299645429, 16.608682243334499 ], [ 74.753809116456395, 16.60868841402683 ], [ 74.753526766816535, 16.608720141907312 ], [ 74.753266544267802, 16.608749378075409 ], [ 74.752988392409549, 16.608780639229696 ], [ 74.752444786569598, 16.608843063445473 ], [ 74.752167758795494, 16.608874876265816 ], [ 74.75198927896956, 16.608858701804746 ], [ 74.751476238608021, 16.608812191235266 ], [ 74.751412941470306, 16.608812387654865 ], [ 74.751366210678711, 16.608812534262469 ], [ 74.750187254828774, 16.608723380407074 ], [ 74.74984652708558, 16.60870941005647 ], [ 74.749672693611956, 16.608702270885129 ], [ 74.749526253491823, 16.608696271952731 ], [ 74.749244100031731, 16.608684692605522 ], [ 74.748878825313639, 16.608669706624394 ], [ 74.748644748109456, 16.608660101878261 ], [ 74.748358812002365, 16.608648376640044 ], [ 74.748286439021143, 16.608645400801638 ], [ 74.748180401848117, 16.608641049885922 ], [ 74.748159297700084, 16.608640490971968 ], [ 74.748082988645237, 16.608638467611382 ], [ 74.747975040714323, 16.608635607653643 ], [ 74.747933708041018, 16.608634519771044 ], [ 74.747832505439675, 16.608618196780277 ], [ 74.747708471348886, 16.608622468571934 ], [ 74.747686442953906, 16.608623223781972 ], [ 74.747427352344033, 16.608606505513009 ], [ 74.747175407092314, 16.608590237658646 ], [ 74.747155653947402, 16.608588958908413 ], [ 74.746901488309689, 16.608593721870747 ], [ 74.746641714196073, 16.608598582549046 ], [ 74.746515445837417, 16.608604372307141 ], [ 74.746382453963633, 16.608610496395276 ], [ 74.7462384294316, 16.608617127625056 ], [ 74.745961413933429, 16.608629881670478 ], [ 74.74582447727002, 16.608633568869838 ], [ 74.74568450662936, 16.608637337241724 ], [ 74.745405198407028, 16.608643984055867 ], [ 74.745125891108614, 16.608650630495625 ], [ 74.744948346215438, 16.608654854915937 ], [ 74.744846581921507, 16.608657276557551 ], [ 74.744593091939507, 16.608662190297849 ], [ 74.744536522578684, 16.60866384468417 ], [ 74.74432906970209, 16.608669913910919 ], [ 74.744065110524559, 16.608674608023598 ], [ 74.743974085471493, 16.608676487413948 ], [ 74.743801135334508, 16.608680059317784 ], [ 74.743579178562214, 16.60868697231939 ], [ 74.743561288696498, 16.608687529704731 ], [ 74.7433213506946, 16.608699543113346 ], [ 74.743081535097289, 16.608705499719392 ], [ 74.742841720426881, 16.608711456049726 ], [ 74.742807582289501, 16.608711884792768 ], [ 74.74270824679958, 16.608713130503716 ], [ 74.742604382932612, 16.608714433839221 ], [ 74.742555680878198, 16.608716442747649 ], [ 74.742366907908462, 16.608724226303906 ], [ 74.74235003569747, 16.608725161806362 ], [ 74.742134201687563, 16.608737146764401 ], [ 74.74203585644635, 16.608739630028829 ], [ 74.74191356277629, 16.608749836966407 ], [ 74.741895534756878, 16.608751341409345 ], [ 74.741787992969861, 16.608760322708925 ], [ 74.741684105167295, 16.608768993907525 ], [ 74.741461568652014, 16.608757131846343 ], [ 74.741287409773832, 16.608757326495319 ], [ 74.741238787189175, 16.608757384401848 ], [ 74.741192622947182, 16.608756650757755 ], [ 74.740860390604851, 16.608751374371437 ], [ 74.740604710704389, 16.608744869558247 ], [ 74.740349805892535, 16.608740663319612 ], [ 74.740151634845802, 16.608738780411283 ], [ 74.739870647596575, 16.608750054206741 ], [ 74.73954683754377, 16.608737578816928 ], [ 74.73922225189564, 16.608694753488908 ], [ 74.738898286134784, 16.608670647175543 ], [ 74.738585469947012, 16.608554812027826 ], [ 74.73847904121034, 16.608550468330414 ], [ 74.738475891266518, 16.608550339618439 ], [ 74.738277803709551, 16.608537518665901 ], [ 74.738101837166482, 16.608526885908962 ], [ 74.737984978317826, 16.608519824107063 ], [ 74.737741853257404, 16.608505132490802 ], [ 74.737630489816013, 16.608498402855648 ], [ 74.73741417048349, 16.608485330268181 ], [ 74.737269096937808, 16.608493871300482 ], [ 74.737156619388429, 16.608500492710519 ], [ 74.736909850252061, 16.608489229739657 ], [ 74.736541208288159, 16.608472405353154 ], [ 74.736308633559844, 16.608461790636198 ], [ 74.736164340045988, 16.608455204665621 ], [ 74.736038143755209, 16.60845274926427 ], [ 74.735708707594952, 16.608446338227044 ], [ 74.735236255346322, 16.608437142920504 ], [ 74.734797275051264, 16.608428598525851 ], [ 74.734564211196087, 16.608424062315962 ], [ 74.734440351235065, 16.6084216505113 ], [ 74.734328473581343, 16.608419472709112 ], [ 74.733885451794549, 16.608410848002858 ], [ 74.733850723183238, 16.608411190449399 ], [ 74.733336909048504, 16.608416259643224 ], [ 74.73317121076029, 16.608417893870588 ], [ 74.733064722155788, 16.608421091048296 ], [ 74.732923149564073, 16.608425342343445 ], [ 74.732769816990071, 16.608429945442182 ], [ 74.732565898588916, 16.60843606803882 ], [ 74.73245459271817, 16.608439409671536 ], [ 74.732221767261592, 16.608444889963515 ], [ 74.732070963713596, 16.608448440858147 ], [ 74.731780579262107, 16.608455274756491 ], [ 74.731717704286396, 16.60845675570592 ], [ 74.731654226459028, 16.608458248513898 ], [ 74.731581808946743, 16.608459953947563 ], [ 74.73150513301502, 16.60846175871805 ], [ 74.731130622707909, 16.608470572141652 ], [ 74.731064334053528, 16.608472131644607 ], [ 74.731056589995049, 16.608471476184206 ], [ 74.730985501397939, 16.608465458612809 ], [ 74.730488500989765, 16.60842338726432 ], [ 74.730340948691733, 16.608410897267145 ], [ 74.730035135639497, 16.608393305752664 ], [ 74.729773341942305, 16.608378246110764 ], [ 74.729739103151587, 16.608376277028245 ], [ 74.72931228442279, 16.608281852365977 ], [ 74.729099392604994, 16.608253463973611 ], [ 74.729071258745464, 16.608249712854594 ], [ 74.728388889359337, 16.608244399294332 ], [ 74.726817740224206, 16.608232158244121 ], [ 74.726735935037894, 16.608234022314651 ], [ 74.726723685776378, 16.608234301815145 ], [ 74.7262759855182, 16.608250342462334 ], [ 74.726031088559523, 16.608259116632233 ], [ 74.725685054792777, 16.608276118005072 ], [ 74.72556949087047, 16.608268756242968 ], [ 74.725509001147373, 16.60792025968604 ], [ 74.725489566704439, 16.607808290497314 ], [ 74.725470816703364, 16.607700265372923 ], [ 74.725314863172414, 16.606801768435865 ], [ 74.725327535312971, 16.60496644578075 ], [ 74.725328450286113, 16.603836113858407 ], [ 74.725370800241819, 16.602393474034873 ], [ 74.725384618641712, 16.602294753146985 ], [ 74.725402733695262, 16.601372098048845 ], [ 74.725426157926535, 16.600618196042735 ], [ 74.72547777459036, 16.600084588027023 ], [ 74.725610822479794, 16.598709064064437 ], [ 74.725616214877746, 16.598695205007814 ], [ 74.723420768848797, 16.598605406631357 ], [ 74.723108168485197, 16.598590609296203 ], [ 74.72303158033958, 16.59858030409233 ], [ 74.722132282566164, 16.598459299149248 ], [ 74.722074427074929, 16.598453756383169 ], [ 74.721696821707653, 16.598417579500857 ], [ 74.721436413091439, 16.598392631784773 ], [ 74.720930450343545, 16.598344155573834 ], [ 74.720649207360367, 16.598317210050546 ], [ 74.72057003379193, 16.59826868647929 ], [ 74.720390431836663, 16.598252262059724 ], [ 74.719631852874215, 16.598182888248537 ], [ 74.719294655718514, 16.598152050672255 ], [ 74.718681969934394, 16.598096017737163 ], [ 74.71867609696919, 16.598095765719371 ], [ 74.718360900153684, 16.598082241406562 ], [ 74.7180020915998, 16.598066845014738 ], [ 74.717405462378892, 16.598041243628408 ], [ 74.717029177610314, 16.598025096824234 ], [ 74.716644530161787, 16.598008589011883 ], [ 74.716141320289296, 16.597986992935464 ], [ 74.715806652675425, 16.597972628218404 ], [ 74.715645256526543, 16.597965701917964 ], [ 74.715560274065524, 16.597962305180715 ], [ 74.715062609050207, 16.597942409947976 ], [ 74.714836282330907, 16.597933361917882 ], [ 74.714547250228776, 16.597921805835945 ], [ 74.714017094259447, 16.597900610597311 ], [ 74.713993959856481, 16.59789818504877 ], [ 74.713840140133385, 16.597882058915598 ], [ 74.713434035680322, 16.597849485365629 ], [ 74.712952317504204, 16.597810846749784 ], [ 74.712714656800117, 16.597791783652401 ], [ 74.71258248732255, 16.597764403006167 ], [ 74.712397199259044, 16.597760990203373 ], [ 74.711616197749834, 16.597746605018603 ], [ 74.711462414148656, 16.597746087117045 ], [ 74.711373850214954, 16.597741135185117 ], [ 74.710884122071278, 16.597713751503122 ], [ 74.710308003112388, 16.597681535731997 ], [ 74.710064376095502, 16.59766791140105 ], [ 74.709904649461052, 16.59765892913617 ], [ 74.709756754725703, 16.597649984953939 ], [ 74.709273240716612, 16.597609505672516 ], [ 74.708172061034176, 16.597517311656993 ], [ 74.708100570374782, 16.597511325532825 ], [ 74.707922375985234, 16.597451828532897 ], [ 74.707861481791753, 16.597431497478333 ], [ 74.707740937443859, 16.597421258712945 ], [ 74.707516158551158, 16.597421568333534 ], [ 74.707376843485903, 16.597422220333424 ], [ 74.707143468795422, 16.59588638731622 ], [ 74.707003733411867, 16.595829812012706 ], [ 74.706570497061506, 16.595355127861467 ], [ 74.706495067190602, 16.595273687628936 ], [ 74.706406285309967, 16.595048139474514 ], [ 74.706333367576988, 16.594979971353364 ], [ 74.70621892189321, 16.594943348627684 ], [ 74.705997921228558, 16.594872627205618 ], [ 74.705566286587143, 16.59477511550913 ], [ 74.705181769049176, 16.594649548675882 ], [ 74.704917805811746, 16.594652717149124 ], [ 74.704643847273431, 16.59463319384712 ], [ 74.704108364873974, 16.594623594734898 ], [ 74.703590189416175, 16.594583806075509 ], [ 74.703403505135256, 16.594578501231187 ], [ 74.703172195941107, 16.594571179958908 ], [ 74.702993803827525, 16.594582191669009 ], [ 74.700416261390046, 16.594540124770841 ], [ 74.700229213808825, 16.594537071082975 ], [ 74.700219422411521, 16.594538009769447 ], [ 74.700051875391594, 16.59455407607815 ], [ 74.699251744426547, 16.594562055679919 ], [ 74.698271265891123, 16.594571829990432 ], [ 74.697809920195169, 16.594576426977945 ], [ 74.697312894838547, 16.594553305636172 ], [ 74.697222659206588, 16.59454910732752 ], [ 74.69715104073434, 16.594544877322527 ], [ 74.697005828750306, 16.594536297748899 ], [ 74.696817595838667, 16.594525177576443 ], [ 74.695971151549543, 16.594483624852703 ], [ 74.69534011364027, 16.594452644407035 ], [ 74.694926463513085, 16.594432336019921 ], [ 74.694640807573336, 16.594408267033241 ], [ 74.692984612221593, 16.594259509652257 ], [ 74.692899443138103, 16.594256342061165 ], [ 74.692879851643141, 16.594250098282089 ], [ 74.692601968316396, 16.594225137613513 ], [ 74.692266438437571, 16.594194994679661 ], [ 74.692092940832381, 16.594179413721687 ], [ 74.692101223649203, 16.594750533988275 ], [ 74.692112516269063, 16.595529245791244 ], [ 74.692146343610602, 16.596287516659384 ], [ 74.692232845665117, 16.597346516248532 ], [ 74.692273950443905, 16.598396413280479 ], [ 74.692297597762035, 16.599123952566931 ], [ 74.692298824857687, 16.599170547271523 ], [ 74.692322814285532, 16.600084416969484 ], [ 74.692388745809495, 16.600760609402027 ], [ 74.692355641449822, 16.601354901257597 ], [ 74.69235239949613, 16.60140857834374 ], [ 74.692357354353121, 16.601903428219924 ], [ 74.692366847347429, 16.602853948847148 ], [ 74.69235198616667, 16.602905121890672 ], [ 74.692235121427075, 16.603307449110137 ], [ 74.69215787774047, 16.603573406438727 ], [ 74.69190579176886, 16.60402491303876 ], [ 74.691853111054087, 16.60412029783172 ], [ 74.691821235311309, 16.604224052647492 ], [ 74.691446286591471, 16.603991224740199 ], [ 74.691268254094467, 16.604034288184341 ], [ 74.691082067082291, 16.604087896926 ], [ 74.690926474945627, 16.604223443295883 ], [ 74.690719268434904, 16.604535632441639 ], [ 74.690499189089266, 16.604629451628252 ], [ 74.690384391292923, 16.604653634809292 ], [ 74.690016469480071, 16.604731127103932 ], [ 74.68957857504806, 16.604729257083328 ], [ 74.689236923125691, 16.604636282423339 ], [ 74.688337658846905, 16.604391585544093 ], [ 74.687851049690778, 16.604202537062996 ], [ 74.687634098488758, 16.604196744916162 ], [ 74.687401579322014, 16.604420362441545 ], [ 74.687250181175784, 16.604596750438056 ], [ 74.686443236484322, 16.605290747697598 ], [ 74.686386513118578, 16.605358888090315 ], [ 74.686250835692476, 16.605521850546591 ], [ 74.686231374986278, 16.605796625089667 ], [ 74.686251667733046, 16.605962881004025 ], [ 74.686290257870098, 16.606278892210998 ], [ 74.686365202119489, 16.606307329618733 ], [ 74.686364812809515, 16.606416685964316 ], [ 74.686361102266829, 16.607456622949858 ], [ 74.685157538356592, 16.606665010984784 ], [ 74.683426186368763, 16.606566956278684 ], [ 74.681868026662727, 16.606607810680089 ], [ 74.679916002463202, 16.607217583059356 ], [ 74.678555889340757, 16.60782046785442 ], [ 74.678435486747134, 16.607873825138554 ], [ 74.677397852324859, 16.608476809305355 ], [ 74.675385962849759, 16.609394422418202 ], [ 74.674716454277487, 16.609750374429943 ], [ 74.673522489969002, 16.609753981710835 ], [ 74.672099383822754, 16.609565613922076 ], [ 74.672047141862336, 16.610157688647938 ], [ 74.672195343758816, 16.610194952905719 ], [ 74.672186306273858, 16.610532427476294 ], [ 74.671586739429031, 16.610119030019234 ], [ 74.671268487771826, 16.609890121929606 ], [ 74.670524450156364, 16.609593135746902 ], [ 74.667726764573601, 16.607981024904706 ], [ 74.667063218330824, 16.607579384245451 ], [ 74.665361134089324, 16.607291655818607 ], [ 74.663961262702941, 16.606590257227296 ], [ 74.663019334482755, 16.606196472095032 ], [ 74.661926150034702, 16.605646868880918 ], [ 74.660185034921028, 16.605158797026327 ], [ 74.65833797853935, 16.605372207363462 ] ] ] } }
]
}
