{
"type": "FeatureCollection",
"name": "villages_in_police_area.writing_20260805_172659",
"crs": { "type": "name", "properties": { "name": "urn:ogc:def:crs:OGC:1.3:CRS84" } },
"features": [
{ "type": "Feature", "properties": { "OBJECTID": 11618, "KGISVillageID": 15488, "KGISVillageCode": "2001040032", "KGISVillageName": "Nagarabhavi", "KGISHobliID": 1052, "UniqueVillageCode": "2001040032_1", "Bhucode": "200101006039", "CensusVillageCode": "2957205542803162", "BhoomiVillageCode": "2001040032", "created_user": null, "created_date": null, "last_edited_user": null, "last_edited_date": null, "LGDGPCode": " ", "LGDGPCode_Secondary": null, "Category": "Cadastral data available and has bhoomi linkage", "SHAPE.STArea()": 5082415.5259207152, "SHAPE.STLength()": 9795.4187642807519, "LGD_VillageCode": 938511.0, "_overlap_percent": 0.25379118646618382, "_police_station": "Govindarajanagar PS", "_police_feature_index": "802", "_admin_layer": "Village", "_geometry_clipped": true }, "geometry": { "type": "MultiPolygon", "coordinates": [ [ [ [ 77.52660416012624, 12.965480057055405 ], [ 77.52654775633539, 12.96493392177144 ], [ 77.526542744228209, 12.964885393118507 ], [ 77.526544306549312, 12.96487817722787 ], [ 77.526551606707258, 12.964844453590931 ], [ 77.526593915846533, 12.964649014373162 ], [ 77.526602668685769, 12.964608582870289 ], [ 77.52650114987155, 12.964601872577205 ], [ 77.526433747002073, 12.964598009575894 ], [ 77.52635001023279, 12.96541384947386 ], [ 77.526567500538746, 12.965422138663699 ], [ 77.526647726434206, 12.965894663389953 ], [ 77.52660416012624, 12.965480057055405 ] ] ], [ [ [ 77.527713688949063, 12.970278591739605 ], [ 77.527567334214041, 12.969592850697705 ], [ 77.527520909389764, 12.969375329718908 ], [ 77.52750502758812, 12.969338966372561 ], [ 77.527464451884811, 12.969278681248031 ], [ 77.527423042263791, 12.969150155526547 ], [ 77.527394439960659, 12.969107847094829 ], [ 77.527298826428975, 12.968856405799521 ], [ 77.527010737482058, 12.968005783772583 ], [ 77.526894179141948, 12.967591508500744 ], [ 77.526845869544317, 12.967230263074386 ], [ 77.526826944537746, 12.967074402674514 ], [ 77.526818887958484, 12.967021605301474 ], [ 77.526557893934068, 12.967096793527629 ], [ 77.526850983795654, 12.968290062573983 ], [ 77.526977501987545, 12.96874127732355 ], [ 77.52731920700721, 12.969497230545686 ], [ 77.527468581975555, 12.970182010117522 ], [ 77.527713688949063, 12.970278591739605 ] ] ], [ [ [ 77.525513046736577, 12.970770640450525 ], [ 77.525594718565813, 12.970834186881563 ], [ 77.525716821530054, 12.970929190113251 ], [ 77.526307381339052, 12.970657455702018 ], [ 77.526482704590848, 12.970576784366465 ], [ 77.526510378236537, 12.970563005899248 ], [ 77.526487991910344, 12.970541239878422 ], [ 77.526447036188003, 12.970533732239716 ], [ 77.526411273321983, 12.970527303505817 ], [ 77.526349557585505, 12.970516609439942 ], [ 77.526174705064022, 12.970591715206075 ], [ 77.526119550237581, 12.970603544324543 ], [ 77.525966130173074, 12.970634397261326 ], [ 77.525954638629045, 12.970636767550303 ], [ 77.525588197286837, 12.970726156220273 ], [ 77.525440004081005, 12.970761475512807 ], [ 77.525383072862397, 12.970775152026549 ], [ 77.525513046736577, 12.970770640450525 ] ] ], [ [ [ 77.524750245610917, 12.970794149183021 ], [ 77.524912059455261, 12.970791501564548 ], [ 77.52521405100525, 12.970781019012996 ], [ 77.525095308605771, 12.970780632805676 ], [ 77.524995133661548, 12.970781605251235 ], [ 77.524749726953587, 12.970794157656172 ], [ 77.524750245610917, 12.970794149183021 ] ] ] ] } },
{ "type": "Feature", "properties": { "OBJECTID": 11615, "KGISVillageID": 15485, "KGISVillageCode": "2001040028", "KGISVillageName": "Malagalu", "KGISHobliID": 1052, "UniqueVillageCode": "2001040028_1", "Bhucode": "200101006036", "CensusVillageCode": "2957205542803162", "BhoomiVillageCode": "2001040028", "created_user": null, "created_date": null, "last_edited_user": null, "last_edited_date": null, "LGDGPCode": " ", "LGDGPCode_Secondary": null, "Category": "Cadastral data available and has bhoomi linkage", "SHAPE.STArea()": 2300051.3608388002, "SHAPE.STLength()": 8621.6814086364884, "LGD_VillageCode": 938509.0, "_overlap_percent": 36.074022358638324, "_police_station": "Govindarajanagar PS", "_police_feature_index": "802", "_admin_layer": "Village", "_geometry_clipped": true }, "geometry": { "type": "Polygon", "coordinates": [ [ [ 77.524912059455261, 12.970791501564548 ], [ 77.524750245610917, 12.970794149183021 ], [ 77.524749726953587, 12.970794157656172 ], [ 77.523482162675791, 12.970858992803636 ], [ 77.521756473140258, 12.971007630770249 ], [ 77.521212170168099, 12.971082328897115 ], [ 77.519862610833798, 12.971369169791991 ], [ 77.519889415644613, 12.971751583559605 ], [ 77.519273289585271, 12.971851179027986 ], [ 77.518852489261448, 12.971919199451371 ], [ 77.518683960024475, 12.971138601477938 ], [ 77.51853502212964, 12.970905220280917 ], [ 77.518486362687511, 12.970990392952837 ], [ 77.518472219742449, 12.971015375672414 ], [ 77.518365632363881, 12.971180163971527 ], [ 77.518254306674706, 12.971389042926958 ], [ 77.518194912938469, 12.971494647872818 ], [ 77.518024635897206, 12.971681510438604 ], [ 77.517906976789831, 12.97189045064183 ], [ 77.517885112060611, 12.972020803660119 ], [ 77.517879274313444, 12.972055604528611 ], [ 77.517884293238296, 12.972153809752129 ], [ 77.517907667164366, 12.972245061155128 ], [ 77.517991480850597, 12.972334598064117 ], [ 77.518049641057488, 12.972506826146525 ], [ 77.518113545118908, 12.972588429823428 ], [ 77.518140049328778, 12.972622274274325 ], [ 77.518167965059831, 12.972764302577071 ], [ 77.518102060230376, 12.972909497986194 ], [ 77.517792630983564, 12.973172245219876 ], [ 77.517626575540959, 12.973206604058946 ], [ 77.517521497728168, 12.973178258040592 ], [ 77.517512373110591, 12.973129784130673 ], [ 77.517394799819002, 12.973118499326873 ], [ 77.517311777868827, 12.973222074197896 ], [ 77.517296490989821, 12.973362262126111 ], [ 77.517312702543563, 12.973542801926836 ], [ 77.517315335037338, 12.973575527725485 ], [ 77.517337921224978, 12.973702926152717 ], [ 77.517397804779122, 12.973817540633087 ], [ 77.51748389564338, 12.974018861672681 ], [ 77.517544234020704, 12.974178645859975 ], [ 77.517568829611335, 12.974291666621445 ], [ 77.517583475100949, 12.974358962642674 ], [ 77.517601542676616, 12.974437842520139 ], [ 77.517623212421228, 12.97453136912398 ], [ 77.517747101427474, 12.974769592726442 ], [ 77.517763146344805, 12.97481912895501 ], [ 77.517806516140169, 12.97495197280792 ], [ 77.517777244810702, 12.974961291058221 ], [ 77.517813751351895, 12.975098718772422 ], [ 77.517821531441371, 12.975128006644153 ], [ 77.517932246475453, 12.975201471959116 ], [ 77.518035809906038, 12.975193692994434 ], [ 77.518132912126205, 12.975287618395257 ], [ 77.518177641415363, 12.975326712612537 ], [ 77.518209003813809, 12.975353513379128 ], [ 77.518340036022337, 12.975386124993683 ], [ 77.518519497944368, 12.975425043591565 ], [ 77.518581510634107, 12.975465099676693 ], [ 77.518602714619504, 12.975512327137864 ], [ 77.518590318617441, 12.975653616373252 ], [ 77.518564339592558, 12.975761156574181 ], [ 77.518531365046869, 12.975917326728929 ], [ 77.518522237195711, 12.975982917636614 ], [ 77.518467300886783, 12.976073798015561 ], [ 77.518459301742325, 12.976137119284974 ], [ 77.518457276008377, 12.976221840411728 ], [ 77.518455905620087, 12.976314460664438 ], [ 77.518436831062544, 12.976364336969223 ], [ 77.518434452784305, 12.97641405155523 ], [ 77.518435635535013, 12.976531492853566 ], [ 77.518473032706325, 12.97664293660474 ], [ 77.518571031495583, 12.976940136611924 ], [ 77.518682791364512, 12.977231556460733 ], [ 77.518696756124911, 12.977281056699901 ], [ 77.518823205014471, 12.977257241889767 ], [ 77.518809660090653, 12.977215654839249 ], [ 77.51900502450269, 12.977161296869042 ], [ 77.519524984939963, 12.97708115217489 ], [ 77.519671985055979, 12.977058493982328 ], [ 77.519645607975107, 12.976964473072121 ], [ 77.519725334190895, 12.976884007910927 ], [ 77.520206879765112, 12.976703327120902 ], [ 77.520214925142042, 12.976700308304649 ], [ 77.520272861770266, 12.976678570014705 ], [ 77.520375399770643, 12.976843594411367 ], [ 77.520382029389467, 12.976854491183033 ], [ 77.520408615324783, 12.976898189644711 ], [ 77.520414349379735, 12.976907614290395 ], [ 77.520441618215031, 12.976952433876267 ], [ 77.520672914065798, 12.976908871564087 ], [ 77.520713720625935, 12.976901636140452 ], [ 77.520767397566146, 12.976881864807709 ], [ 77.521446814222003, 12.976631609839941 ], [ 77.52179466236305, 12.976503482778712 ], [ 77.521969290085707, 12.976485547147684 ], [ 77.522014736784186, 12.976480879847346 ], [ 77.522181571641013, 12.976467891233709 ], [ 77.522267248713561, 12.976626176917721 ], [ 77.522858653922512, 12.976521311643078 ], [ 77.522879613780162, 12.976732179247927 ], [ 77.522939888561524, 12.977043755709078 ], [ 77.523071270590023, 12.977122521861627 ], [ 77.523516312066889, 12.977194107598153 ], [ 77.523731844409141, 12.977284100867877 ], [ 77.523838969391235, 12.977265520843099 ], [ 77.523873276297508, 12.977120482054911 ], [ 77.524042019383586, 12.977004833911824 ], [ 77.524233338602983, 12.976910891229956 ], [ 77.524280754101341, 12.976904843635806 ], [ 77.524241709229997, 12.976753191716744 ], [ 77.524549747556804, 12.976678796287901 ], [ 77.524646331972647, 12.976671253133597 ], [ 77.524837684555365, 12.97665630903729 ], [ 77.525546743694662, 12.976724877454659 ], [ 77.525582855726199, 12.976826991947931 ], [ 77.525663968035076, 12.977061118289281 ], [ 77.525807269824369, 12.977486168725534 ], [ 77.525836316327513, 12.977572891511375 ], [ 77.526761050038687, 12.977980213746552 ], [ 77.526796400446997, 12.978196688478663 ], [ 77.526836508129648, 12.978688556781769 ], [ 77.527931541424834, 12.978667916320497 ], [ 77.529118522955045, 12.978649563287098 ], [ 77.52925771469792, 12.978593384818005 ], [ 77.529201757354528, 12.978449354019638 ], [ 77.529767111895183, 12.978229938183663 ], [ 77.530061505727645, 12.977814720853734 ], [ 77.530146794822571, 12.977824877092266 ], [ 77.530220093982848, 12.977833605048945 ], [ 77.530093132742124, 12.977748722280612 ], [ 77.530062693784785, 12.977728372285121 ], [ 77.530000304427631, 12.977393704228325 ], [ 77.529959660615177, 12.977209447428267 ], [ 77.529846542484577, 12.976707493875939 ], [ 77.529829800265432, 12.976656934758052 ], [ 77.529666692674638, 12.976164355789356 ], [ 77.529637849580126, 12.97607724952276 ], [ 77.529506614433302, 12.975680921918068 ], [ 77.529343512268369, 12.975188355993506 ], [ 77.529290398483667, 12.975027953621607 ], [ 77.529238068166393, 12.975040755316202 ], [ 77.528897168320924, 12.974563562466923 ], [ 77.528896157104015, 12.974544096063349 ], [ 77.528861859347614, 12.973883557475068 ], [ 77.52883923707013, 12.973669237067135 ], [ 77.528836678753763, 12.973644998183822 ], [ 77.528811114241208, 12.973402808829412 ], [ 77.528806114851719, 12.973355446616129 ], [ 77.528598763367867, 12.972843275304983 ], [ 77.528563895598609, 12.972678088366616 ], [ 77.528222558577923, 12.971867986693528 ], [ 77.528140184048198, 12.971608470410532 ], [ 77.527897536811665, 12.970844020727725 ], [ 77.527825707385503, 12.970588037321958 ], [ 77.527713688949063, 12.970278591739605 ], [ 77.527468581975555, 12.970182010117522 ], [ 77.527508253622344, 12.970363876822532 ], [ 77.527888089766734, 12.971890758194723 ], [ 77.527165300139856, 12.971985871175791 ], [ 77.527039912622811, 12.971941915591714 ], [ 77.526964595322397, 12.971838747434537 ], [ 77.526943737915772, 12.971768930559032 ], [ 77.526893079388259, 12.971598891314239 ], [ 77.526865672407908, 12.971507680458757 ], [ 77.526856728659823, 12.971477274974319 ], [ 77.526813794146008, 12.971330876943723 ], [ 77.52673389919083, 12.971059480395965 ], [ 77.526691563390955, 12.970915335194979 ], [ 77.526688582159608, 12.970905200028573 ], [ 77.526641686306917, 12.97076561649372 ], [ 77.526630416950681, 12.970732974885964 ], [ 77.526603688570873, 12.970651921499652 ], [ 77.526539743882353, 12.970591557848893 ], [ 77.526510378236537, 12.970563005899248 ], [ 77.526482704590848, 12.970576784366465 ], [ 77.526307381339052, 12.970657455702018 ], [ 77.525716821530054, 12.970929190113251 ], [ 77.525594718565813, 12.970834186881563 ], [ 77.525513046736577, 12.970770640450525 ], [ 77.525383072862397, 12.970775152026549 ], [ 77.525356718767199, 12.970781483037088 ], [ 77.52521405100525, 12.970781019012996 ], [ 77.524912059455261, 12.970791501564548 ] ] ] } },
{ "type": "Feature", "properties": { "OBJECTID": 11623, "KGISVillageID": 15493, "KGISVillageCode": "2001040029", "KGISVillageName": "Sajjepalya", "KGISHobliID": 1052, "UniqueVillageCode": "2001040029_1", "Bhucode": "200101006042", "CensusVillageCode": "2957205542803162", "BhoomiVillageCode": "2001040029", "created_user": null, "created_date": null, "last_edited_user": null, "last_edited_date": null, "LGDGPCode": " ", "LGDGPCode_Secondary": null, "Category": "Cadastral data available and has bhoomi linkage", "SHAPE.STArea()": 1083050.58607344, "SHAPE.STLength()": 4746.2997979227221, "LGD_VillageCode": 938513.0, "_overlap_percent": 1.0534887620812259, "_police_station": "Govindarajanagar PS", "_police_feature_index": "802", "_admin_layer": "Village", "_geometry_clipped": true }, "geometry": { "type": "MultiPolygon", "coordinates": [ [ [ [ 77.520414349379735, 12.976907614290395 ], [ 77.520408615324783, 12.976898189644711 ], [ 77.520382029389467, 12.976854491183033 ], [ 77.520375399770643, 12.976843594411367 ], [ 77.520272861770266, 12.976678570014705 ], [ 77.520214925142042, 12.976700308304649 ], [ 77.520206879765112, 12.976703327120902 ], [ 77.519725334190895, 12.976884007910927 ], [ 77.519645607975107, 12.976964473072121 ], [ 77.519671985055979, 12.977058493982328 ], [ 77.519524984939963, 12.97708115217489 ], [ 77.51900502450269, 12.977161296869042 ], [ 77.518809660090653, 12.977215654839249 ], [ 77.518823205014471, 12.977257241889767 ], [ 77.519724387070497, 12.97708751735019 ], [ 77.520441618215031, 12.976952433876267 ], [ 77.520414349379735, 12.976907614290395 ] ] ], [ [ [ 77.522181571641013, 12.976467891233709 ], [ 77.522014736784186, 12.976480879847346 ], [ 77.521969290085707, 12.976485547147684 ], [ 77.52179466236305, 12.976503482778712 ], [ 77.521446814222003, 12.976631609839941 ], [ 77.520767397566146, 12.976881864807709 ], [ 77.520713720625935, 12.976901636140452 ], [ 77.521744644613406, 12.976718842693508 ], [ 77.522267248713561, 12.976626176917721 ], [ 77.522181571641013, 12.976467891233709 ] ] ], [ [ [ 77.525807269824369, 12.977486168725534 ], [ 77.525663968035076, 12.977061118289281 ], [ 77.525582855726199, 12.976826991947931 ], [ 77.525546743694662, 12.976724877454659 ], [ 77.524837684555365, 12.97665630903729 ], [ 77.524646331972647, 12.976671253133597 ], [ 77.524549747556804, 12.976678796287901 ], [ 77.524241709229997, 12.976753191716744 ], [ 77.524280754101341, 12.976904843635806 ], [ 77.524456617501968, 12.976882413196192 ], [ 77.524765639923345, 12.976932032981852 ], [ 77.525057355269226, 12.977038825439728 ], [ 77.525538662794929, 12.977323561774568 ], [ 77.525607232655702, 12.97747198584295 ], [ 77.525836316327513, 12.977572891511375 ], [ 77.525807269824369, 12.977486168725534 ] ] ] ] } },
{ "type": "Feature", "properties": { "OBJECTID": 11624, "KGISVillageID": 15494, "KGISVillageCode": "2001040038", "KGISVillageName": "Saneguruvanahalli", "KGISHobliID": 1052, "UniqueVillageCode": "2001040038_1", "Bhucode": "200101006043", "CensusVillageCode": "2957205542803162", "BhoomiVillageCode": "2001040038", "created_user": null, "created_date": null, "last_edited_user": null, "last_edited_date": null, "LGDGPCode": " ", "LGDGPCode_Secondary": null, "Category": "Cadastral data available and has bhoomi linkage", "SHAPE.STArea()": 4254401.4745201552, "SHAPE.STLength()": 11392.675790565876, "LGD_VillageCode": 938514.0, "_overlap_percent": 0.85599945892721885, "_police_station": "Govindarajanagar PS", "_police_feature_index": "802", "_admin_layer": "Village", "_geometry_clipped": true }, "geometry": { "type": "MultiPolygon", "coordinates": [ [ [ [ 77.527931541424834, 12.978667916320497 ], [ 77.526836508129648, 12.978688556781769 ], [ 77.526840564524463, 12.978738303162114 ], [ 77.527024367095805, 12.978877448150445 ], [ 77.527434269856329, 12.978965610691958 ], [ 77.527908957617839, 12.978901370227655 ], [ 77.528339267777781, 12.978821299778613 ], [ 77.528808318032219, 12.978746271774051 ], [ 77.528986405820177, 12.978702886409751 ], [ 77.529118522955045, 12.978649563287098 ], [ 77.527931541424834, 12.978667916320497 ] ] ], [ [ [ 77.534266518824793, 12.981430310064454 ], [ 77.534029526942604, 12.980648369419445 ], [ 77.534014387553469, 12.98059973039063 ], [ 77.534002723829516, 12.980550971646352 ], [ 77.533962057531809, 12.98038268611786 ], [ 77.533920540310532, 12.980210880805497 ], [ 77.533908412953124, 12.98016273008886 ], [ 77.533885586608463, 12.980072102088515 ], [ 77.533875369452943, 12.980031534567173 ], [ 77.53379395828388, 12.980049474252382 ], [ 77.533601997708161, 12.980091775756961 ], [ 77.533477550662141, 12.980119199358738 ], [ 77.533466777452844, 12.980121572979964 ], [ 77.5334351292924, 12.980080771602037 ], [ 77.53306012235133, 12.979597319505201 ], [ 77.532952619216985, 12.9794636907805 ], [ 77.532582630229669, 12.979073065850558 ], [ 77.532279908180385, 12.979034420746574 ], [ 77.531859972433921, 12.979019313115142 ], [ 77.531321712531451, 12.978972133520839 ], [ 77.531128308192123, 12.978892477208399 ], [ 77.531060110368827, 12.978864388939224 ], [ 77.531073636187287, 12.97893493164595 ], [ 77.53112131320924, 12.978975669496418 ], [ 77.531368426230827, 12.979004163976219 ], [ 77.5318642793019, 12.979095270508921 ], [ 77.5319873938911, 12.9791165922997 ], [ 77.532145801019297, 12.979193650693617 ], [ 77.532352638533496, 12.979304298154371 ], [ 77.532501129820176, 12.979457434121159 ], [ 77.532703924404458, 12.979696502408705 ], [ 77.532712363281263, 12.979738340456707 ], [ 77.532579192629598, 12.97977893903975 ], [ 77.53258129904556, 12.979811717320874 ], [ 77.533070628399955, 12.981382146062858 ], [ 77.533213562888434, 12.981907026117831 ], [ 77.533430124713306, 12.98185635359458 ], [ 77.533671385988796, 12.981799793421841 ], [ 77.533797751071319, 12.981769198672273 ], [ 77.534245270729116, 12.981611245167656 ], [ 77.534284268023498, 12.981597453376903 ], [ 77.534266518824793, 12.981430310064454 ] ] ] ] } },
{ "type": "Feature", "properties": { "OBJECTID": 29495, "KGISVillageID": 15116, "KGISVillageCode": "2957205542803162", "KGISVillageName": "J.I.Kempapura Agrahara", "KGISHobliID": 574, "UniqueVillageCode": "2957205542803162_41", "Bhucode": "200101004041", "CensusVillageCode": "2957205542803162", "BhoomiVillageCode": null, "created_user": null, "created_date": null, "last_edited_user": "SURESHBV2", "last_edited_date": 1724225862000.0, "LGDGPCode": " ", "LGDGPCode_Secondary": null, "Category": "Cadastral data available and has no bhoomi data", "SHAPE.STArea()": 8335114.9713062253, "SHAPE.STLength()": 15805.504469589738, "LGD_VillageCode": 939452.0, "_overlap_percent": 23.237465604601429, "_police_station": "Govindarajanagar PS", "_police_feature_index": "802", "_admin_layer": "Village", "_geometry_clipped": true }, "geometry": { "type": "Polygon", "coordinates": [ [ [ 77.532057485704186, 12.979135522208649 ], [ 77.532255019073574, 12.97917938705935 ], [ 77.532256901768179, 12.979179805097726 ], [ 77.532268910347824, 12.979016888453197 ], [ 77.532269454839138, 12.97900915935111 ], [ 77.532271353343432, 12.978982213722302 ], [ 77.53262863071005, 12.979087241321496 ], [ 77.532952619216985, 12.9794636907805 ], [ 77.53306012235133, 12.979597319505201 ], [ 77.5334351292924, 12.980080771602037 ], [ 77.533466777452844, 12.980121572979964 ], [ 77.533477550662141, 12.980119199358738 ], [ 77.53379395828388, 12.980049474252382 ], [ 77.533875369452943, 12.980031534567173 ], [ 77.533885586608463, 12.980072102088515 ], [ 77.533908412953124, 12.98016273008886 ], [ 77.533920540310532, 12.980210880805497 ], [ 77.534290181701408, 12.980116644444159 ], [ 77.534770780741283, 12.979994119378851 ], [ 77.534980124883418, 12.979921532997235 ], [ 77.535542566349122, 12.979726516190491 ], [ 77.535578586448722, 12.979714026700146 ], [ 77.5357071529085, 12.979669448420111 ], [ 77.536281748207273, 12.979464448452051 ], [ 77.536224898652506, 12.979286707560306 ], [ 77.536587229731936, 12.978890998003095 ], [ 77.536839891522163, 12.978398635296694 ], [ 77.536909108587224, 12.978377213449097 ], [ 77.537568345567266, 12.97817319046489 ], [ 77.53832471864213, 12.978013642277617 ], [ 77.53876621745907, 12.977824477719594 ], [ 77.538787996031388, 12.977818042849409 ], [ 77.538833887645339, 12.977806807270557 ], [ 77.539342026240291, 12.977682394151703 ], [ 77.540172443744893, 12.977479072027482 ], [ 77.540328806774809, 12.977472039415881 ], [ 77.540407502109403, 12.977468500436945 ], [ 77.540540501728088, 12.977462519049539 ], [ 77.540731003136642, 12.97739179415624 ], [ 77.540712223710415, 12.977269245077299 ], [ 77.54069945020214, 12.977185888497443 ], [ 77.540688032409335, 12.977111379887463 ], [ 77.541043926579263, 12.977099015286214 ], [ 77.541138700584654, 12.977087067585723 ], [ 77.541312476664089, 12.977065161192741 ], [ 77.541402413814808, 12.977053824442212 ], [ 77.541475497044971, 12.977044611130335 ], [ 77.541763004933628, 12.97697745284961 ], [ 77.541834573758621, 12.97696073558753 ], [ 77.541912316128929, 12.976873626588512 ], [ 77.54215054041633, 12.976967406530145 ], [ 77.542830846093636, 12.976598570961787 ], [ 77.543015167652115, 12.976498638136416 ], [ 77.543122787459581, 12.976439258585639 ], [ 77.543322112288365, 12.976445040777795 ], [ 77.543350962389184, 12.976433837460984 ], [ 77.543452721958701, 12.976388311056137 ], [ 77.54379565547022, 12.976234886724571 ], [ 77.54432251528975, 12.975971987156669 ], [ 77.544593978637394, 12.9758825202001 ], [ 77.544640485563619, 12.975866284220368 ], [ 77.544956470271259, 12.975755969207599 ], [ 77.545096392077156, 12.975653538872278 ], [ 77.545159545541878, 12.975622704296105 ], [ 77.545416528145651, 12.975497231574577 ], [ 77.546004348512753, 12.975190729251494 ], [ 77.54600615892933, 12.975189751141526 ], [ 77.546136540560084, 12.97511872879317 ], [ 77.54617667789627, 12.975202314682509 ], [ 77.546208997677724, 12.975269620775821 ], [ 77.54634523340647, 12.97555333087114 ], [ 77.546363677170504, 12.975591739960908 ], [ 77.546484614979022, 12.97584358996261 ], [ 77.546363582865155, 12.974901170960202 ], [ 77.546572727297161, 12.974907483509032 ], [ 77.546925777761885, 12.974918139688313 ], [ 77.546991543759944, 12.97480466181022 ], [ 77.548103443922173, 12.974712698067302 ], [ 77.547964992101797, 12.974521566257616 ], [ 77.547899591562825, 12.974431860642218 ], [ 77.547639384607294, 12.974337933578004 ], [ 77.547327606943711, 12.974239395073079 ], [ 77.54695200433784, 12.974156420964057 ], [ 77.546311904458918, 12.974129821360917 ], [ 77.545005166066076, 12.974163529402416 ], [ 77.544173346979207, 12.974159716863211 ], [ 77.543627262286776, 12.974090357538744 ], [ 77.54130382636103, 12.973617059331968 ], [ 77.539190664706751, 12.973147661351282 ], [ 77.538741221310275, 12.972993682574705 ], [ 77.538496045053023, 12.972852649900213 ], [ 77.538277983782791, 12.972681470928666 ], [ 77.538077960433029, 12.972486212569994 ], [ 77.537911145526778, 12.972260748562645 ], [ 77.537752864336241, 12.971975440146844 ], [ 77.537552675705683, 12.971463449391377 ], [ 77.537081097340305, 12.970027809871274 ], [ 77.536839217874004, 12.96931004877815 ], [ 77.536692005263077, 12.968914074263342 ], [ 77.536575560699305, 12.968547679195934 ], [ 77.536487951495531, 12.968320760928156 ], [ 77.536257280798239, 12.967806757805981 ], [ 77.536082077685762, 12.967354281262065 ], [ 77.535661967954411, 12.966485864657917 ], [ 77.535073934067995, 12.965281433375235 ], [ 77.534509673504459, 12.964017006098683 ], [ 77.534067953498976, 12.962914468523017 ], [ 77.533685224146737, 12.963044146252964 ], [ 77.532588091920104, 12.963362331484751 ], [ 77.531711186200155, 12.963529900381349 ], [ 77.530706437017884, 12.963623932669055 ], [ 77.530386085579295, 12.963653913416792 ], [ 77.530380081073361, 12.963719340088906 ], [ 77.530392288532255, 12.964367775241824 ], [ 77.530394476850844, 12.964484005107572 ], [ 77.529450102880133, 12.964689290260909 ], [ 77.529411040712972, 12.964781185792031 ], [ 77.528453513726987, 12.964659801518469 ], [ 77.528333883638155, 12.96464463621677 ], [ 77.528078775557844, 12.96462549808667 ], [ 77.5273564133539, 12.964571306823681 ], [ 77.52671976216098, 12.964552644482751 ], [ 77.526709714005449, 12.964615658459913 ], [ 77.526602668685769, 12.964608582870289 ], [ 77.526593915846533, 12.964649014373162 ], [ 77.526551606707258, 12.964844453590931 ], [ 77.526544306549312, 12.96487817722787 ], [ 77.526542744228209, 12.964885393118507 ], [ 77.52654775633539, 12.96493392177144 ], [ 77.52660416012624, 12.965480057055405 ], [ 77.526647726434206, 12.965894663389953 ], [ 77.526838119534418, 12.967016064990412 ], [ 77.526818887958484, 12.967021605301474 ], [ 77.526826944537746, 12.967074402674514 ], [ 77.526879418344095, 12.967274931353046 ], [ 77.526956722992949, 12.967570522197581 ], [ 77.526961662164041, 12.967590822353756 ], [ 77.527107933815401, 12.96819200051088 ], [ 77.527285416962428, 12.968160738150891 ], [ 77.527289555193974, 12.968183822460691 ], [ 77.527304611486983, 12.968258317001544 ], [ 77.527460718019626, 12.969030697603671 ], [ 77.527313321185034, 12.96920227068952 ], [ 77.527326246565977, 12.969226124315183 ], [ 77.527403149315745, 12.969368048020947 ], [ 77.52741788546534, 12.969432355319448 ], [ 77.527594323096309, 12.970088330994701 ], [ 77.527600999478992, 12.970113153307711 ], [ 77.527653428179761, 12.97029555373943 ], [ 77.527764288108585, 12.970355486478992 ], [ 77.527766174047926, 12.970356506247407 ], [ 77.527779746443528, 12.970414388432518 ], [ 77.527793801189134, 12.970474329470084 ], [ 77.527897536811665, 12.970844020727725 ], [ 77.528140184048198, 12.971608470410532 ], [ 77.528222558577923, 12.971867986693528 ], [ 77.528563895598609, 12.972678088366616 ], [ 77.528598763367867, 12.972843275304983 ], [ 77.528806114851719, 12.973355446616129 ], [ 77.528811114241208, 12.973402808829412 ], [ 77.528836678753763, 12.973644998183822 ], [ 77.52883923707013, 12.973669237067135 ], [ 77.528861859347614, 12.973883557475068 ], [ 77.528896157104015, 12.974544096063349 ], [ 77.528897168320924, 12.974563562466923 ], [ 77.529238068166393, 12.975040755316202 ], [ 77.529290398483667, 12.975027953621607 ], [ 77.529343512268369, 12.975188355993506 ], [ 77.529506614433302, 12.975680921918068 ], [ 77.529637849580126, 12.97607724952276 ], [ 77.529666692674638, 12.976164355789356 ], [ 77.529829800265432, 12.976656934758052 ], [ 77.529846542484577, 12.976707493875939 ], [ 77.529959660615177, 12.977209447428267 ], [ 77.530000304427631, 12.977393704228325 ], [ 77.530062693784785, 12.977728372285121 ], [ 77.530093132742124, 12.977748722280612 ], [ 77.530220093982848, 12.977833605048945 ], [ 77.530146794822571, 12.977824877092266 ], [ 77.530061505727645, 12.977814720853734 ], [ 77.529767111895183, 12.978229938183663 ], [ 77.529201757354528, 12.978449354019638 ], [ 77.52925771469792, 12.978593384818005 ], [ 77.529352522710795, 12.978555119839699 ], [ 77.529629631405129, 12.978433968888043 ], [ 77.529734027343096, 12.978371150804595 ], [ 77.529785756355665, 12.978293394859437 ], [ 77.529906269912502, 12.978266471262774 ], [ 77.530663465261526, 12.978362104955075 ], [ 77.530795420145154, 12.978427773328052 ], [ 77.531029281934906, 12.978703605976042 ], [ 77.531067250003503, 12.978901625070762 ], [ 77.531321712531451, 12.978972133520839 ], [ 77.531918545451546, 12.979104668676081 ], [ 77.5319873938911, 12.9791165922997 ], [ 77.532000121421476, 12.979122783706996 ], [ 77.532057485704186, 12.979135522208649 ] ] ] } },
{ "type": "Feature", "properties": { "OBJECTID": 29494, "KGISVillageID": 15115, "KGISVillageCode": "2957205542803162", "KGISVillageName": "J.I.Jedihalli", "KGISHobliID": 574, "UniqueVillageCode": "2957205542803162_40", "Bhucode": "200101004040", "CensusVillageCode": "2957205542803162", "BhoomiVillageCode": null, "created_user": null, "created_date": null, "last_edited_user": "SURESHBV2", "last_edited_date": 1724225862000.0, "LGDGPCode": " ", "LGDGPCode_Secondary": null, "Category": "Cadastral data available and has no bhoomi data", "SHAPE.STArea()": 1097416.71995751, "SHAPE.STLength()": 4608.6526930295959, "LGD_VillageCode": 939444.0, "_overlap_percent": 2.4779397801861993, "_police_station": "Govindarajanagar PS", "_police_feature_index": "802", "_admin_layer": "Village", "_geometry_clipped": true }, "geometry": { "type": "Polygon", "coordinates": [ [ [ 77.546991543759944, 12.97480466181022 ], [ 77.546925777761885, 12.974918139688313 ], [ 77.546572727297161, 12.974907483509032 ], [ 77.546363582865155, 12.974901170960202 ], [ 77.546484614979022, 12.97584358996261 ], [ 77.546527629315705, 12.976033354407367 ], [ 77.546539033497069, 12.976083663291439 ], [ 77.5466421175242, 12.976387747456648 ], [ 77.546668031614701, 12.976462322216065 ], [ 77.546758458235459, 12.976716615544959 ], [ 77.546812345218655, 12.976675198774936 ], [ 77.547117422729656, 12.976440697430377 ], [ 77.54715113723293, 12.976415521870363 ], [ 77.547282034734295, 12.976265167850112 ], [ 77.547367403587842, 12.976167209052587 ], [ 77.547417491833073, 12.976110251795877 ], [ 77.54754954046345, 12.975959886416053 ], [ 77.54768442152087, 12.97580497592144 ], [ 77.547806279460985, 12.975671650267465 ], [ 77.547912765438667, 12.975555415159002 ], [ 77.547943509106688, 12.975521233998846 ], [ 77.548359768293849, 12.975066552143703 ], [ 77.548103443922173, 12.974712698067302 ], [ 77.546991543759944, 12.97480466181022 ] ] ] } },
{ "type": "Feature", "properties": { "OBJECTID": 29545, "KGISVillageID": 15470, "KGISVillageCode": "2957205542803162", "KGISVillageName": "K.G.Agrahara Dasarahalli", "KGISHobliID": 1052, "UniqueVillageCode": "2957205542803162_89", "Bhucode": "200101006020", "CensusVillageCode": "2957205542803162", "BhoomiVillageCode": null, "created_user": null, "created_date": null, "last_edited_user": "SURESHBV2", "last_edited_date": 1770268062000.0, "LGDGPCode": " ", "LGDGPCode_Secondary": null, "Category": "Cadastral data available and has no bhoomi data", "SHAPE.STArea()": 1267153.4372027749, "SHAPE.STLength()": 4894.263164197816, "LGD_VillageCode": 939405.0, "_overlap_percent": 21.718744252576435, "_police_station": "Govindarajanagar PS", "_police_feature_index": "802", "_admin_layer": "Village", "_geometry_clipped": true }, "geometry": { "type": "Polygon", "coordinates": [ [ [ 77.546668031614701, 12.976462322216065 ], [ 77.5466421175242, 12.976387747456648 ], [ 77.546539033497069, 12.976083663291439 ], [ 77.546527629315705, 12.976033354407367 ], [ 77.546484614979022, 12.97584358996261 ], [ 77.546363677170504, 12.975591739960908 ], [ 77.54634523340647, 12.97555333087114 ], [ 77.546208997677724, 12.975269620775821 ], [ 77.54617667789627, 12.975202314682509 ], [ 77.546136540560084, 12.97511872879317 ], [ 77.54600615892933, 12.975189751141526 ], [ 77.546004348512753, 12.975190729251494 ], [ 77.545416528145651, 12.975497231574577 ], [ 77.545159545541878, 12.975622704296105 ], [ 77.545096392077156, 12.975653538872278 ], [ 77.544956470271259, 12.975755969207599 ], [ 77.544640485563619, 12.975866284220368 ], [ 77.544593978637394, 12.9758825202001 ], [ 77.54432251528975, 12.975971987156669 ], [ 77.54379565547022, 12.976234886724571 ], [ 77.543452721958701, 12.976388311056137 ], [ 77.543350962389184, 12.976433837460984 ], [ 77.543322112288365, 12.976445040777795 ], [ 77.543122787459581, 12.976439258585639 ], [ 77.543015167652115, 12.976498638136416 ], [ 77.542830846093636, 12.976598570961787 ], [ 77.54215054041633, 12.976967406530145 ], [ 77.541912316128929, 12.976873626588512 ], [ 77.541834573758621, 12.97696073558753 ], [ 77.541763004933628, 12.97697745284961 ], [ 77.541475497044971, 12.977044611130335 ], [ 77.541402413814808, 12.977053824442212 ], [ 77.541312476664089, 12.977065161192741 ], [ 77.541138700584654, 12.977087067585723 ], [ 77.541043926579263, 12.977099015286214 ], [ 77.540688032409335, 12.977111379887463 ], [ 77.54069945020214, 12.977185888497443 ], [ 77.540712223710415, 12.977269245077299 ], [ 77.540731003136642, 12.97739179415624 ], [ 77.540540501728088, 12.977462519049539 ], [ 77.540407502109403, 12.977468500436945 ], [ 77.540328806774809, 12.977472039415881 ], [ 77.540172443744893, 12.977479072027482 ], [ 77.539342026240291, 12.977682394151703 ], [ 77.538833887645339, 12.977806807270557 ], [ 77.538787996031388, 12.977818042849409 ], [ 77.53876621745907, 12.977824477719594 ], [ 77.53832471864213, 12.978013642277617 ], [ 77.537568345567266, 12.97817319046489 ], [ 77.536909108587224, 12.978377213449097 ], [ 77.536839891522163, 12.978398635296694 ], [ 77.536587229731936, 12.978890998003095 ], [ 77.536224898652506, 12.979286707560306 ], [ 77.536281748207273, 12.979464448452051 ], [ 77.5357071529085, 12.979669448420111 ], [ 77.535578586448722, 12.979714026700146 ], [ 77.535542566349122, 12.979726516190491 ], [ 77.534980124883418, 12.979921532997235 ], [ 77.534770780741283, 12.979994119378851 ], [ 77.534290181701408, 12.980116644444159 ], [ 77.533920540310532, 12.980210880805497 ], [ 77.533962057531809, 12.98038268611786 ], [ 77.534002723829516, 12.980550971646352 ], [ 77.534014387553469, 12.98059973039063 ], [ 77.534029526942604, 12.980648369419445 ], [ 77.534266518824793, 12.981430310064454 ], [ 77.534284268023498, 12.981597453376903 ], [ 77.534649182433498, 12.981468397675339 ], [ 77.535078600949902, 12.981285773955339 ], [ 77.536582569682849, 12.980717724727583 ], [ 77.536785105380034, 12.980646858477831 ], [ 77.537006975271524, 12.980552087272939 ], [ 77.537067751072769, 12.980526648626604 ], [ 77.537396847568345, 12.9803879156654 ], [ 77.537553358297416, 12.980320886192503 ], [ 77.537593499230695, 12.980304683588987 ], [ 77.537880726953887, 12.980182169577064 ], [ 77.537907107541074, 12.980171747969582 ], [ 77.538612865868828, 12.979872357949739 ], [ 77.539222312132722, 12.979614563237098 ], [ 77.5392400910101, 12.979607613547509 ], [ 77.539575655353005, 12.979482367093423 ], [ 77.540531050560659, 12.979045013336277 ], [ 77.540809581562868, 12.978916934887101 ], [ 77.54082909899428, 12.978911097447833 ], [ 77.541190440542707, 12.978732251070793 ], [ 77.541590142118181, 12.978644159357843 ], [ 77.542152353384736, 12.97859189238469 ], [ 77.542638077558678, 12.978521665141756 ], [ 77.543352214603658, 12.978402433631791 ], [ 77.544040931961135, 12.978241612205371 ], [ 77.544110998269147, 12.978223986543355 ], [ 77.544286527127298, 12.978159026100805 ], [ 77.544463195835405, 12.978092925066235 ], [ 77.544739684470372, 12.97799083756289 ], [ 77.544841749912592, 12.977949182521852 ], [ 77.544849199867201, 12.977945721598886 ], [ 77.545240822664553, 12.977784910640558 ], [ 77.545270058202533, 12.977772201765497 ], [ 77.545555884986143, 12.977625978141978 ], [ 77.545591395973702, 12.977607561132674 ], [ 77.54574048740362, 12.977490909439592 ], [ 77.545851879836306, 12.977403989467685 ], [ 77.545967302254269, 12.977317029997032 ], [ 77.546083300311281, 12.977230064851383 ], [ 77.546162739454815, 12.977171690987154 ], [ 77.546311312105402, 12.97706069079239 ], [ 77.546313591999478, 12.977058409800932 ], [ 77.546522120897066, 12.97689826106695 ], [ 77.546758458235459, 12.976716615544959 ], [ 77.546668031614701, 12.976462322216065 ] ] ] } }
]
}
