{
"type": "FeatureCollection",
"name": "police_station_boundary.writing_20260805_172659",
"crs": { "type": "name", "properties": { "name": "urn:ogc:def:crs:OGC:1.3:CRS84" } },
"features": [
{ "type": "Feature", "properties": { "Shape.STArea()": 79654569.196089104, "Shape.STLength()": 50258.670986850942, "OBJECTID": 932, "KGISPS_BOUNDID": 121, "PS_BOUNDName": "Chikkajala PS", "PS_BOUNDCode": "PSB - 121", "KGISPS_SUB_DIVID": 44, "_source_layer": "Police Station Boundary", "_source_layer_url": "https://kgis.ksrsac.in/kgismaps/rest/services/Home/Home_Department/MapServer/82", "_police_station": "Chikkajala PS" }, "geometry": { "type": "Polygon", "coordinates": [ [ [ 77.584743398749751, 13.133341270999132 ], [ 77.58478324449375, 13.13325784504298 ], [ 77.584899600969109, 13.133090669691642 ], [ 77.585194050183574, 13.13282006770187 ], [ 77.585206124061429, 13.132816291022422 ], [ 77.585600616392483, 13.132692887102939 ], [ 77.585894649516646, 13.132767851121169 ], [ 77.585747595836892, 13.133304613005178 ], [ 77.586213199759641, 13.133313481539545 ], [ 77.586791538660762, 13.133359610826473 ], [ 77.586855481183477, 13.133356332189051 ], [ 77.587090676557338, 13.133344271926275 ], [ 77.587273992072923, 13.133334871933595 ], [ 77.587323819600826, 13.13347938281399 ], [ 77.587842298363753, 13.134983059703627 ], [ 77.588988289632113, 13.136348349872337 ], [ 77.591054465185081, 13.138010320160832 ], [ 77.593300195575111, 13.139752923462005 ], [ 77.594241370985316, 13.140483225948783 ], [ 77.594432513940987, 13.140563703115005 ], [ 77.594534680251172, 13.14042263622299 ], [ 77.595237179663542, 13.139452656384691 ], [ 77.59590806107704, 13.138526326729181 ], [ 77.596578823966027, 13.136599884369145 ], [ 77.596827052751749, 13.140540042850505 ], [ 77.599141902851599, 13.140538881838447 ], [ 77.600908598402597, 13.140389540350691 ], [ 77.601035068496657, 13.140818515451578 ], [ 77.601351725870629, 13.140779456067424 ], [ 77.601564812099653, 13.141327068282468 ], [ 77.601894042263183, 13.141323734883073 ], [ 77.601983807292527, 13.141741129421598 ], [ 77.602971118884454, 13.141695275876373 ], [ 77.604151509684684, 13.141456237033463 ], [ 77.604370996132047, 13.141454012584555 ], [ 77.605033237490034, 13.141805844816176 ], [ 77.605304274351994, 13.142066029503125 ], [ 77.605598057686549, 13.142170614227442 ], [ 77.605785631755083, 13.142610916995633 ], [ 77.605970935109525, 13.142836116204755 ], [ 77.606129580061094, 13.14284645841918 ], [ 77.607711478684394, 13.142519670007353 ], [ 77.607763283398199, 13.142805978968852 ], [ 77.608870695326999, 13.14604553463955 ], [ 77.609425173244219, 13.146135974623085 ], [ 77.609454973793802, 13.14583304948941 ], [ 77.609501211498014, 13.145363034266337 ], [ 77.609571777947124, 13.144645721295003 ], [ 77.610825513102398, 13.143503919229962 ], [ 77.613550287999956, 13.141009443028944 ], [ 77.614208920142843, 13.140560646851773 ], [ 77.616456064317575, 13.139029404082809 ], [ 77.617498627930132, 13.137986188195008 ], [ 77.617516720589336, 13.137095421937181 ], [ 77.617521589473029, 13.136855707498247 ], [ 77.619731300258863, 13.136343955908258 ], [ 77.621276227204248, 13.135987592555114 ], [ 77.622343214692265, 13.135800929609129 ], [ 77.622872109542897, 13.137555401249317 ], [ 77.622984591858312, 13.137812402812653 ], [ 77.624340600219327, 13.137694584387788 ], [ 77.625753724905593, 13.137787714153299 ], [ 77.626690156397984, 13.137891683115534 ], [ 77.62819290796125, 13.13758351455359 ], [ 77.629488750701356, 13.137313307958989 ], [ 77.631657107486816, 13.136566471047997 ], [ 77.631262390502442, 13.134485217106986 ], [ 77.631125362084902, 13.133626088735049 ], [ 77.630884614147305, 13.132623449058135 ], [ 77.630747532661999, 13.131515126066489 ], [ 77.631109972893498, 13.131432774807239 ], [ 77.631243248460919, 13.131402492278298 ], [ 77.631915138863064, 13.13123578278085 ], [ 77.632587156748841, 13.131069040565125 ], [ 77.632918851608167, 13.130988501374592 ], [ 77.632919532875974, 13.130988336304029 ], [ 77.632996847945165, 13.131165538998534 ], [ 77.633425142708973, 13.13208587923779 ], [ 77.633512900947736, 13.132274456898969 ], [ 77.633659669128633, 13.132591825894471 ], [ 77.633884807350469, 13.133078656619226 ], [ 77.633882320131306, 13.133146822850227 ], [ 77.634398258584113, 13.134203841861275 ], [ 77.634502653712218, 13.134417719760014 ], [ 77.634818986257983, 13.135092513430132 ], [ 77.634987952573283, 13.135452946183019 ], [ 77.635133164531609, 13.135762705762945 ], [ 77.635208903240326, 13.13592426924855 ], [ 77.635377922317602, 13.136304287571514 ], [ 77.635408439318994, 13.136372899512336 ], [ 77.635415989932227, 13.136401424609371 ], [ 77.63549793373609, 13.136711008534826 ], [ 77.635569198622022, 13.136857795618502 ], [ 77.635618539910794, 13.13695942704218 ], [ 77.635647604388325, 13.137015694422601 ], [ 77.635752353812563, 13.137213985014347 ], [ 77.635996774582466, 13.137282972543925 ], [ 77.636055660974137, 13.137671967292121 ], [ 77.636261849502304, 13.137690046208485 ], [ 77.636299495581298, 13.137759992335244 ], [ 77.636202638686456, 13.137797708009506 ], [ 77.636214797081564, 13.137823692416816 ], [ 77.636170457984676, 13.137851039543925 ], [ 77.636172886064841, 13.137860716233856 ], [ 77.636276750162267, 13.138274680168179 ], [ 77.636273438620648, 13.138323059487144 ], [ 77.63626665359439, 13.138422175848655 ], [ 77.63634984778264, 13.138588317427857 ], [ 77.636810602662166, 13.139508456793331 ], [ 77.636955643492257, 13.140073218224824 ], [ 77.637019279484605, 13.140320998657925 ], [ 77.637097272641768, 13.140624684817341 ], [ 77.637115532911437, 13.140901398684507 ], [ 77.637127510947877, 13.141082930916772 ], [ 77.637140482084249, 13.1412794999386 ], [ 77.637056635701796, 13.141813218569144 ], [ 77.63700456069806, 13.142144698207835 ], [ 77.637000652668888, 13.143127380861955 ], [ 77.637157517366404, 13.143489124434948 ], [ 77.637309637817424, 13.144683102475154 ], [ 77.637373587026545, 13.145185034660464 ], [ 77.637440814974241, 13.145712691662309 ], [ 77.637570307420702, 13.146573833282986 ], [ 77.637631106520686, 13.146978152967257 ], [ 77.637682687676744, 13.14732117150926 ], [ 77.637689462700308, 13.14736622569704 ], [ 77.638389785896877, 13.147874047331536 ], [ 77.638769718448401, 13.148124473667043 ], [ 77.63883708382005, 13.148168876352903 ], [ 77.639423305246964, 13.148640280878061 ], [ 77.63949178430255, 13.148698540825634 ], [ 77.639669497683812, 13.148813710362822 ], [ 77.639815886926201, 13.148914180065828 ], [ 77.640001646370706, 13.14904167203319 ], [ 77.640287575644237, 13.149391872420894 ], [ 77.640556847820562, 13.149463223829111 ], [ 77.640886525180477, 13.149645329656661 ], [ 77.640955928976766, 13.149634330789635 ], [ 77.641097589258905, 13.149810038619972 ], [ 77.641156076321806, 13.149882583138236 ], [ 77.641197918074511, 13.149934481015116 ], [ 77.641560662911715, 13.150769085154394 ], [ 77.641736806804161, 13.151140944823233 ], [ 77.641746461751978, 13.151355531619698 ], [ 77.641776143670171, 13.15154387655716 ], [ 77.641828599853085, 13.151617368178334 ], [ 77.642248558545717, 13.152205742737969 ], [ 77.642334102675264, 13.152517971342313 ], [ 77.642425567211177, 13.153259532615207 ], [ 77.64251596514724, 13.15379654938226 ], [ 77.642516343598885, 13.153818872849666 ], [ 77.642540374223856, 13.155235666297852 ], [ 77.64255247166686, 13.155958925636881 ], [ 77.642590376464284, 13.156721957616506 ], [ 77.643922166566369, 13.156082129065519 ], [ 77.646178778676159, 13.155028541834497 ], [ 77.646641048742595, 13.154924174824579 ], [ 77.647761179345522, 13.15470788439332 ], [ 77.64888661479371, 13.154435969926427 ], [ 77.650045908547582, 13.154204939316575 ], [ 77.650376326349416, 13.154137537777551 ], [ 77.65120103644179, 13.153969305256535 ], [ 77.65283950809193, 13.153623529976455 ], [ 77.656518300632356, 13.152266897863338 ], [ 77.657374201491223, 13.152082576817412 ], [ 77.659982879124726, 13.153426241673442 ], [ 77.664786549992854, 13.155864792361752 ], [ 77.664650949504292, 13.156084286430659 ], [ 77.664678802807032, 13.156519804212795 ], [ 77.664701176172642, 13.156982453104044 ], [ 77.664702939070693, 13.157029896495883 ], [ 77.664705867196702, 13.157108721995769 ], [ 77.664718703673842, 13.157454140890126 ], [ 77.664741398839951, 13.157954181726826 ], [ 77.664766293262204, 13.158464060971824 ], [ 77.664802082100422, 13.159013301975122 ], [ 77.664857079485571, 13.159827292525327 ], [ 77.664903118795337, 13.160554553227364 ], [ 77.664961095589533, 13.161791922252 ], [ 77.664961551676186, 13.161822414651276 ], [ 77.664966839139836, 13.162176273399027 ], [ 77.665024324071737, 13.163524169222264 ], [ 77.66503420641925, 13.163848343062089 ], [ 77.665057697302586, 13.164618856420923 ], [ 77.665065759800015, 13.164883340378431 ], [ 77.665077502476848, 13.165316282293876 ], [ 77.665091205624918, 13.165821512878374 ], [ 77.665091981786077, 13.165850136465362 ], [ 77.665095197912635, 13.165968713824451 ], [ 77.665100752827058, 13.166173514150627 ], [ 77.665105953980458, 13.166365296863296 ], [ 77.665122958625105, 13.16699224670298 ], [ 77.665127245223417, 13.1671502724564 ], [ 77.665359925886946, 13.168239990866763 ], [ 77.665384588989582, 13.168355493322851 ], [ 77.665492834567786, 13.169345026241741 ], [ 77.665759231019493, 13.169748079459865 ], [ 77.665802983212842, 13.169814276699004 ], [ 77.666072101200854, 13.170748620326828 ], [ 77.666107629780996, 13.17087197198094 ], [ 77.666138492430505, 13.170979121294334 ], [ 77.666141299069025, 13.170988863937485 ], [ 77.666212316132459, 13.171019516052004 ], [ 77.666343682083607, 13.171076215519321 ], [ 77.666448064456631, 13.171121267326091 ], [ 77.66658014431367, 13.171124193880191 ], [ 77.666900754813952, 13.171231131035164 ], [ 77.666923379523851, 13.171334421721925 ], [ 77.666806448296896, 13.171341384261186 ], [ 77.66684004709353, 13.17185337106072 ], [ 77.667026688732378, 13.171816128516545 ], [ 77.667242866631028, 13.171772993024575 ], [ 77.667311109716167, 13.171749664394484 ], [ 77.667394317071782, 13.171660993381044 ], [ 77.667371496715077, 13.171533965001199 ], [ 77.667328798237094, 13.171296281112175 ], [ 77.667567662743267, 13.171235134618993 ], [ 77.66763355571014, 13.171211803282263 ], [ 77.667735689129387, 13.171526682770178 ], [ 77.667746696373726, 13.171560616473553 ], [ 77.667793120422132, 13.171546093197888 ], [ 77.668351619675491, 13.171430659844537 ], [ 77.668356881115045, 13.171429572533242 ], [ 77.668356823971735, 13.171428127727625 ], [ 77.668351096683992, 13.171284917445327 ], [ 77.668577336740697, 13.171267950901049 ], [ 77.668590863702917, 13.171266934750991 ], [ 77.668809520671218, 13.171169892279915 ], [ 77.668802776388461, 13.171158520328904 ], [ 77.668804612805161, 13.171057138938531 ], [ 77.66893485874516, 13.171010393232649 ], [ 77.669097248289546, 13.170836348085658 ], [ 77.669712699046926, 13.170706708202298 ], [ 77.670352206809127, 13.170805339310581 ], [ 77.670875119806396, 13.170843028395639 ], [ 77.670955751283088, 13.170848840970047 ], [ 77.670992188813329, 13.170851466043629 ], [ 77.671062517337276, 13.170855500562906 ], [ 77.671113994416174, 13.170858453163728 ], [ 77.671444368669398, 13.170877400670205 ], [ 77.67156099034203, 13.170891936866333 ], [ 77.671601074773406, 13.170896933150756 ], [ 77.671629403068621, 13.170900464689167 ], [ 77.671676510722662, 13.170906336328088 ], [ 77.671898656149637, 13.170934026291546 ], [ 77.671919847363938, 13.17099338833625 ], [ 77.671940038525548, 13.171054551282898 ], [ 77.671974704889081, 13.171059788248323 ], [ 77.671959222114879, 13.171112659581317 ], [ 77.671767226861462, 13.171768264933316 ], [ 77.671744923094209, 13.171844426736792 ], [ 77.671742619805372, 13.17185229020736 ], [ 77.671744601565962, 13.171888792020322 ], [ 77.671748851312401, 13.171967102688958 ], [ 77.67175470506119, 13.172074967650557 ], [ 77.671759853497221, 13.172169827777124 ], [ 77.671769664049492, 13.172350580794635 ], [ 77.671773096579543, 13.172481177257279 ], [ 77.671773676276388, 13.172503247842148 ], [ 77.671779162037211, 13.172712009825382 ], [ 77.671780198871218, 13.172751482737038 ], [ 77.671785724100886, 13.172961752936287 ], [ 77.671786405505614, 13.172987672635085 ], [ 77.671786857984699, 13.173004900659542 ], [ 77.671790228487268, 13.173133171574889 ], [ 77.671802539443902, 13.173135121036745 ], [ 77.671815225744083, 13.173152457348543 ], [ 77.671883730003429, 13.173246060967323 ], [ 77.671899734329131, 13.173279630629301 ], [ 77.671939337210858, 13.173362703985303 ], [ 77.671972238387255, 13.173369886182183 ], [ 77.672024032873821, 13.173360076862373 ], [ 77.672103936332817, 13.173510990790541 ], [ 77.672098050308051, 13.173528003925343 ], [ 77.672078246900881, 13.173585236628002 ], [ 77.672028299653064, 13.173610909811403 ], [ 77.671949492976765, 13.173651417227328 ], [ 77.671929834394561, 13.17366152217406 ], [ 77.671934427933763, 13.173671518900226 ], [ 77.671984347983027, 13.173780166686276 ], [ 77.672003486062721, 13.17382181957003 ], [ 77.672017517880846, 13.173852358179674 ], [ 77.672070316145494, 13.173996333034649 ], [ 77.672137744843269, 13.174180205486106 ], [ 77.672250599102313, 13.174487950895124 ], [ 77.672252824081383, 13.174494020045495 ], [ 77.672323431307007, 13.17468990211653 ], [ 77.672546163075239, 13.175307213994881 ], [ 77.672547536496353, 13.175306175251833 ], [ 77.672548594495623, 13.17530537919094 ], [ 77.672549654367899, 13.175304585820628 ], [ 77.672550716113207, 13.175303795140916 ], [ 77.672551779731521, 13.175303007151767 ], [ 77.672552846134835, 13.175302220940337 ], [ 77.672553913479575, 13.175301436525832 ], [ 77.672554981785325, 13.175300655714784 ], [ 77.672556051944468, 13.175299875787781 ], [ 77.672557123976631, 13.175299098551376 ], [ 77.672558197872007, 13.175298323102284 ], [ 77.672559273630583, 13.175297549440501 ], [ 77.672560349408769, 13.175296777585256 ], [ 77.672561427050169, 13.175296007517341 ], [ 77.672562505632968, 13.17529523924633 ], [ 77.672563586078979, 13.175294472762648 ], [ 77.672564666534797, 13.175293707182229 ], [ 77.672565748853799, 13.175292943389126 ], [ 77.672566832124033, 13.175292182296213 ], [ 77.672567916316069, 13.175291421193684 ], [ 77.672569001439697, 13.175290660984832 ], [ 77.672570087504724, 13.17528990257288 ], [ 77.67257117357957, 13.175289145064212 ], [ 77.672572261507796, 13.175288388439588 ], [ 77.672573349445841, 13.175287632718229 ], [ 77.67257443832527, 13.175286878793793 ], [ 77.6725755272047, 13.175286124869354 ], [ 77.67257661701575, 13.175285371838568 ], [ 77.672577707758379, 13.175284619701438 ], [ 77.672578798501007, 13.175283867564303 ], [ 77.672579890175228, 13.175283116320841 ], [ 77.672580981859269, 13.175282365980626 ], [ 77.672582073543282, 13.17528161564041 ], [ 77.672583165227294, 13.175280865300204 ], [ 77.672584257833108, 13.175280114950368 ], [ 77.672585349526912, 13.175279365513425 ], [ 77.672586988455208, 13.175278241795205 ], [ 77.672622840627014, 13.17538065910221 ], [ 77.672657389373981, 13.17547935093099 ], [ 77.672823859412674, 13.175461599322141 ], [ 77.674165951121253, 13.175679647172931 ], [ 77.674669708895777, 13.175654526163534 ], [ 77.675065888770064, 13.175634769097414 ], [ 77.675163934445919, 13.175629879462138 ], [ 77.67521131303657, 13.175627516833403 ], [ 77.675212113669915, 13.175635528599999 ], [ 77.675232104527851, 13.175835557429792 ], [ 77.67523243958604, 13.175836612682977 ], [ 77.675243855407061, 13.17587256421481 ], [ 77.675498320213379, 13.176673972800355 ], [ 77.675653625609044, 13.177163083907841 ], [ 77.675705076381973, 13.177325120868282 ], [ 77.675771592089646, 13.177556762365899 ], [ 77.675807228226006, 13.177680863851345 ], [ 77.675975228147436, 13.178369120816326 ], [ 77.67597763945129, 13.178379001088008 ], [ 77.675998346188521, 13.178463829911015 ], [ 77.676020701300985, 13.17867013841756 ], [ 77.676035139090317, 13.178803373806513 ], [ 77.676053670873756, 13.178974393238111 ], [ 77.676063275416183, 13.179016357449697 ], [ 77.676137869219616, 13.179342267668238 ], [ 77.676152687955437, 13.179407014601983 ], [ 77.676155340018582, 13.179418600625855 ], [ 77.676226245434179, 13.179728393424737 ], [ 77.676315380045267, 13.180209377606065 ], [ 77.676369824114019, 13.180673827392578 ], [ 77.676406962988978, 13.18099063413402 ], [ 77.676433530537849, 13.181254493680889 ], [ 77.676477127733378, 13.181687473040823 ], [ 77.676478095115939, 13.181756986230736 ], [ 77.676491772208777, 13.182739199528783 ], [ 77.676463654101298, 13.182879840701354 ], [ 77.67644389217007, 13.182978691446914 ], [ 77.676408419939946, 13.18315612056483 ], [ 77.676352121124765, 13.183350485002558 ], [ 77.676247419123243, 13.184080048502617 ], [ 77.676239128878564, 13.184137817041139 ], [ 77.676176561083651, 13.184573790762727 ], [ 77.676075951508224, 13.185120614165838 ], [ 77.676039654164697, 13.185317898053642 ], [ 77.67601865983481, 13.185443138270003 ], [ 77.676005110921139, 13.185523964243686 ], [ 77.675975162396668, 13.185689086003626 ], [ 77.675935724688102, 13.185906521645627 ], [ 77.675873995914003, 13.186246874045564 ], [ 77.675826921412479, 13.186378877433709 ], [ 77.675765527232187, 13.186551043355488 ], [ 77.675760390340116, 13.18657181940992 ], [ 77.67541805895479, 13.187536450585389 ], [ 77.67532936060914, 13.187786386440083 ], [ 77.675314096413672, 13.187829396322995 ], [ 77.675293355963973, 13.18788784056791 ], [ 77.675117460641701, 13.188383477850387 ], [ 77.675124306010275, 13.18846015754475 ], [ 77.675139945682972, 13.188648251011751 ], [ 77.675170743773705, 13.188836308985625 ], [ 77.675174082709916, 13.188878473215611 ], [ 77.675185566145984, 13.189023503085856 ], [ 77.675210732016311, 13.189209345186853 ], [ 77.675236905458789, 13.189366361066451 ], [ 77.675277962911267, 13.189587677767806 ], [ 77.675311688801017, 13.189803377102644 ], [ 77.67535276190587, 13.190239699152539 ], [ 77.675373068128465, 13.190455407660728 ], [ 77.675380151750772, 13.190530658404056 ], [ 77.675326378428338, 13.19051506526724 ], [ 77.675128355640283, 13.190457641785386 ], [ 77.675040034473653, 13.190432030686488 ], [ 77.674887884368403, 13.190392533935896 ], [ 77.674404704911524, 13.19026710251355 ], [ 77.673965003748918, 13.190334196779425 ], [ 77.673545598287888, 13.190472086075037 ], [ 77.673456539937916, 13.190521282096961 ], [ 77.673342923301504, 13.19058404565514 ], [ 77.673293700472982, 13.19061123788982 ], [ 77.67309606298663, 13.190720413832286 ], [ 77.672559818646761, 13.191016639358807 ], [ 77.672514214715392, 13.191041831579321 ], [ 77.671238346894285, 13.191746623889298 ], [ 77.671236777083166, 13.191498904907451 ], [ 77.67123127120469, 13.190629472940049 ], [ 77.671223834169766, 13.190161804255698 ], [ 77.671219877784054, 13.189913070359029 ], [ 77.67122319830365, 13.189239092902906 ], [ 77.671221671776365, 13.188350174202695 ], [ 77.671221174319641, 13.188059966506216 ], [ 77.671220429618799, 13.187625628319722 ], [ 77.671216718278004, 13.186942188112507 ], [ 77.671216508998825, 13.186903655137534 ], [ 77.671208557624695, 13.1862133853526 ], [ 77.671203087800308, 13.185730077588298 ], [ 77.67120304748876, 13.185726535885092 ], [ 77.67103967177313, 13.185679012059818 ], [ 77.670772847746775, 13.185592029687923 ], [ 77.670369747470943, 13.185460619695473 ], [ 77.668147154763162, 13.185484097955484 ], [ 77.667955623312679, 13.185497007457647 ], [ 77.667588007412874, 13.185512961125518 ], [ 77.667556270525552, 13.185514336832611 ], [ 77.667537896220608, 13.185519273606143 ], [ 77.667539209204847, 13.185503985669619 ], [ 77.667399017160022, 13.185050635959675 ], [ 77.666523818562766, 13.185238602563988 ], [ 77.664756925877981, 13.185707887824217 ], [ 77.664154862003357, 13.185867791330748 ], [ 77.663638697131944, 13.1857102749132 ], [ 77.662522666104621, 13.185125447424847 ], [ 77.661319529855902, 13.184494965167563 ], [ 77.653906321544156, 13.188454910440822 ], [ 77.653467261111231, 13.188689437038359 ], [ 77.652999149934132, 13.188939475161266 ], [ 77.650482722824208, 13.19028360038914 ], [ 77.650821891884561, 13.190477044850567 ], [ 77.652260096942754, 13.191297308288116 ], [ 77.654625934192254, 13.195243832223042 ], [ 77.655235192119008, 13.196260125144164 ], [ 77.655464977541897, 13.196643423295047 ], [ 77.655979753186571, 13.197502102872765 ], [ 77.656377231130563, 13.198095047156288 ], [ 77.656573092436872, 13.198471336806644 ], [ 77.656701482235022, 13.198558576081307 ], [ 77.657176184556548, 13.198905495785221 ], [ 77.657512593684999, 13.199256734095357 ], [ 77.657665588053547, 13.199444389983158 ], [ 77.657644854961561, 13.199473541488507 ], [ 77.657615979487559, 13.19957256823084 ], [ 77.657464462098162, 13.200339271835293 ], [ 77.65629723002435, 13.202515779259295 ], [ 77.656216547610626, 13.202680460492457 ], [ 77.655395998090114, 13.204468253913275 ], [ 77.655381017294673, 13.204681029383812 ], [ 77.655349176624455, 13.205133267667479 ], [ 77.65534383772102, 13.20518985221049 ], [ 77.655276659888429, 13.205859481274388 ], [ 77.655266122753048, 13.205972016536517 ], [ 77.655222121010326, 13.206465138058757 ], [ 77.655200741697968, 13.206712475603119 ], [ 77.655193973948897, 13.206791256622379 ], [ 77.655146490003901, 13.207095209996554 ], [ 77.655065124628635, 13.207617242800898 ], [ 77.655040873048563, 13.207744268859367 ], [ 77.655016999108511, 13.207869213220162 ], [ 77.654917893739309, 13.208385985530306 ], [ 77.654816738892578, 13.208853090412573 ], [ 77.654591869676551, 13.209866585768413 ], [ 77.654387924816376, 13.209886773159418 ], [ 77.654336158232439, 13.210154422575545 ], [ 77.654479982179652, 13.21036069760709 ], [ 77.654261741492462, 13.211381920449378 ], [ 77.654242518959506, 13.211473702177814 ], [ 77.654181423507424, 13.211763237144126 ], [ 77.653996025445849, 13.212521024400223 ], [ 77.653977157800497, 13.212597373583991 ], [ 77.653901727465666, 13.212884841376873 ], [ 77.653476728391055, 13.21352336407174 ], [ 77.653380316038565, 13.213666474965411 ], [ 77.653270110266547, 13.213830461632497 ], [ 77.653229566326772, 13.213890930272729 ], [ 77.652991424519186, 13.214249065381946 ], [ 77.652923906781169, 13.214319804436457 ], [ 77.652639312725981, 13.214513864763489 ], [ 77.6523747990922, 13.214688660535492 ], [ 77.652114252314959, 13.214685545956749 ], [ 77.65204410707716, 13.214745437171072 ], [ 77.651839149423722, 13.214922320266743 ], [ 77.651737978399083, 13.215190061296081 ], [ 77.651521169233135, 13.215763831564203 ], [ 77.651443852921716, 13.215980323693392 ], [ 77.651449175569397, 13.216032755085314 ], [ 77.651460481681909, 13.216144499314337 ], [ 77.651454118499714, 13.216151413873519 ], [ 77.651366448652809, 13.216246707916984 ], [ 77.651381013229937, 13.216448713381245 ], [ 77.651383647828084, 13.216485680526494 ], [ 77.651549005186808, 13.2172845935885 ], [ 77.651552065894705, 13.217321138940095 ], [ 77.651553160657969, 13.217334215806257 ], [ 77.651540310657481, 13.217928587708222 ], [ 77.651633894071509, 13.218702111063012 ], [ 77.651622618824149, 13.218826819105701 ], [ 77.651622042509629, 13.218833044881547 ], [ 77.651589555265531, 13.219184103485548 ], [ 77.651586033071041, 13.219222162544261 ], [ 77.651584929265141, 13.219236486303799 ], [ 77.651594336495464, 13.219238545975463 ], [ 77.651642543687586, 13.219249099578832 ], [ 77.651650051951421, 13.219167700889756 ], [ 77.651679707712745, 13.218846185214192 ], [ 77.651679739920368, 13.218845837980714 ], [ 77.651691071780633, 13.218848774741371 ], [ 77.651779154372136, 13.218871615250007 ], [ 77.651831156182013, 13.218885098876445 ], [ 77.652181241545449, 13.218975875819583 ], [ 77.652806115576666, 13.219137906229044 ], [ 77.652890745181296, 13.21915512608034 ], [ 77.653558206540296, 13.219290933455317 ], [ 77.653872636287403, 13.219354910678623 ], [ 77.653995672272174, 13.219379944834408 ], [ 77.654031881012841, 13.219387311675803 ], [ 77.65410944301108, 13.219413058340423 ], [ 77.654677704412094, 13.219601739677875 ], [ 77.654990476683878, 13.219617157799636 ], [ 77.655113009243379, 13.219609896204378 ], [ 77.655850713293958, 13.21985758093073 ], [ 77.655967172517819, 13.219896681191853 ], [ 77.65672656376141, 13.220241866227521 ], [ 77.658621379676191, 13.220616541981043 ], [ 77.660534674713759, 13.221057265703292 ], [ 77.660549285688603, 13.221060631321784 ], [ 77.660555385348559, 13.221108492894977 ], [ 77.660561943572176, 13.221159950555734 ], [ 77.660619417918809, 13.221700512283087 ], [ 77.660709196185266, 13.222544892060331 ], [ 77.660778656553831, 13.223198168721353 ], [ 77.660877872416762, 13.224008021259255 ], [ 77.660951615132078, 13.224600664452325 ], [ 77.661056102427409, 13.225548532071778 ], [ 77.661122697068677, 13.22613797382312 ], [ 77.661136673183037, 13.22626333979286 ], [ 77.661139435247193, 13.226268385284644 ], [ 77.661153075581922, 13.22641047083429 ], [ 77.661310707267418, 13.227824411744496 ], [ 77.661406656101789, 13.228578029525547 ], [ 77.661377623817913, 13.228854669566539 ], [ 77.661407401494699, 13.229068408908569 ], [ 77.661244590763616, 13.230143845557734 ], [ 77.66124052704555, 13.230170685673286 ], [ 77.661238338174599, 13.230171132168678 ], [ 77.661205596319562, 13.230177992158035 ], [ 77.661203406663731, 13.230178451308598 ], [ 77.661169109966394, 13.230185637355707 ], [ 77.661000227372313, 13.230148241333609 ], [ 77.660651835377877, 13.230094306606548 ], [ 77.660165426748023, 13.230019004326797 ], [ 77.659791991225177, 13.229972303317108 ], [ 77.658021434227933, 13.230660827497976 ], [ 77.656601724576291, 13.230961592050159 ], [ 77.656552484922756, 13.230974516775765 ], [ 77.655960881126404, 13.231087849895406 ], [ 77.655955235319155, 13.231088649392785 ], [ 77.65584939026968, 13.231103301035024 ], [ 77.655846033239115, 13.231103765961205 ], [ 77.655515688964627, 13.231160423482395 ], [ 77.654728137687258, 13.231210280315427 ], [ 77.654482311537279, 13.231218783891368 ], [ 77.654209915874929, 13.231228204822193 ], [ 77.652573914345794, 13.231270478670655 ], [ 77.652543784063013, 13.23126496486166 ], [ 77.652522989431759, 13.231261157218595 ], [ 77.65245329954908, 13.231248033220231 ], [ 77.650430324501215, 13.230867044097796 ], [ 77.647782734479904, 13.230257216757767 ], [ 77.647653399604039, 13.230227425321793 ], [ 77.64749409410031, 13.230220713478934 ], [ 77.644823078854714, 13.230627975655711 ], [ 77.644799591076165, 13.230628215319106 ], [ 77.644546789827928, 13.230658900042151 ], [ 77.644466521074349, 13.230668643258749 ], [ 77.642620590742851, 13.230892693638227 ], [ 77.642440746075309, 13.230902524520445 ], [ 77.642415525839453, 13.23090390390637 ], [ 77.641973200951014, 13.230928077199232 ], [ 77.641080520898484, 13.230955236979867 ], [ 77.638618003612422, 13.231008471101525 ], [ 77.638369019684632, 13.23100747547948 ], [ 77.638194973616706, 13.231006778601703 ], [ 77.637800338738046, 13.230893956707996 ], [ 77.637794159489289, 13.230907063715335 ], [ 77.637762893912083, 13.230914810771322 ], [ 77.63774890182188, 13.230918276180658 ], [ 77.636769282882938, 13.230772110551605 ], [ 77.636684675161305, 13.230755671591952 ], [ 77.636248574808889, 13.230671697805255 ], [ 77.634569964267641, 13.230308033930502 ], [ 77.63416765822447, 13.230220874597981 ], [ 77.633889595431981, 13.230174724628608 ], [ 77.632913867050149, 13.230012782204327 ], [ 77.632529370292914, 13.229946261541537 ], [ 77.632484022025182, 13.229938415984172 ], [ 77.632179880265269, 13.229885795347109 ], [ 77.632140689337575, 13.229745309314056 ], [ 77.632139216414387, 13.229726822950287 ], [ 77.632134665291616, 13.229669686713402 ], [ 77.632093085529334, 13.229147713995184 ], [ 77.632086560661747, 13.229065807105231 ], [ 77.632052261172092, 13.228635253422702 ], [ 77.632028045766873, 13.228549700251067 ], [ 77.632019730055404, 13.228520337051977 ], [ 77.631989494993007, 13.228555012024913 ], [ 77.631906771322818, 13.22864972377667 ], [ 77.631512400141276, 13.229101245264495 ], [ 77.63137911573547, 13.229250609406925 ], [ 77.630303034991698, 13.23046483366179 ], [ 77.629602703163442, 13.230879126421506 ], [ 77.62880942266662, 13.231345906236996 ], [ 77.627529467245182, 13.231922998349431 ], [ 77.626656248798284, 13.232186777652407 ], [ 77.625893340719514, 13.232419365498568 ], [ 77.625786008646912, 13.232451788417084 ], [ 77.625653067170234, 13.232491840981028 ], [ 77.625325048865577, 13.232590134292071 ], [ 77.623695260790782, 13.233076663341015 ], [ 77.623043274247436, 13.233533104861053 ], [ 77.621794386802648, 13.234345661117763 ], [ 77.620648026810343, 13.235136578803289 ], [ 77.619513292101075, 13.237036424109384 ], [ 77.619250096098511, 13.236918206363507 ], [ 77.617843962860192, 13.236325778974859 ], [ 77.617136697969755, 13.236625073639162 ], [ 77.616602849232436, 13.236821954968729 ], [ 77.616263329426033, 13.236947190904756 ], [ 77.61611699594124, 13.23700114254801 ], [ 77.612700678507849, 13.238187572566018 ], [ 77.612634885703272, 13.238210674091203 ], [ 77.611768534245499, 13.237434823468472 ], [ 77.611762401922221, 13.23729957096773 ], [ 77.609825475794821, 13.233148684939048 ], [ 77.607845194542833, 13.230718786924331 ], [ 77.607736509893101, 13.230586249766356 ], [ 77.607317292095956, 13.230075665272526 ], [ 77.606880315704188, 13.227850215992095 ], [ 77.606949126718973, 13.226941512018984 ], [ 77.606996058066997, 13.226855129343935 ], [ 77.606474430967324, 13.226882284718135 ], [ 77.606424645339246, 13.226870394318972 ], [ 77.606365711060334, 13.226883996711237 ], [ 77.606236690493802, 13.225785917657371 ], [ 77.605606295946103, 13.222566925504314 ], [ 77.605471527255446, 13.221962060589219 ], [ 77.605537918043623, 13.221975569887972 ], [ 77.60554194970095, 13.22175147590246 ], [ 77.605571346667574, 13.220312214541304 ], [ 77.605573144311165, 13.22023326316118 ], [ 77.605517017141622, 13.218896224932649 ], [ 77.605469231128154, 13.217700152342625 ], [ 77.605465572772502, 13.217612425696721 ], [ 77.605326614620211, 13.217348705578027 ], [ 77.604976945406435, 13.216688533946648 ], [ 77.604909206243718, 13.216561519469877 ], [ 77.60483081598872, 13.216414533314683 ], [ 77.604612749755091, 13.216056512632797 ], [ 77.604546267872962, 13.215947483906511 ], [ 77.60441233525043, 13.215727869718922 ], [ 77.604270896571776, 13.215495965946008 ], [ 77.603876546148541, 13.21484902665263 ], [ 77.603698609596094, 13.214556936401266 ], [ 77.603663690914303, 13.214499600854708 ], [ 77.6027794308674, 13.213045039224896 ], [ 77.602673959677645, 13.21255260393607 ], [ 77.602878078200447, 13.21251746915808 ], [ 77.602879155505377, 13.212320652682568 ], [ 77.602943073765502, 13.211194931371505 ], [ 77.603091305630755, 13.209546166678098 ], [ 77.603127770463246, 13.209313062955204 ], [ 77.603207038194398, 13.20881848789409 ], [ 77.603254199553945, 13.208370647215022 ], [ 77.603278812557434, 13.208143776656433 ], [ 77.603371481825093, 13.207558450820946 ], [ 77.6034874116379, 13.206734821054319 ], [ 77.603527624472164, 13.206440677888697 ], [ 77.603649827279767, 13.2063633149419 ], [ 77.603598150534822, 13.205981772017459 ], [ 77.603433907317253, 13.204874933549592 ], [ 77.603429027138048, 13.204742060934333 ], [ 77.603422059249738, 13.204551939322524 ], [ 77.603553027251721, 13.204553023111304 ], [ 77.603563998739915, 13.20455536151602 ], [ 77.603594744173904, 13.204557386651562 ], [ 77.603635859604012, 13.203592392130432 ], [ 77.603759413188129, 13.202793767375876 ], [ 77.603826875883541, 13.202781044611694 ], [ 77.60382800353787, 13.202762082184883 ], [ 77.603762307548223, 13.202614680923917 ], [ 77.60372369538473, 13.202588820599352 ], [ 77.603675698499913, 13.202494845166074 ], [ 77.603313143929199, 13.201711439415854 ], [ 77.603284167920123, 13.20164882845568 ], [ 77.602827450682227, 13.200637447429605 ], [ 77.602761761743039, 13.200495629631833 ], [ 77.602701735624265, 13.200366038865219 ], [ 77.602653545507721, 13.200262001889685 ], [ 77.602308583083953, 13.199517264173053 ], [ 77.601931628597768, 13.198694974479777 ], [ 77.601813039582808, 13.198436283230798 ], [ 77.601719352139739, 13.198231910570067 ], [ 77.601638645340387, 13.198053229178818 ], [ 77.601568765466709, 13.197898518279185 ], [ 77.601418578065761, 13.19762918219593 ], [ 77.601184900797463, 13.197210119125041 ], [ 77.601132715103702, 13.197116531404783 ], [ 77.600965958380002, 13.196808988773586 ], [ 77.600945437211877, 13.19677114353086 ], [ 77.600736936701125, 13.19641592052373 ], [ 77.600579388525574, 13.196147503988179 ], [ 77.600490757906044, 13.19599071186507 ], [ 77.600273381023726, 13.195606156777179 ], [ 77.600114792787409, 13.195325603864223 ], [ 77.600079485996091, 13.19525609660564 ], [ 77.599985201466424, 13.195070471188302 ], [ 77.599860696112316, 13.194848698780207 ], [ 77.599673629387738, 13.194515489765157 ], [ 77.599502943603568, 13.194211456331235 ], [ 77.598698571884512, 13.194323798605772 ], [ 77.595671013714252, 13.194746624110403 ], [ 77.595372318668907, 13.194788337011856 ], [ 77.595268720160448, 13.194802804909262 ], [ 77.594379805887257, 13.194926939886059 ], [ 77.592035636107198, 13.196094970475121 ], [ 77.591816435353593, 13.195940876019851 ], [ 77.59051388066797, 13.195025195173571 ], [ 77.590454026801794, 13.194993255875495 ], [ 77.590356742986373, 13.1950201866404 ], [ 77.587394846051268, 13.195840129842708 ], [ 77.586819657243836, 13.19599935488981 ], [ 77.586364885418334, 13.196125245273675 ], [ 77.585719185337098, 13.195549044104142 ], [ 77.585665015058751, 13.19550070408229 ], [ 77.585381714868703, 13.195247894438234 ], [ 77.584277341981618, 13.194262372181818 ], [ 77.584150940169749, 13.194019874092033 ], [ 77.583908637457739, 13.193926929359534 ], [ 77.583731618631802, 13.193935393145084 ], [ 77.583667590710348, 13.193938454175402 ], [ 77.58343912886474, 13.193949377474418 ], [ 77.583264504224545, 13.193820083546649 ], [ 77.583134080787474, 13.19382903077174 ], [ 77.583105272357997, 13.193831008139281 ], [ 77.582204626436734, 13.192873983524819 ], [ 77.581234423638506, 13.19184303407298 ], [ 77.580449622873346, 13.191401655221721 ], [ 77.580314097376359, 13.191325434238134 ], [ 77.580282707043253, 13.191307779492092 ], [ 77.579939532134247, 13.190927016858019 ], [ 77.57978371690929, 13.190754134879409 ], [ 77.579673676652163, 13.190634062504589 ], [ 77.579466619413466, 13.190397549167098 ], [ 77.579406094465398, 13.190328413861359 ], [ 77.579289367765554, 13.190134395823808 ], [ 77.579222216992449, 13.190022780047419 ], [ 77.578949557262078, 13.189552893555634 ], [ 77.578711712781626, 13.189214754134271 ], [ 77.578530277842916, 13.188986323955145 ], [ 77.578495533349056, 13.188974005832881 ], [ 77.578464397487153, 13.18890337905664 ], [ 77.578439810919861, 13.188872424731599 ], [ 77.57835145527774, 13.188750853936222 ], [ 77.57821831299232, 13.188567661784843 ], [ 77.578196185586918, 13.188500044848341 ], [ 77.578155339009427, 13.188375227567102 ], [ 77.578213508598182, 13.188305367672129 ], [ 77.578152038089129, 13.188249903141324 ], [ 77.577810819985572, 13.187942024523817 ], [ 77.577832230210873, 13.187878094407926 ], [ 77.577516540436065, 13.187546252206374 ], [ 77.577404926000995, 13.187396865161384 ], [ 77.577254242991998, 13.187195191033176 ], [ 77.577231528953732, 13.187333643121663 ], [ 77.577146478493745, 13.187158440428989 ], [ 77.577063354644011, 13.187188720574733 ], [ 77.576788348568996, 13.186504524258993 ], [ 77.576741773141123, 13.186221678587794 ], [ 77.576713091941173, 13.186047493203118 ], [ 77.575872825745577, 13.18596057028302 ], [ 77.575708568850757, 13.185941183657507 ], [ 77.574753929367773, 13.185856981609289 ], [ 77.574673045232686, 13.18584984705902 ], [ 77.574474256357206, 13.184831391069858 ], [ 77.57396273420413, 13.183238843456621 ], [ 77.573877147928343, 13.18297238105956 ], [ 77.573994728009268, 13.18267810354059 ], [ 77.574024787160681, 13.182585245453431 ], [ 77.574215710274203, 13.182134779586418 ], [ 77.574300264507229, 13.181935283535038 ], [ 77.574403432675794, 13.181699037515639 ], [ 77.57442373261317, 13.181652554162897 ], [ 77.574558217211305, 13.181356241153521 ], [ 77.575693038857509, 13.178934318521984 ], [ 77.575744487928546, 13.178823744993402 ], [ 77.57637281456239, 13.177652545274487 ], [ 77.576370631378026, 13.177644976560538 ], [ 77.576399330875944, 13.177643851499075 ], [ 77.57611964426701, 13.176666802600598 ], [ 77.575844524301871, 13.175705697865681 ], [ 77.57523073712656, 13.173561453822316 ], [ 77.575272385164922, 13.17340882555018 ], [ 77.575203093104918, 13.172499093191975 ], [ 77.575187596411098, 13.172179433463112 ], [ 77.575168755572435, 13.1717908082961 ], [ 77.575157615835067, 13.171561020138295 ], [ 77.575155875902837, 13.171525122422509 ], [ 77.575192448830904, 13.171217020487388 ], [ 77.575193313081101, 13.171209740052849 ], [ 77.575036235114482, 13.170874626760611 ], [ 77.574969738060148, 13.170402381869966 ], [ 77.574964241541522, 13.170301003778141 ], [ 77.574934792800065, 13.169757891697772 ], [ 77.574924508241054, 13.169568209231238 ], [ 77.57486769748607, 13.169427709875073 ], [ 77.574853427380361, 13.169392418573274 ], [ 77.574851233455959, 13.169125091246348 ], [ 77.574945280413345, 13.168915073828819 ], [ 77.574876019833127, 13.168327657519145 ], [ 77.574773464014626, 13.167457854885425 ], [ 77.574770498948993, 13.167432709492465 ], [ 77.574763922367381, 13.167386899915446 ], [ 77.57476156280967, 13.167370465701126 ], [ 77.574752283753568, 13.167307784473724 ], [ 77.574679301682977, 13.167048349962196 ], [ 77.574674448025689, 13.16703109606688 ], [ 77.574419315859274, 13.166106767021882 ], [ 77.574485192499623, 13.165670887037232 ], [ 77.574533349104399, 13.165358908736467 ], [ 77.574673571263673, 13.164492836788039 ], [ 77.573584476367387, 13.164487877456725 ], [ 77.573593471444539, 13.164036349555175 ], [ 77.573596060882196, 13.163911707054329 ], [ 77.573612718052857, 13.163543124560237 ], [ 77.573612721756135, 13.16354303779312 ], [ 77.573748825455922, 13.160531371547568 ], [ 77.573758312649446, 13.160321434092745 ], [ 77.57386296663401, 13.158005724585129 ], [ 77.574980161968753, 13.154450222343332 ], [ 77.575011285856888, 13.154445273734396 ], [ 77.575076575019693, 13.15421524076956 ], [ 77.574816176219613, 13.153997896253353 ], [ 77.574811991295917, 13.153982843597042 ], [ 77.574747550096333, 13.153984938975853 ], [ 77.574679104716793, 13.153986641747663 ], [ 77.574645030121999, 13.153848322113168 ], [ 77.574619657213802, 13.153762881019377 ], [ 77.574618062752279, 13.153757534205365 ], [ 77.57448219585315, 13.153210728825691 ], [ 77.574567892448371, 13.152834405510998 ], [ 77.574569345185026, 13.152828033456021 ], [ 77.574573913319, 13.15278805391579 ], [ 77.574625075391893, 13.152343947783788 ], [ 77.574630925256457, 13.152272564560905 ], [ 77.574632823138302, 13.152249492521831 ], [ 77.574738712402279, 13.150725091893738 ], [ 77.574747836911357, 13.150581928464632 ], [ 77.574755101730716, 13.150363237350414 ], [ 77.57476845677796, 13.149951710623583 ], [ 77.574769513417735, 13.149918876345074 ], [ 77.574767345432988, 13.149859292899936 ], [ 77.574765869377245, 13.149818657535912 ], [ 77.574752630135947, 13.149556000220564 ], [ 77.574741688056278, 13.149337919858471 ], [ 77.574760540291621, 13.149155549099254 ], [ 77.574800395258023, 13.14876870782359 ], [ 77.57480484798468, 13.148725442740687 ], [ 77.57480781362041, 13.148696650274337 ], [ 77.574813241336116, 13.148620498427967 ], [ 77.574823960130544, 13.148470294790366 ], [ 77.574846315167349, 13.148387870527944 ], [ 77.574830198417288, 13.148382950263713 ], [ 77.574830984431713, 13.148371966523312 ], [ 77.574832309467467, 13.148298604966532 ], [ 77.574832537955828, 13.148285962683655 ], [ 77.574861151112799, 13.148112354089568 ], [ 77.574869565925638, 13.148014764447286 ], [ 77.574873664119494, 13.147971183102982 ], [ 77.574886805188626, 13.147828095050805 ], [ 77.574901998341616, 13.147662663393829 ], [ 77.574912321981031, 13.147546050812563 ], [ 77.574928552018974, 13.14743641679892 ], [ 77.574929054252607, 13.147418117157624 ], [ 77.574931322370716, 13.147331860420794 ], [ 77.574935363314125, 13.14726733797335 ], [ 77.574969923685899, 13.146385235742079 ], [ 77.574972482445844, 13.146378050351412 ], [ 77.574985168788501, 13.146342338589786 ], [ 77.575042971307042, 13.146177973197092 ], [ 77.57504412179189, 13.146173557407201 ], [ 77.575061593336343, 13.146106299333765 ], [ 77.575092204951801, 13.145987539189738 ], [ 77.57528260564068, 13.145312604072355 ], [ 77.575362763552974, 13.145028457304658 ], [ 77.575457277935769, 13.144671148115069 ], [ 77.575546074724159, 13.144334850569994 ], [ 77.575610239566728, 13.144097299905903 ], [ 77.575745120733117, 13.143637491333889 ], [ 77.575860980204567, 13.14350242146001 ], [ 77.575882469889024, 13.143469260376932 ], [ 77.576215446641712, 13.142956346481014 ], [ 77.577136717991763, 13.142432372157455 ], [ 77.577188499005928, 13.142348786359193 ], [ 77.577214047620146, 13.14230753488372 ], [ 77.577245437441718, 13.142256877868769 ], [ 77.577332767695097, 13.142047618963929 ], [ 77.577381529225775, 13.142057216731992 ], [ 77.577401706554014, 13.142061192735062 ], [ 77.577538025643989, 13.142067616575847 ], [ 77.577980310395944, 13.142089462351899 ], [ 77.57929666316312, 13.142328014246562 ], [ 77.579365725647904, 13.142340530099951 ], [ 77.579816750576867, 13.142422263870094 ], [ 77.580044137990853, 13.142463470274388 ], [ 77.580151790736579, 13.142493626440682 ], [ 77.580108962848797, 13.142399718981187 ], [ 77.579437793378958, 13.140928042515958 ], [ 77.580292244207428, 13.140537009937715 ], [ 77.580890661426352, 13.139919073264988 ], [ 77.580921084738463, 13.139096491049163 ], [ 77.581331365499949, 13.138950114135387 ], [ 77.582236229796678, 13.139771658886396 ], [ 77.582444791256819, 13.139961014222791 ], [ 77.582698071593057, 13.138970426936856 ], [ 77.582735062365245, 13.138816471632342 ], [ 77.582863701163944, 13.138281024279403 ], [ 77.582922089448203, 13.138134758988846 ], [ 77.582931023182383, 13.138107566228612 ], [ 77.583113653067102, 13.137666436738533 ], [ 77.58311905008641, 13.137653109267529 ], [ 77.583191719443221, 13.137473672753368 ], [ 77.583389087402693, 13.136954474047506 ], [ 77.583455256690527, 13.136781027558074 ], [ 77.583555905462902, 13.136574093011346 ], [ 77.583556600309961, 13.136572664025046 ], [ 77.583566846195268, 13.13655159780107 ], [ 77.583580166583232, 13.136524211882982 ], [ 77.583605129745422, 13.136472885433427 ], [ 77.583610357373544, 13.136462138058921 ], [ 77.583615229718461, 13.136430211475636 ], [ 77.583615405706908, 13.136429058733931 ], [ 77.583623807212078, 13.136374005851145 ], [ 77.583629229070382, 13.136338478084058 ], [ 77.583710642385924, 13.135805012345237 ], [ 77.583716048658033, 13.135771079294246 ], [ 77.583720878855942, 13.135737152033272 ], [ 77.583738923125694, 13.135661983078572 ], [ 77.583743505738965, 13.135642892665759 ], [ 77.583747197996729, 13.135627513467499 ], [ 77.583758530865126, 13.135580302731519 ], [ 77.583776619287647, 13.135504949936921 ], [ 77.583784156590781, 13.135473553085211 ], [ 77.583822634435279, 13.135313262442546 ], [ 77.583825771943538, 13.135300191669256 ], [ 77.583828493942704, 13.135298771218361 ], [ 77.583830198089871, 13.135292048815558 ], [ 77.583834073053268, 13.135276776193143 ], [ 77.583838194073081, 13.135260528101044 ], [ 77.583853402808359, 13.135253192050257 ], [ 77.583872052815025, 13.13524419613606 ], [ 77.583898309937055, 13.135231530811392 ], [ 77.583945864045191, 13.135208592610521 ], [ 77.583983993169724, 13.13519020034663 ], [ 77.584010155814539, 13.135177581133718 ], [ 77.584035267360278, 13.135165468467976 ], [ 77.584049139773626, 13.134987800083882 ], [ 77.58405743998226, 13.134881497420036 ], [ 77.584124763740945, 13.134538677397856 ], [ 77.584224800778657, 13.134260272127214 ], [ 77.584240131067318, 13.134217607937545 ], [ 77.584331619660418, 13.133961897880647 ], [ 77.584332830467332, 13.133958507777292 ], [ 77.584469043559906, 13.133859714254214 ], [ 77.584543627227561, 13.133758270693178 ], [ 77.584558285939494, 13.133727632507989 ], [ 77.584572956465806, 13.13369812349371 ], [ 77.584743398749751, 13.133341270999132 ] ] ] } }
]
}
