{
"type": "FeatureCollection",
"name": "police_station_boundary.writing_20260805_172659",
"crs": { "type": "name", "properties": { "name": "urn:ogc:def:crs:OGC:1.3:CRS84" } },
"features": [
{ "type": "Feature", "properties": { "Shape.STArea()": 719042727.11078274, "Shape.STLength()": 137447.99824808002, "OBJECTID": 196, "KGISPS_BOUNDID": 288, "PS_BOUNDName": "Channagiri PS", "PS_BOUNDCode": "PSB - 288", "KGISPS_SUB_DIVID": 43, "_source_layer": "Police Station Boundary", "_source_layer_url": "https://kgis.ksrsac.in/kgismaps/rest/services/Home/Home_Department/MapServer/82", "_police_station": "Channagiri PS" }, "geometry": { "type": "Polygon", "coordinates": [ [ [ 75.957794516135266, 14.118404399411425 ], [ 75.957179379925364, 14.119113577069358 ], [ 75.956703349036033, 14.11988475626851 ], [ 75.956334874229611, 14.120668472614565 ], [ 75.956116441513913, 14.121133057259145 ], [ 75.955378346503679, 14.121185593164292 ], [ 75.955106652700564, 14.121204931483131 ], [ 75.955022295766341, 14.121327197681106 ], [ 75.955002321555256, 14.121327731712649 ], [ 75.954879597241586, 14.121505051263901 ], [ 75.954821235539512, 14.121571361121552 ], [ 75.954763119053197, 14.121637390633115 ], [ 75.95469889233901, 14.121710364200059 ], [ 75.954342718948794, 14.122106215270987 ], [ 75.954284742718812, 14.122145704874258 ], [ 75.954206081582868, 14.12219928521119 ], [ 75.953974316793946, 14.122357156077635 ], [ 75.954255579696223, 14.12239406988517 ], [ 75.954296675757419, 14.122597567933052 ], [ 75.952250449207568, 14.123744759943072 ], [ 75.951503004487705, 14.1239336323373 ], [ 75.950955241461145, 14.124115221933909 ], [ 75.950428364531035, 14.124371991579487 ], [ 75.949874886136044, 14.124800201029979 ], [ 75.949347143511289, 14.125001668378351 ], [ 75.949271337916514, 14.125030606989082 ], [ 75.949060490328634, 14.125117822915222 ], [ 75.947353863375199, 14.125823748026249 ], [ 75.947344903386778, 14.12588807791766 ], [ 75.92129184851747, 14.130879456289287 ], [ 75.892886897066845, 14.13192826977577 ], [ 75.866163422277282, 14.132911931505033 ], [ 75.865868361690531, 14.132801071434864 ], [ 75.86596304235907, 14.132613362420752 ], [ 75.867323058712955, 14.13032090158795 ], [ 75.867350864963285, 14.130274481639086 ], [ 75.867420673323664, 14.130157950170714 ], [ 75.867191735838901, 14.130067742212452 ], [ 75.866461271534462, 14.129921449442 ], [ 75.866029214052389, 14.129834919459435 ], [ 75.863556503870953, 14.129339679584236 ], [ 75.863003705731487, 14.129175761756619 ], [ 75.857383307879488, 14.127509095555569 ], [ 75.856047330391661, 14.126653963121095 ], [ 75.855619776594054, 14.126380290554083 ], [ 75.853540263545355, 14.125049202708471 ], [ 75.853731564498091, 14.124648309832043 ], [ 75.855785881109867, 14.118287151950517 ], [ 75.85578593479903, 14.117496316138494 ], [ 75.851466759809654, 14.117606783062326 ], [ 75.851154583943043, 14.117614769314446 ], [ 75.849459644997651, 14.116611825825865 ], [ 75.848505392101686, 14.115873773873421 ], [ 75.848492260117865, 14.115863617361365 ], [ 75.848273154548195, 14.115909741248087 ], [ 75.847705058043502, 14.116029331225301 ], [ 75.847196450533872, 14.116174033542935 ], [ 75.846508723802827, 14.116213732998846 ], [ 75.845852569329139, 14.116182773249612 ], [ 75.845185357401547, 14.116146474728016 ], [ 75.84517965529912, 14.116146164752431 ], [ 75.845099380161898, 14.116142296778751 ], [ 75.845091940911047, 14.11614193774993 ], [ 75.844937151913513, 14.116134479846966 ], [ 75.844280791379504, 14.11610285199527 ], [ 75.84387882572149, 14.116249630688468 ], [ 75.843790379541971, 14.116281925253332 ], [ 75.843024898246114, 14.116108280086527 ], [ 75.843453702001199, 14.115558218985287 ], [ 75.84392967634993, 14.115478672949479 ], [ 75.84377632620226, 14.11502761234231 ], [ 75.843955758756394, 14.11459460093538 ], [ 75.843922148391073, 14.114501846477307 ], [ 75.843918397364575, 14.114491492265085 ], [ 75.843706648277433, 14.11412221177835 ], [ 75.843025305345165, 14.114135651456783 ], [ 75.841824444250207, 14.114617597175 ], [ 75.840606023109473, 14.114867885446078 ], [ 75.84074644148788, 14.115112117230581 ], [ 75.840549007638955, 14.115289215660383 ], [ 75.840122505023146, 14.115683885347131 ], [ 75.839856366249506, 14.116147328842167 ], [ 75.839420927896697, 14.116169112413106 ], [ 75.838648691473225, 14.116117506470312 ], [ 75.83809549934675, 14.116251559223329 ], [ 75.837997226267987, 14.11625932409062 ], [ 75.83794911761612, 14.116140552914779 ], [ 75.837942733843889, 14.115863758896104 ], [ 75.837784852551664, 14.115883879635057 ], [ 75.837724411027722, 14.115891582320481 ], [ 75.837610974765028, 14.115913725344853 ], [ 75.837620768321784, 14.11574430079647 ], [ 75.837504294098068, 14.115737674856533 ], [ 75.837516275849865, 14.115561657189039 ], [ 75.837497273107601, 14.115561693470964 ], [ 75.837360586657908, 14.115477564629821 ], [ 75.83733323625124, 14.115480632471778 ], [ 75.836741708553859, 14.115547002995251 ], [ 75.83604896293258, 14.115549095477357 ], [ 75.835423462309592, 14.115644984114152 ], [ 75.83526426043457, 14.115616193851686 ], [ 75.834946557170142, 14.115615349549977 ], [ 75.834948001198924, 14.115481491658654 ], [ 75.834787839256364, 14.115500652757516 ], [ 75.834372848678441, 14.115550296734002 ], [ 75.833412789709172, 14.115664115338525 ], [ 75.830917838811047, 14.115818290291093 ], [ 75.830923971837052, 14.116559368996322 ], [ 75.830929855091313, 14.116670485997746 ], [ 75.830970724688854, 14.117441830837233 ], [ 75.830911590747618, 14.117500717844816 ], [ 75.830835153195395, 14.117576864297581 ], [ 75.831046095905421, 14.118216359172981 ], [ 75.831051945464594, 14.118234074831376 ], [ 75.831067635759808, 14.118278778443202 ], [ 75.831153336742958, 14.118563969477217 ], [ 75.831169599450376, 14.118618085562781 ], [ 75.831152307205926, 14.118948895455446 ], [ 75.830941997097682, 14.119348458342477 ], [ 75.830955463591181, 14.119462269585568 ], [ 75.831003616159322, 14.119597489631651 ], [ 75.830967740684201, 14.119762634638347 ], [ 75.830939989924232, 14.119975369062015 ], [ 75.830938343151502, 14.119987991553472 ], [ 75.830923264275185, 14.120062905440777 ], [ 75.830894468754252, 14.120205956752033 ], [ 75.830756059049278, 14.120345852363348 ], [ 75.830731633141824, 14.120579095791108 ], [ 75.830732345406162, 14.120588002396742 ], [ 75.830729307029216, 14.120594454644438 ], [ 75.830723948883502, 14.121051986240174 ], [ 75.830801102528739, 14.12152315798037 ], [ 75.830864681008819, 14.121946311537233 ], [ 75.830887244763687, 14.122115748121338 ], [ 75.830940132126841, 14.122345305205368 ], [ 75.830551127202426, 14.122326545553316 ], [ 75.829873876188742, 14.122515543368946 ], [ 75.829284612548818, 14.122548322897746 ], [ 75.828987017829888, 14.12262344450979 ], [ 75.828866977550831, 14.122565708656486 ], [ 75.828795985621724, 14.122590799874525 ], [ 75.828770628805358, 14.122679430906672 ], [ 75.828706821959713, 14.122667598948803 ], [ 75.828699322644738, 14.122554882676551 ], [ 75.828356138252147, 14.122455292733173 ], [ 75.827778901120027, 14.122483737183053 ], [ 75.827576781927675, 14.122493695966204 ], [ 75.827437997662926, 14.122500536400105 ], [ 75.827165902273649, 14.122513942350347 ], [ 75.827019756851016, 14.122535969726098 ], [ 75.826513520173137, 14.12272206397725 ], [ 75.826156822595522, 14.12285318576396 ], [ 75.825780827955995, 14.122942567356276 ], [ 75.825810252465232, 14.123103413722225 ], [ 75.825454930849759, 14.123179855711811 ], [ 75.825250414271977, 14.123220187054306 ], [ 75.825183162252358, 14.123197344909411 ], [ 75.825054939662294, 14.123215556698902 ], [ 75.825036851384269, 14.1232181258186 ], [ 75.824995664455258, 14.123229609082559 ], [ 75.824628620419844, 14.12319743262972 ], [ 75.824625114186816, 14.123198016947512 ], [ 75.824241149667316, 14.123262022605832 ], [ 75.824133610042608, 14.123287944703495 ], [ 75.824090597281582, 14.12328711922072 ], [ 75.823861728013071, 14.123282731570214 ], [ 75.823677324316321, 14.123215823414963 ], [ 75.823598959431692, 14.123187389890392 ], [ 75.823459345329013, 14.123136733263502 ], [ 75.822870718263971, 14.122979321371361 ], [ 75.822161584703736, 14.122824448996175 ], [ 75.820533208661985, 14.122932551957188 ], [ 75.818641780477151, 14.123056813195179 ], [ 75.818409887187443, 14.12306454478191 ], [ 75.817835890670267, 14.123120600324548 ], [ 75.816909689861504, 14.12312608771129 ], [ 75.81690913865657, 14.123126091391091 ], [ 75.816735349675753, 14.123071866191966 ], [ 75.816641507683229, 14.12304855946606 ], [ 75.802062817668443, 14.11942731877833 ], [ 75.80202793414324, 14.119418654302187 ], [ 75.802287622329075, 14.118707545257539 ], [ 75.802414243659953, 14.118360805634772 ], [ 75.802829015494254, 14.117224998445581 ], [ 75.80465833197276, 14.10975871669924 ], [ 75.805008134390931, 14.109617880263393 ], [ 75.805272464831262, 14.109511454900932 ], [ 75.814583864361239, 14.105762250142353 ], [ 75.814312600104486, 14.105500941807513 ], [ 75.815004251844911, 14.10521382570707 ], [ 75.814904729928841, 14.105100091681045 ], [ 75.814268960018197, 14.104373568152905 ], [ 75.813199617068321, 14.103883209463556 ], [ 75.813109121314454, 14.10384171155359 ], [ 75.812926328915196, 14.103757879976085 ], [ 75.812961788091599, 14.10339751719158 ], [ 75.813109407206539, 14.101814910137907 ], [ 75.813266897965789, 14.100174346771643 ], [ 75.813376766476551, 14.098954811465774 ], [ 75.813385821930154, 14.098858536423034 ], [ 75.813483318068663, 14.097822091898999 ], [ 75.813595169176693, 14.096676798041585 ], [ 75.813595170923548, 14.096676768200005 ], [ 75.813612017297103, 14.095052518114551 ], [ 75.813662662386022, 14.094951186996626 ], [ 75.81421652935353, 14.093843107095356 ], [ 75.814312078006509, 14.093677223399212 ], [ 75.81437941394789, 14.09356035375694 ], [ 75.814400352787459, 14.093524011863183 ], [ 75.815230222563102, 14.092083235341587 ], [ 75.815254617083653, 14.092040876587648 ], [ 75.815362305425353, 14.091853926358166 ], [ 75.816073296143799, 14.090628229734939 ], [ 75.816370093870347, 14.090116630678319 ], [ 75.816580784879406, 14.089745954770539 ], [ 75.816703817645347, 14.08952952954785 ], [ 75.817363682994241, 14.088368774216608 ], [ 75.8182462164432, 14.08685397673988 ], [ 75.818246230259803, 14.086853954994314 ], [ 75.819679346372993, 14.083794998641364 ], [ 75.819687679975146, 14.083769047641107 ], [ 75.819774954810498, 14.083497464297384 ], [ 75.819839429719266, 14.083296774749622 ], [ 75.820283770265647, 14.081914072251493 ], [ 75.820849152421061, 14.080154574788939 ], [ 75.821702070768779, 14.077500195034636 ], [ 75.822732659970086, 14.07405488624245 ], [ 75.822747854341841, 14.074004078535879 ], [ 75.822530403959632, 14.073688524413514 ], [ 75.821374483862357, 14.072067753841635 ], [ 75.820190859378158, 14.070365481013713 ], [ 75.820194834477036, 14.07033582076475 ], [ 75.820396027056319, 14.068833845211358 ], [ 75.820617944219293, 14.067183426033891 ], [ 75.821017194286142, 14.063875891612255 ], [ 75.821008900649517, 14.063642041260527 ], [ 75.818741831687248, 14.058942763844962 ], [ 75.816816113515245, 14.055134553617304 ], [ 75.815971886446761, 14.053404612869263 ], [ 75.81464707428043, 14.050763207651663 ], [ 75.813697492229991, 14.050140335305544 ], [ 75.812343526101998, 14.047728280006401 ], [ 75.813086854373381, 14.047571789703946 ], [ 75.811422005375235, 14.046853429363344 ], [ 75.808658501812559, 14.045660972476835 ], [ 75.804896916938503, 14.044037784175501 ], [ 75.802966871663443, 14.043232922000534 ], [ 75.802105232976345, 14.042873590748451 ], [ 75.799047786560237, 14.033507296522869 ], [ 75.799400150193009, 14.032611270112072 ], [ 75.799471552291251, 14.032429690564117 ], [ 75.799509062176099, 14.032334308663684 ], [ 75.800505704016103, 14.029799849875102 ], [ 75.800591888848231, 14.029580663143479 ], [ 75.803050043603321, 14.023329336801794 ], [ 75.803095181241233, 14.023214566514499 ], [ 75.806162527631599, 14.02366657903392 ], [ 75.80641016220207, 14.023703062948082 ], [ 75.808770597528849, 14.024050871734381 ], [ 75.815724873022404, 14.020522599242751 ], [ 75.815822842675175, 14.020472890029289 ], [ 75.816091008373533, 14.020336829306581 ], [ 75.816233975891649, 14.020332393849245 ], [ 75.816796309996406, 14.020314944626513 ], [ 75.817197801169158, 14.020112566374584 ], [ 75.817542662182305, 14.019938740772009 ], [ 75.817661373192252, 14.019882122099519 ], [ 75.818686579169466, 14.019393198378198 ], [ 75.821658021544437, 14.017976062615983 ], [ 75.82214352106611, 14.017970826048552 ], [ 75.824518004709404, 14.017945211406399 ], [ 75.824645045849834, 14.017943834168998 ], [ 75.824564040624864, 14.017214955467137 ], [ 75.82533640429223, 14.008400436096704 ], [ 75.825354102179929, 14.008198506687007 ], [ 75.825180981792457, 14.008197557282632 ], [ 75.825156679105135, 14.008162249305364 ], [ 75.824850330041912, 14.007717182211007 ], [ 75.824831824970246, 14.007391852065263 ], [ 75.824828215852563, 14.007328352012305 ], [ 75.82473288317658, 14.006912472025236 ], [ 75.824699279729231, 14.00676588539328 ], [ 75.82462265775942, 14.006431649344789 ], [ 75.828058486874255, 13.998740657724456 ], [ 75.831393874039918, 13.99127394251728 ], [ 75.831914973433271, 13.990107345553234 ], [ 75.832011138825152, 13.98966773318627 ], [ 75.831950552827024, 13.988794531595156 ], [ 75.831711506322691, 13.985349537959483 ], [ 75.831719349776648, 13.984600531342851 ], [ 75.83151408922204, 13.982415215110143 ], [ 75.831068384353472, 13.97648139507478 ], [ 75.830926863506463, 13.975229462975793 ], [ 75.83092952836121, 13.97511107962991 ], [ 75.830934676925807, 13.974882144112245 ], [ 75.831102555329323, 13.974087198156267 ], [ 75.832073867018352, 13.969487659825377 ], [ 75.832201482616483, 13.968883326816442 ], [ 75.832382432122657, 13.968191502295753 ], [ 75.832386212164437, 13.968177075912791 ], [ 75.832740372157701, 13.966823004102787 ], [ 75.833104429135915, 13.967038683178368 ], [ 75.833281312840839, 13.96667586309035 ], [ 75.833481044883584, 13.966272508016678 ], [ 75.835460140524845, 13.962275762708357 ], [ 75.837248481015251, 13.958640305377864 ], [ 75.839091442546888, 13.955019057279108 ], [ 75.840630063235452, 13.951958245800531 ], [ 75.840906786602361, 13.951342611336528 ], [ 75.841656200648615, 13.949933412679794 ], [ 75.841648376846095, 13.949628689142621 ], [ 75.841654708270411, 13.949587458510022 ], [ 75.841706344474801, 13.949250953025034 ], [ 75.842216877399167, 13.948336085759486 ], [ 75.842299393696621, 13.948188224827661 ], [ 75.84243515836971, 13.94794492905419 ], [ 75.845770935016645, 13.941967048458729 ], [ 75.845994822250333, 13.941567201757271 ], [ 75.849884208089378, 13.93462101787796 ], [ 75.850818921689537, 13.933007285551078 ], [ 75.851209210209518, 13.932333463275365 ], [ 75.855261797187083, 13.924448056260765 ], [ 75.855827295985435, 13.923300158150216 ], [ 75.859486005541783, 13.915873098888133 ], [ 75.859496753468733, 13.915547116559402 ], [ 75.86057133612168, 13.913365290830049 ], [ 75.860631971971998, 13.913041688395559 ], [ 75.860636047258808, 13.913019918288953 ], [ 75.862669504723158, 13.908841842517731 ], [ 75.862979137592788, 13.908205619297725 ], [ 75.863853433469103, 13.906409153570293 ], [ 75.86993617205853, 13.903720190053313 ], [ 75.868024715495096, 13.890794076369708 ], [ 75.867969784290537, 13.890422541790743 ], [ 75.867581436745866, 13.887796207854439 ], [ 75.865697472164896, 13.876153847114919 ], [ 75.865677883546496, 13.876032757562143 ], [ 75.865362533083896, 13.874083872251351 ], [ 75.865120660518116, 13.872589073041667 ], [ 75.865088333272183, 13.872589287745811 ], [ 75.86603639437827, 13.855916100073809 ], [ 75.86801160582425, 13.845857589763554 ], [ 75.868923580952909, 13.840176226265031 ], [ 75.868969599019749, 13.839889540624071 ], [ 75.870865012150844, 13.836076278079718 ], [ 75.870888146253691, 13.836029739571424 ], [ 75.872663508277896, 13.832457857406659 ], [ 75.875212543524967, 13.819577854087166 ], [ 75.877130513352441, 13.809166585497877 ], [ 75.877131445427736, 13.809161510059832 ], [ 75.877678955235794, 13.80911320990055 ], [ 75.877786054669599, 13.809103681089516 ], [ 75.8784882561297, 13.809041211109792 ], [ 75.886287242170638, 13.809214921545962 ], [ 75.890205360636244, 13.808407748222612 ], [ 75.892898303242163, 13.807125141702478 ], [ 75.893269630564589, 13.80703911486729 ], [ 75.893420268495277, 13.807758071503757 ], [ 75.894147440300884, 13.811072126558992 ], [ 75.89915076485282, 13.811500146403926 ], [ 75.90209090571237, 13.812586330891529 ], [ 75.903722063956863, 13.810973672129476 ], [ 75.904340817336461, 13.810361927982392 ], [ 75.906442416003117, 13.808297177776666 ], [ 75.907021789915788, 13.806739339162434 ], [ 75.907567855851539, 13.80664949946069 ], [ 75.911447259754297, 13.806831121272005 ], [ 75.920107710134985, 13.807268366048238 ], [ 75.920239151569106, 13.807258807245075 ], [ 75.921265337628071, 13.808279430832275 ], [ 75.921300553695318, 13.808313777866838 ], [ 75.922105135307802, 13.809082108609516 ], [ 75.925486154833209, 13.8123558007435 ], [ 75.926658039434713, 13.813495020888773 ], [ 75.927830862431819, 13.813905477812101 ], [ 75.929298573073027, 13.81402688815299 ], [ 75.931044781862511, 13.814171323628363 ], [ 75.931376498692359, 13.814198760956661 ], [ 75.931430387377304, 13.814203215390171 ], [ 75.931850377782681, 13.814027793636816 ], [ 75.933823068542466, 13.813203823740908 ], [ 75.934407168558607, 13.812959845411667 ], [ 75.934512027429534, 13.812916048346747 ], [ 75.934895608830402, 13.812821058394718 ], [ 75.935358289852672, 13.812706481073661 ], [ 75.935550061731618, 13.812658991025055 ], [ 75.935667399175216, 13.812629932596231 ], [ 75.935723580777676, 13.812634339394581 ], [ 75.936474256071691, 13.812693222616327 ], [ 75.936967793996999, 13.81269551139845 ], [ 75.937376645730964, 13.81269739920713 ], [ 75.937388168678723, 13.812697450149102 ], [ 75.93835246326195, 13.812699220581081 ], [ 75.938756147905593, 13.812699952307918 ], [ 75.938758192509553, 13.812699958052718 ], [ 75.939968048895182, 13.812703496418838 ], [ 75.940021577304307, 13.812715543934532 ], [ 75.940176662199406, 13.812750446243456 ], [ 75.940197145007502, 13.812755060120455 ], [ 75.940391435262526, 13.812798789931506 ], [ 75.9412351290581, 13.812988681302594 ], [ 75.941499161995594, 13.812991595572441 ], [ 75.941626928132663, 13.812993006065014 ], [ 75.941707248586837, 13.812993886929597 ], [ 75.942317412367274, 13.813077105084973 ], [ 75.942366905779096, 13.81308693351952 ], [ 75.942758839408114, 13.813164748782606 ], [ 75.943267635411615, 13.813265761335281 ], [ 75.944222613283841, 13.813455359301836 ], [ 75.944316638557964, 13.813502983924717 ], [ 75.944540894909764, 13.813616575469316 ], [ 75.944891466543822, 13.813723817605737 ], [ 75.945109121650006, 13.81379039981363 ], [ 75.945376750709201, 13.813864750040025 ], [ 75.94544728260469, 13.813981563497743 ], [ 75.94605222565778, 13.814118047544673 ], [ 75.946096004922566, 13.814127924344575 ], [ 75.946285233890322, 13.814541673191831 ], [ 75.946404959231927, 13.814803443285557 ], [ 75.946482281345979, 13.815188088915546 ], [ 75.946617191451097, 13.815859211735257 ], [ 75.947076552130099, 13.817253218827986 ], [ 75.947223197813202, 13.817213487255508 ], [ 75.947327486724831, 13.817185234817675 ], [ 75.947616962936848, 13.817106803141499 ], [ 75.948189797707954, 13.816919332328965 ], [ 75.948297659272839, 13.816872539722659 ], [ 75.949004037925704, 13.816566139022433 ], [ 75.949505908949035, 13.816348438794263 ], [ 75.950472570752041, 13.816230089459637 ], [ 75.951195536577544, 13.816141573130478 ], [ 75.952148746473682, 13.816024864250972 ], [ 75.95258475435682, 13.81633942852665 ], [ 75.952772514822044, 13.817242465311246 ], [ 75.952799122733069, 13.817370434371933 ], [ 75.952843770659527, 13.817585166943879 ], [ 75.952865038758333, 13.817687455818811 ], [ 75.95289833701581, 13.817847601179684 ], [ 75.952951352202405, 13.81810257353321 ], [ 75.952003538629526, 13.818486991321411 ], [ 75.951697196741364, 13.818611235704287 ], [ 75.951280670480017, 13.818796139870287 ], [ 75.950854891818224, 13.818985151286078 ], [ 75.950395262791062, 13.819284051984082 ], [ 75.950256966183815, 13.819373987795935 ], [ 75.950097570382354, 13.819673090598011 ], [ 75.949994889951356, 13.819865755342443 ], [ 75.949599077198158, 13.820025474273118 ], [ 75.949332056325673, 13.820133224804948 ], [ 75.949814623451573, 13.821008159623696 ], [ 75.949931225016201, 13.82121957017875 ], [ 75.950026357717661, 13.821697706980897 ], [ 75.950043657163505, 13.821864850969353 ], [ 75.950058613112461, 13.822009393338323 ], [ 75.950094612075844, 13.822629854888641 ], [ 75.949990717871955, 13.822953350633149 ], [ 75.950016020570388, 13.823049586544506 ], [ 75.950142107878321, 13.8235291638058 ], [ 75.950216335349708, 13.823757177457013 ], [ 75.950303376482267, 13.824024555764275 ], [ 75.950317593408144, 13.824068230297506 ], [ 75.950353109065276, 13.824177338975426 ], [ 75.950389404041246, 13.824649395379495 ], [ 75.950404319484093, 13.824843355126083 ], [ 75.950408772322035, 13.824901254634568 ], [ 75.950361489076982, 13.825067015889896 ], [ 75.950333243911018, 13.825166039453183 ], [ 75.950327439453275, 13.8251863942806 ], [ 75.950303496317687, 13.825270337034196 ], [ 75.9496093012405, 13.825545252735386 ], [ 75.94956668012739, 13.825562139066934 ], [ 75.949555119397573, 13.825684167046706 ], [ 75.94955036831783, 13.825734339583203 ], [ 75.949345637160036, 13.825815973076107 ], [ 75.949172667515768, 13.825884940918188 ], [ 75.949164061334002, 13.825888371830018 ], [ 75.948943122534956, 13.825976473270549 ], [ 75.948904403479261, 13.825991914111365 ], [ 75.948993663878895, 13.82667705534076 ], [ 75.948754614820459, 13.826836086609962 ], [ 75.948786118859871, 13.827175974009315 ], [ 75.948789543961283, 13.827392974160153 ], [ 75.948554972158973, 13.827966936407455 ], [ 75.948497601351349, 13.828107322082337 ], [ 75.948293925586512, 13.828642883174314 ], [ 75.948106710010265, 13.829135164431023 ], [ 75.948051818553552, 13.829279508541781 ], [ 75.947999926997738, 13.829415956374518 ], [ 75.947925928686246, 13.830387295793628 ], [ 75.947919077576358, 13.830477159264861 ], [ 75.947900608902458, 13.830719586917555 ], [ 75.947975687827807, 13.830807404166977 ], [ 75.948036453430376, 13.830878479410918 ], [ 75.948533201517336, 13.831459509008246 ], [ 75.948915410527661, 13.831906565162681 ], [ 75.949002849644927, 13.832008835100568 ], [ 75.949112030143652, 13.832136539122603 ], [ 75.949174732880607, 13.832209882161406 ], [ 75.949415990319039, 13.832492065792877 ], [ 75.949635939231797, 13.832749327838865 ], [ 75.949789992932651, 13.832932895735521 ], [ 75.950115872550938, 13.833322756524801 ], [ 75.950313053381379, 13.833558650848584 ], [ 75.951557736624409, 13.835047693084098 ], [ 75.951673061774585, 13.835185660582914 ], [ 75.952114859067635, 13.835147246983603 ], [ 75.95246692717032, 13.835116638210282 ], [ 75.952927155168339, 13.835623383775765 ], [ 75.95290226035398, 13.835701025224934 ], [ 75.953216696234477, 13.836135593716493 ], [ 75.953305331460072, 13.836321468416228 ], [ 75.953373708760168, 13.836464876704905 ], [ 75.953370997509182, 13.836636320922434 ], [ 75.953368081007596, 13.836820977552177 ], [ 75.953367890849279, 13.836832898852716 ], [ 75.953367352734105, 13.836866385200077 ], [ 75.95314393135979, 13.836852637369866 ], [ 75.95309326169486, 13.83684952355167 ], [ 75.953067779820259, 13.836859346216155 ], [ 75.952923484383319, 13.836914961428787 ], [ 75.952925220410961, 13.836928210599138 ], [ 75.952945070060551, 13.837079677825519 ], [ 75.953165430787962, 13.837134511901626 ], [ 75.953470816747412, 13.837142992777665 ], [ 75.953800555507144, 13.837191310814619 ], [ 75.954024554519165, 13.837167819512706 ], [ 75.954179727273413, 13.837151548437763 ], [ 75.954256624745099, 13.837184138468036 ], [ 75.954350129672676, 13.83726784943847 ], [ 75.954418589485229, 13.837329153023074 ], [ 75.954594386152564, 13.83730407772552 ], [ 75.954873450204573, 13.837264291801603 ], [ 75.955034063443676, 13.837352581638871 ], [ 75.955135681493203, 13.837452227081268 ], [ 75.9551597449898, 13.837659175775132 ], [ 75.955184218873697, 13.837869635288879 ], [ 75.955248545570583, 13.838097007089203 ], [ 75.955308128714606, 13.838307616354223 ], [ 75.9552842854076, 13.838602387890822 ], [ 75.955243382987504, 13.83870576744037 ], [ 75.955312426272442, 13.838805355264467 ], [ 75.955426260880373, 13.838909008707537 ], [ 75.955491211583066, 13.839020523934899 ], [ 75.955515422509251, 13.839139934336632 ], [ 75.955446043286443, 13.839227353650307 ], [ 75.955356357911441, 13.8392829075443 ], [ 75.955288271532424, 13.839325082445516 ], [ 75.955270575058634, 13.839437937835049 ], [ 75.955380407143011, 13.839497800541388 ], [ 75.955461498123015, 13.839542011353956 ], [ 75.95554146983136, 13.839585604480659 ], [ 75.95564236324212, 13.839648652694091 ], [ 75.955662069728547, 13.839698614148148 ], [ 75.955722545822525, 13.839851936017265 ], [ 75.955770613422459, 13.839973766744381 ], [ 75.955914301696637, 13.839888851206451 ], [ 75.955955535134819, 13.839890549218353 ], [ 75.956298744144362, 13.839904653304043 ], [ 75.956335214216153, 13.839793328495299 ], [ 75.956342690425572, 13.839770501557304 ], [ 75.956409157580097, 13.839567592875865 ], [ 75.956890484541589, 13.839738881804561 ], [ 75.956866204798388, 13.839756710496703 ], [ 75.956782236680667, 13.839818361525586 ], [ 75.956714776363853, 13.839867891026534 ], [ 75.956716535773182, 13.839906037144738 ], [ 75.95671978013516, 13.839976301918639 ], [ 75.956719898177681, 13.839978922441412 ], [ 75.956726846400827, 13.840129774102321 ], [ 75.956926920300134, 13.840082657060185 ], [ 75.957063466341751, 13.840050503951439 ], [ 75.957622854286896, 13.839770827537697 ], [ 75.957910053680848, 13.840154921933024 ], [ 75.958015439570332, 13.840153669221477 ], [ 75.958357052914579, 13.840258163904833 ], [ 75.958410574058561, 13.840357752662172 ], [ 75.95856939706799, 13.84065328264761 ], [ 75.958540160574884, 13.840803428555352 ], [ 75.958531858908927, 13.840846054920855 ], [ 75.958492538325302, 13.841297387396251 ], [ 75.958060845909586, 13.84155222570854 ], [ 75.9580625917866, 13.841613897404329 ], [ 75.958064788942877, 13.841691552705461 ], [ 75.958065969408878, 13.841733318356573 ], [ 75.958068313585002, 13.84181614633499 ], [ 75.958079741638926, 13.841836298319953 ], [ 75.958328727744529, 13.842275346909119 ], [ 75.958401730810451, 13.842404079002216 ], [ 75.958429597693566, 13.842391613701349 ], [ 75.958652833801821, 13.842291774284147 ], [ 75.958699338253552, 13.842472846940947 ], [ 75.958705814691655, 13.842498040528936 ], [ 75.958350853218477, 13.842793254646134 ], [ 75.958416539541872, 13.842943458743012 ], [ 75.958591448255262, 13.842999789766484 ], [ 75.958643462185819, 13.843016542660759 ], [ 75.958835497918642, 13.843146992300161 ], [ 75.958977344631066, 13.843243345738648 ], [ 75.959330727299303, 13.843561891297259 ], [ 75.959426956223496, 13.843595797049085 ], [ 75.960515224948992, 13.843979263335783 ], [ 75.96062752204945, 13.844053419336056 ], [ 75.960731878289693, 13.844122326482971 ], [ 75.961296201228549, 13.843965766548136 ], [ 75.961375099190406, 13.844017193104335 ], [ 75.961543946610746, 13.844127247301408 ], [ 75.961514033059714, 13.844420229971119 ], [ 75.961491107707857, 13.844644696194051 ], [ 75.961453280782521, 13.845015260694611 ], [ 75.961703782654396, 13.845121093117164 ], [ 75.962546096411785, 13.845476944576815 ], [ 75.963794811077264, 13.845535296295923 ], [ 75.964060431799297, 13.846003767857773 ], [ 75.967172975983601, 13.851493126823204 ], [ 75.968940754763693, 13.854610678486988 ], [ 75.968989802063902, 13.85469716633602 ], [ 75.968968694083614, 13.854716402219323 ], [ 75.968917541907373, 13.854763013651795 ], [ 75.969071437265526, 13.854975243109031 ], [ 75.969231072748741, 13.853473524820631 ], [ 75.969846064682343, 13.853994111649461 ], [ 75.970090316434934, 13.853771520613144 ], [ 75.97065731573862, 13.853254815720238 ], [ 75.970777804366648, 13.853207887516675 ], [ 75.970861962349673, 13.853175108628019 ], [ 75.971206573870631, 13.853040884516725 ], [ 75.971274944789116, 13.85301425266082 ], [ 75.971371344892603, 13.852976702963145 ], [ 75.971773647416882, 13.852820010325079 ], [ 75.972510450038925, 13.852764582868998 ], [ 75.97294584132004, 13.85273182675172 ], [ 75.973118643787259, 13.85271847831315 ], [ 75.97325168500673, 13.852708200767918 ], [ 75.973876547842721, 13.852659930601728 ], [ 75.974110577523049, 13.852563376489766 ], [ 75.975094599008017, 13.852582139602429 ], [ 75.975091391564092, 13.852529472628662 ], [ 75.975090681169149, 13.852517770153138 ], [ 75.975060415530763, 13.852430119410927 ], [ 75.975037606260926, 13.8523640612873 ], [ 75.975031548269655, 13.852346517052801 ], [ 75.975139415323369, 13.852247460867748 ], [ 75.975370406705508, 13.851830062012064 ], [ 75.97604257900619, 13.85061548071346 ], [ 75.977114942257288, 13.848677738308735 ], [ 75.978559672895685, 13.848392919118028 ], [ 75.980487307191325, 13.848012880372275 ], [ 75.98057916145477, 13.847994769884821 ], [ 75.980914704800668, 13.847928614814963 ], [ 75.980989860724719, 13.847944975389506 ], [ 75.983051627575392, 13.848393816671326 ], [ 75.984201099491841, 13.847567143604971 ], [ 75.98833956432199, 13.847806280301747 ], [ 75.992445867087966, 13.849175603802131 ], [ 75.993842502876788, 13.850354412440883 ], [ 75.994206120116871, 13.850780207600796 ], [ 75.99455165545973, 13.851184824026539 ], [ 75.997466410042563, 13.854597887326976 ], [ 75.999270836262184, 13.856724585213607 ], [ 75.999271465882074, 13.856725330324373 ], [ 76.001350743360931, 13.859195946700735 ], [ 76.001494774386657, 13.85936708428024 ], [ 76.002160799383873, 13.86015844502378 ], [ 76.002572689145111, 13.860647838282215 ], [ 76.002656966135689, 13.86074797415457 ], [ 76.002736977907517, 13.860843041075107 ], [ 76.002739466963874, 13.860871702176794 ], [ 76.002783678809223, 13.861380695377754 ], [ 76.002890348518946, 13.862608740992739 ], [ 76.002930861244081, 13.863075142334278 ], [ 76.004774587069022, 13.865372383583924 ], [ 76.005497323849411, 13.8662728782495 ], [ 76.005776855709428, 13.866621158362351 ], [ 76.00598405907138, 13.866879322442955 ], [ 76.007442172691356, 13.866257035950685 ], [ 76.007945526098908, 13.866042213584047 ], [ 76.008630928058381, 13.865749692287002 ], [ 76.01001884884657, 13.865157337293008 ], [ 76.01011665072491, 13.865246764308381 ], [ 76.010914750280477, 13.865976516991251 ], [ 76.012223119214113, 13.867172825076121 ], [ 76.013958740973806, 13.868759764820865 ], [ 76.015195097755935, 13.86989019334966 ], [ 76.015215643709965, 13.869908979000344 ], [ 76.015902388625548, 13.870536875577571 ], [ 76.016275643243887, 13.868589949856666 ], [ 76.01627572278872, 13.868589516470591 ], [ 76.016290529106897, 13.868512280651927 ], [ 76.016311680923351, 13.86839898535016 ], [ 76.016562136471308, 13.866916263472648 ], [ 76.016571646395846, 13.866859962888515 ], [ 76.016579630903834, 13.866812701333144 ], [ 76.016616588896881, 13.866593892639886 ], [ 76.016624983843954, 13.866544201011459 ], [ 76.016640774177361, 13.866450728279974 ], [ 76.016674873299479, 13.866328337420967 ], [ 76.016826974547286, 13.865782491912505 ], [ 76.017031053406072, 13.865050086178439 ], [ 76.017044300799853, 13.865002542360612 ], [ 76.017089773772469, 13.864839345418545 ], [ 76.017109483656228, 13.864768629312866 ], [ 76.017175829571229, 13.864709818688766 ], [ 76.017266892015144, 13.864629103341343 ], [ 76.01750656226352, 13.864416662705494 ], [ 76.017715709363912, 13.864231277812378 ], [ 76.017776618775798, 13.864130023986254 ], [ 76.017861346725326, 13.863989175320727 ], [ 76.018013051907857, 13.863901176423838 ], [ 76.018032621330121, 13.863889822006211 ], [ 76.018032690567281, 13.863889784650782 ], [ 76.018071763671173, 13.863869190733864 ], [ 76.018201037351446, 13.863803612273893 ], [ 76.018306955421309, 13.863749885821118 ], [ 76.018745625964428, 13.863527359918033 ], [ 76.01877111796091, 13.863514428480043 ], [ 76.018922561215319, 13.863437602798754 ], [ 76.018967926957075, 13.863414589441103 ], [ 76.01907326206161, 13.863361158027692 ], [ 76.019121937759977, 13.863336466444002 ], [ 76.019165670166473, 13.863314281664891 ], [ 76.019204333188483, 13.863303878294801 ], [ 76.019276358699514, 13.86328450307861 ], [ 76.019372309255289, 13.863160944802244 ], [ 76.019545987342468, 13.86293730985887 ], [ 76.019562590649926, 13.862915926947123 ], [ 76.019573566692571, 13.862909307636533 ], [ 76.019643133027458, 13.862867363112063 ], [ 76.019874120679361, 13.862728063360006 ], [ 76.020050871241963, 13.862621472245252 ], [ 76.020071656708794, 13.862608932780846 ], [ 76.020098647456848, 13.862594919109949 ], [ 76.020124161017364, 13.862581670118704 ], [ 76.020179075877152, 13.862553156092629 ], [ 76.020265984412717, 13.862508021835684 ], [ 76.02034054376881, 13.862469303774821 ], [ 76.020396000509791, 13.862440508082619 ], [ 76.020574893345511, 13.862347614472744 ], [ 76.020629032955441, 13.862330815968392 ], [ 76.020688206889744, 13.862312451380213 ], [ 76.020870841545559, 13.862255775760378 ], [ 76.020881647661867, 13.862252425360458 ], [ 76.020953461952217, 13.862257033142988 ], [ 76.021126773102438, 13.862268148134607 ], [ 76.021148695608574, 13.862269560152939 ], [ 76.021174771121423, 13.862280320225421 ], [ 76.021306529871808, 13.862334673502366 ], [ 76.021387027555406, 13.862367879903697 ], [ 76.021402923725361, 13.862374440481158 ], [ 76.021481267660249, 13.862431649266606 ], [ 76.021552570501541, 13.862483705218049 ], [ 76.021577188747102, 13.862501678667872 ], [ 76.021629444991063, 13.862539833378218 ], [ 76.021747265086901, 13.862564829382546 ], [ 76.022001254051702, 13.862618721646683 ], [ 76.022093221573982, 13.862638232790166 ], [ 76.022217940936045, 13.862680557210297 ], [ 76.022330650440679, 13.862870244600277 ], [ 76.022333538393397, 13.862875109152125 ], [ 76.022358358984036, 13.862916884331177 ], [ 76.022404624683034, 13.862994745835129 ], [ 76.022354011466774, 13.863084060850918 ], [ 76.022240200517629, 13.863284910601889 ], [ 76.022211186088484, 13.86330948539878 ], [ 76.022192099744004, 13.863325654159867 ], [ 76.022166633751041, 13.863347224332196 ], [ 76.022190743378658, 13.863364814695778 ], [ 76.022200019804373, 13.863371580969925 ], [ 76.022243547429738, 13.863403327693655 ], [ 76.02225302158304, 13.863410237792673 ], [ 76.022286226624573, 13.863434459561265 ], [ 76.022311006746207, 13.863424261971819 ], [ 76.022379534490497, 13.863396066687429 ], [ 76.022405262917445, 13.863372092348747 ], [ 76.022499042856751, 13.863284698952921 ], [ 76.022550391821966, 13.863236848342398 ], [ 76.022745044527426, 13.863166793123488 ], [ 76.022852482633056, 13.863128129471274 ], [ 76.022937375938923, 13.863086915574245 ], [ 76.023035622095037, 13.863319213630906 ], [ 76.023266569452801, 13.863291119284767 ], [ 76.023434463287231, 13.863270698277724 ], [ 76.023482183770255, 13.863353992416803 ], [ 76.023581059978824, 13.863526564869053 ], [ 76.023790670967884, 13.863892399627593 ], [ 76.023808826076817, 13.863924093987208 ], [ 76.023924262412223, 13.864125560118733 ], [ 76.023955427313595, 13.864179957556443 ], [ 76.023981544773562, 13.864225542334173 ], [ 76.024015501471851, 13.86428480378877 ], [ 76.024105934079373, 13.864442640423389 ], [ 76.02422033632692, 13.864645983053281 ], [ 76.024358226155414, 13.864819271470095 ], [ 76.024633224831675, 13.86478136829856 ], [ 76.024820037782774, 13.864755623389451 ], [ 76.024921612310422, 13.864741624088353 ], [ 76.025166001167165, 13.86517461694441 ], [ 76.025275646523255, 13.865368871206933 ], [ 76.025347840235909, 13.865496789930903 ], [ 76.025357909396803, 13.865514625026551 ], [ 76.025377461336475, 13.865651743658715 ], [ 76.02538735037497, 13.86572107865247 ], [ 76.025708973115442, 13.865682357718827 ], [ 76.025780883366423, 13.865907680401971 ], [ 76.025903334795814, 13.866291399399653 ], [ 76.025917561103995, 13.866482284252148 ], [ 76.026062374532245, 13.866833262101673 ], [ 76.026521074939367, 13.866794085338016 ], [ 76.026477854737621, 13.8670858289442 ], [ 76.026464425748486, 13.867177107888919 ], [ 76.026445962133636, 13.867302534273236 ], [ 76.026440906936074, 13.867337052472653 ], [ 76.026430927715552, 13.867591309952875 ], [ 76.026424714275123, 13.867749689290871 ], [ 76.026422645015415, 13.867802280182669 ], [ 76.026422698219235, 13.867803647832812 ], [ 76.026425344182996, 13.867872161491945 ], [ 76.026441948185294, 13.867978594284894 ], [ 76.026452500272811, 13.868046253865536 ], [ 76.026583874753044, 13.868018090199202 ], [ 76.026788998264422, 13.867974110160313 ], [ 76.027330184801059, 13.867858081375648 ], [ 76.027330225475765, 13.86785807216404 ], [ 76.027369105068644, 13.867850347169405 ], [ 76.027503877457448, 13.867829820886099 ], [ 76.028480253693999, 13.867681155822817 ], [ 76.028839770006414, 13.867626412869562 ], [ 76.029095176067344, 13.867587522813084 ], [ 76.029282256034463, 13.867559035710855 ], [ 76.029496379503641, 13.867526435021867 ], [ 76.029696398057752, 13.867495972897878 ], [ 76.029919498603675, 13.86746200687393 ], [ 76.030306353289106, 13.867439125810366 ], [ 76.030435615957202, 13.867431478056893 ], [ 76.030443233062527, 13.867521372927813 ], [ 76.030443239838988, 13.867521440705197 ], [ 76.030463907016284, 13.867667732218306 ], [ 76.030519642671607, 13.867677028253761 ], [ 76.03069412737679, 13.867706147715653 ], [ 76.030697098149503, 13.867809814092562 ], [ 76.030699563977194, 13.867895934419728 ], [ 76.030760359305688, 13.868200367403338 ], [ 76.030826986023328, 13.868613098014645 ], [ 76.030839386140656, 13.868689920508476 ], [ 76.030886884510196, 13.868643440546183 ], [ 76.031008365878577, 13.868524561139038 ], [ 76.031035730489165, 13.868497786327191 ], [ 76.031068590330833, 13.868513673537784 ], [ 76.031078969909061, 13.868518692632591 ], [ 76.031221541765063, 13.868587594557667 ], [ 76.031263927110246, 13.868608079511183 ], [ 76.031175958773858, 13.868708215446571 ], [ 76.030906852176955, 13.869014548644333 ], [ 76.030896419475624, 13.869031456395712 ], [ 76.030671629817206, 13.869395611934625 ], [ 76.030358983463771, 13.869902095886308 ], [ 76.030303053039148, 13.870087218358396 ], [ 76.030152606493544, 13.870585193149891 ], [ 76.030020188571541, 13.871023489632149 ], [ 76.029976169374606, 13.87100966358256 ], [ 76.029953392519019, 13.87100250968415 ], [ 76.029851755737241, 13.870970599637809 ], [ 76.029807733802215, 13.870956778088468 ], [ 76.029841321169911, 13.870846352579813 ], [ 76.029109885925536, 13.870881530448838 ], [ 76.028605383874847, 13.871076273932879 ], [ 76.028522846529626, 13.871209028882333 ], [ 76.028415132300495, 13.871258683620781 ], [ 76.028288920657857, 13.871316871937101 ], [ 76.028205137187626, 13.871410261178205 ], [ 76.028122473397985, 13.871502403482346 ], [ 76.027961856632174, 13.87168143269361 ], [ 76.027732599100915, 13.871700715505931 ], [ 76.027632470306557, 13.871798871756232 ], [ 76.027532878596205, 13.871896501347639 ], [ 76.027481546807422, 13.872235193572985 ], [ 76.027412834632926, 13.872968940340222 ], [ 76.027398859969196, 13.873118270727584 ], [ 76.027398465626078, 13.873122444711587 ], [ 76.027353960518653, 13.873597724597419 ], [ 76.027349210328865, 13.873730334150842 ], [ 76.027347720387297, 13.873771942535448 ], [ 76.027344390729553, 13.87386483442506 ], [ 76.027341786838278, 13.873937604782816 ], [ 76.027340501927711, 13.87397344518207 ], [ 76.027329759820745, 13.874273172789344 ], [ 76.027328941074003, 13.874296137136882 ], [ 76.027322984364886, 13.874462424194913 ], [ 76.027341892228208, 13.87469888721926 ], [ 76.027365208965705, 13.874990507682297 ], [ 76.027738451909556, 13.875020072125881 ], [ 76.028023609254731, 13.875042659783675 ], [ 76.028573257816475, 13.875086191517338 ], [ 76.028780899732283, 13.875101712578005 ], [ 76.02892505938236, 13.875313137876605 ], [ 76.029021101440264, 13.875454005112651 ], [ 76.029076675584093, 13.87539686849961 ], [ 76.029307070962105, 13.875159973030867 ], [ 76.029501371561324, 13.874960184468296 ], [ 76.029518933245541, 13.874942129304499 ], [ 76.029543422306361, 13.874916948857775 ], [ 76.029684912496577, 13.874871564127291 ], [ 76.029726705215836, 13.874858159657661 ], [ 76.029799664029326, 13.874905053467971 ], [ 76.029957260764604, 13.875006363484749 ], [ 76.030087096562184, 13.875243786386616 ], [ 76.030182220171199, 13.875417735425085 ], [ 76.030361545353244, 13.875745661270775 ], [ 76.030368271267704, 13.8761332846755 ], [ 76.030401707517385, 13.87628870496418 ], [ 76.030443594863669, 13.876483426086716 ], [ 76.030499742962462, 13.876607230836552 ], [ 76.030622168266817, 13.876877192514582 ], [ 76.030717005091773, 13.87708631111472 ], [ 76.030820055674383, 13.87753610862681 ], [ 76.031006697876762, 13.878224922753276 ], [ 76.031024618695668, 13.878291057352207 ], [ 76.031159373341438, 13.878541060634834 ], [ 76.031215816520557, 13.878645779710681 ], [ 76.031221545342021, 13.87865640106663 ], [ 76.031391079820054, 13.879142038347361 ], [ 76.031684400045293, 13.88003911248533 ], [ 76.031871229399385, 13.880610503086265 ], [ 76.031970364941955, 13.88108451662508 ], [ 76.03209729315104, 13.881397814148571 ], [ 76.032107689742233, 13.88142348312528 ], [ 76.033048342821289, 13.881441313842497 ], [ 76.033049089663905, 13.881441324247165 ], [ 76.033175443066057, 13.881443718492495 ], [ 76.033392747024706, 13.883020706992529 ], [ 76.033489417475167, 13.88372225459541 ], [ 76.033496661910831, 13.883802115461856 ], [ 76.03376235487913, 13.886733396597657 ], [ 76.03407407287996, 13.890617247255982 ], [ 76.03413989433011, 13.891372217942333 ], [ 76.034234851372759, 13.892461394468475 ], [ 76.034676322143042, 13.897525267946566 ], [ 76.034314771413648, 13.897522235121105 ], [ 76.033417504414757, 13.897714413206955 ], [ 76.028514767687724, 13.898764421730203 ], [ 76.028536192964765, 13.899396419032435 ], [ 76.029103434931216, 13.916124230870043 ], [ 76.029248295048731, 13.92039595858448 ], [ 76.029436656099804, 13.920478489237345 ], [ 76.032408002787349, 13.92178037786902 ], [ 76.033985647263066, 13.924141533425871 ], [ 76.038243265297993, 13.93066351261991 ], [ 76.038485148062932, 13.931084340987123 ], [ 76.039030911955408, 13.932033865753905 ], [ 76.042415085181744, 13.937921493344419 ], [ 76.044796763827478, 13.942064828917239 ], [ 76.044826978404515, 13.942043008790096 ], [ 76.044864934833726, 13.94201559720806 ], [ 76.04489352275526, 13.941994944881129 ], [ 76.04501928472007, 13.941904111056756 ], [ 76.045042920826347, 13.94188703658201 ], [ 76.045087055197342, 13.94185516669639 ], [ 76.045089814814588, 13.941853175840137 ], [ 76.045302070048365, 13.941699871793084 ], [ 76.045494540050314, 13.941560863622458 ], [ 76.045529387003313, 13.941535689311911 ], [ 76.045727718227312, 13.941392450067784 ], [ 76.045793493679071, 13.941344948856772 ], [ 76.045907801346274, 13.94126238181379 ], [ 76.04608804945137, 13.941132203337089 ], [ 76.046448784845992, 13.940871655136304 ], [ 76.046604890848755, 13.940758912904785 ], [ 76.046844126224499, 13.940764779711166 ], [ 76.046960556623816, 13.940767637681077 ], [ 76.047503518605524, 13.940780963413703 ], [ 76.047632961099055, 13.940784139361233 ], [ 76.048073249064487, 13.940794945678451 ], [ 76.04884568725852, 13.940813897331305 ], [ 76.04913897709153, 13.940821093945949 ], [ 76.049509387887113, 13.940830182685595 ], [ 76.050668181561775, 13.940858608120639 ], [ 76.05106295758587, 13.94086828999167 ], [ 76.052405941375213, 13.940901225095891 ], [ 76.05263335782233, 13.940906802774592 ], [ 76.052742508190278, 13.94090947789222 ], [ 76.054100968166082, 13.940942782395286 ], [ 76.054180099781632, 13.940944719832427 ], [ 76.054424609854948, 13.940950717245594 ], [ 76.054476588822425, 13.940951992874615 ], [ 76.054601292412485, 13.940955050017394 ], [ 76.054632969124029, 13.940955825006629 ], [ 76.054739891237816, 13.940958445592832 ], [ 76.054774158158423, 13.940959286187928 ], [ 76.054793862382112, 13.94095977038357 ], [ 76.054837039465212, 13.940960826409698 ], [ 76.054893050465736, 13.940962304168522 ], [ 76.054896072947983, 13.940962370630428 ], [ 76.054918819824152, 13.940962878699203 ], [ 76.054921312799237, 13.940962934798197 ], [ 76.054927515146375, 13.940963073367797 ], [ 76.054929556365664, 13.940963118767225 ], [ 76.05493437472272, 13.940963219034197 ], [ 76.054936916767517, 13.940963277632607 ], [ 76.054939890221092, 13.940963350634897 ], [ 76.054948387499451, 13.94096355429749 ], [ 76.055006541096532, 13.94096498025481 ], [ 76.055009608057375, 13.940965057371374 ], [ 76.055011731705306, 13.940965113261731 ], [ 76.055029090396744, 13.94096560036974 ], [ 76.05506548703552, 13.940966610700087 ], [ 76.055081806088822, 13.94096706343475 ], [ 76.055084112115054, 13.940967125766656 ], [ 76.055119507110874, 13.940968111499501 ], [ 76.055231757565281, 13.940971232231933 ], [ 76.055331918716107, 13.94097402108723 ], [ 76.055574191175495, 13.940980756623047 ], [ 76.055872343810194, 13.940991345905946 ], [ 76.056000617862296, 13.94099589844495 ], [ 76.056542264327462, 13.941002542148874 ], [ 76.056595082752764, 13.941003189874422 ], [ 76.05711351822498, 13.941014338555485 ], [ 76.057913969030096, 13.941043022047502 ], [ 76.058120422631205, 13.941050419669379 ], [ 76.058380590440748, 13.941062276624091 ], [ 76.059087046759245, 13.94109448115146 ], [ 76.060261734579527, 13.941128973597555 ], [ 76.061645626725905, 13.941169603498485 ], [ 76.062894743058408, 13.941206269202294 ], [ 76.063312726364771, 13.941226307925591 ], [ 76.063591170208909, 13.941240667795418 ], [ 76.06400036090514, 13.941259269210763 ], [ 76.065074529323425, 13.941310760870529 ], [ 76.065942668760002, 13.941352362615898 ], [ 76.065958936566261, 13.941353145729954 ], [ 76.065973437218631, 13.941398267398789 ], [ 76.065973735832316, 13.941399196374002 ], [ 76.06598506541026, 13.941434463154771 ], [ 76.066023556647437, 13.941554226042619 ], [ 76.066035001693976, 13.94158984128301 ], [ 76.066255423706949, 13.942275731919999 ], [ 76.066561526485486, 13.943228211681813 ], [ 76.066707216721127, 13.943754492815891 ], [ 76.066951633259194, 13.944637439244982 ], [ 76.067006194965117, 13.944834993066413 ], [ 76.06705702508161, 13.945018153345213 ], [ 76.067103112490614, 13.945186050288466 ], [ 76.067176384036173, 13.945468682152079 ], [ 76.067228999432416, 13.945671648010164 ], [ 76.067390996081258, 13.945887779205227 ], [ 76.067660975136334, 13.946247997336682 ], [ 76.067760616907862, 13.946380933147521 ], [ 76.067860992762348, 13.946514859253769 ], [ 76.068058240059358, 13.946778027369968 ], [ 76.068450555689296, 13.947301454264657 ], [ 76.068617798321739, 13.947524586908466 ], [ 76.068843134844101, 13.947825229101104 ], [ 76.068844375808936, 13.947993621769184 ], [ 76.068847670259231, 13.948440517567548 ], [ 76.068851659058453, 13.948681575825711 ], [ 76.068854840977465, 13.948873643708225 ], [ 76.068862118192015, 13.949312992033262 ], [ 76.068866636271622, 13.949585946019115 ], [ 76.068875375663936, 13.950113621219032 ], [ 76.068887548587369, 13.950848536032881 ], [ 76.06888776995784, 13.950862232524587 ], [ 76.068898274982388, 13.951496237644099 ], [ 76.068898488997178, 13.951509341101779 ], [ 76.068765616356558, 13.951632862084413 ], [ 76.068697479370613, 13.95213267628996 ], [ 76.068688522971883, 13.952248738601625 ], [ 76.068679774421099, 13.95236209594607 ], [ 76.068635429631328, 13.952934047502897 ], [ 76.068618721145398, 13.953153123903199 ], [ 76.068576332967382, 13.953702337784106 ], [ 76.068567578209269, 13.953815766567075 ], [ 76.068552923479487, 13.954005641732326 ], [ 76.068542854677304, 13.954136048264647 ], [ 76.068542714206089, 13.954137907635705 ], [ 76.068541901033143, 13.954148467954148 ], [ 76.068541554997537, 13.954152926505943 ], [ 76.068539645720307, 13.954177736059558 ], [ 76.068528463241506, 13.954322598029242 ], [ 76.068533866335315, 13.954517345673764 ], [ 76.068540563801093, 13.954781289145362 ], [ 76.068546379446374, 13.954968121703851 ], [ 76.068618477410709, 13.957565564173901 ], [ 76.068619712638679, 13.957642399577912 ], [ 76.068627816421682, 13.95804954939919 ], [ 76.068638522694229, 13.958603833949365 ], [ 76.068728414806671, 13.959211468179578 ], [ 76.068768921375224, 13.959485241972112 ], [ 76.06879833126672, 13.959821195329791 ], [ 76.068821456218799, 13.960085338566991 ], [ 76.068882457319773, 13.961180374902836 ], [ 76.068886751379367, 13.961257432789354 ], [ 76.068957581588649, 13.962528934917101 ], [ 76.069023367832216, 13.963709863834119 ], [ 76.069027414751091, 13.963790908794405 ], [ 76.069036105560471, 13.963965016501033 ], [ 76.06910838973694, 13.965412294061061 ], [ 76.069216955193454, 13.967586152045579 ], [ 76.069241417184145, 13.967583640524515 ], [ 76.069261668167755, 13.967581562492343 ], [ 76.069287508503095, 13.967669538803746 ], [ 76.069539339149358, 13.968526976751507 ], [ 76.069768444179402, 13.969307025351975 ], [ 76.070225211850541, 13.970951977598565 ], [ 76.070255149471208, 13.971059804248034 ], [ 76.070405002857484, 13.971692332550356 ], [ 76.070436147773762, 13.971823787815291 ], [ 76.07048504385024, 13.972030161280285 ], [ 76.071002514827725, 13.973907188143297 ], [ 76.071031972945065, 13.974014040349651 ], [ 76.071187589366119, 13.974513067667829 ], [ 76.071396995377341, 13.975727751820562 ], [ 76.071702196146958, 13.977498075319284 ], [ 76.071755900235473, 13.977809606389002 ], [ 76.071778321542013, 13.977939652406125 ], [ 76.071801834980207, 13.978076032871817 ], [ 76.071808151805442, 13.978112701721171 ], [ 76.071836370432678, 13.978276366757918 ], [ 76.071892314101007, 13.978600833113534 ], [ 76.072007981904619, 13.979271753874517 ], [ 76.0720116150801, 13.97929284493755 ], [ 76.072058445073608, 13.97965611392442 ], [ 76.072145792446619, 13.980333603666237 ], [ 76.072379947173957, 13.982149782421708 ], [ 76.072337900194441, 13.982136701945901 ], [ 76.072334003470559, 13.982135486017558 ], [ 76.071980728313079, 13.982075806753766 ], [ 76.069704746427718, 13.981691309651238 ], [ 76.069232348002288, 13.981610085642869 ], [ 76.068585915210264, 13.981502294171646 ], [ 76.067519218215082, 13.981322073073816 ], [ 76.066845568607661, 13.98120826064395 ], [ 76.065448102459229, 13.980972148567067 ], [ 76.065286213001116, 13.980944792237826 ], [ 76.063856786829803, 13.980703274508882 ], [ 76.061856251854408, 13.980389927685987 ], [ 76.059279011634871, 13.979986221235395 ], [ 76.05894756052345, 13.979936218358326 ], [ 76.058039882084131, 13.979799286327546 ], [ 76.055680330763295, 13.979443310481699 ], [ 76.053406349840614, 13.979097962414217 ], [ 76.053158068730212, 13.979060255737586 ], [ 76.051179672705402, 13.978753488993732 ], [ 76.051107338017147, 13.978985283649694 ], [ 76.050875563377474, 13.979728038499148 ], [ 76.050756304732104, 13.98011022138062 ], [ 76.050581715943594, 13.980669723915771 ], [ 76.050257651574029, 13.98170822420021 ], [ 76.050237637963363, 13.981772357514417 ], [ 76.050064729597423, 13.982326456130236 ], [ 76.050058097287632, 13.982347706858969 ], [ 76.050013229859289, 13.982491502741683 ], [ 76.049911175989209, 13.983183484949095 ], [ 76.04990942448714, 13.983195350252753 ], [ 76.049874241831844, 13.983433919059182 ], [ 76.049855333939931, 13.983426918369384 ], [ 76.049818045827138, 13.983413112693874 ], [ 76.049002489769279, 13.983111144844377 ], [ 76.047313903589639, 13.982485927094999 ], [ 76.047228092306298, 13.98259665122734 ], [ 76.047088364190245, 13.982776952494838 ], [ 76.046970305557991, 13.982929302337839 ], [ 76.046482154173319, 13.983559210778436 ], [ 76.044887362673506, 13.985617091692626 ], [ 76.044738277401834, 13.985809469733612 ], [ 76.04460783931728, 13.98597778345435 ], [ 76.043783636091035, 13.987041289049644 ], [ 76.043632245984838, 13.987236629104594 ], [ 76.043632929502408, 13.987240178246127 ], [ 76.04365095474482, 13.987333710582446 ], [ 76.044085023902397, 13.989585255444389 ], [ 76.044180684265314, 13.99008143430337 ], [ 76.044091572290853, 13.990097018695222 ], [ 76.04311090194993, 13.990268498312657 ], [ 76.043123937483045, 13.990397033184198 ], [ 76.043190392709135, 13.991052149201748 ], [ 76.043339823057295, 13.992525503106986 ], [ 76.043366305876901, 13.992747871073925 ], [ 76.043620925051826, 13.994886055826735 ], [ 76.043933935965541, 13.997089506952705 ], [ 76.04421159951761, 13.999166917706807 ], [ 76.044218884582378, 13.999224407559183 ], [ 76.044443534570277, 14.000997871692457 ], [ 76.044669760692344, 14.00272575167604 ], [ 76.044863490672228, 14.004368623413116 ], [ 76.044889561601792, 14.00458386403643 ], [ 76.045148661494494, 14.006722765417637 ], [ 76.045446082057509, 14.00898581134355 ], [ 76.045527739581075, 14.009798456042034 ], [ 76.045583930458534, 14.010357739563092 ], [ 76.045657772756911, 14.011092644682797 ], [ 76.045782961622479, 14.012175941002887 ], [ 76.045822375381277, 14.012516956876082 ], [ 76.045856499835466, 14.012727150242894 ], [ 76.045900422652181, 14.012997719056145 ], [ 76.04592517308501, 14.013150204811204 ], [ 76.04592819713406, 14.013168812781718 ], [ 76.04651346763832, 14.013025089846238 ], [ 76.04767890080592, 14.012738897810586 ], [ 76.047961080465157, 14.012669603380871 ], [ 76.048052450413522, 14.012644169247467 ], [ 76.048157896444948, 14.013723206590218 ], [ 76.048274466542736, 14.014915989247934 ], [ 76.048641256571756, 14.016718722005445 ], [ 76.048762672123019, 14.017315442679879 ], [ 76.04877176508208, 14.017378909276108 ], [ 76.048991445834289, 14.018912432649699 ], [ 76.04942031605259, 14.021906134881672 ], [ 76.049488432442914, 14.022381605717376 ], [ 76.049528995997122, 14.022664738933889 ], [ 76.049579906234513, 14.02292381807835 ], [ 76.04959998731492, 14.02302600680569 ], [ 76.049934415761328, 14.024727784684364 ], [ 76.050099573372336, 14.025568214018394 ], [ 76.050153629688012, 14.02580042496969 ], [ 76.050296782078107, 14.026415337870864 ], [ 76.0504500815223, 14.027075265967028 ], [ 76.050677562801553, 14.028050981917978 ], [ 76.051149668524744, 14.030078880557106 ], [ 76.051151601657878, 14.030146285374547 ], [ 76.051167849267827, 14.030712348546126 ], [ 76.051196096559849, 14.0317593269734 ], [ 76.051222811615588, 14.032627223578849 ], [ 76.051259380435425, 14.033932289821713 ], [ 76.051259556190175, 14.033944032823367 ], [ 76.051264056570758, 14.034245531500973 ], [ 76.051264425125424, 14.034271131126404 ], [ 76.051141246712916, 14.035801148284467 ], [ 76.051053433194454, 14.036841607742989 ], [ 76.051161862439486, 14.037851290076429 ], [ 76.050589755441337, 14.037897253403351 ], [ 76.048493163395932, 14.038065678526207 ], [ 76.048285551463749, 14.038082355046537 ], [ 76.048285885377865, 14.038401851073768 ], [ 76.04828686201553, 14.039320761173085 ], [ 76.04828843098457, 14.04079652308325 ], [ 76.048400179745471, 14.043209067371269 ], [ 76.048476075307406, 14.044847567638719 ], [ 76.048491308733205, 14.044949941745204 ], [ 76.048682542053427, 14.046235435114662 ], [ 76.048735497746733, 14.046591386766492 ], [ 76.048755197379748, 14.046733137751545 ], [ 76.048859022153181, 14.04748022611926 ], [ 76.04898554160313, 14.048390601498397 ], [ 76.049032247632553, 14.048605209271155 ], [ 76.049035437050406, 14.048619866541175 ], [ 76.049149825093252, 14.049364360167038 ], [ 76.04919261252239, 14.049642839636094 ], [ 76.04921070135704, 14.0497605702664 ], [ 76.049224613905835, 14.049851719726894 ], [ 76.049277941272607, 14.050201390728853 ], [ 76.049325446513436, 14.050512812634596 ], [ 76.0495362112176, 14.05190421419595 ], [ 76.049536840433305, 14.051908369240811 ], [ 76.049577545296174, 14.052293737478221 ], [ 76.049610156342496, 14.052602474652577 ], [ 76.049635488584613, 14.052842335889308 ], [ 76.049665260961234, 14.053134313221358 ], [ 76.049699028702847, 14.053465539264858 ], [ 76.049699355587009, 14.053471426898257 ], [ 76.049706780784277, 14.05360509893619 ], [ 76.049722421290994, 14.053899492693018 ], [ 76.049736703552071, 14.054168341769687 ], [ 76.049739416346767, 14.054219403099056 ], [ 76.049766281651856, 14.054676437444597 ], [ 76.049780997225767, 14.05494136912554 ], [ 76.049926379449033, 14.055067800541833 ], [ 76.050495849869719, 14.0555630588924 ], [ 76.050900905699137, 14.055915331335648 ], [ 76.051428579218154, 14.056908695543395 ], [ 76.051479231822356, 14.057563285051907 ], [ 76.051585877859836, 14.058941525286905 ], [ 76.051588931777843, 14.058980980545281 ], [ 76.051724171625224, 14.060568436505799 ], [ 76.052205399079327, 14.06084208448841 ], [ 76.053015181261983, 14.061302553491887 ], [ 76.053601414473192, 14.061635907638673 ], [ 76.053873652694548, 14.061673082847637 ], [ 76.053945689169325, 14.061682921121013 ], [ 76.053989416270994, 14.061694592480354 ], [ 76.054048260253126, 14.061710292348964 ], [ 76.054033215221267, 14.061826713141899 ], [ 76.054047797329702, 14.061947948946075 ], [ 76.054023505694516, 14.062080086475836 ], [ 76.054000049124852, 14.062646570189992 ], [ 76.053989790049258, 14.062894203324865 ], [ 76.053963353285127, 14.063532495873325 ], [ 76.053955819794908, 14.063714409177299 ], [ 76.053945455829663, 14.063803851389904 ], [ 76.053946135934595, 14.063935573454158 ], [ 76.053942464420629, 14.064415167523109 ], [ 76.054000252646716, 14.065107899187844 ], [ 76.054007694457368, 14.065197150672669 ], [ 76.054094801213736, 14.066241332849511 ], [ 76.054160507560539, 14.067028913436989 ], [ 76.054161130795734, 14.067036380954359 ], [ 76.054331668786091, 14.067728881288772 ], [ 76.054452061384893, 14.068217749639498 ], [ 76.054597714827707, 14.068809195938828 ], [ 76.054674446948653, 14.06912077633022 ], [ 76.054951659006448, 14.070246416167862 ], [ 76.05495245833049, 14.070249660052649 ], [ 76.055191761426144, 14.071223880650367 ], [ 76.055531456524804, 14.072600698150854 ], [ 76.055678684631062, 14.072629891798876 ], [ 76.055627135223915, 14.07273048668503 ], [ 76.055617065406992, 14.072750123471591 ], [ 76.055290868271712, 14.073386569331518 ], [ 76.054833342328337, 14.074279245656003 ], [ 76.054687325889034, 14.074564132348979 ], [ 76.054669841654089, 14.074598240218675 ], [ 76.054372497261994, 14.075178367253391 ], [ 76.054376452080973, 14.075308867049364 ], [ 76.054379803158369, 14.075419596824803 ], [ 76.054090746359179, 14.077377092330739 ], [ 76.054085440177104, 14.077413024699151 ], [ 76.053896390481114, 14.078667396681409 ], [ 76.053890511975396, 14.078706381837657 ], [ 76.053727997058715, 14.080232139966528 ], [ 76.053571640137974, 14.081699959806169 ], [ 76.053561250116488, 14.081797554844938 ], [ 76.053659407578991, 14.082273186735238 ], [ 76.053681582479683, 14.082380639309147 ], [ 76.054028334259073, 14.0840608435054 ], [ 76.054341336975412, 14.08557751097514 ], [ 76.054368565111886, 14.08565872727373 ], [ 76.054382015412443, 14.085698866479353 ], [ 76.05440694337544, 14.085960425162405 ], [ 76.054412457738337, 14.086018284232527 ], [ 76.054407080626845, 14.086027671065224 ], [ 76.054358489768234, 14.086112451754792 ], [ 76.054325390860953, 14.086170221083393 ], [ 76.054361574451121, 14.086486330194505 ], [ 76.054425490675584, 14.087044767220435 ], [ 76.054462261180248, 14.087365977113375 ], [ 76.054466737533417, 14.087405114068796 ], [ 76.054485620767892, 14.087550501544516 ], [ 76.054573531199381, 14.088190385802507 ], [ 76.054574286473766, 14.088195921657846 ], [ 76.05464183556569, 14.088687549948839 ], [ 76.054680644143502, 14.088816834853455 ], [ 76.054850937919426, 14.089240478705035 ], [ 76.054583530016032, 14.089126995033601 ], [ 76.054481248408536, 14.08949025497936 ], [ 76.054501706984837, 14.089721493833244 ], [ 76.054286927446654, 14.089972796379119 ], [ 76.05360404873322, 14.09077180852629 ], [ 76.05269599528971, 14.092317937245758 ], [ 76.052573515170579, 14.09352616798847 ], [ 76.052270867304429, 14.094012065063477 ], [ 76.051823229326303, 14.094385367722753 ], [ 76.05148535183163, 14.094305744367487 ], [ 76.050730687917266, 14.09412788932878 ], [ 76.050201941809846, 14.094348231677676 ], [ 76.049491489668497, 14.094936728181763 ], [ 76.04769391518802, 14.097212420905478 ], [ 76.047234138965663, 14.097215650697981 ], [ 76.046665252069118, 14.096937066662878 ], [ 76.044673676234936, 14.095961732086497 ], [ 76.044171934414962, 14.095589395348957 ], [ 76.043803934245972, 14.095459417130304 ], [ 76.042380191621262, 14.09495649661697 ], [ 76.04119719083414, 14.094538615652091 ], [ 76.039693468085289, 14.093378007051415 ], [ 76.037612462279071, 14.091058038980808 ], [ 76.036946881197693, 14.090584991165057 ], [ 76.036443525051368, 14.090555933852459 ], [ 76.036339284487539, 14.090549916110703 ], [ 76.035501905291028, 14.090501586676911 ], [ 76.034731212083798, 14.09045710419638 ], [ 76.034019164341785, 14.09084670907043 ], [ 76.033721046434465, 14.091974753821258 ], [ 76.033781027513641, 14.093332267847964 ], [ 76.033600103649817, 14.09356600155378 ], [ 76.032738732702839, 14.09467878374789 ], [ 76.032722578419111, 14.095575741518454 ], [ 76.032896363290988, 14.095788606803701 ], [ 76.033251356700617, 14.095811267889369 ], [ 76.034149832769586, 14.095868649975772 ], [ 76.034156912465008, 14.095898743842531 ], [ 76.034441518218827, 14.097108857596949 ], [ 76.034925565810425, 14.09988101043124 ], [ 76.033775730382473, 14.099941160342631 ], [ 76.032465593733789, 14.100009690758963 ], [ 76.031848983094946, 14.100041938454662 ], [ 76.031571022713706, 14.100056481680946 ], [ 76.029305273056266, 14.100174973825787 ], [ 76.028289693090116, 14.100222777652203 ], [ 76.027410312028678, 14.10026416617537 ], [ 76.025558262176403, 14.100351323095571 ], [ 76.025467059777455, 14.100355617745375 ], [ 76.025495845737652, 14.100508004446871 ], [ 76.025541153497727, 14.100747811578634 ], [ 76.025583278078557, 14.100998056999583 ], [ 76.025610634908602, 14.101160585210552 ], [ 76.02567401394009, 14.101538256477978 ], [ 76.0257833383031, 14.102184406197496 ], [ 76.025818570485782, 14.102327604486316 ], [ 76.025820168630005, 14.102334096089569 ], [ 76.025841712753461, 14.10242167319474 ], [ 76.026011168744617, 14.103110427373062 ], [ 76.026261153378854, 14.104126503333029 ], [ 76.026342447060088, 14.104456906690471 ], [ 76.026326969862836, 14.104563607797923 ], [ 76.02628676180197, 14.104840803975302 ], [ 76.025841284818412, 14.107912186088079 ], [ 76.025425012718415, 14.110782119925107 ], [ 76.025417547840647, 14.110833573011687 ], [ 76.025307918741333, 14.111939527182416 ], [ 76.02518269979997, 14.113202743403312 ], [ 76.025436131084504, 14.113427648078691 ], [ 76.024538448969139, 14.113594313674781 ], [ 76.023396220930479, 14.113804908137936 ], [ 76.022539356547824, 14.113971059325428 ], [ 76.022259633635784, 14.114022560308129 ], [ 76.022255326785825, 14.114079416168613 ], [ 76.022508155948529, 14.114893760584128 ], [ 76.022509885164411, 14.114938568566235 ], [ 76.022224844388276, 14.115730217278902 ], [ 76.022042673882069, 14.115893487248005 ], [ 76.021568016027956, 14.116209872318313 ], [ 76.021467098209484, 14.116257417710299 ], [ 76.02100547731348, 14.116371069817689 ], [ 76.020671317393763, 14.116438199893095 ], [ 76.020616206819298, 14.116435157266803 ], [ 76.020540662733026, 14.116411252303484 ], [ 76.020490215295695, 14.116395289788857 ], [ 76.019634293646803, 14.116148023272713 ], [ 76.018983722453157, 14.115959582391982 ], [ 76.018828067819726, 14.115998855706042 ], [ 76.018813879200124, 14.116002434382937 ], [ 76.018811367005895, 14.116003069725089 ], [ 76.018521138993975, 14.116090317953542 ], [ 76.018507578424504, 14.116152070494781 ], [ 76.018391231403143, 14.116681876198571 ], [ 76.018222644257264, 14.117447087975012 ], [ 76.018083807707384, 14.118016235044037 ], [ 76.017950347205087, 14.1180265915159 ], [ 76.01679338659568, 14.118116366909717 ], [ 76.01672790489242, 14.11812309044849 ], [ 76.016146427289314, 14.11773844208847 ], [ 76.015934976861971, 14.117588776351145 ], [ 76.015254594115703, 14.117429646286597 ], [ 76.014904056270709, 14.11736725255871 ], [ 76.014255741818658, 14.117692314723309 ], [ 76.014131644965076, 14.117756325667822 ], [ 76.013464562952677, 14.118100416836759 ], [ 76.013464273473716, 14.11810052292741 ], [ 76.013578967201227, 14.11827090555043 ], [ 76.013990431561439, 14.118882155600181 ], [ 76.013779660678324, 14.119278783726145 ], [ 76.013741691320064, 14.119350232845182 ], [ 76.013619353935368, 14.11958044315031 ], [ 76.013464555632581, 14.119816902506777 ], [ 76.013457135614274, 14.119843952653241 ], [ 76.013458816280448, 14.119896592009962 ], [ 76.012558530656847, 14.119777494210632 ], [ 76.012343009388559, 14.119836582145684 ], [ 76.011633057645184, 14.11987677650991 ], [ 76.011631620969197, 14.11973282906211 ], [ 76.011190091233217, 14.119777685850169 ], [ 76.010918063927676, 14.119780591739717 ], [ 76.010586815036618, 14.119864092197666 ], [ 76.01035717474393, 14.119922414081373 ], [ 76.010039907964739, 14.120002991924689 ], [ 76.009842223738787, 14.120105611336557 ], [ 76.009692784968081, 14.120418459512605 ], [ 76.008879194776995, 14.120506672613054 ], [ 76.007413110227901, 14.12024726903849 ], [ 76.006249428551513, 14.119562653180806 ], [ 76.004860225421723, 14.118991052986429 ], [ 76.003932830237062, 14.11860946086783 ], [ 76.003120477725204, 14.117937329723715 ], [ 76.002469034517389, 14.116952370460915 ], [ 76.001175654683593, 14.11619003992455 ], [ 76.000623237493556, 14.115926148554902 ], [ 76.000174894224344, 14.115601883628562 ], [ 76.000172564479797, 14.115667923788385 ], [ 76.000187683904514, 14.115759565188412 ], [ 76.000210448763639, 14.115897559876368 ], [ 76.000229947168847, 14.116015765409275 ], [ 76.00048321493226, 14.116295323077226 ], [ 76.000679950883395, 14.116780056098134 ], [ 76.000870150897299, 14.117719341066374 ], [ 76.000909433222432, 14.118677457779491 ], [ 76.00092515970978, 14.118997925324352 ], [ 76.000604569343594, 14.119264025867441 ], [ 76.000431242730855, 14.119407890394754 ], [ 76.000114188210787, 14.119671054600706 ], [ 75.999396213362118, 14.120256247868845 ], [ 75.999384712668771, 14.120265621103586 ], [ 75.999340516369074, 14.120301643751937 ], [ 75.998213332327396, 14.120307834016133 ], [ 75.997805359652475, 14.120314013907274 ], [ 75.997775330732935, 14.120429578109203 ], [ 75.997753308001421, 14.120409304367003 ], [ 75.997523928406579, 14.120443446477754 ], [ 75.997445371976866, 14.120471600280943 ], [ 75.997366853951661, 14.120528592804275 ], [ 75.997320998406281, 14.120542537378032 ], [ 75.997016367819356, 14.120635184035301 ], [ 75.997012348456366, 14.120842190064254 ], [ 75.99695566080149, 14.120847613400022 ], [ 75.996896232231478, 14.120781104051174 ], [ 75.996734654193958, 14.120837915227137 ], [ 75.996717516885496, 14.120870400718582 ], [ 75.996679187731729, 14.120874069085286 ], [ 75.996649639392274, 14.121126696240268 ], [ 75.996478436617465, 14.121354065461139 ], [ 75.996501673259203, 14.121248094566429 ], [ 75.996468535788338, 14.12113424944897 ], [ 75.996287217508581, 14.12097288526919 ], [ 75.996066514599619, 14.120984283500501 ], [ 75.996053537189894, 14.120814854928451 ], [ 75.994464727464901, 14.120815639718556 ], [ 75.994423385737278, 14.120676487980933 ], [ 75.994401506257375, 14.120675293719104 ], [ 75.994209770494678, 14.120664813173716 ], [ 75.994224216653464, 14.120975807792664 ], [ 75.994272144525397, 14.12129339394315 ], [ 75.994250929196141, 14.121563581534932 ], [ 75.994161778091964, 14.121735049666324 ], [ 75.993669856194316, 14.122006514514633 ], [ 75.993120284004959, 14.121794488246158 ], [ 75.992599890325963, 14.121593718008493 ], [ 75.992160143957491, 14.121424059423788 ], [ 75.991324168676243, 14.121101530738034 ], [ 75.990611705570842, 14.120725660249954 ], [ 75.990256864138047, 14.120200203887908 ], [ 75.990125863511011, 14.11981455637217 ], [ 75.990170681851396, 14.119257884593319 ], [ 75.990390868101088, 14.118795710611673 ], [ 75.990409325984373, 14.118256128442104 ], [ 75.99010277038262, 14.117887331831525 ], [ 75.989585179176402, 14.117758023169561 ], [ 75.988918245842598, 14.117714128962481 ], [ 75.988312473348017, 14.117833070832278 ], [ 75.9879531193899, 14.117549838737181 ], [ 75.987630064433517, 14.117080798710122 ], [ 75.987160437703693, 14.116614090654602 ], [ 75.98673265174628, 14.116318755895074 ], [ 75.986360734914641, 14.116201666960499 ], [ 75.985869376473616, 14.116132352380811 ], [ 75.985391700195379, 14.116275475756854 ], [ 75.984894464862521, 14.11653625017585 ], [ 75.984379033511189, 14.117233145834305 ], [ 75.983801969440847, 14.118013362309359 ], [ 75.983488236318806, 14.11820908082694 ], [ 75.983320564399989, 14.118281870308493 ], [ 75.983056373026486, 14.118396557241324 ], [ 75.982752929702471, 14.118472806610114 ], [ 75.982382309057158, 14.118417385816818 ], [ 75.981860190573187, 14.118268525532667 ], [ 75.981600830475571, 14.11816066714524 ], [ 75.981309999788095, 14.118114136219306 ], [ 75.981055327538186, 14.118073390970661 ], [ 75.980939171607076, 14.118179311048006 ], [ 75.98075914949635, 14.118343469584941 ], [ 75.98056008381937, 14.118752515113973 ], [ 75.980465500468583, 14.119006130546099 ], [ 75.980340245656024, 14.119341984273115 ], [ 75.980234568002004, 14.119625344544914 ], [ 75.980116066168648, 14.119943091914369 ], [ 75.97990207514178, 14.120260683863082 ], [ 75.979134580451202, 14.121101312950202 ], [ 75.979096583118988, 14.121213554612417 ], [ 75.978965114242769, 14.121395733303011 ], [ 75.978820975105322, 14.121595470861909 ], [ 75.97872716048748, 14.121795292944931 ], [ 75.978554140419845, 14.122065150269265 ], [ 75.978489075097414, 14.122272034595262 ], [ 75.978506660627986, 14.122496594633541 ], [ 75.978610287777641, 14.122858124435224 ], [ 75.978835121957019, 14.123134410484475 ], [ 75.979052259515711, 14.123453437843283 ], [ 75.979355417108948, 14.123898846888155 ], [ 75.979675732891081, 14.124369462571366 ], [ 75.97974785388746, 14.124868160285702 ], [ 75.979352981952289, 14.125309112550619 ], [ 75.978579280298192, 14.125350574127701 ], [ 75.978000244780404, 14.125227023220845 ], [ 75.977179230293601, 14.124636003637969 ], [ 75.976526129164128, 14.124165855786451 ], [ 75.976053178685859, 14.123703701266688 ], [ 75.975634318726236, 14.123294404534699 ], [ 75.975504300732268, 14.122702250490141 ], [ 75.975675632452763, 14.122075353193207 ], [ 75.975940348310047, 14.121589832273859 ], [ 75.975633596386643, 14.121165203034009 ], [ 75.974242314788256, 14.120564606695281 ], [ 75.973141958582701, 14.119974626374292 ], [ 75.972187607145827, 14.119080674787329 ], [ 75.970963184452998, 14.11814570587139 ], [ 75.970587025837062, 14.11785846682046 ], [ 75.969571827275331, 14.117605922445115 ], [ 75.969041936708578, 14.117594890543332 ], [ 75.968770792025552, 14.117584179423726 ], [ 75.968649060917699, 14.117706304730964 ], [ 75.967729181756724, 14.117709878770059 ], [ 75.966719578187238, 14.117918497216532 ], [ 75.965810293476139, 14.117875914392387 ], [ 75.965148397859153, 14.117643939108628 ], [ 75.964806731907771, 14.117643357138373 ], [ 75.964223033300811, 14.117775741594061 ], [ 75.96365498368985, 14.117974839886616 ], [ 75.962859890457409, 14.118737844351864 ], [ 75.961997254554831, 14.119059553145339 ], [ 75.961129759492252, 14.119160661665695 ], [ 75.960788480031397, 14.118944616309898 ], [ 75.96005212890536, 14.118478467724598 ], [ 75.959480997794429, 14.118188256207002 ], [ 75.958734839076641, 14.11804845959696 ], [ 75.958298567014126, 14.118042574902754 ], [ 75.957794516135266, 14.118404399411425 ] ] ] } }
]
}
