{
"type": "FeatureCollection",
"name": "police_station_boundary.writing_20260805_172659",
"crs": { "type": "name", "properties": { "name": "urn:ogc:def:crs:OGC:1.3:CRS84" } },
"features": [
{ "type": "Feature", "properties": { "Shape.STArea()": 8003079.1431299346, "Shape.STLength()": 13177.44216285985, "OBJECTID": 389, "KGISPS_BOUNDID": 489, "PS_BOUNDName": "Gadag Town PS", "PS_BOUNDCode": "PSB - 489", "KGISPS_SUB_DIVID": 50, "_source_layer": "Police Station Boundary", "_source_layer_url": "https://kgis.ksrsac.in/kgismaps/rest/services/Home/Home_Department/MapServer/82", "_police_station": "Gadag Town PS" }, "geometry": { "type": "Polygon", "coordinates": [ [ [ 75.634178802611743, 15.439053939436116 ], [ 75.634169797486209, 15.439080122660132 ], [ 75.633719708863126, 15.440861986308613 ], [ 75.633584604991682, 15.441278479039143 ], [ 75.633529846648287, 15.441533359436239 ], [ 75.633513731602093, 15.441608367518056 ], [ 75.633474660124463, 15.441730427706471 ], [ 75.631397345737426, 15.441506817474663 ], [ 75.629320261182357, 15.441272254418127 ], [ 75.629370026417106, 15.440800820759184 ], [ 75.625678931059909, 15.44064955324909 ], [ 75.622149373860296, 15.438414446412825 ], [ 75.620274166136483, 15.438196331918441 ], [ 75.615780116836149, 15.438569672099701 ], [ 75.61586326657401, 15.435930099753859 ], [ 75.615907113701098, 15.434479900687768 ], [ 75.615966880309443, 15.432503186944922 ], [ 75.614225627883116, 15.431765839596748 ], [ 75.612067036907533, 15.430017206920667 ], [ 75.611111134687178, 15.429386361381148 ], [ 75.610819496435482, 15.42919389382134 ], [ 75.610783231054299, 15.428941426297357 ], [ 75.610737462129222, 15.428675255184677 ], [ 75.61070222777299, 15.428552865887402 ], [ 75.611013293682859, 15.428072706673884 ], [ 75.611708441174144, 15.427320144935591 ], [ 75.61194130623069, 15.426840808353086 ], [ 75.612172487268637, 15.426344999078006 ], [ 75.612307709750084, 15.426057633846195 ], [ 75.612464371410596, 15.425759776737637 ], [ 75.613592990566829, 15.424286106045347 ], [ 75.613749021860883, 15.424096436775946 ], [ 75.61406608235437, 15.423784196715919 ], [ 75.615010034327469, 15.423023529406359 ], [ 75.615922417206264, 15.420488756071157 ], [ 75.616065959571756, 15.42006782568353 ], [ 75.616944325746516, 15.418608581674288 ], [ 75.616493934433066, 15.417014030579471 ], [ 75.617227892733581, 15.415768196202055 ], [ 75.617766969321494, 15.415404091349323 ], [ 75.619049542695194, 15.413317197479655 ], [ 75.619367421142471, 15.412628424592809 ], [ 75.619517730141766, 15.411836439074648 ], [ 75.619648411400703, 15.410955623444128 ], [ 75.619849447184961, 15.410004097867473 ], [ 75.619822902547199, 15.409093077895662 ], [ 75.619709232822785, 15.408546624307309 ], [ 75.619867374396748, 15.408023145782558 ], [ 75.62017796495762, 15.407723051624895 ], [ 75.620338157964127, 15.407568271612503 ], [ 75.620590843684809, 15.407016121874332 ], [ 75.620781776044737, 15.406771004999076 ], [ 75.621142205950562, 15.406343019886521 ], [ 75.621587607629294, 15.405633858563993 ], [ 75.622559777828656, 15.404764878626349 ], [ 75.622586285561695, 15.404652108051426 ], [ 75.622601684108815, 15.404360808992982 ], [ 75.622584155360997, 15.404112191658468 ], [ 75.622344356851926, 15.403678577282387 ], [ 75.622148307131084, 15.403584482441268 ], [ 75.621782543519274, 15.403298471478278 ], [ 75.621604167292205, 15.403011935188555 ], [ 75.621662574325413, 15.402753440271788 ], [ 75.62180985640255, 15.402532968644785 ], [ 75.621907997516928, 15.402370041199267 ], [ 75.622341146704144, 15.40210093020759 ], [ 75.622567440609657, 15.401918508778792 ], [ 75.622694683011076, 15.401592846561297 ], [ 75.622920920035497, 15.401391288140131 ], [ 75.622920187747013, 15.401145255393573 ], [ 75.623113864238732, 15.401188784044761 ], [ 75.623287370373603, 15.401191677116788 ], [ 75.624086604771549, 15.401204997755217 ], [ 75.6250844629635, 15.401152177017632 ], [ 75.625198071358923, 15.401113216083798 ], [ 75.625150323340108, 15.40183936374282 ], [ 75.625460738172919, 15.404001887018037 ], [ 75.628396625651305, 15.404159291828167 ], [ 75.628409242452264, 15.405859608022366 ], [ 75.63424730746442, 15.406590550999116 ], [ 75.63405311608885, 15.408272873159694 ], [ 75.634853654639087, 15.408412455022933 ], [ 75.635888897664913, 15.408408792525861 ], [ 75.637983200717969, 15.408370567739606 ], [ 75.636717725862468, 15.409882881041696 ], [ 75.636221861405033, 15.410621027225853 ], [ 75.635951237631971, 15.411023875222996 ], [ 75.634587650789456, 15.413059894446658 ], [ 75.635045480537826, 15.416499268426305 ], [ 75.635974443220434, 15.422920932925027 ], [ 75.636248203371522, 15.424878337951618 ], [ 75.636437110446195, 15.42534968228151 ], [ 75.635981027070628, 15.428108520322061 ], [ 75.635697298896588, 15.430080865804436 ], [ 75.635571402757961, 15.431306741374332 ], [ 75.635334232616003, 15.434404987947604 ], [ 75.635155767027882, 15.436120763497671 ], [ 75.635137812584873, 15.436169261474753 ], [ 75.635133962305986, 15.43617966443213 ], [ 75.635123118643079, 15.436208956523638 ], [ 75.635053233904586, 15.436398996748196 ], [ 75.63504133237798, 15.43643135927031 ], [ 75.634695292745761, 15.437517334450535 ], [ 75.634521789491572, 15.438090428657048 ], [ 75.634178802611743, 15.439053939436116 ] ] ] } }
]
}
