{
"type": "FeatureCollection",
"name": "wards_in_police_area.writing_20260805_172659",
"crs": { "type": "name", "properties": { "name": "urn:ogc:def:crs:OGC:1.3:CRS84" } },
"features": [
{ "type": "Feature", "properties": { "KGISWardID": 5226, "KGISWardCode": "2003175", "KGISWardName": "Bommanahalli", "SHAPE.STArea()": 1864309.0542754701, "SHAPE.STLength()": 11072.391139850615, "OBJECTID": 19018, "KGISWardNo": "175", "KGISTownCode": "2003", "LGD_WardCode": 1302847, "created_user": "SA", "created_date": 1634898537000, "last_edited_user": "SURESHBV1", "last_edited_date": 1692254014000, "_overlap_percent": 0.0636998265204613, "_police_station": "Madiwala PS", "_police_feature_index": "785", "_admin_layer": "Ward", "_geometry_clipped": true }, "geometry": { "type": "Polygon", "coordinates": [ [ [ 77.622084000212524, 12.917109000112447 ], [ 77.622726999781889, 12.917347000156283 ], [ 77.622828785584645, 12.917207940642212 ], [ 77.622668650744217, 12.917158064272991 ], [ 77.622483801743542, 12.917100489488011 ], [ 77.622217636022114, 12.917010955677586 ], [ 77.622084000212524, 12.917109000112447 ] ] ] } },
{ "type": "Feature", "properties": { "KGISWardID": 5227, "KGISWardCode": "2003176", "KGISWardName": "B T M Layout", "SHAPE.STArea()": 2136331.6006970401, "SHAPE.STLength()": 7839.218720878358, "OBJECTID": 19019, "KGISWardNo": "176", "KGISTownCode": "2003", "LGD_WardCode": 1302848, "created_user": "SA", "created_date": 1634898537000, "last_edited_user": "SURESHBV1", "last_edited_date": 1692254014000, "_overlap_percent": 0.42667662751243529, "_police_station": "Madiwala PS", "_police_feature_index": "785", "_admin_layer": "Ward", "_geometry_clipped": true }, "geometry": { "type": "Polygon", "coordinates": [ [ [ 77.612381999789491, 12.916428999946101 ], [ 77.614237999959357, 12.916385999929338 ], [ 77.614448999788863, 12.916381000047018 ], [ 77.614755999865082, 12.916372999675065 ], [ 77.615200999816679, 12.916352999829819 ], [ 77.615247999706995, 12.916348000242746 ], [ 77.615687000340401, 12.916299000137743 ], [ 77.616341000221297, 12.916243000146741 ], [ 77.61662700007588, 12.916237000413483 ], [ 77.616941000059086, 12.916229999727786 ], [ 77.617120000134548, 12.916228999857358 ], [ 77.617232000258653, 12.916229000258928 ], [ 77.618177999581889, 12.916224999665712 ], [ 77.618641999549453, 12.91622100007476 ], [ 77.618709000272105, 12.916222999574469 ], [ 77.618999000066026, 12.916232000008664 ], [ 77.619389999789121, 12.916276000063089 ], [ 77.619939000122486, 12.916406000026404 ], [ 77.620167999941501, 12.916479999759904 ], [ 77.621678000407954, 12.916961999852477 ], [ 77.622084000212524, 12.917109000112447 ], [ 77.622217636022114, 12.917010955677586 ], [ 77.621129694535895, 12.916644989894097 ], [ 77.620155242177233, 12.916376896584145 ], [ 77.619547542374249, 12.916227623338671 ], [ 77.619096135983469, 12.916169406063744 ], [ 77.617999368351605, 12.916147537952238 ], [ 77.616774620859687, 12.916120971579726 ], [ 77.615177280458411, 12.916292343888847 ], [ 77.614245750840013, 12.916343502925447 ], [ 77.613046109740267, 12.91638837715224 ], [ 77.61237586920781, 12.916403880991675 ], [ 77.612380865513416, 12.916429026323149 ], [ 77.612381999789491, 12.916428999946101 ] ] ] } },
{ "type": "Feature", "properties": { "KGISWardID": 5219, "KGISWardCode": "2003172", "KGISWardName": "Madivala", "SHAPE.STArea()": 1167334.426781815, "SHAPE.STLength()": 4982.615305063433, "OBJECTID": 19015, "KGISWardNo": "172", "KGISTownCode": "2003", "LGD_WardCode": 1302844, "created_user": "SA", "created_date": 1634898537000, "last_edited_user": "SURESHBV1", "last_edited_date": 1692254014000, "_overlap_percent": 71.659481795082357, "_police_station": "Madiwala PS", "_police_feature_index": "785", "_admin_layer": "Ward", "_geometry_clipped": true }, "geometry": { "type": "Polygon", "coordinates": [ [ [ 77.608945000099666, 12.924966000368544 ], [ 77.609012999588018, 12.924965999911963 ], [ 77.609292999688108, 12.924970999675391 ], [ 77.609965999843524, 12.924893000029995 ], [ 77.610263999669655, 12.924854999917338 ], [ 77.610435999963613, 12.924781999962438 ], [ 77.610895000071423, 12.924551000431361 ], [ 77.611289999870209, 12.924353999650757 ], [ 77.611648999588454, 12.924242999816995 ], [ 77.612082000071283, 12.924110999563823 ], [ 77.612410000459136, 12.924081000326312 ], [ 77.612638999940259, 12.924028999633093 ], [ 77.612935999781556, 12.923942000428633 ], [ 77.613400000104662, 12.92378099956689 ], [ 77.613595999979211, 12.923561999843468 ], [ 77.613733000166476, 12.923476999625471 ], [ 77.613923000305888, 12.923388000290545 ], [ 77.614145999741865, 12.923371000278829 ], [ 77.614590999720107, 12.923431000144022 ], [ 77.614635999765767, 12.923443000317556 ], [ 77.614684000168694, 12.923716000348419 ], [ 77.614904000172743, 12.923666999702855 ], [ 77.615018000090728, 12.92360999967099 ], [ 77.615327000082701, 12.923455999993021 ], [ 77.615485000369034, 12.923377999655568 ], [ 77.615599000281136, 12.923322000409069 ], [ 77.615816999839581, 12.923201000032137 ], [ 77.615827000095265, 12.923229999972092 ], [ 77.616129000451991, 12.924141999618874 ], [ 77.616147999955643, 12.92423499995726 ], [ 77.616191000272778, 12.924460000039614 ], [ 77.61622100022349, 12.924625999588217 ], [ 77.616233999765669, 12.924637000339688 ], [ 77.616401000290367, 12.924736999986031 ], [ 77.616545000190669, 12.924823000306953 ], [ 77.616590000077949, 12.924754000101272 ], [ 77.616750000432106, 12.924490000284196 ], [ 77.616882000243763, 12.924268000351878 ], [ 77.616897999799761, 12.92424200022414 ], [ 77.617031999903304, 12.924014000448647 ], [ 77.617035999639569, 12.924007000372958 ], [ 77.617176999643448, 12.923786999741056 ], [ 77.61750700002176, 12.923995999843523 ], [ 77.617659000033782, 12.924092999792757 ], [ 77.617934999894715, 12.924265000053955 ], [ 77.618187000093329, 12.924416999568175 ], [ 77.618438000024852, 12.924030999595661 ], [ 77.618494999824819, 12.923942999979353 ], [ 77.618754000426122, 12.923541000402484 ], [ 77.618783999805089, 12.923492999638077 ], [ 77.618864999539852, 12.92336699976433 ], [ 77.618940999921634, 12.923250000240525 ], [ 77.61903799969312, 12.923098000132009 ], [ 77.619206999875331, 12.922833000283566 ], [ 77.619616000208666, 12.92218400024591 ], [ 77.619997000255353, 12.921552999766533 ], [ 77.6201419998131, 12.921308000173639 ], [ 77.620214000432824, 12.921192000065865 ], [ 77.620760999869162, 12.920155999816172 ], [ 77.620863000213276, 12.919972999844354 ], [ 77.621256000303489, 12.919410999711975 ], [ 77.622132000134513, 12.918276999968684 ], [ 77.622647000050748, 12.917461000349013 ], [ 77.622726999781889, 12.917347000156283 ], [ 77.622084000212524, 12.917109000112447 ], [ 77.621678000407954, 12.916961999852477 ], [ 77.620167999941501, 12.916479999759904 ], [ 77.619939000122486, 12.916406000026404 ], [ 77.619389999789121, 12.916276000063089 ], [ 77.618999000066026, 12.916232000008664 ], [ 77.618709000272105, 12.916222999574469 ], [ 77.618641999549453, 12.91622100007476 ], [ 77.618177999581889, 12.916224999665712 ], [ 77.617232000258653, 12.916229000258928 ], [ 77.617120000134548, 12.916228999857358 ], [ 77.616941000059086, 12.916229999727786 ], [ 77.61662700007588, 12.916237000413483 ], [ 77.616341000221297, 12.916243000146741 ], [ 77.615687000340401, 12.916299000137743 ], [ 77.615247999706995, 12.916348000242746 ], [ 77.615200999816679, 12.916352999829819 ], [ 77.614755999865082, 12.916372999675065 ], [ 77.614448999788863, 12.916381000047018 ], [ 77.614237999959357, 12.916385999929338 ], [ 77.612381999789491, 12.916428999946101 ], [ 77.612380865513416, 12.916429026323149 ], [ 77.612388042408739, 12.916465146093707 ], [ 77.612397604286699, 12.916513268079562 ], [ 77.612412256683669, 12.916587012692572 ], [ 77.612443575156547, 12.916744635367136 ], [ 77.612627692990429, 12.917765849672682 ], [ 77.612631551140709, 12.917785523815189 ], [ 77.612771793624617, 12.91850062547705 ], [ 77.61282692759869, 12.918788579046211 ], [ 77.61287731794954, 12.919051760243542 ], [ 77.612901114408132, 12.919269745401733 ], [ 77.612921731756288, 12.919458607924669 ], [ 77.612933021334413, 12.919562028385378 ], [ 77.612917550390605, 12.919668798272919 ], [ 77.612908818962694, 12.919729054701504 ], [ 77.612383064050206, 12.919919443718602 ], [ 77.612225560889058, 12.919987530929772 ], [ 77.612115157420391, 12.920035256954238 ], [ 77.612116534165096, 12.920059952780647 ], [ 77.612123751189571, 12.920189443585915 ], [ 77.612107908133353, 12.920296686092135 ], [ 77.612099633397492, 12.920352698182809 ], [ 77.612095958519291, 12.920377574650196 ], [ 77.612071509512035, 12.920543077576864 ], [ 77.611964914632026, 12.920697665161857 ], [ 77.611878699756858, 12.920822697399775 ], [ 77.611581871867699, 12.921182207091078 ], [ 77.611277555454663, 12.921493796074941 ], [ 77.611104322400564, 12.921639516244646 ], [ 77.610761171429232, 12.921913782469685 ], [ 77.610550137679837, 12.922121589940549 ], [ 77.61034591605177, 12.92231218755013 ], [ 77.610260367386104, 12.922487885139804 ], [ 77.610102572250241, 12.922774009271146 ], [ 77.610003935461037, 12.923035544947011 ], [ 77.609949370861159, 12.923263074864328 ], [ 77.609848759567285, 12.923493721327928 ], [ 77.609692254991828, 12.923752483031969 ], [ 77.609479950515407, 12.924048545031319 ], [ 77.609121457333885, 12.924695122257415 ], [ 77.608913725971419, 12.924954908158247 ], [ 77.608906716957776, 12.92496641618008 ], [ 77.608945000099666, 12.924966000368544 ] ] ] } },
{ "type": "Feature", "properties": { "KGISWardID": 5222, "KGISWardCode": "2003173", "KGISWardName": "Jakkasandra", "SHAPE.STArea()": 1536650.5744211299, "SHAPE.STLength()": 5387.9644857365492, "OBJECTID": 19016, "KGISWardNo": "173", "KGISTownCode": "2003", "LGD_WardCode": 1302845, "created_user": "SA", "created_date": 1634898537000, "last_edited_user": "SURESHBV1", "last_edited_date": 1692254014000, "_overlap_percent": 92.010024394217368, "_police_station": "Madiwala PS", "_police_feature_index": "785", "_admin_layer": "Ward", "_geometry_clipped": true }, "geometry": { "type": "Polygon", "coordinates": [ [ [ 77.622726999781889, 12.917347000156283 ], [ 77.622647000050748, 12.917461000349013 ], [ 77.622132000134513, 12.918276999968684 ], [ 77.621256000303489, 12.919410999711975 ], [ 77.620863000213276, 12.919972999844354 ], [ 77.620760999869162, 12.920155999816172 ], [ 77.620214000432824, 12.921192000065865 ], [ 77.621900999644211, 12.922173000181422 ], [ 77.623038999759302, 12.922811999682057 ], [ 77.623588000210319, 12.923042000064923 ], [ 77.625454000035745, 12.923354000261288 ], [ 77.626345999592061, 12.923538999846826 ], [ 77.62670300042879, 12.923635999697581 ], [ 77.62690100009776, 12.923701999716965 ], [ 77.628569533720267, 12.924253864209987 ], [ 77.628808368875994, 12.924153381097298 ], [ 77.62945041845019, 12.924032178323321 ], [ 77.630860975412446, 12.924207443451818 ], [ 77.630912002696618, 12.92421661453287 ], [ 77.634068747863125, 12.924783959934631 ], [ 77.636504341577108, 12.925132246558732 ], [ 77.636836164466075, 12.925171918688317 ], [ 77.637308152936626, 12.9251002217053 ], [ 77.637957481646751, 12.924744678925691 ], [ 77.638537632132497, 12.924299002910821 ], [ 77.639250861225293, 12.924026327067516 ], [ 77.639900820179761, 12.923777837779205 ], [ 77.639645961516422, 12.923259126835594 ], [ 77.639243522896265, 12.922429802944313 ], [ 77.639118799828154, 12.922173592794623 ], [ 77.638977006318243, 12.921881418797517 ], [ 77.638872279801348, 12.921665659623008 ], [ 77.638864631510287, 12.921649927301294 ], [ 77.638794841755129, 12.921472209708545 ], [ 77.638720916484544, 12.921284370538682 ], [ 77.638636922261824, 12.921069530854222 ], [ 77.63860521991009, 12.920955795993871 ], [ 77.638513649422137, 12.920622460431753 ], [ 77.638448435378308, 12.920387104085918 ], [ 77.638399615942959, 12.920123350475823 ], [ 77.638327621200048, 12.919735612351705 ], [ 77.638262224303233, 12.918605882960124 ], [ 77.638229340372291, 12.917941080450589 ], [ 77.637097092949318, 12.9180486590525 ], [ 77.636182917494395, 12.918217195744765 ], [ 77.635855141460013, 12.917933757225564 ], [ 77.635332917789398, 12.917072410346757 ], [ 77.635109236831838, 12.917136977935197 ], [ 77.634889262947851, 12.917222037057904 ], [ 77.634753528754985, 12.917287127985224 ], [ 77.634841711087773, 12.917643081026648 ], [ 77.634897081298348, 12.917967504527974 ], [ 77.634003792655903, 12.918269639038394 ], [ 77.633703463323783, 12.916412075677492 ], [ 77.633638445411066, 12.916417751720314 ], [ 77.632419261800806, 12.916522645444481 ], [ 77.630207227818119, 12.916689482887023 ], [ 77.63019342653179, 12.916690751176157 ], [ 77.629902377446442, 12.916710621784897 ], [ 77.628570191135239, 12.916798567854094 ], [ 77.628506352654995, 12.916803727578433 ], [ 77.628288834481467, 12.916864639176806 ], [ 77.6270910904001, 12.917204181166207 ], [ 77.625640562930059, 12.917645636282483 ], [ 77.624964045786626, 12.917684058264841 ], [ 77.623777346920207, 12.917539017336734 ], [ 77.623211814235432, 12.917410035373097 ], [ 77.622726999781889, 12.917347000156283 ] ] ] } },
{ "type": "Feature", "properties": { "KGISWardID": 5179, "KGISWardCode": "2003152", "KGISWardName": "Suddagunte Palya", "SHAPE.STArea()": 1737540.0161319701, "SHAPE.STLength()": 6304.020372690562, "OBJECTID": 18995, "KGISWardNo": "152", "KGISTownCode": "2003", "LGD_WardCode": 1302824, "created_user": "SA", "created_date": 1634898537000, "last_edited_user": "SURESHBV1", "last_edited_date": 1692254014000, "_overlap_percent": 39.17077365169235, "_police_station": "Madiwala PS", "_police_feature_index": "785", "_admin_layer": "Ward", "_geometry_clipped": true }, "geometry": { "type": "Polygon", "coordinates": [ [ [ 77.610423000346117, 12.934214000278621 ], [ 77.610547999746487, 12.934117000305902 ], [ 77.610780999817862, 12.933938000144032 ], [ 77.611058000009137, 12.933722999562995 ], [ 77.611135000388614, 12.933666000310685 ], [ 77.612412000188257, 12.932716000340957 ], [ 77.613458000167213, 12.931864000260543 ], [ 77.613797000018508, 12.931571999957107 ], [ 77.614500000199797, 12.930478000020576 ], [ 77.614959000071693, 12.929788999829162 ], [ 77.615099000108785, 12.929555000117922 ], [ 77.616104000080767, 12.927868000081023 ], [ 77.616458999555945, 12.927267999680044 ], [ 77.616583999855919, 12.927014000118263 ], [ 77.616717999595451, 12.926774000064546 ], [ 77.616959999962518, 12.926337999827471 ], [ 77.617454999797744, 12.925550000085542 ], [ 77.617734000279015, 12.925107000011542 ], [ 77.618092000187858, 12.924563999809147 ], [ 77.618187000093329, 12.924416999568175 ], [ 77.617934999894715, 12.924265000053955 ], [ 77.617659000033782, 12.924092999792757 ], [ 77.61750700002176, 12.923995999843523 ], [ 77.617176999643448, 12.923786999741056 ], [ 77.617035999639569, 12.924007000372958 ], [ 77.617031999903304, 12.924014000448647 ], [ 77.616897999799761, 12.92424200022414 ], [ 77.616882000243763, 12.924268000351878 ], [ 77.616750000432106, 12.924490000284196 ], [ 77.616590000077949, 12.924754000101272 ], [ 77.616545000190669, 12.924823000306953 ], [ 77.616401000290367, 12.924736999986031 ], [ 77.616233999765669, 12.924637000339688 ], [ 77.61622100022349, 12.924625999588217 ], [ 77.616191000272778, 12.924460000039614 ], [ 77.616147999955643, 12.92423499995726 ], [ 77.616129000451991, 12.924141999618874 ], [ 77.615827000095265, 12.923229999972092 ], [ 77.615816999839581, 12.923201000032137 ], [ 77.615599000281136, 12.923322000409069 ], [ 77.615485000369034, 12.923377999655568 ], [ 77.615327000082701, 12.923455999993021 ], [ 77.615018000090728, 12.92360999967099 ], [ 77.614904000172743, 12.923666999702855 ], [ 77.614684000168694, 12.923716000348419 ], [ 77.614635999765767, 12.923443000317556 ], [ 77.614590999720107, 12.923431000144022 ], [ 77.614145999741865, 12.923371000278829 ], [ 77.613923000305888, 12.923388000290545 ], [ 77.613733000166476, 12.923476999625471 ], [ 77.613595999979211, 12.923561999843468 ], [ 77.613400000104662, 12.92378099956689 ], [ 77.612935999781556, 12.923942000428633 ], [ 77.612638999940259, 12.924028999633093 ], [ 77.612410000459136, 12.924081000326312 ], [ 77.612082000071283, 12.924110999563823 ], [ 77.611648999588454, 12.924242999816995 ], [ 77.611289999870209, 12.924353999650757 ], [ 77.610895000071423, 12.924551000431361 ], [ 77.610435999963613, 12.924781999962438 ], [ 77.610263999669655, 12.924854999917338 ], [ 77.609965999843524, 12.924893000029995 ], [ 77.609292999688108, 12.924970999675391 ], [ 77.609012999588018, 12.924965999911963 ], [ 77.608945000099666, 12.924966000368544 ], [ 77.608906716957776, 12.92496641618008 ], [ 77.608827439016949, 12.92509658175268 ], [ 77.60879458321574, 12.925150527751704 ], [ 77.608733918299905, 12.925250132741667 ], [ 77.608766208103589, 12.925653976438642 ], [ 77.608805235547877, 12.925848294824354 ], [ 77.608874836771534, 12.926194841344785 ], [ 77.609041959662122, 12.927027931119348 ], [ 77.609054693039681, 12.927091406898251 ], [ 77.609141492643886, 12.927524087448408 ], [ 77.609281174449251, 12.928349395249434 ], [ 77.609447612194487, 12.929045835901428 ], [ 77.609939205355502, 12.931208193124286 ], [ 77.610023227583866, 12.931592683746103 ], [ 77.610025113757501, 12.931600908640426 ], [ 77.610114672225137, 12.931991371438452 ], [ 77.610135604003972, 12.932255184767218 ], [ 77.610129776627076, 12.932339843558754 ], [ 77.610124018042498, 12.932423500665392 ], [ 77.610113484104545, 12.932576515541923 ], [ 77.610080262356334, 12.932847146002461 ], [ 77.609889768736508, 12.933223087203313 ], [ 77.609872795057441, 12.933256585372535 ], [ 77.609870162744059, 12.933278549623717 ], [ 77.609861768313479, 12.933348592277394 ], [ 77.609790373070737, 12.933944336065297 ], [ 77.609779183644889, 12.934677623205863 ], [ 77.610423000346117, 12.934214000278621 ] ] ] } },
{ "type": "Feature", "properties": { "KGISWardID": 5178, "KGISWardCode": "2003151", "KGISWardName": "Koramangala", "SHAPE.STArea()": 3709710.0054647899, "SHAPE.STLength()": 10124.138811013434, "OBJECTID": 18994, "KGISWardNo": "151", "KGISTownCode": "2003", "LGD_WardCode": 1302823, "created_user": "SA", "created_date": 1634898537000, "last_edited_user": "SURESHBV1", "last_edited_date": 1692254014000, "_overlap_percent": 13.747226774152915, "_police_station": "Madiwala PS", "_police_feature_index": "785", "_admin_layer": "Ward", "_geometry_clipped": true }, "geometry": { "type": "Polygon", "coordinates": [ [ [ 77.62690100009776, 12.923701999716965 ], [ 77.62670300042879, 12.923635999697581 ], [ 77.626345999592061, 12.923538999846826 ], [ 77.625454000035745, 12.923354000261288 ], [ 77.623588000210319, 12.923042000064923 ], [ 77.623038999759302, 12.922811999682057 ], [ 77.621900999644211, 12.922173000181422 ], [ 77.620214000432824, 12.921192000065865 ], [ 77.6201419998131, 12.921308000173639 ], [ 77.619997000255353, 12.921552999766533 ], [ 77.619616000208666, 12.92218400024591 ], [ 77.619206999875331, 12.922833000283566 ], [ 77.61903799969312, 12.923098000132009 ], [ 77.618940999921634, 12.923250000240525 ], [ 77.618864999539852, 12.92336699976433 ], [ 77.618783999805089, 12.923492999638077 ], [ 77.618754000426122, 12.923541000402484 ], [ 77.618494999824819, 12.923942999979353 ], [ 77.618438000024852, 12.924030999595661 ], [ 77.618187000093329, 12.924416999568175 ], [ 77.618092000187858, 12.924563999809147 ], [ 77.617734000279015, 12.925107000011542 ], [ 77.617454999797744, 12.925550000085542 ], [ 77.616959999962518, 12.926337999827471 ], [ 77.616717999595451, 12.926774000064546 ], [ 77.616583999855919, 12.927014000118263 ], [ 77.616458999555945, 12.927267999680044 ], [ 77.616104000080767, 12.927868000081023 ], [ 77.615099000108785, 12.929555000117922 ], [ 77.614959000071693, 12.929788999829162 ], [ 77.614500000199797, 12.930478000020576 ], [ 77.613797000018508, 12.931571999957107 ], [ 77.613762140984178, 12.931678029950588 ], [ 77.613820652572343, 12.93166567839654 ], [ 77.614382138163705, 12.930685218858562 ], [ 77.615034497441158, 12.92967952956251 ], [ 77.615407996316847, 12.929508463122913 ], [ 77.61729179709593, 12.928815503441731 ], [ 77.619408352526747, 12.928010240799384 ], [ 77.622971112572543, 12.926616756225831 ], [ 77.626037713776697, 12.925319055588187 ], [ 77.628569533720267, 12.924253864209987 ], [ 77.62690100009776, 12.923701999716965 ] ] ] } },
{ "type": "Feature", "properties": { "KGISWardID": 5167, "KGISWardCode": "2003146", "KGISWardName": "Lakkasandra", "SHAPE.STArea()": 1288693.5344039451, "SHAPE.STLength()": 6452.073020861777, "OBJECTID": 18989, "KGISWardNo": "146", "KGISTownCode": "2003", "LGD_WardCode": 1302818, "created_user": "SA", "created_date": 1634898537000, "last_edited_user": "SURESHBV1", "last_edited_date": 1692254014000, "_overlap_percent": 0.42139608286132096, "_police_station": "Madiwala PS", "_police_feature_index": "785", "_admin_layer": "Ward", "_geometry_clipped": true }, "geometry": { "type": "Polygon", "coordinates": [ [ [ 77.613797000018508, 12.931571999957107 ], [ 77.613458000167213, 12.931864000260543 ], [ 77.612412000188257, 12.932716000340957 ], [ 77.611135000388614, 12.933666000310685 ], [ 77.611058000009137, 12.933722999562995 ], [ 77.610780999817862, 12.933938000144032 ], [ 77.610547999746487, 12.934117000305902 ], [ 77.610423000346117, 12.934214000278621 ], [ 77.609779183644889, 12.934677623205863 ], [ 77.609778501650808, 12.934722316963567 ], [ 77.609770193567627, 12.934728584063853 ], [ 77.609769559839677, 12.934896904209504 ], [ 77.610039207975007, 12.934718966041872 ], [ 77.610303534348191, 12.934503271636167 ], [ 77.610691645374445, 12.934186565303497 ], [ 77.611342652608016, 12.933607644081313 ], [ 77.611582507623822, 12.933416146321182 ], [ 77.612428053529399, 12.932781338761298 ], [ 77.612728050552136, 12.932556110130875 ], [ 77.613574990705288, 12.931783464896114 ], [ 77.61366901485772, 12.931697688490381 ], [ 77.613762140984178, 12.931678029950588 ], [ 77.613797000018508, 12.931571999957107 ] ] ] } }
]
}
