{
"type": "FeatureCollection",
"name": "villages_in_police_area.writing_20260805_172659",
"crs": { "type": "name", "properties": { "name": "urn:ogc:def:crs:OGC:1.3:CRS84" } },
"features": [
{ "type": "Feature", "properties": { "OBJECTID": 26137, "KGISVillageID": 933, "KGISVillageCode": "0106040010", "KGISVillageName": "Khasabhaga", "KGISHobliID": 141, "UniqueVillageCode": "0106040010_5", "Bhucode": "010601003005", "CensusVillageCode": "2955505438803033", "BhoomiVillageCode": "0106040010", "created_user": "SA", "created_date": 1629975185000.0, "last_edited_user": "SURESHBV2", "last_edited_date": 1724225539000.0, "LGDGPCode": " ", "LGDGPCode_Secondary": " ", "Category": "Cadastral data available and has bhoomi linkage", "SHAPE.STArea()": 132103.94760878, "SHAPE.STLength()": 2070.7495272974043, "LGD_VillageCode": 938221.0, "_overlap_percent": 100.0, "_police_station": "Belagavi Market PS", "_police_feature_index": "76", "_admin_layer": "Village", "_geometry_clipped": true }, "geometry": { "type": "Polygon", "coordinates": [ [ [ 74.52546570403824, 15.853759080893868 ], [ 74.525660122449423, 15.853804628396682 ], [ 74.525623568510341, 15.853660379580061 ], [ 74.525911192083427, 15.853689574548225 ], [ 74.526370313594555, 15.853736175956278 ], [ 74.526429962019591, 15.853742231328697 ], [ 74.526686044005032, 15.853768438132871 ], [ 74.526723622773858, 15.853772282780305 ], [ 74.526840524580194, 15.85389197634384 ], [ 74.526873401491486, 15.853925638166295 ], [ 74.527479382733617, 15.854009610336286 ], [ 74.527488056917122, 15.853976055494572 ], [ 74.527490650492169, 15.853966026449752 ], [ 74.52752376963322, 15.853976722799812 ], [ 74.527916491822367, 15.853206523194759 ], [ 74.527086023103692, 15.853023395126526 ], [ 74.526663460635646, 15.852735957334387 ], [ 74.526641897392878, 15.852732091618751 ], [ 74.526306215582409, 15.85267190560524 ], [ 74.526157100906175, 15.852645171135592 ], [ 74.52613974054529, 15.852642057671437 ], [ 74.526048478218669, 15.852625695878093 ], [ 74.526019793857714, 15.852620552503302 ], [ 74.525639449408658, 15.852552359336999 ], [ 74.525624144745109, 15.852549615559072 ], [ 74.525461223023882, 15.852520404090404 ], [ 74.525348677696513, 15.852500223793877 ], [ 74.525296333426112, 15.85249083923482 ], [ 74.52516961307991, 15.852468118212983 ], [ 74.524448647561385, 15.852421286984667 ], [ 74.524359187562141, 15.852415476626517 ], [ 74.524310509619482, 15.852424601692819 ], [ 74.523652655272414, 15.852547930298536 ], [ 74.523374802464119, 15.852600020451883 ], [ 74.523372057739792, 15.852610703626906 ], [ 74.523335020853125, 15.852754879512506 ], [ 74.52333377102164, 15.852759744043079 ], [ 74.523301616562051, 15.852884904513665 ], [ 74.523284991681109, 15.852949619756512 ], [ 74.523281932127986, 15.852961529905457 ], [ 74.52318955668413, 15.852951519769356 ], [ 74.523107722809328, 15.852942651980277 ], [ 74.523080848837239, 15.852939739723553 ], [ 74.522046566893152, 15.852937044928195 ], [ 74.521859661948895, 15.852987057367482 ], [ 74.521768442044106, 15.853011467275511 ], [ 74.521534225203339, 15.853074138049713 ], [ 74.52144940305385, 15.853096835257926 ], [ 74.521156790614953, 15.85317513201279 ], [ 74.521019247319103, 15.853103531058219 ], [ 74.520981293829337, 15.853215861036894 ], [ 74.52083550060479, 15.853647372201561 ], [ 74.520779297041884, 15.853813722550475 ], [ 74.520830560008918, 15.853846802150999 ], [ 74.520938468547186, 15.853916437446857 ], [ 74.521049708157008, 15.853988222596369 ], [ 74.521126682936881, 15.854037897222454 ], [ 74.521202175037416, 15.854086612085517 ], [ 74.521175928504363, 15.854133615889154 ], [ 74.521116785598792, 15.854239531087458 ], [ 74.521084881527472, 15.854296667357575 ], [ 74.5210025176209, 15.854444168836693 ], [ 74.52089081930319, 15.854644203472249 ], [ 74.520768278422025, 15.854863652431302 ], [ 74.520759782745628, 15.854878868290099 ], [ 74.520732616849017, 15.854927515325619 ], [ 74.520681098767824, 15.855019774759338 ], [ 74.520666084529893, 15.855046663443828 ], [ 74.520622306115214, 15.855125063181637 ], [ 74.52059463929973, 15.855174607690792 ], [ 74.520783036825065, 15.855210975805919 ], [ 74.521048488142654, 15.855564579630482 ], [ 74.521381921025423, 15.855612544644293 ], [ 74.521495759882171, 15.855700219065383 ], [ 74.521501323646063, 15.85570450197409 ], [ 74.521819335200476, 15.855262511456582 ], [ 74.522121142402952, 15.854843043753872 ], [ 74.522282030367151, 15.854763902092078 ], [ 74.522665076865565, 15.854575477547421 ], [ 74.522808698082031, 15.854504829642696 ], [ 74.523505414576434, 15.854447100458708 ], [ 74.523800159960558, 15.854422678008921 ], [ 74.52415883177882, 15.854392958745967 ], [ 74.524304907835372, 15.854380854569332 ], [ 74.52485411538332, 15.85430152174718 ], [ 74.524880656054918, 15.854297689018045 ], [ 74.525461784518257, 15.854187676877958 ], [ 74.525444689782518, 15.854010954617426 ], [ 74.525452153163926, 15.853891415216886 ], [ 74.525454229126524, 15.853759256456165 ], [ 74.52546570403824, 15.853759080893868 ] ] ] } },
{ "type": "Feature", "properties": { "OBJECTID": 26138, "KGISVillageID": 934, "KGISVillageCode": "0106040010", "KGISVillageName": "Khasabhaga", "KGISHobliID": 141, "UniqueVillageCode": "0106040010_6", "Bhucode": "010601003005", "CensusVillageCode": "2955505438803033", "BhoomiVillageCode": "0106040010", "created_user": "SA", "created_date": 1629975185000.0, "last_edited_user": "SURESHBV2", "last_edited_date": 1724225539000.0, "LGDGPCode": " ", "LGDGPCode_Secondary": " ", "Category": "Cadastral data available and has bhoomi linkage", "SHAPE.STArea()": 215321.83503131999, "SHAPE.STLength()": 3017.9123304687187, "LGD_VillageCode": 938221.0, "_overlap_percent": 2.2705151514728872, "_police_station": "Belagavi Market PS", "_police_feature_index": "76", "_admin_layer": "Village", "_geometry_clipped": true }, "geometry": { "type": "MultiPolygon", "coordinates": [ [ [ [ 74.524818960129664, 15.863023350527408 ], [ 74.524727334069894, 15.863102915292107 ], [ 74.524826090199269, 15.863141401238407 ], [ 74.524946508148403, 15.86318919369546 ], [ 74.526159299878969, 15.863670543481417 ], [ 74.527001544024429, 15.864166048199422 ], [ 74.527074848762993, 15.864216150331325 ], [ 74.527118863191973, 15.864166955327631 ], [ 74.527149591436171, 15.864132609766388 ], [ 74.527168566689724, 15.864111400942333 ], [ 74.526996008782476, 15.863953895508475 ], [ 74.526512145990239, 15.8637423500313 ], [ 74.525430123405997, 15.86332319199453 ], [ 74.524824672101815, 15.863018390516084 ], [ 74.524818960129664, 15.863023350527408 ] ] ], [ [ [ 74.525128482756472, 15.862754575453874 ], [ 74.524969886802907, 15.862892292814063 ], [ 74.525261013680804, 15.86272364909849 ], [ 74.525534122849791, 15.862498489178718 ], [ 74.525128482756472, 15.862754575453874 ] ] ], [ [ [ 74.528004134528331, 15.859874737371252 ], [ 74.527916398125186, 15.860001775258903 ], [ 74.527865684112243, 15.860075203669851 ], [ 74.527715080609198, 15.860293270080389 ], [ 74.527658117604176, 15.860375748581482 ], [ 74.526987072551464, 15.861347372801104 ], [ 74.526966438432311, 15.861377249201677 ], [ 74.52691323685886, 15.861446126485085 ], [ 74.526836245808184, 15.861545802586713 ], [ 74.526742202787673, 15.861667552074353 ], [ 74.526727871084276, 15.861686109025587 ], [ 74.526988268770126, 15.861467259263382 ], [ 74.527660852928832, 15.860464954850594 ], [ 74.52797311937168, 15.8600781462959 ], [ 74.528010365928765, 15.860048652232575 ], [ 74.528149957528001, 15.859482687325832 ], [ 74.528004134528331, 15.859874737371252 ] ] ] ] } },
{ "type": "Feature", "properties": { "OBJECTID": 26130, "KGISVillageID": 926, "KGISVillageCode": "0106040001", "KGISVillageName": "Belagaov", "KGISHobliID": 141, "UniqueVillageCode": "0106040001_1", "Bhucode": "010601003002", "CensusVillageCode": "2955505438803034", "BhoomiVillageCode": "0106040001", "created_user": "SURESHBV1", "created_date": 1692267586000.0, "last_edited_user": "SURESHBV2", "last_edited_date": 1724225539000.0, "LGDGPCode": " ", "LGDGPCode_Secondary": " ", "Category": "Cadastral data available and has bhoomi linkage", "SHAPE.STArea()": 42156740.093239181, "SHAPE.STLength()": 47270.598299012418, "LGD_VillageCode": 938220.0, "_overlap_percent": 10.385008894044361, "_police_station": "Belagavi Market PS", "_police_feature_index": "76", "_admin_layer": "Village", "_geometry_clipped": true }, "geometry": { "type": "Polygon", "coordinates": [ [ [ 74.526742202787673, 15.861667552074353 ], [ 74.526836245808184, 15.861545802586713 ], [ 74.52691323685886, 15.861446126485085 ], [ 74.526966438432311, 15.861377249201677 ], [ 74.526987072551464, 15.861347372801104 ], [ 74.527658117604176, 15.860375748581482 ], [ 74.527715080609198, 15.860293270080389 ], [ 74.527865684112243, 15.860075203669851 ], [ 74.527916398125186, 15.860001775258903 ], [ 74.528004134528331, 15.859874737371252 ], [ 74.528149957528001, 15.859482687325832 ], [ 74.528168624262705, 15.859407004284556 ], [ 74.528394834481119, 15.857769039611997 ], [ 74.52858272389264, 15.856669170025153 ], [ 74.528609073278417, 15.85596361346631 ], [ 74.528264732479627, 15.855269210316536 ], [ 74.528035205524034, 15.854880623355674 ], [ 74.527829613787276, 15.8546334004145 ], [ 74.52765605804359, 15.854548340992954 ], [ 74.527802160602022, 15.854145799668633 ], [ 74.527936316666171, 15.853837534879275 ], [ 74.52793691735188, 15.853579210421618 ], [ 74.528004619810304, 15.853155989312405 ], [ 74.528087649571177, 15.852517530042901 ], [ 74.528281841727079, 15.851893665046005 ], [ 74.528356857300381, 15.851513513954087 ], [ 74.528513965041668, 15.850896743198899 ], [ 74.528604438920453, 15.850243948294461 ], [ 74.528650582911624, 15.849526474966256 ], [ 74.528711269416959, 15.84893102088169 ], [ 74.528778786215696, 15.848586733142332 ], [ 74.528504337238843, 15.848657893460784 ], [ 74.528148496490331, 15.848664294317672 ], [ 74.527525819206758, 15.848655762522545 ], [ 74.526992149099883, 15.848625895603886 ], [ 74.526132540791295, 15.848494854943711 ], [ 74.524993999815493, 15.84827099982834 ], [ 74.524805060594389, 15.848235016711177 ], [ 74.524680510909874, 15.848206173629004 ], [ 74.524335823205263, 15.848126352119449 ], [ 74.524119540747861, 15.848155776243384 ], [ 74.523909337978466, 15.848227071771225 ], [ 74.523167658954435, 15.848386895136217 ], [ 74.522716631654703, 15.848415801268944 ], [ 74.522512619167514, 15.84848112891428 ], [ 74.522308536223136, 15.848576355996718 ], [ 74.522048940301673, 15.848635581447287 ], [ 74.521832896391842, 15.848563347773036 ], [ 74.521592157079311, 15.848485079239246 ], [ 74.521437620802118, 15.848526596323429 ], [ 74.521246146850501, 15.848514214082874 ], [ 74.521011683510466, 15.848394100523427 ], [ 74.520830062347358, 15.848394895091674 ], [ 74.520651946554651, 15.848480609785382 ], [ 74.520496291241258, 15.848473090210348 ], [ 74.520452135265614, 15.848336653525189 ], [ 74.520371066521292, 15.848135553282793 ], [ 74.520193205073227, 15.848113632930163 ], [ 74.519948457771818, 15.848163320518102 ], [ 74.519896567417419, 15.848163205581033 ], [ 74.519785660781167, 15.84804097322681 ], [ 74.519519455963476, 15.847760530034384 ], [ 74.51917878169138, 15.847623435579616 ], [ 74.518823094984711, 15.847565240552717 ], [ 74.517904091605914, 15.84747708898607 ], [ 74.517325931974725, 15.847454275578434 ], [ 74.516677335945545, 15.847315853978635 ], [ 74.516668039574952, 15.847722078313739 ], [ 74.516145437449012, 15.851345250048562 ], [ 74.516091990022872, 15.851998121347927 ], [ 74.515831623773494, 15.852377852617419 ], [ 74.515132491900516, 15.853337836503373 ], [ 74.514454853779938, 15.854618804173978 ], [ 74.514488003365429, 15.854819952733859 ], [ 74.514776733164425, 15.854982053107666 ], [ 74.515391063778949, 15.855388856473102 ], [ 74.515894377381073, 15.855720064082153 ], [ 74.5163607028217, 15.85601889799435 ], [ 74.516638205133731, 15.856227613188356 ], [ 74.516769719094341, 15.856327131535918 ], [ 74.517055911461071, 15.856519122133971 ], [ 74.516710819613934, 15.856504520056964 ], [ 74.516721283120461, 15.856535756694164 ], [ 74.51680059039397, 15.856957506988236 ], [ 74.516655349070348, 15.856984092204405 ], [ 74.516321707677903, 15.85700128701601 ], [ 74.515734820512037, 15.856999975862422 ], [ 74.515262157581915, 15.857025827057447 ], [ 74.514712172944456, 15.857093363106898 ], [ 74.514375378311712, 15.857137457066761 ], [ 74.51386531237975, 15.857303745754223 ], [ 74.513708403992027, 15.85731604812433 ], [ 74.513302934494035, 15.857386200245283 ], [ 74.513213271449189, 15.85742187682821 ], [ 74.513180515195742, 15.857501800408105 ], [ 74.513155041763923, 15.859766729230643 ], [ 74.512954595382254, 15.860914392975733 ], [ 74.512948678195471, 15.86098733086135 ], [ 74.51281728907351, 15.86149435963201 ], [ 74.512761855722133, 15.861939129037546 ], [ 74.513067774622016, 15.862150304785862 ], [ 74.512973516203459, 15.86315786526893 ], [ 74.512908534248311, 15.863631492233914 ], [ 74.512847112338875, 15.864511573905816 ], [ 74.51290462202131, 15.865526527781586 ], [ 74.512848451569539, 15.865763199779629 ], [ 74.5127527841492, 15.865981844319379 ], [ 74.512703397329631, 15.866480444575609 ], [ 74.512737657166056, 15.866816948931305 ], [ 74.512712197547202, 15.867180633968651 ], [ 74.511673103814999, 15.867308920689581 ], [ 74.511722553105272, 15.868399888352354 ], [ 74.511886119226546, 15.870391226458539 ], [ 74.512010970520066, 15.872716664650856 ], [ 74.512058949367599, 15.873317737998216 ], [ 74.512135651359429, 15.873536769635352 ], [ 74.512637853576265, 15.874346364129165 ], [ 74.513681799318817, 15.875970420901027 ], [ 74.514583019415014, 15.877345396100576 ], [ 74.514631977107712, 15.877419098877777 ], [ 74.514691516589721, 15.877373503287053 ], [ 74.516324883470901, 15.876482472388812 ], [ 74.517302329915253, 15.875952456841732 ], [ 74.518768725318239, 15.875058758874866 ], [ 74.520396025770722, 15.874045812879697 ], [ 74.521249856587971, 15.873527464192009 ], [ 74.521785362822428, 15.874377774187947 ], [ 74.522431237275953, 15.875587111322639 ], [ 74.525871999900232, 15.873565000418466 ], [ 74.526817644374063, 15.87303860471834 ], [ 74.52640448806028, 15.87217183091524 ], [ 74.526681831092588, 15.871933246890263 ], [ 74.52777109201044, 15.871122378135269 ], [ 74.527889104872727, 15.870853546874418 ], [ 74.528550894212685, 15.870544040517455 ], [ 74.5291940330236, 15.870283526786629 ], [ 74.529261622855884, 15.869910536156457 ], [ 74.529087915833969, 15.869687711004527 ], [ 74.528837338778303, 15.86904493938046 ], [ 74.528383870585785, 15.867978357530067 ], [ 74.528285161671846, 15.867386145534978 ], [ 74.52813865960384, 15.866518281254704 ], [ 74.527589639852337, 15.864843215453829 ], [ 74.527237672548011, 15.864174478597635 ], [ 74.527168566689724, 15.864111400942333 ], [ 74.527149591436171, 15.864132609766388 ], [ 74.527118863191973, 15.864166955327631 ], [ 74.527074848762993, 15.864216150331325 ], [ 74.527001544024429, 15.864166048199422 ], [ 74.526159299878969, 15.863670543481417 ], [ 74.524946508148403, 15.86318919369546 ], [ 74.524826090199269, 15.863141401238407 ], [ 74.524727334069894, 15.863102915292107 ], [ 74.524818960129664, 15.863023350527408 ], [ 74.524824672101815, 15.863018390516084 ], [ 74.524785900915134, 15.862998871993389 ], [ 74.524969886802907, 15.862892292814063 ], [ 74.525128482756472, 15.862754575453874 ], [ 74.525534122849791, 15.862498489178718 ], [ 74.525621265522091, 15.862426645977054 ], [ 74.525996210120013, 15.862187080047944 ], [ 74.526521156890624, 15.861859840800431 ], [ 74.526727871084276, 15.861686109025587 ], [ 74.526742202787673, 15.861667552074353 ] ], [ [ 74.525452153163926, 15.853891415216886 ], [ 74.525444689782518, 15.854010954617426 ], [ 74.525461784518257, 15.854187676877958 ], [ 74.524880656054918, 15.854297689018045 ], [ 74.52485411538332, 15.85430152174718 ], [ 74.524304907835372, 15.854380854569332 ], [ 74.52415883177882, 15.854392958745967 ], [ 74.523800159960558, 15.854422678008921 ], [ 74.523505414576434, 15.854447100458708 ], [ 74.522808698082031, 15.854504829642696 ], [ 74.522665076865565, 15.854575477547421 ], [ 74.522282030367151, 15.854763902092078 ], [ 74.522121142402952, 15.854843043753872 ], [ 74.521819335200476, 15.855262511456582 ], [ 74.521501323646063, 15.85570450197409 ], [ 74.521495759882171, 15.855700219065383 ], [ 74.521381921025423, 15.855612544644293 ], [ 74.521048488142654, 15.855564579630482 ], [ 74.520783036825065, 15.855210975805919 ], [ 74.52059463929973, 15.855174607690792 ], [ 74.520622306115214, 15.855125063181637 ], [ 74.520666084529893, 15.855046663443828 ], [ 74.520681098767824, 15.855019774759338 ], [ 74.520732616849017, 15.854927515325619 ], [ 74.520759782745628, 15.854878868290099 ], [ 74.520768278422025, 15.854863652431302 ], [ 74.52089081930319, 15.854644203472249 ], [ 74.5210025176209, 15.854444168836693 ], [ 74.521084881527472, 15.854296667357575 ], [ 74.521116785598792, 15.854239531087458 ], [ 74.521175928504363, 15.854133615889154 ], [ 74.521202175037416, 15.854086612085517 ], [ 74.521126682936881, 15.854037897222454 ], [ 74.521049708157008, 15.853988222596369 ], [ 74.520938468547186, 15.853916437446857 ], [ 74.520830560008918, 15.853846802150999 ], [ 74.520779297041884, 15.853813722550475 ], [ 74.52083550060479, 15.853647372201561 ], [ 74.520981293829337, 15.853215861036894 ], [ 74.521019247319103, 15.853103531058219 ], [ 74.521156790614953, 15.85317513201279 ], [ 74.52144940305385, 15.853096835257926 ], [ 74.521534225203339, 15.853074138049713 ], [ 74.521768442044106, 15.853011467275511 ], [ 74.521859661948895, 15.852987057367482 ], [ 74.522046566893152, 15.852937044928195 ], [ 74.523080848837239, 15.852939739723553 ], [ 74.523107722809328, 15.852942651980277 ], [ 74.52318955668413, 15.852951519769356 ], [ 74.523281932127986, 15.852961529905457 ], [ 74.523284991681109, 15.852949619756512 ], [ 74.523301616562051, 15.852884904513665 ], [ 74.52333377102164, 15.852759744043079 ], [ 74.523335020853125, 15.852754879512506 ], [ 74.523372057739792, 15.852610703626906 ], [ 74.523374802464119, 15.852600020451883 ], [ 74.523652655272414, 15.852547930298536 ], [ 74.524310509619482, 15.852424601692819 ], [ 74.524359187562141, 15.852415476626517 ], [ 74.524448647561385, 15.852421286984667 ], [ 74.52516961307991, 15.852468118212983 ], [ 74.525296333426112, 15.85249083923482 ], [ 74.525348677696513, 15.852500223793877 ], [ 74.525461223023882, 15.852520404090404 ], [ 74.525624144745109, 15.852549615559072 ], [ 74.525639449408658, 15.852552359336999 ], [ 74.526019793857714, 15.852620552503302 ], [ 74.526048478218669, 15.852625695878093 ], [ 74.52613974054529, 15.852642057671437 ], [ 74.526157100906175, 15.852645171135592 ], [ 74.526306215582409, 15.85267190560524 ], [ 74.526641897392878, 15.852732091618751 ], [ 74.526663460635646, 15.852735957334387 ], [ 74.527086023103692, 15.853023395126526 ], [ 74.527916491822367, 15.853206523194759 ], [ 74.52752376963322, 15.853976722799812 ], [ 74.527490650492169, 15.853966026449752 ], [ 74.527488056917122, 15.853976055494572 ], [ 74.527479382733617, 15.854009610336286 ], [ 74.526873401491486, 15.853925638166295 ], [ 74.526840524580194, 15.85389197634384 ], [ 74.526723622773858, 15.853772282780305 ], [ 74.526686044005032, 15.853768438132871 ], [ 74.526429962019591, 15.853742231328697 ], [ 74.526370313594555, 15.853736175956278 ], [ 74.525911192083427, 15.853689574548225 ], [ 74.525623568510341, 15.853660379580061 ], [ 74.525660122449423, 15.853804628396682 ], [ 74.52546570403824, 15.853759080893868 ], [ 74.525454229126524, 15.853759256456165 ], [ 74.525452153163926, 15.853891415216886 ] ] ] } }
]
}
