{
"type": "FeatureCollection",
"name": "wards_in_police_area.writing_20260805_172659",
"crs": { "type": "name", "properties": { "name": "urn:ogc:def:crs:OGC:1.3:CRS84" } },
"features": [
{ "type": "Feature", "properties": { "KGISWardID": 5174, "KGISWardCode": "2003149", "KGISWardName": "Varthuru", "SHAPE.STArea()": 26792258.223934889, "SHAPE.STLength()": 31040.570652738446, "OBJECTID": 18992, "KGISWardNo": "149", "KGISTownCode": "2003", "LGD_WardCode": 1302821, "created_user": "SA", "created_date": 1634898537000, "last_edited_user": "SURESHBV1", "last_edited_date": 1692254014000, "_overlap_percent": 14.385637592222199, "_police_station": "Whitefield PS", "_police_feature_index": "721", "_admin_layer": "Ward", "_geometry_clipped": true }, "geometry": { "type": "MultiPolygon", "coordinates": [ [ [ [ 77.745259999874648, 12.95130899999906 ], [ 77.745428000120938, 12.951360000153352 ], [ 77.745487000269819, 12.951363999671138 ], [ 77.74559399985462, 12.951353000064888 ], [ 77.745801000105473, 12.951381000026725 ], [ 77.745966999977341, 12.95138199963047 ], [ 77.746097000427397, 12.951407999994778 ], [ 77.746213999637689, 12.951475999712033 ], [ 77.746326999693963, 12.951565999790851 ], [ 77.746455999727814, 12.951626000264341 ], [ 77.746618999593821, 12.951671999942509 ], [ 77.746765999668469, 12.951727000151227 ], [ 77.746839999936697, 12.951768999780613 ], [ 77.746905999548289, 12.951840000398427 ], [ 77.746988000437696, 12.951928000079613 ], [ 77.747094999705325, 12.952026999708202 ], [ 77.747235000247585, 12.952168000349296 ], [ 77.747330999658899, 12.952249000421361 ], [ 77.747472000345695, 12.952328999950861 ], [ 77.747614999873321, 12.95234199972348 ], [ 77.747801000160109, 12.952354000096054 ], [ 77.747959000264458, 12.952334999800618 ], [ 77.748226999801872, 12.95233800009968 ], [ 77.748264000095617, 12.952347999778443 ], [ 77.748296999828483, 12.95236500004488 ], [ 77.74791100023414, 12.95350199964566 ], [ 77.747762999979798, 12.953620000149584 ], [ 77.747555000387223, 12.953967000012351 ], [ 77.746852000419167, 12.954656000326864 ], [ 77.746878000336096, 12.954761999676393 ], [ 77.747427999670705, 12.955226999925491 ], [ 77.747500999690232, 12.955350999859679 ], [ 77.747538000327211, 12.955564000275144 ], [ 77.747472999889965, 12.956139000351868 ], [ 77.747256999607956, 12.956337000451612 ], [ 77.746628000021275, 12.956892999568744 ], [ 77.746675000134715, 12.95693200018165 ], [ 77.746711000134496, 12.956928999796052 ], [ 77.748315000401504, 12.956823999688959 ], [ 77.748326999550414, 12.956484000340151 ], [ 77.748360999950819, 12.955903999797956 ], [ 77.748381000422569, 12.955878000324201 ], [ 77.7484390000307, 12.955874999657386 ], [ 77.748971999934426, 12.955885000259034 ], [ 77.749339000368821, 12.955901000195725 ], [ 77.749643999673154, 12.95591500041389 ], [ 77.749871999893216, 12.955924999675613 ], [ 77.750158999652385, 12.955947999578864 ], [ 77.750341999723787, 12.956000999888857 ], [ 77.750347000306377, 12.95602300009714 ], [ 77.750345999648047, 12.956250999805311 ], [ 77.750365999560074, 12.956255999846654 ], [ 77.750791999561358, 12.956263000448027 ], [ 77.750957000345409, 12.956312999862586 ], [ 77.751110000135441, 12.956390000070956 ], [ 77.751188000115391, 12.956439999945539 ], [ 77.75130499982555, 12.956499000360239 ], [ 77.751515000301495, 12.956639999601828 ], [ 77.75159299972762, 12.956714999908773 ], [ 77.751854000235042, 12.956912000132936 ], [ 77.75182300018443, 12.956937999557539 ], [ 77.752262000297705, 12.95725900039794 ], [ 77.752308999693369, 12.957277000101385 ], [ 77.752431000114726, 12.957323999568448 ], [ 77.752809999861938, 12.957471000055044 ], [ 77.753281999712215, 12.957653000454686 ], [ 77.75325699969882, 12.957737999873927 ], [ 77.753384999765018, 12.957791000313808 ], [ 77.753652999894172, 12.957903000416728 ], [ 77.753917000308917, 12.958012000097343 ], [ 77.754194000080133, 12.958128000034216 ], [ 77.75436100008838, 12.958196999864697 ], [ 77.754337000153185, 12.958345000436696 ], [ 77.754388000153469, 12.958375999624183 ], [ 77.755029000171589, 12.958746999957524 ], [ 77.755622999640622, 12.958817000328473 ], [ 77.756045000100926, 12.959036999560915 ], [ 77.756143999645914, 12.958922000199545 ], [ 77.756687999924409, 12.959160999691662 ], [ 77.756702000004779, 12.959633999654384 ], [ 77.756758000308835, 12.959655999662843 ], [ 77.756809999694369, 12.959675999610475 ], [ 77.757721999665179, 12.960027999796388 ], [ 77.757729000145318, 12.960038000422886 ], [ 77.758827000425327, 12.960505999701065 ], [ 77.758896999742149, 12.960310000306814 ], [ 77.758909000239498, 12.960275000223891 ], [ 77.758987000348284, 12.96005700044309 ], [ 77.759107999775097, 12.959905999772714 ], [ 77.759190999616663, 12.959930000215225 ], [ 77.759587000077858, 12.960038000398285 ], [ 77.760266000280666, 12.960343000306274 ], [ 77.760606000118102, 12.960495000054324 ], [ 77.760945999795155, 12.960705999886338 ], [ 77.761286999863131, 12.960974999999316 ], [ 77.761707000281632, 12.96116600023838 ], [ 77.761709000447283, 12.961361000225764 ], [ 77.762268000146051, 12.961568999982497 ], [ 77.762447000457144, 12.961587000245892 ], [ 77.76416199955996, 12.962094999983428 ], [ 77.764342000387728, 12.962112999956421 ], [ 77.764542999589466, 12.962306000320694 ], [ 77.764900000235798, 12.96228200030918 ], [ 77.765358000386271, 12.962335999690444 ], [ 77.765537000056042, 12.96237299993513 ], [ 77.766052999824439, 12.962290000149482 ], [ 77.766192999589848, 12.962347000245209 ], [ 77.766253000165193, 12.962365999739681 ], [ 77.766491999546091, 12.962421999682604 ], [ 77.766651999970065, 12.962517000018925 ], [ 77.766851000263941, 12.962514999910576 ], [ 77.767028000045855, 12.962279000062383 ], [ 77.767365999682823, 12.962315000297149 ], [ 77.767862000188529, 12.962211999760537 ], [ 77.768000999557273, 12.962210000131606 ], [ 77.768322999952233, 12.962577999846912 ], [ 77.768866000438621, 12.96260399982941 ], [ 77.769974000233617, 12.962656999701547 ], [ 77.769946000016589, 12.962553999749904 ], [ 77.769928999559511, 12.962497999761839 ], [ 77.769756999746988, 12.962021999717694 ], [ 77.769646000324059, 12.961783999629615 ], [ 77.768979000345212, 12.961565000261109 ], [ 77.768679999723545, 12.961527999933761 ], [ 77.768052000428625, 12.961109000047328 ], [ 77.768050999689649, 12.961002999871269 ], [ 77.767952000415619, 12.960671999870653 ], [ 77.767941000324825, 12.960637000322826 ], [ 77.767288000215984, 12.960294999876245 ], [ 77.766485000205677, 12.960151999794617 ], [ 77.766227999754705, 12.960050000352544 ], [ 77.766250999705647, 12.959364000218056 ], [ 77.766202000092704, 12.95927899999386 ], [ 77.764769999595515, 12.959853999837168 ], [ 77.764643000352038, 12.959417000298124 ], [ 77.764386000369228, 12.959458999958391 ], [ 77.76431299963123, 12.959021000241354 ], [ 77.76420599963798, 12.957932000452006 ], [ 77.764255000186409, 12.957194000002398 ], [ 77.764273999602182, 12.956897000103945 ], [ 77.764267999556566, 12.956350000299741 ], [ 77.764320000231379, 12.955995000004958 ], [ 77.764378000244434, 12.955967999958357 ], [ 77.76437899982578, 12.955948999712058 ], [ 77.764377000140641, 12.955894999584094 ], [ 77.764393999632887, 12.952081999918352 ], [ 77.764745000354779, 12.950468999599146 ], [ 77.76481100031863, 12.950418000237706 ], [ 77.764955000273517, 12.949647000415357 ], [ 77.765175000395374, 12.948298000202271 ], [ 77.765298999629962, 12.94703500004999 ], [ 77.765308000346849, 12.946991000366124 ], [ 77.765053999848988, 12.946363999625108 ], [ 77.765054999618556, 12.946061000378178 ], [ 77.765065000083169, 12.945902999890551 ], [ 77.765085000452203, 12.945798999553832 ], [ 77.765234000445133, 12.945600999922011 ], [ 77.765253000188821, 12.945469000004064 ], [ 77.765344999625029, 12.945349000107363 ], [ 77.765369000117232, 12.945318999898708 ], [ 77.765362000341781, 12.945286999943049 ], [ 77.765320000223852, 12.945219000102723 ], [ 77.765285999621511, 12.944973999767445 ], [ 77.765229999852622, 12.944228000316416 ], [ 77.765242999921853, 12.943941999809109 ], [ 77.765176000451135, 12.943561000333595 ], [ 77.765176999725938, 12.943559999689073 ], [ 77.765137999595154, 12.942868999987036 ], [ 77.765139999878087, 12.942749000428064 ], [ 77.765140999694509, 12.94272400031749 ], [ 77.7651330000283, 12.942605000247131 ], [ 77.765121000203493, 12.942421999789543 ], [ 77.765119999702023, 12.942396000148225 ], [ 77.765119999840252, 12.942390000281311 ], [ 77.76511300028713, 12.942236000313621 ], [ 77.765137000123275, 12.942185999724783 ], [ 77.76515000025303, 12.942078999690247 ], [ 77.765170000107631, 12.941916999792145 ], [ 77.765171999879783, 12.941901999687435 ], [ 77.765181999926597, 12.94181600030176 ], [ 77.7651960003802, 12.941701999750233 ], [ 77.765180999855431, 12.941652000137983 ], [ 77.765186999945186, 12.94153399964681 ], [ 77.765191999781393, 12.941419999741953 ], [ 77.765211999561714, 12.941379999823885 ], [ 77.765238999566066, 12.941262999628629 ], [ 77.765253999998507, 12.941118000007544 ], [ 77.765257999846384, 12.941075000088473 ], [ 77.765268000115796, 12.940979000026118 ], [ 77.765277999630058, 12.940876000129474 ], [ 77.765280000344902, 12.940860000038313 ], [ 77.765287000410794, 12.940789999607953 ], [ 77.765295000060803, 12.940705999726982 ], [ 77.765307000290917, 12.940586999740985 ], [ 77.765321000458059, 12.94044599980805 ], [ 77.765325000331558, 12.940401999912696 ], [ 77.765339000332247, 12.940267999825709 ], [ 77.765354000116403, 12.940073000439732 ], [ 77.765353999618583, 12.940054999946065 ], [ 77.765352999617434, 12.940047999872753 ], [ 77.765136000144835, 12.939313000441292 ], [ 77.764960999588922, 12.939079000197804 ], [ 77.764957000295567, 12.939061999634744 ], [ 77.765337999647173, 12.938885999879723 ], [ 77.765323000276794, 12.938874000281587 ], [ 77.765318999727739, 12.938870000353839 ], [ 77.76534300003317, 12.93886599967426 ], [ 77.765335000348003, 12.938072000213579 ], [ 77.765324019442787, 12.937039853281142 ], [ 77.765181671346667, 12.937070442031938 ], [ 77.764879476385531, 12.937135380109739 ], [ 77.764754302007347, 12.937130852248046 ], [ 77.764661849988286, 12.93714378271984 ], [ 77.764239020520378, 12.937248648006664 ], [ 77.764148978617698, 12.937259162562203 ], [ 77.763959044117826, 12.937270737053584 ], [ 77.763660049983272, 12.937336047282791 ], [ 77.763629423362403, 12.93734496797074 ], [ 77.762919233335836, 12.93755183373975 ], [ 77.762442573530876, 12.937720390257834 ], [ 77.76232698395998, 12.937761264670758 ], [ 77.762086436167735, 12.937823564684248 ], [ 77.761785240733232, 12.93791040716539 ], [ 77.761194715286038, 12.938055285855242 ], [ 77.760696458573207, 12.938170504738716 ], [ 77.760171898560955, 12.938331413246312 ], [ 77.760151952015448, 12.938312384505942 ], [ 77.75985466338264, 12.938400139339523 ], [ 77.75957635513349, 12.938481330822261 ], [ 77.759558821032741, 12.938486445886751 ], [ 77.759459588244212, 12.938503270212578 ], [ 77.759221904382443, 12.938560279263561 ], [ 77.759170123654414, 12.938504900591793 ], [ 77.759037946813393, 12.938583737230104 ], [ 77.759003019940522, 12.93859844719929 ], [ 77.758991924482501, 12.93865305780408 ], [ 77.759001074218446, 12.9386873777056 ], [ 77.759013116128642, 12.938718798934037 ], [ 77.759022187923321, 12.938902577738052 ], [ 77.759181547958974, 12.93890241491942 ], [ 77.759167218118094, 12.939061744449752 ], [ 77.759148045653589, 12.939179537899108 ], [ 77.759136340714718, 12.939311592613816 ], [ 77.759128879076528, 12.939502697123668 ], [ 77.759128765100044, 12.939603080475045 ], [ 77.759140596550267, 12.939681827374285 ], [ 77.759154956634106, 12.939768912307059 ], [ 77.758902230127646, 12.939831936800115 ], [ 77.758835457429555, 12.939853556450048 ], [ 77.758747794007562, 12.939914235717222 ], [ 77.758681547059595, 12.939983650204079 ], [ 77.758499086807234, 12.940287326702538 ], [ 77.758331787834265, 12.940584866293882 ], [ 77.758275204110419, 12.94070198072003 ], [ 77.758260567243866, 12.940755911570696 ], [ 77.758261323017663, 12.940824617844781 ], [ 77.758271111916656, 12.941138567593294 ], [ 77.758258964982588, 12.941230474155995 ], [ 77.758242290005128, 12.941309522807883 ], [ 77.758199474748125, 12.941404621994499 ], [ 77.758111325050081, 12.941498767358629 ], [ 77.757993269652587, 12.941598965301239 ], [ 77.757771000682936, 12.941772804033478 ], [ 77.757514653393031, 12.94194999050802 ], [ 77.757141907052542, 12.942178599838281 ], [ 77.756696118308867, 12.94241276090786 ], [ 77.7562839132287, 12.942598765660906 ], [ 77.755833013029189, 12.942811469542098 ], [ 77.755370008470422, 12.943031470486142 ], [ 77.754943025487975, 12.9432032893878 ], [ 77.754695264600315, 12.94327522007044 ], [ 77.754470500874007, 12.943311057031387 ], [ 77.754318351332302, 12.943324615346656 ], [ 77.754080923916874, 12.943339074847247 ], [ 77.75359793538712, 12.94341492494849 ], [ 77.753302295329533, 12.943453900083242 ], [ 77.753141564748589, 12.943462767976987 ], [ 77.752589580641526, 12.943457844028979 ], [ 77.751982617123062, 12.943439159138153 ], [ 77.751300734958434, 12.943432736113047 ], [ 77.751132873643627, 12.943413475141247 ], [ 77.751131071005915, 12.943426878837526 ], [ 77.751137170357083, 12.943449759069837 ], [ 77.751160121945631, 12.943476165950372 ], [ 77.751203417110389, 12.943535460637873 ], [ 77.751450607250476, 12.943855509945827 ], [ 77.751885911573765, 12.944385691656182 ], [ 77.752217467558822, 12.9448990415327 ], [ 77.752542377564183, 12.945361672964166 ], [ 77.752687819215652, 12.945569267410958 ], [ 77.752234279675278, 12.945597958905472 ], [ 77.751455249658193, 12.945665938465078 ], [ 77.751038257571182, 12.945694241979878 ], [ 77.750703661767787, 12.945736613371755 ], [ 77.750524034302089, 12.94574448523505 ], [ 77.750350563110615, 12.945758266629248 ], [ 77.750064795957996, 12.94580908465848 ], [ 77.749859201491176, 12.945869651437604 ], [ 77.749793853532154, 12.945766598809103 ], [ 77.749533702318303, 12.945316387081586 ], [ 77.749533037647723, 12.945315237829698 ], [ 77.749361955014322, 12.945191004711335 ], [ 77.749361091614205, 12.945190377875406 ], [ 77.748970924063727, 12.945015174786565 ], [ 77.748966193840047, 12.945012235561761 ], [ 77.748938578799283, 12.945000649877882 ], [ 77.748291149863505, 12.944729028673077 ], [ 77.748290343216098, 12.944729041697691 ], [ 77.746922036137875, 12.944751201660441 ], [ 77.746922738219652, 12.944757867190969 ], [ 77.746953863025013, 12.945053430790018 ], [ 77.746954038798791, 12.945055099202355 ], [ 77.746955890265554, 12.945072688381945 ], [ 77.746985939952864, 12.94535804025579 ], [ 77.746991931986514, 12.945414937737894 ], [ 77.746993520578002, 12.945421144963744 ], [ 77.747024584227702, 12.945679752843521 ], [ 77.7470252318234, 12.945685143438711 ], [ 77.746992193981484, 12.945783484570716 ], [ 77.746991013707898, 12.945785542163488 ], [ 77.746961889986125, 12.945836308572424 ], [ 77.746848726134743, 12.946033564964285 ], [ 77.746841634386072, 12.946044485164295 ], [ 77.746637202496117, 12.946359279037937 ], [ 77.746633052502787, 12.946365669616709 ], [ 77.746575268327035, 12.946411756258829 ], [ 77.746526761335815, 12.946450443439696 ], [ 77.746492038723503, 12.946481713459573 ], [ 77.746364064827759, 12.946596960358619 ], [ 77.746360263601588, 12.946600383417147 ], [ 77.746320972609993, 12.946693836559451 ], [ 77.746319890098079, 12.946696411634573 ], [ 77.746303235546748, 12.946799032587043 ], [ 77.746301628262202, 12.946808938335913 ], [ 77.746308778957712, 12.94701679888591 ], [ 77.746307910249215, 12.94701980621147 ], [ 77.74625767128903, 12.947193785114449 ], [ 77.746254781261896, 12.947203794718906 ], [ 77.746040097270111, 12.947725797772792 ], [ 77.746031663583977, 12.947746303847662 ], [ 77.74598278012941, 12.947873046630194 ], [ 77.745794712298434, 12.948360661887513 ], [ 77.745768427143005, 12.948428199467195 ], [ 77.745605102016341, 12.948847846240204 ], [ 77.745601516416656, 12.94885170333381 ], [ 77.745511240812306, 12.948948795894818 ], [ 77.74550635531881, 12.948954050597814 ], [ 77.745346851444893, 12.94907523572336 ], [ 77.745346689393443, 12.949075492171833 ], [ 77.745287823109749, 12.949168738774945 ], [ 77.745284573987902, 12.949173885895995 ], [ 77.745200366009385, 12.94949504370693 ], [ 77.745198838379636, 12.949503396689224 ], [ 77.745146922607589, 12.949787288538005 ], [ 77.745145187278183, 12.949796775588771 ], [ 77.745102811874659, 12.949921408223982 ], [ 77.745100332288118, 12.949928702593377 ], [ 77.745038316386953, 12.950051250454802 ], [ 77.744957627184874, 12.950218471731963 ], [ 77.744952537164338, 12.950229020326145 ], [ 77.744895813479971, 12.950389753311153 ], [ 77.744895040723364, 12.950396392841345 ], [ 77.744842361404224, 12.95084921200143 ], [ 77.744841295421978, 12.950853214172099 ], [ 77.744772143869184, 12.95111286059978 ], [ 77.744750252899337, 12.951196348970528 ], [ 77.745259999874648, 12.95130899999906 ] ] ], [ [ [ 77.714687999656391, 12.955841999938968 ], [ 77.715680999750333, 12.955789999915542 ], [ 77.715676784911139, 12.955760215571626 ], [ 77.715034137105363, 12.955792494841848 ], [ 77.714748932223415, 12.955806820295924 ], [ 77.714746567135322, 12.955807007559896 ], [ 77.714717695561902, 12.955809292361224 ], [ 77.714657665535682, 12.955814042078776 ], [ 77.714653675257296, 12.955814358302788 ], [ 77.714663838932282, 12.955841617692402 ], [ 77.7146644982233, 12.955843385009318 ], [ 77.714664712766577, 12.955843960441669 ], [ 77.714687999656391, 12.955841999938968 ] ] ] ] } },
{ "type": "Feature", "properties": { "KGISWardID": 5043, "KGISWardCode": "2003084", "KGISWardName": "Hagadur", "SHAPE.STArea()": 13581274.170709126, "SHAPE.STLength()": 21553.733846842941, "OBJECTID": 18927, "KGISWardNo": "84", "KGISTownCode": "2003", "LGD_WardCode": 1302756, "created_user": "SA", "created_date": 1634898537000, "last_edited_user": "SURESHBV1", "last_edited_date": 1692254014000, "_overlap_percent": 81.980050729075117, "_police_station": "Whitefield PS", "_police_feature_index": "721", "_admin_layer": "Ward", "_geometry_clipped": true }, "geometry": { "type": "Polygon", "coordinates": [ [ [ 77.7286370004025, 12.976283999812553 ], [ 77.730071000387539, 12.976160000214108 ], [ 77.731926999602763, 12.975977999724943 ], [ 77.733408999816618, 12.975829000042676 ], [ 77.733420999592312, 12.97596200030439 ], [ 77.733431000246284, 12.976089999902092 ], [ 77.733465999656403, 12.976092999581992 ], [ 77.733798000120771, 12.97625000005281 ], [ 77.734146000056299, 12.976288999885472 ], [ 77.73414399955206, 12.976504999948355 ], [ 77.734724000453028, 12.976655999569987 ], [ 77.735067999615381, 12.976855000104804 ], [ 77.7352709999913, 12.977090000299677 ], [ 77.7353199997724, 12.977157000420412 ], [ 77.735799000454151, 12.977027000014552 ], [ 77.73565999994446, 12.976735999964804 ], [ 77.736066000321856, 12.976593999592254 ], [ 77.736213000127506, 12.976943999924584 ], [ 77.736460000212432, 12.977540000090249 ], [ 77.736570999859936, 12.977789999836709 ], [ 77.736582999959694, 12.977826999871539 ], [ 77.736659999803805, 12.977797999643315 ], [ 77.73681000040871, 12.977743999665122 ], [ 77.738587000015983, 12.9772999998121 ], [ 77.73860700018021, 12.977291999630706 ], [ 77.739323999972683, 12.976989999584376 ], [ 77.739543999918027, 12.976894999754908 ], [ 77.739392999742876, 12.976482000383989 ], [ 77.741186999683507, 12.975983999744322 ], [ 77.74127800033709, 12.975961999735917 ], [ 77.742540999837956, 12.975643999868092 ], [ 77.742829000379444, 12.975564000231184 ], [ 77.743127999902086, 12.975480999911804 ], [ 77.743260999593602, 12.975440999828624 ], [ 77.743404000247608, 12.975416999722633 ], [ 77.743695999893475, 12.975411999779508 ], [ 77.744056999755813, 12.975500000392701 ], [ 77.744261000216554, 12.975599999931259 ], [ 77.744403000101201, 12.975651000157784 ], [ 77.74510699986763, 12.975638999809481 ], [ 77.745910000054366, 12.97537099964066 ], [ 77.746013000049658, 12.975321999898719 ], [ 77.746148000374319, 12.975205999740874 ], [ 77.746244999831191, 12.975045000288597 ], [ 77.746308000355796, 12.974921000040128 ], [ 77.746570000160531, 12.97440400020273 ], [ 77.746622999888828, 12.974556999756548 ], [ 77.746655000334286, 12.974551999617113 ], [ 77.747911000366997, 12.974355999975934 ], [ 77.748537999654104, 12.974312000280127 ], [ 77.748586000324025, 12.97430899968171 ], [ 77.74880700021231, 12.974371999604873 ], [ 77.750489999865209, 12.974997000148546 ], [ 77.750667999861435, 12.974800000441883 ], [ 77.750990000298827, 12.974755999879333 ], [ 77.751106000156099, 12.974740000368964 ], [ 77.751334999756793, 12.97470800042732 ], [ 77.75135300007571, 12.974704999693087 ], [ 77.751371000403878, 12.974701999860912 ], [ 77.753043000136984, 12.974410000440619 ], [ 77.753251000433906, 12.97444399983018 ], [ 77.754415999783404, 12.976268999938641 ], [ 77.754635999866707, 12.976584999804022 ], [ 77.754986000344033, 12.976789000274881 ], [ 77.755133999626693, 12.976857999747102 ], [ 77.755257000236654, 12.976814000404739 ], [ 77.755280999942244, 12.976806000014889 ], [ 77.755264000414527, 12.976766000196214 ], [ 77.755519999875048, 12.976739000033053 ], [ 77.756042999927033, 12.976692999644598 ], [ 77.756153000423566, 12.976686999765711 ], [ 77.756244999737262, 12.976681000090883 ], [ 77.756998000046949, 12.97667300023196 ], [ 77.756997999993246, 12.976675000196032 ], [ 77.757098000170316, 12.977155000406508 ], [ 77.757122000131517, 12.977314000393013 ], [ 77.757153999841833, 12.97751399968042 ], [ 77.757303000324285, 12.978260999809114 ], [ 77.757419000231437, 12.978820000051796 ], [ 77.757552000137565, 12.979669000391153 ], [ 77.757589999938844, 12.979665000190218 ], [ 77.758840999846058, 12.979673999666451 ], [ 77.759071000415318, 12.979673999928893 ], [ 77.759894385023543, 12.979679872070452 ], [ 77.761623885251765, 12.979668904437675 ], [ 77.762138755461308, 12.979648451184975 ], [ 77.765166000301036, 12.97940600018911 ], [ 77.765202641076797, 12.97939765924443 ], [ 77.76510432117658, 12.979040201951106 ], [ 77.764998621736908, 12.978654251828928 ], [ 77.764917401313781, 12.97835768311416 ], [ 77.7647913560196, 12.977890575374078 ], [ 77.764778813676756, 12.977814227340108 ], [ 77.764768262463292, 12.977741682785442 ], [ 77.764742095825042, 12.977667391979649 ], [ 77.764643972644109, 12.977433255147705 ], [ 77.764214865377696, 12.976535339374266 ], [ 77.764001236051612, 12.976081590780721 ], [ 77.764088280145373, 12.976083453000166 ], [ 77.764179882767735, 12.976080567647013 ], [ 77.764392138237682, 12.976057277885085 ], [ 77.764582929107902, 12.976032304780599 ], [ 77.764711612444216, 12.97603284869003 ], [ 77.764774226330019, 12.976053214842723 ], [ 77.764821160560828, 12.976066100215855 ], [ 77.764889792789447, 12.976101699162836 ], [ 77.764970268658146, 12.976150555722398 ], [ 77.765040766091118, 12.976178486369994 ], [ 77.765109228319375, 12.976198791131758 ], [ 77.765163876028609, 12.976203945981178 ], [ 77.765247638293303, 12.976197318977478 ], [ 77.765522126922747, 12.976159982753808 ], [ 77.765646827096035, 12.976152920146408 ], [ 77.76571514221429, 12.976159840910539 ], [ 77.765760295918099, 12.976188040957478 ], [ 77.765786061720576, 12.976226007991656 ], [ 77.76581000467236, 12.976275465673035 ], [ 77.76583642606839, 12.97637269795726 ], [ 77.765869732219457, 12.976485790644823 ], [ 77.765967035075491, 12.976469459502013 ], [ 77.766286213115464, 12.976418262475255 ], [ 77.766500396896916, 12.97639303902675 ], [ 77.766757403899703, 12.9763616235943 ], [ 77.767265612514208, 12.976302677544179 ], [ 77.767485601886904, 12.976273567774181 ], [ 77.767771744909282, 12.976232281404885 ], [ 77.76796071230477, 12.976218797407771 ], [ 77.768235580937215, 12.976215870757885 ], [ 77.768481314925452, 12.976222813886126 ], [ 77.768931632315102, 12.97621801809802 ], [ 77.769275027500527, 12.976241128491635 ], [ 77.769676947637251, 12.976267439569794 ], [ 77.769825103907777, 12.976265861134367 ], [ 77.770115525772923, 12.976258943036772 ], [ 77.770333691625765, 12.976241321567517 ], [ 77.7704972319397, 12.976220459218043 ], [ 77.770674269215888, 12.97618606758518 ], [ 77.770800345536273, 12.976127363323581 ], [ 77.770978654419721, 12.976031773628714 ], [ 77.771144750504845, 12.975922730847458 ], [ 77.771254762342977, 12.975843882060577 ], [ 77.771297711339116, 12.975760968654878 ], [ 77.771329468115724, 12.975657858972419 ], [ 77.771347638260281, 12.975538163800326 ], [ 77.771347505950828, 12.975416273548197 ], [ 77.771339383033023, 12.975306419340697 ], [ 77.771431291695478, 12.975243298732748 ], [ 77.771710037043164, 12.975106485688457 ], [ 77.771843237834474, 12.975030974804971 ], [ 77.77200819601444, 12.974962294903195 ], [ 77.772204938060767, 12.974902836718751 ], [ 77.772375087774009, 12.974862782431442 ], [ 77.772543064533124, 12.97484665112937 ], [ 77.772640376407765, 12.974831273294615 ], [ 77.772681642119821, 12.974816493109978 ], [ 77.772734959884517, 12.974789634438149 ], [ 77.772764514574931, 12.974894530176709 ], [ 77.772779969803622, 12.974969651248879 ], [ 77.772791650439217, 12.975034057703299 ], [ 77.772786139608399, 12.975218387331546 ], [ 77.772774634562211, 12.975411624341303 ], [ 77.772750501211334, 12.975520866684498 ], [ 77.772712635956211, 12.975622608011147 ], [ 77.772661570578776, 12.975764641567185 ], [ 77.772581518355722, 12.97592992936344 ], [ 77.772534224212961, 12.976060451499446 ], [ 77.772502101995201, 12.976152570889536 ], [ 77.772476060275594, 12.976265658227293 ], [ 77.772402471342758, 12.976662230584584 ], [ 77.772343016156256, 12.977102630132935 ], [ 77.772342280827928, 12.977201371238664 ], [ 77.773277766426261, 12.977264826177528 ], [ 77.773371481776593, 12.977331280497873 ], [ 77.773427303020696, 12.9773562785668 ], [ 77.773499776197426, 12.977377322202278 ], [ 77.773587894789799, 12.977394848493665 ], [ 77.773683721558214, 12.977413908536812 ], [ 77.774000542280163, 12.977445581911532 ], [ 77.774132495296342, 12.977517346743417 ], [ 77.774233463777705, 12.977611870548419 ], [ 77.77434574457763, 12.97764793562717 ], [ 77.774395735949724, 12.977647373911752 ], [ 77.774511443174433, 12.977625634035364 ], [ 77.774754617739845, 12.977577627984886 ], [ 77.775032357356906, 12.977569882871968 ], [ 77.775188656566456, 12.977599284663876 ], [ 77.775356635486887, 12.9775831511996 ], [ 77.776157578607084, 12.977509075142384 ], [ 77.776241342606454, 12.97750132804312 ], [ 77.776244208651036, 12.977502618980587 ], [ 77.776680144548763, 12.977470129138851 ], [ 77.777001408427139, 12.977425019454929 ], [ 77.77700956949738, 12.97742387449434 ], [ 77.777447493225239, 12.977286296503003 ], [ 77.777580000076952, 12.977187000259056 ], [ 77.777681615336533, 12.977181717374386 ], [ 77.777941441713324, 12.977037394227837 ], [ 77.77812657870497, 12.976998621289509 ], [ 77.778234999542207, 12.976914000184138 ], [ 77.778427999883647, 12.976750999993548 ], [ 77.778170000298488, 12.976318999877597 ], [ 77.77800299961433, 12.976241000371074 ], [ 77.777699000186445, 12.976232999678301 ], [ 77.777608337969184, 12.976229591500745 ], [ 77.777410404439451, 12.976402837943183 ], [ 77.777397999586569, 12.976456000331396 ], [ 77.777378000230755, 12.976528000184603 ], [ 77.777344000153192, 12.976563999976211 ], [ 77.777262000291117, 12.976584999978105 ], [ 77.777166000375118, 12.976582000372762 ], [ 77.776981000296828, 12.976532000021903 ], [ 77.776896999772646, 12.976413999733509 ], [ 77.776820000197716, 12.9763769996067 ], [ 77.776486999953818, 12.976011000256303 ], [ 77.776498000103928, 12.975640999804055 ], [ 77.776362000073206, 12.975391999714095 ], [ 77.776331000176057, 12.975359000320411 ], [ 77.776281000168424, 12.975253000256227 ], [ 77.776003000134608, 12.974861999592116 ], [ 77.776032000326623, 12.974820000264423 ], [ 77.776023000411982, 12.974801000321944 ], [ 77.775994000219654, 12.9746509995912 ], [ 77.775998000216774, 12.974548999958444 ], [ 77.776123999541852, 12.974407999812067 ], [ 77.776280999826014, 12.974327999939982 ], [ 77.776379000330934, 12.974310000146616 ], [ 77.776392999864726, 12.974309999707305 ], [ 77.776682999703866, 12.973900000432693 ], [ 77.776918999978818, 12.973827000099387 ], [ 77.777057999915812, 12.973658999929839 ], [ 77.777176000376926, 12.973551999745787 ], [ 77.77748000039044, 12.973492000353609 ], [ 77.777768999761207, 12.97343699991926 ], [ 77.777821999821853, 12.973408000194452 ], [ 77.77789199954546, 12.97334999959935 ], [ 77.777938999656769, 12.97328700007281 ], [ 77.777970000034458, 12.973112000042569 ], [ 77.778097999619789, 12.972848000172515 ], [ 77.778220999842574, 12.972776000156113 ], [ 77.778368000283621, 12.972734000083276 ], [ 77.778539999687013, 12.972743000253219 ], [ 77.779020000455617, 12.972201999861678 ], [ 77.778894999779979, 12.971864999598653 ], [ 77.778819000288578, 12.971702999809017 ], [ 77.778440999926104, 12.971016999925924 ], [ 77.778452999675949, 12.970916999815246 ], [ 77.778438000226316, 12.970886000331484 ], [ 77.778482999654329, 12.970492000117389 ], [ 77.778506000043322, 12.970448999770882 ], [ 77.778512000023397, 12.970400999647669 ], [ 77.778539999752468, 12.970387999964183 ], [ 77.778555999809015, 12.970357999884468 ], [ 77.778698999761517, 12.970186000144762 ], [ 77.778902000077082, 12.970039999757615 ], [ 77.77906500021318, 12.970026000227254 ], [ 77.780222999880806, 12.969923999841425 ], [ 77.780511000070675, 12.969881000267764 ], [ 77.780739999823837, 12.969901000218007 ], [ 77.780994999669559, 12.970112999552919 ], [ 77.781107999889485, 12.970289999806766 ], [ 77.781227000247796, 12.970440999993608 ], [ 77.781377000193785, 12.97055099978513 ], [ 77.781645000354274, 12.970654999576858 ], [ 77.781926000100086, 12.970684000071746 ], [ 77.782601999569579, 12.970738000050835 ], [ 77.783074999544368, 12.970748999755134 ], [ 77.78321800044823, 12.970712000174075 ], [ 77.7832850001286, 12.97066900022342 ], [ 77.783345999625126, 12.97058400012901 ], [ 77.783429999751291, 12.97037299985503 ], [ 77.783539999995625, 12.96982099989828 ], [ 77.784030999788925, 12.968498999554074 ], [ 77.784080999690588, 12.967158000115727 ], [ 77.784043999969654, 12.966693000205165 ], [ 77.784013000077778, 12.966640999719292 ], [ 77.78261148543325, 12.966281249348114 ], [ 77.782337401874571, 12.96622867593768 ], [ 77.78206544773758, 12.966176509490976 ], [ 77.781847548309074, 12.966134711958198 ], [ 77.78169101715747, 12.966242524503645 ], [ 77.781633054411529, 12.966317990657283 ], [ 77.78158433780267, 12.966381419808183 ], [ 77.781453348969208, 12.966612035086301 ], [ 77.781397473437977, 12.966815877128687 ], [ 77.781241847918807, 12.966942162454094 ], [ 77.781224037911471, 12.966956615216326 ], [ 77.781033272636293, 12.967003052279344 ], [ 77.780828276814319, 12.967052953770331 ], [ 77.780535112073537, 12.967124317105695 ], [ 77.779882568419552, 12.96714709886681 ], [ 77.77936421961158, 12.966968587765558 ], [ 77.779068614560543, 12.966890447767581 ], [ 77.778983102474314, 12.96686767461509 ], [ 77.778820131898996, 12.96682427337058 ], [ 77.778773657173858, 12.966811896698539 ], [ 77.778595751815587, 12.96676451855855 ], [ 77.778473956695194, 12.966993905556853 ], [ 77.778656422405987, 12.967717993259512 ], [ 77.777621794371171, 12.968152511810755 ], [ 77.777450852440197, 12.968224302211636 ], [ 77.777383387651412, 12.968197259246177 ], [ 77.777310919515301, 12.968168210127912 ], [ 77.777220725824691, 12.968133040594974 ], [ 77.777219283827435, 12.968125418862853 ], [ 77.776981000344961, 12.967995000194758 ], [ 77.776983877568412, 12.967859041530945 ], [ 77.776478566977332, 12.967758184279479 ], [ 77.776430957739692, 12.967717338367198 ], [ 77.776316000126229, 12.967698999916012 ], [ 77.776036060452142, 12.967400462323075 ], [ 77.775977997970287, 12.967366383643242 ], [ 77.775708000040964, 12.967223000414199 ], [ 77.775674999672447, 12.967204999901718 ], [ 77.775067000252079, 12.966880999952984 ], [ 77.774762000146708, 12.966663000003576 ], [ 77.774478595787372, 12.966503629865882 ], [ 77.774451846825684, 12.966502032908808 ], [ 77.774365718109664, 12.966496891077306 ], [ 77.774065588020704, 12.966390713164943 ], [ 77.773820000292091, 12.966325000097777 ], [ 77.773738890419779, 12.966195731395304 ], [ 77.773549762769463, 12.966114266176 ], [ 77.773515598938275, 12.966099550443461 ], [ 77.773500052851276, 12.966092854592093 ], [ 77.773357736541882, 12.966070206231549 ], [ 77.773287259330132, 12.966058990385836 ], [ 77.773176533132698, 12.966040975217439 ], [ 77.773120588189528, 12.966031409244151 ], [ 77.773087141347219, 12.966026120031287 ], [ 77.772127606040669, 12.965870673157394 ], [ 77.772106184386416, 12.965867202326448 ], [ 77.77208422973068, 12.965877144189649 ], [ 77.772055283412826, 12.965890251693795 ], [ 77.771983608148929, 12.965922707312727 ], [ 77.771882543207539, 12.965806543051521 ], [ 77.771773999573924, 12.965807999898656 ], [ 77.771755999830006, 12.965786999860935 ], [ 77.771582999859703, 12.965578999757486 ], [ 77.771201000333861, 12.965151999770201 ], [ 77.771110000336392, 12.965015999971405 ], [ 77.770562999660484, 12.964203999791449 ], [ 77.770302000070942, 12.963283000277592 ], [ 77.770308999912245, 12.963276000022057 ], [ 77.770364000257644, 12.963221000445257 ], [ 77.770339918125202, 12.963046761433723 ], [ 77.770203593716658, 12.963055567286585 ], [ 77.770193031406549, 12.962963146615838 ], [ 77.770121999782674, 12.962956999588229 ], [ 77.770014999960182, 12.962946999782233 ], [ 77.770013000201345, 12.962934999717836 ], [ 77.770006000423365, 12.962880999826822 ], [ 77.769974000233617, 12.962656999701547 ], [ 77.768866000438621, 12.96260399982941 ], [ 77.768322999952233, 12.962577999846912 ], [ 77.768000999557273, 12.962210000131606 ], [ 77.767862000188529, 12.962211999760537 ], [ 77.767365999682823, 12.962315000297149 ], [ 77.767028000045855, 12.962279000062383 ], [ 77.766851000263941, 12.962514999910576 ], [ 77.766651999970065, 12.962517000018925 ], [ 77.766491999546091, 12.962421999682604 ], [ 77.766253000165193, 12.962365999739681 ], [ 77.766192999589848, 12.962347000245209 ], [ 77.766052999824439, 12.962290000149482 ], [ 77.765537000056042, 12.96237299993513 ], [ 77.765358000386271, 12.962335999690444 ], [ 77.764900000235798, 12.96228200030918 ], [ 77.764542999589466, 12.962306000320694 ], [ 77.764342000387728, 12.962112999956421 ], [ 77.76416199955996, 12.962094999983428 ], [ 77.762447000457144, 12.961587000245892 ], [ 77.762268000146051, 12.961568999982497 ], [ 77.761709000447283, 12.961361000225764 ], [ 77.761707000281632, 12.96116600023838 ], [ 77.761286999863131, 12.960974999999316 ], [ 77.760945999795155, 12.960705999886338 ], [ 77.760606000118102, 12.960495000054324 ], [ 77.760266000280666, 12.960343000306274 ], [ 77.759587000077858, 12.960038000398285 ], [ 77.759190999616663, 12.959930000215225 ], [ 77.759107999775097, 12.959905999772714 ], [ 77.758987000348284, 12.96005700044309 ], [ 77.758909000239498, 12.960275000223891 ], [ 77.758896999742149, 12.960310000306814 ], [ 77.758827000425327, 12.960505999701065 ], [ 77.757729000145318, 12.960038000422886 ], [ 77.757721999665179, 12.960027999796388 ], [ 77.756809999694369, 12.959675999610475 ], [ 77.756758000308835, 12.959655999662843 ], [ 77.756702000004779, 12.959633999654384 ], [ 77.756687999924409, 12.959160999691662 ], [ 77.756143999645914, 12.958922000199545 ], [ 77.756045000100926, 12.959036999560915 ], [ 77.755622999640622, 12.958817000328473 ], [ 77.755029000171589, 12.958746999957524 ], [ 77.754388000153469, 12.958375999624183 ], [ 77.754337000153185, 12.958345000436696 ], [ 77.75436100008838, 12.958196999864697 ], [ 77.754194000080133, 12.958128000034216 ], [ 77.753917000308917, 12.958012000097343 ], [ 77.753652999894172, 12.957903000416728 ], [ 77.753384999765018, 12.957791000313808 ], [ 77.75325699969882, 12.957737999873927 ], [ 77.753281999712215, 12.957653000454686 ], [ 77.752809999861938, 12.957471000055044 ], [ 77.752431000114726, 12.957323999568448 ], [ 77.752308999693369, 12.957277000101385 ], [ 77.752262000297705, 12.95725900039794 ], [ 77.75182300018443, 12.956937999557539 ], [ 77.751854000235042, 12.956912000132936 ], [ 77.75159299972762, 12.956714999908773 ], [ 77.751515000301495, 12.956639999601828 ], [ 77.75130499982555, 12.956499000360239 ], [ 77.751188000115391, 12.956439999945539 ], [ 77.751110000135441, 12.956390000070956 ], [ 77.750957000345409, 12.956312999862586 ], [ 77.750791999561358, 12.956263000448027 ], [ 77.750365999560074, 12.956255999846654 ], [ 77.750345999648047, 12.956250999805311 ], [ 77.750347000306377, 12.95602300009714 ], [ 77.750341999723787, 12.956000999888857 ], [ 77.750158999652385, 12.955947999578864 ], [ 77.749871999893216, 12.955924999675613 ], [ 77.749643999673154, 12.95591500041389 ], [ 77.749339000368821, 12.955901000195725 ], [ 77.748971999934426, 12.955885000259034 ], [ 77.7484390000307, 12.955874999657386 ], [ 77.748381000422569, 12.955878000324201 ], [ 77.748360999950819, 12.955903999797956 ], [ 77.748326999550414, 12.956484000340151 ], [ 77.748315000401504, 12.956823999688959 ], [ 77.746711000134496, 12.956928999796052 ], [ 77.746675000134715, 12.95693200018165 ], [ 77.746628000021275, 12.956892999568744 ], [ 77.747256999607956, 12.956337000451612 ], [ 77.747472999889965, 12.956139000351868 ], [ 77.747538000327211, 12.955564000275144 ], [ 77.747500999690232, 12.955350999859679 ], [ 77.747427999670705, 12.955226999925491 ], [ 77.746878000336096, 12.954761999676393 ], [ 77.746852000419167, 12.954656000326864 ], [ 77.747555000387223, 12.953967000012351 ], [ 77.747762999979798, 12.953620000149584 ], [ 77.74791100023414, 12.95350199964566 ], [ 77.748296999828483, 12.95236500004488 ], [ 77.748264000095617, 12.952347999778443 ], [ 77.748226999801872, 12.95233800009968 ], [ 77.747959000264458, 12.952334999800618 ], [ 77.747801000160109, 12.952354000096054 ], [ 77.747614999873321, 12.95234199972348 ], [ 77.747472000345695, 12.952328999950861 ], [ 77.747330999658899, 12.952249000421361 ], [ 77.747235000247585, 12.952168000349296 ], [ 77.747094999705325, 12.952026999708202 ], [ 77.746988000437696, 12.951928000079613 ], [ 77.746905999548289, 12.951840000398427 ], [ 77.746839999936697, 12.951768999780613 ], [ 77.746765999668469, 12.951727000151227 ], [ 77.746618999593821, 12.951671999942509 ], [ 77.746455999727814, 12.951626000264341 ], [ 77.746326999693963, 12.951565999790851 ], [ 77.746213999637689, 12.951475999712033 ], [ 77.746097000427397, 12.951407999994778 ], [ 77.745966999977341, 12.95138199963047 ], [ 77.745801000105473, 12.951381000026725 ], [ 77.74559399985462, 12.951353000064888 ], [ 77.745487000269819, 12.951363999671138 ], [ 77.745428000120938, 12.951360000153352 ], [ 77.745259999874648, 12.95130899999906 ], [ 77.744750252899337, 12.951196348970528 ], [ 77.744719212129638, 12.951314733094584 ], [ 77.744715764202482, 12.951327882251013 ], [ 77.744705907174506, 12.951356526116244 ], [ 77.744632026001128, 12.951635677536821 ], [ 77.744621666855636, 12.951674817131471 ], [ 77.74452214921493, 12.951990065019405 ], [ 77.744519923896121, 12.951997115519271 ], [ 77.7443578585344, 12.952329610496159 ], [ 77.744230208398974, 12.952583037844365 ], [ 77.744228114390665, 12.952587194478708 ], [ 77.744169577345517, 12.952822583810345 ], [ 77.744160893294392, 12.952857504339908 ], [ 77.744070400610255, 12.953139426107144 ], [ 77.744068519600759, 12.953145286898701 ], [ 77.744037881361578, 12.953348484560395 ], [ 77.744037622042214, 12.953350203631375 ], [ 77.744058063072885, 12.953485713563577 ], [ 77.744058644041829, 12.953489562879529 ], [ 77.744131357891874, 12.953609918629057 ], [ 77.744132108324436, 12.953611160937912 ], [ 77.744240176422025, 12.953866238852699 ], [ 77.744240217551607, 12.953866882497705 ], [ 77.744251916674131, 12.95404941461303 ], [ 77.744251933318125, 12.954049672791667 ], [ 77.744228403287892, 12.954178339895185 ], [ 77.744215147115625, 12.95425082776678 ], [ 77.744165280307698, 12.954481651552143 ], [ 77.744165050652427, 12.954482715392068 ], [ 77.744158773188886, 12.954620193387012 ], [ 77.744158761264444, 12.954620450060066 ], [ 77.744187966815545, 12.954708767640163 ], [ 77.744229129335267, 12.954833240774036 ], [ 77.744229333202398, 12.95483385831378 ], [ 77.744261709238529, 12.955000206027313 ], [ 77.744262385611663, 12.955003683064676 ], [ 77.744288757969102, 12.955295155454539 ], [ 77.744289003136686, 12.955297861071037 ], [ 77.744340010502384, 12.955455340353437 ], [ 77.744341466157394, 12.955459833558942 ], [ 77.744581248790894, 12.955948422504729 ], [ 77.744590723218806, 12.955967727179463 ], [ 77.744719962930091, 12.956197724310675 ], [ 77.74472032793453, 12.956198085410213 ], [ 77.744844132092283, 12.956320698841569 ], [ 77.744846274732041, 12.956321566940732 ], [ 77.744928399830798, 12.956354823683505 ], [ 77.744926684074372, 12.956358281673579 ], [ 77.744790556156232, 12.956632637944173 ], [ 77.744785324453872, 12.956632367900394 ], [ 77.744420189084636, 12.956669081450601 ], [ 77.743648420201566, 12.956847509168334 ], [ 77.743605819219908, 12.956858433205367 ], [ 77.743434090805991, 12.956902467545406 ], [ 77.743429710659839, 12.956903590479351 ], [ 77.742914694142968, 12.956916765935203 ], [ 77.742436940597003, 12.956928987784204 ], [ 77.741942542874455, 12.956932311844996 ], [ 77.740976569523284, 12.956938805395282 ], [ 77.740868282100422, 12.956939532640007 ], [ 77.739531037760273, 12.956941657416595 ], [ 77.739144190109641, 12.956946992538326 ], [ 77.73770361049425, 12.956966855414409 ], [ 77.736948180716055, 12.956968823590623 ], [ 77.736914068092176, 12.956965215642709 ], [ 77.73610036381649, 12.956879143675328 ], [ 77.736023913373884, 12.956867520764082 ], [ 77.734574742282163, 12.956647199986193 ], [ 77.733308016845868, 12.956412528896328 ], [ 77.733288541330609, 12.95640974600332 ], [ 77.731931907481922, 12.95621587527447 ], [ 77.731886281363501, 12.956209354917345 ], [ 77.730558033564961, 12.956044838271211 ], [ 77.730507546322457, 12.956038584540016 ], [ 77.72880154909457, 12.955924319975249 ], [ 77.728733374005799, 12.955919753532784 ], [ 77.726833482526104, 12.955851520650008 ], [ 77.726801338225386, 12.955850365873735 ], [ 77.725278073132628, 12.955841090436522 ], [ 77.725177613024854, 12.955840477982493 ], [ 77.724174440806109, 12.955804610731542 ], [ 77.723832957645399, 12.955792399831711 ], [ 77.723832999580978, 12.955803999562315 ], [ 77.723768999686968, 12.955921999766352 ], [ 77.723829999610786, 12.956691000136644 ], [ 77.723827000174396, 12.95686100035855 ], [ 77.723857999579167, 12.956884999620435 ], [ 77.723828000449757, 12.95690800020628 ], [ 77.723783000313134, 12.956960999889123 ], [ 77.723766999693041, 12.957117999627185 ], [ 77.72381200017908, 12.957194000066698 ], [ 77.723815000261837, 12.957218999591873 ], [ 77.723986999819715, 12.957442000296167 ], [ 77.724018000031933, 12.957482999646247 ], [ 77.724085999641218, 12.957537000378153 ], [ 77.724057000127885, 12.959092999703755 ], [ 77.723931000293078, 12.959089000233812 ], [ 77.723865000175351, 12.959085999793498 ], [ 77.723829999946162, 12.95908500017538 ], [ 77.723909000171972, 12.960179999550888 ], [ 77.724035999755415, 12.960152999971303 ], [ 77.724074999649133, 12.960205999624073 ], [ 77.724123000287065, 12.960655000204678 ], [ 77.724187000065967, 12.960702000087348 ], [ 77.724189000454828, 12.960702999934544 ], [ 77.724197999939378, 12.960709999740819 ], [ 77.724665999838393, 12.960796000390271 ], [ 77.724853000243201, 12.96083199960619 ], [ 77.725301000274754, 12.960917999735249 ], [ 77.725521999973679, 12.960961000193057 ], [ 77.726112000361468, 12.961127000060619 ], [ 77.726139000201428, 12.96113500004919 ], [ 77.726466000063539, 12.961277000103218 ], [ 77.726467999939118, 12.96130400008526 ], [ 77.726575000447085, 12.961361999620733 ], [ 77.726715999571596, 12.961436999821322 ], [ 77.726896999592896, 12.961634999731981 ], [ 77.727081999927464, 12.961898000341545 ], [ 77.727108999668928, 12.961970999645262 ], [ 77.727118999783855, 12.962022999915503 ], [ 77.727129999645996, 12.96265999997353 ], [ 77.727142999582213, 12.962684000270707 ], [ 77.727202000293232, 12.962996999649016 ], [ 77.727211000410605, 12.963042000408683 ], [ 77.727220999746493, 12.963122999911853 ], [ 77.727233000106708, 12.963213000167753 ], [ 77.727245999644595, 12.963315999951725 ], [ 77.727252000420108, 12.963368999659629 ], [ 77.727258999611095, 12.96343399980344 ], [ 77.727270000100759, 12.963550999825156 ], [ 77.727282999624975, 12.96367799971925 ], [ 77.72728599977988, 12.963712000062348 ], [ 77.727287000369273, 12.963716000435499 ], [ 77.727291999964564, 12.963768999790849 ], [ 77.727295999627231, 12.963807999619185 ], [ 77.727303999890864, 12.963886000168214 ], [ 77.727307999734165, 12.963917999958726 ], [ 77.727315000357549, 12.963986000093149 ], [ 77.727321000239954, 12.964050999860341 ], [ 77.727327999816353, 12.964113999978771 ], [ 77.727345999547438, 12.964237999824652 ], [ 77.727352999796096, 12.964284999853884 ], [ 77.727365999814268, 12.964397999649453 ], [ 77.727378000307695, 12.964524000044834 ], [ 77.727389000417915, 12.964626999970317 ], [ 77.727407999780226, 12.964762000210781 ], [ 77.727472999702968, 12.965142000002635 ], [ 77.727506000392907, 12.965332000046299 ], [ 77.727621000354787, 12.965937999650341 ], [ 77.727827999919128, 12.967025999565454 ], [ 77.727852999719786, 12.967199000157663 ], [ 77.727906999982679, 12.967562000082452 ], [ 77.726662000438267, 12.967730999820551 ], [ 77.726136999948238, 12.967708999638935 ], [ 77.725675999821576, 12.96774400024473 ], [ 77.725602999752041, 12.967765000094822 ], [ 77.725164000322351, 12.967823999818151 ], [ 77.725060999886026, 12.967835000276773 ], [ 77.724513000097986, 12.967889999787639 ], [ 77.724424999744201, 12.967983999755164 ], [ 77.724378999685499, 12.968032000358305 ], [ 77.724470999863115, 12.968299999834432 ], [ 77.724643000434412, 12.968612999909865 ], [ 77.725093000284261, 12.969435000433121 ], [ 77.725335000099548, 12.969844999556981 ], [ 77.725428000188344, 12.969826999696668 ], [ 77.72546799954786, 12.969817999669111 ], [ 77.725637999972122, 12.970220000231297 ], [ 77.725874999907717, 12.971214000006016 ], [ 77.72667500029408, 12.971068999895575 ], [ 77.726731000091746, 12.971514000366296 ], [ 77.726900999562517, 12.973357000003904 ], [ 77.726956000292645, 12.974892000344658 ], [ 77.726971000298846, 12.975024999911305 ], [ 77.727036899636573, 12.976426859132003 ], [ 77.727138851701724, 12.976419275360492 ], [ 77.727138894624915, 12.976419765444343 ], [ 77.7286370004025, 12.976283999812553 ] ] ] } },
{ "type": "Feature", "properties": { "KGISWardID": 5046, "KGISWardCode": "2003085", "KGISWardName": "Dodda Nekkundi", "SHAPE.STArea()": 12129788.5625221, "SHAPE.STLength()": 21724.788849131062, "OBJECTID": 18928, "KGISWardNo": "85", "KGISTownCode": "2003", "LGD_WardCode": 1302757, "created_user": "SA", "created_date": 1634898537000, "last_edited_user": "SURESHBV1", "last_edited_date": 1692254014000, "_overlap_percent": 15.415694417581735, "_police_station": "Whitefield PS", "_police_feature_index": "721", "_admin_layer": "Ward", "_geometry_clipped": true }, "geometry": { "type": "Polygon", "coordinates": [ [ [ 77.715680999750333, 12.955789999915542 ], [ 77.714687999656391, 12.955841999938968 ], [ 77.714664712766577, 12.955843960441669 ], [ 77.714681487349907, 12.955888952007767 ], [ 77.714732783639334, 12.95600109996178 ], [ 77.714756884135781, 12.956053790740764 ], [ 77.715113440674017, 12.956910520675221 ], [ 77.715138471926934, 12.95697750992516 ], [ 77.715475705755779, 12.957880011008376 ], [ 77.715499323829533, 12.957943216315654 ], [ 77.715944801682198, 12.959133634393616 ], [ 77.71594729253961, 12.959141048434931 ], [ 77.716265886668964, 12.960089324142407 ], [ 77.716415648298735, 12.960597649708335 ], [ 77.716417697625388, 12.96060460492642 ], [ 77.716495792327649, 12.961063889921052 ], [ 77.716609044863134, 12.961675178413961 ], [ 77.716705652909894, 12.962177785407087 ], [ 77.716705901864643, 12.96217908273487 ], [ 77.716776705847309, 12.962360331514125 ], [ 77.716777968740516, 12.962363564984907 ], [ 77.716880787019932, 12.96257461538848 ], [ 77.716882194649671, 12.96257684191421 ], [ 77.717052885870714, 12.962846788701103 ], [ 77.717085353185752, 12.962898135105204 ], [ 77.717472357873632, 12.963532331483794 ], [ 77.717473037763639, 12.963533446348881 ], [ 77.717715207057125, 12.963970461933627 ], [ 77.717749576602515, 12.964032484937823 ], [ 77.718004763494136, 12.964528758658396 ], [ 77.718005783288007, 12.964531147311865 ], [ 77.718010331307312, 12.964541805442465 ], [ 77.718204658213367, 12.964997182846814 ], [ 77.718214196605572, 12.965019534232011 ], [ 77.718285272503266, 12.965224932318995 ], [ 77.718285366155527, 12.965226685651926 ], [ 77.718299082086077, 12.965486514672508 ], [ 77.718299922280679, 12.965486529381689 ], [ 77.718300633488155, 12.965486540921713 ], [ 77.718302899791439, 12.965486579575712 ], [ 77.718382621131909, 12.965487937299399 ], [ 77.718383289247924, 12.965487882441296 ], [ 77.718548192403276, 12.965474256924322 ], [ 77.718718247143713, 12.965424678243684 ], [ 77.719195670757713, 12.965178286313595 ], [ 77.719283199772732, 12.96515944543056 ], [ 77.719477351774273, 12.965196852994927 ], [ 77.719631297322138, 12.96523468156731 ], [ 77.719755923724193, 12.965265645706937 ], [ 77.71985091837486, 12.965261067306777 ], [ 77.719930708914688, 12.965202870376025 ], [ 77.719991794840624, 12.965105431335141 ], [ 77.720051633977604, 12.964893279652847 ], [ 77.720100974453629, 12.964724260753574 ], [ 77.720121970737296, 12.964637997010367 ], [ 77.720583797934211, 12.964414471832011 ], [ 77.720696601435847, 12.964366685780197 ], [ 77.720948255908709, 12.964220049358024 ], [ 77.721196920349058, 12.964115868990625 ], [ 77.721317978968926, 12.964042898587156 ], [ 77.721701573323003, 12.964020961450091 ], [ 77.722158465968846, 12.964016182154005 ], [ 77.723036803989501, 12.964108571975947 ], [ 77.723457599621057, 12.964145994995986 ], [ 77.723817281213343, 12.964166130985729 ], [ 77.72390859463178, 12.964159200366872 ], [ 77.723944626181506, 12.964111020654636 ], [ 77.723974240338549, 12.964033031654155 ], [ 77.723985708682505, 12.96396718391857 ], [ 77.724570139214165, 12.963925213159349 ], [ 77.725051137566282, 12.963896275617074 ], [ 77.725167209149021, 12.963924936486857 ], [ 77.725216790077894, 12.964002095244458 ], [ 77.725242263174266, 12.964103409069162 ], [ 77.725268321785464, 12.964258493074313 ], [ 77.725257374242702, 12.964372137827963 ], [ 77.725185117411655, 12.964450573518278 ], [ 77.724966785437203, 12.964542489406941 ], [ 77.724852534890033, 12.964681117698071 ], [ 77.724732843326876, 12.96487955583247 ], [ 77.724692801971457, 12.965118985813094 ], [ 77.724683870674298, 12.965417843811771 ], [ 77.724538120215001, 12.965461196931777 ], [ 77.724397420410213, 12.965408892985351 ], [ 77.724031254638859, 12.965352973917968 ], [ 77.723424299529228, 12.965388815777231 ], [ 77.723404200085582, 12.966037031214798 ], [ 77.722428904004971, 12.966441456767622 ], [ 77.722420333206756, 12.966446194189755 ], [ 77.72223025919314, 12.966551241786053 ], [ 77.722219296876247, 12.96655975674317 ], [ 77.721693764129867, 12.966967955211075 ], [ 77.72168350279307, 12.966977746479794 ], [ 77.721493206630569, 12.967159325145984 ], [ 77.721491153633153, 12.967161284309704 ], [ 77.721425730133021, 12.967420102060625 ], [ 77.721383955908777, 12.967571805131834 ], [ 77.721454385282229, 12.967667125246759 ], [ 77.721528944665437, 12.967800191989543 ], [ 77.721588111030186, 12.968086387695053 ], [ 77.721660994298389, 12.968513456460043 ], [ 77.721694960593183, 12.968723431766799 ], [ 77.721698411445317, 12.968816609678534 ], [ 77.721698957401074, 12.968866796824427 ], [ 77.721687241500703, 12.968909941472893 ], [ 77.721670443710082, 12.968934018979164 ], [ 77.721510081709766, 12.968978718886049 ], [ 77.721473712085654, 12.968995830357652 ], [ 77.72144734931878, 12.969036737979422 ], [ 77.72141956341811, 12.969170875428389 ], [ 77.721331007084331, 12.969991612472377 ], [ 77.721281549289401, 12.970149878430387 ], [ 77.72119961437086, 12.970459060989002 ], [ 77.721154309185792, 12.970775031115156 ], [ 77.721110869012278, 12.97103839859637 ], [ 77.720980378916224, 12.971364820140652 ], [ 77.720857095529595, 12.971681606118207 ], [ 77.720791021224613, 12.971880676844822 ], [ 77.720729352919989, 12.972036680294462 ], [ 77.720669445669756, 12.972130521098887 ], [ 77.720530916788988, 12.972390103759599 ], [ 77.720373762883753, 12.972602954852363 ], [ 77.720293580589498, 12.972625305118655 ], [ 77.719972228383853, 12.972657347860471 ], [ 77.719727247932056, 12.972652739283925 ], [ 77.719449290954174, 12.972641305420876 ], [ 77.719302336772174, 12.972473621750138 ], [ 77.719258774847944, 12.972053415199273 ], [ 77.719148311277394, 12.970859508691287 ], [ 77.719125700026453, 12.970572929910054 ], [ 77.718890309400919, 12.970441543720241 ], [ 77.718645587562307, 12.970348497324103 ], [ 77.718108550979977, 12.970268064912247 ], [ 77.71767883800139, 12.970196071945054 ], [ 77.717376255893328, 12.970160990802515 ], [ 77.717416387911868, 12.970265737192726 ], [ 77.717495522531152, 12.971268763393672 ], [ 77.717574540073215, 12.971363543211368 ], [ 77.717692131298421, 12.971419677367754 ], [ 77.717907404340167, 12.971493911920629 ], [ 77.718025722785072, 12.971616961381159 ], [ 77.718155866927717, 12.971931098013659 ], [ 77.718225625110009, 12.972255165710179 ], [ 77.71823800152093, 12.972312659400556 ], [ 77.718242190526851, 12.972317045656139 ], [ 77.718263144491956, 12.972466171586719 ], [ 77.718263406077654, 12.972468035178801 ], [ 77.717831728703445, 12.972509772358832 ], [ 77.717831963517867, 12.972511630811603 ], [ 77.717915054938416, 12.973169172867317 ], [ 77.717915393825564, 12.973174335599596 ], [ 77.718006302978736, 12.974557479738406 ], [ 77.718011785397948, 12.974622134092288 ], [ 77.7180959350721, 12.975614524845408 ], [ 77.718132100555792, 12.976041029566511 ], [ 77.718205550184493, 12.977219529429753 ], [ 77.718205688440946, 12.977221740293984 ], [ 77.718276165864282, 12.977213654602098 ], [ 77.718276786058198, 12.977222753804426 ], [ 77.72125599954704, 12.976926000408822 ], [ 77.721643000009252, 12.976892000421206 ], [ 77.723109999592026, 12.976753999617458 ], [ 77.724522000422382, 12.976637000024859 ], [ 77.724593999934953, 12.976627999707215 ], [ 77.725047121403421, 12.97659108967631 ], [ 77.72593718167478, 12.976508662376862 ], [ 77.727036899636573, 12.976426859132003 ], [ 77.726971000298846, 12.975024999911305 ], [ 77.726956000292645, 12.974892000344658 ], [ 77.726900999562517, 12.973357000003904 ], [ 77.726731000091746, 12.971514000366296 ], [ 77.72667500029408, 12.971068999895575 ], [ 77.725874999907717, 12.971214000006016 ], [ 77.725637999972122, 12.970220000231297 ], [ 77.72546799954786, 12.969817999669111 ], [ 77.725428000188344, 12.969826999696668 ], [ 77.725335000099548, 12.969844999556981 ], [ 77.725093000284261, 12.969435000433121 ], [ 77.724643000434412, 12.968612999909865 ], [ 77.724470999863115, 12.968299999834432 ], [ 77.724378999685499, 12.968032000358305 ], [ 77.724424999744201, 12.967983999755164 ], [ 77.724513000097986, 12.967889999787639 ], [ 77.725060999886026, 12.967835000276773 ], [ 77.725164000322351, 12.967823999818151 ], [ 77.725602999752041, 12.967765000094822 ], [ 77.725675999821576, 12.96774400024473 ], [ 77.726136999948238, 12.967708999638935 ], [ 77.726662000438267, 12.967730999820551 ], [ 77.727906999982679, 12.967562000082452 ], [ 77.727852999719786, 12.967199000157663 ], [ 77.727827999919128, 12.967025999565454 ], [ 77.727621000354787, 12.965937999650341 ], [ 77.727506000392907, 12.965332000046299 ], [ 77.727472999702968, 12.965142000002635 ], [ 77.727407999780226, 12.964762000210781 ], [ 77.727389000417915, 12.964626999970317 ], [ 77.727378000307695, 12.964524000044834 ], [ 77.727365999814268, 12.964397999649453 ], [ 77.727352999796096, 12.964284999853884 ], [ 77.727345999547438, 12.964237999824652 ], [ 77.727327999816353, 12.964113999978771 ], [ 77.727321000239954, 12.964050999860341 ], [ 77.727315000357549, 12.963986000093149 ], [ 77.727307999734165, 12.963917999958726 ], [ 77.727303999890864, 12.963886000168214 ], [ 77.727295999627231, 12.963807999619185 ], [ 77.727291999964564, 12.963768999790849 ], [ 77.727287000369273, 12.963716000435499 ], [ 77.72728599977988, 12.963712000062348 ], [ 77.727282999624975, 12.96367799971925 ], [ 77.727270000100759, 12.963550999825156 ], [ 77.727258999611095, 12.96343399980344 ], [ 77.727252000420108, 12.963368999659629 ], [ 77.727245999644595, 12.963315999951725 ], [ 77.727233000106708, 12.963213000167753 ], [ 77.727220999746493, 12.963122999911853 ], [ 77.727211000410605, 12.963042000408683 ], [ 77.727202000293232, 12.962996999649016 ], [ 77.727142999582213, 12.962684000270707 ], [ 77.727129999645996, 12.96265999997353 ], [ 77.727118999783855, 12.962022999915503 ], [ 77.727108999668928, 12.961970999645262 ], [ 77.727081999927464, 12.961898000341545 ], [ 77.726896999592896, 12.961634999731981 ], [ 77.726715999571596, 12.961436999821322 ], [ 77.726575000447085, 12.961361999620733 ], [ 77.726467999939118, 12.96130400008526 ], [ 77.726466000063539, 12.961277000103218 ], [ 77.726139000201428, 12.96113500004919 ], [ 77.726112000361468, 12.961127000060619 ], [ 77.725521999973679, 12.960961000193057 ], [ 77.725301000274754, 12.960917999735249 ], [ 77.724853000243201, 12.96083199960619 ], [ 77.724665999838393, 12.960796000390271 ], [ 77.724197999939378, 12.960709999740819 ], [ 77.724189000454828, 12.960702999934544 ], [ 77.724187000065967, 12.960702000087348 ], [ 77.724123000287065, 12.960655000204678 ], [ 77.724074999649133, 12.960205999624073 ], [ 77.724035999755415, 12.960152999971303 ], [ 77.723909000171972, 12.960179999550888 ], [ 77.723829999946162, 12.95908500017538 ], [ 77.723865000175351, 12.959085999793498 ], [ 77.723931000293078, 12.959089000233812 ], [ 77.724057000127885, 12.959092999703755 ], [ 77.724085999641218, 12.957537000378153 ], [ 77.724018000031933, 12.957482999646247 ], [ 77.723986999819715, 12.957442000296167 ], [ 77.723815000261837, 12.957218999591873 ], [ 77.72381200017908, 12.957194000066698 ], [ 77.723766999693041, 12.957117999627185 ], [ 77.723783000313134, 12.956960999889123 ], [ 77.723828000449757, 12.95690800020628 ], [ 77.723857999579167, 12.956884999620435 ], [ 77.723827000174396, 12.95686100035855 ], [ 77.723829999610786, 12.956691000136644 ], [ 77.723768999686968, 12.955921999766352 ], [ 77.723832999580978, 12.955803999562315 ], [ 77.723832957645399, 12.955792399831711 ], [ 77.72304445074613, 12.955764204067261 ], [ 77.721950025625404, 12.955744562634118 ], [ 77.720835527909898, 12.955724556296362 ], [ 77.718466388551107, 12.955678815276025 ], [ 77.718425478711907, 12.955678025589496 ], [ 77.71714136603245, 12.955703840636621 ], [ 77.716570745367704, 12.955715309860166 ], [ 77.715762260729704, 12.955755921511194 ], [ 77.715760690270358, 12.955756001126732 ], [ 77.715676784911139, 12.955760215571626 ], [ 77.715680999750333, 12.955789999915542 ] ] ] } },
{ "type": "Feature", "properties": { "KGISWardID": 5039, "KGISWardCode": "2003082", "KGISWardName": "Garudachar Palya", "SHAPE.STArea()": 6898547.5698689502, "SHAPE.STLength()": 20705.598433182495, "OBJECTID": 18925, "KGISWardNo": "82", "KGISTownCode": "2003", "LGD_WardCode": 1302754, "created_user": "SA", "created_date": 1634898537000, "last_edited_user": "SURESHBV1", "last_edited_date": 1692254014000, "_overlap_percent": 24.739830944536838, "_police_station": "Whitefield PS", "_police_feature_index": "721", "_admin_layer": "Ward", "_geometry_clipped": true }, "geometry": { "type": "MultiPolygon", "coordinates": [ [ [ [ 77.724593999934953, 12.976627999707215 ], [ 77.724522000422382, 12.976637000024859 ], [ 77.723109999592026, 12.976753999617458 ], [ 77.721643000009252, 12.976892000421206 ], [ 77.72125599954704, 12.976926000408822 ], [ 77.718276786058198, 12.977222753804426 ], [ 77.718281295996874, 12.977288921568688 ], [ 77.718398665906008, 12.977282048331736 ], [ 77.718527548666799, 12.977275054650013 ], [ 77.719196113132782, 12.977184502400704 ], [ 77.720087167836539, 12.977065649320762 ], [ 77.720386096362361, 12.977025258199332 ], [ 77.721337898655534, 12.976933995043707 ], [ 77.72148224943362, 12.976920062897809 ], [ 77.722731961382593, 12.976800833881693 ], [ 77.723109800422492, 12.976764130052874 ], [ 77.72391446869257, 12.976695853437681 ], [ 77.724754727198828, 12.976618167915204 ], [ 77.725047121403421, 12.97659108967631 ], [ 77.724593999934953, 12.976627999707215 ] ] ], [ [ [ 77.744700000313202, 12.986342999910192 ], [ 77.744763000013506, 12.986323000260356 ], [ 77.744541999892164, 12.985770999698993 ], [ 77.743722999566813, 12.983700999780661 ], [ 77.743727999717635, 12.983660999720158 ], [ 77.743749000381783, 12.98350499972508 ], [ 77.743798999836571, 12.983330999914223 ], [ 77.743948000219461, 12.982772999600245 ], [ 77.743962999601465, 12.982679000118559 ], [ 77.743961000180278, 12.982587000352263 ], [ 77.743928000322072, 12.982465000272988 ], [ 77.743868999695835, 12.982305000433049 ], [ 77.743508000124748, 12.981547999777165 ], [ 77.742846999764069, 12.980222999936347 ], [ 77.742485999541941, 12.979515999858222 ], [ 77.742283000045987, 12.979128999965656 ], [ 77.742128000091981, 12.978828999583088 ], [ 77.74198500004205, 12.977990999948755 ], [ 77.74190999978309, 12.977669000138613 ], [ 77.741884000221575, 12.977562999579261 ], [ 77.74127800033709, 12.975961999735917 ], [ 77.741189999841566, 12.975982999734843 ], [ 77.739392999742876, 12.976482000383989 ], [ 77.739543999918027, 12.976894999754908 ], [ 77.739323999972683, 12.976989999584376 ], [ 77.73860700018021, 12.977291999630706 ], [ 77.738587000015983, 12.9772999998121 ], [ 77.73681000040871, 12.977743999665122 ], [ 77.736659999803805, 12.977797999643315 ], [ 77.736582999959694, 12.977826999871539 ], [ 77.736570999859936, 12.977789999836709 ], [ 77.736460000212432, 12.977540000090249 ], [ 77.736213000127506, 12.976943999924584 ], [ 77.736066000321856, 12.976593999592254 ], [ 77.73565999994446, 12.976735999964804 ], [ 77.735799000454151, 12.977027000014552 ], [ 77.7353199997724, 12.977157000420412 ], [ 77.7352709999913, 12.977090000299677 ], [ 77.735067999615381, 12.976855000104804 ], [ 77.734724000453028, 12.976655999569987 ], [ 77.73414399955206, 12.976504999948355 ], [ 77.734146000056299, 12.976288999885472 ], [ 77.733798000120771, 12.97625000005281 ], [ 77.733465999656403, 12.976092999581992 ], [ 77.733431000246284, 12.976089999902092 ], [ 77.733420999592312, 12.97596200030439 ], [ 77.733408999816618, 12.975829000042676 ], [ 77.731926999602763, 12.975977999724943 ], [ 77.730071000387539, 12.976160000214108 ], [ 77.7286370004025, 12.976283999812553 ], [ 77.727138894624915, 12.976419765444343 ], [ 77.727206923141864, 12.977196494164719 ], [ 77.727267680040256, 12.978744646428257 ], [ 77.727300600395893, 12.979528256339373 ], [ 77.727337404714035, 12.980221001205246 ], [ 77.727634430094867, 12.98153244375999 ], [ 77.727876459744181, 12.982270836427706 ], [ 77.72841955469535, 12.983350242119302 ], [ 77.728868119808098, 12.984253771774252 ], [ 77.729380641690369, 12.984764650774066 ], [ 77.730026955022424, 12.985474891632919 ], [ 77.730170126484595, 12.985640693673105 ], [ 77.731052967369465, 12.986138116329679 ], [ 77.731699406562527, 12.98641335173811 ], [ 77.731754240950821, 12.98643335025416 ], [ 77.732233999719924, 12.985652000132054 ], [ 77.733565000008326, 12.985595000354637 ], [ 77.733524000203388, 12.98490799970117 ], [ 77.737058000240367, 12.984897000129035 ], [ 77.737122999839272, 12.984901000104385 ], [ 77.73862499973589, 12.984910000034358 ], [ 77.738873000170486, 12.984904000165491 ], [ 77.738963999976022, 12.985318999927575 ], [ 77.73888800038408, 12.986424999669785 ], [ 77.739522000402502, 12.986640000175649 ], [ 77.740539000045956, 12.987049000014656 ], [ 77.740602000103848, 12.987066000136821 ], [ 77.740637000116351, 12.987388000083772 ], [ 77.741431346845957, 12.987183694784708 ], [ 77.741535998436049, 12.987153705320686 ], [ 77.744262844545631, 12.986450912526402 ], [ 77.744566285114374, 12.986377391344899 ], [ 77.744700000313202, 12.986342999910192 ] ] ] ] } },
{ "type": "Feature", "properties": { "KGISWardID": 5042, "KGISWardCode": "2003083", "KGISWardName": "Kadugodi", "SHAPE.STArea()": 10948393.11574693, "SHAPE.STLength()": 20759.41714409308, "OBJECTID": 18926, "KGISWardNo": "83", "KGISTownCode": "2003", "LGD_WardCode": 1302755, "created_user": "SA", "created_date": 1634898537000, "last_edited_user": "SURESHBV1", "last_edited_date": 1692254014000, "_overlap_percent": 14.695753928418601, "_police_station": "Whitefield PS", "_police_feature_index": "721", "_admin_layer": "Ward", "_geometry_clipped": true }, "geometry": { "type": "MultiPolygon", "coordinates": [ [ [ [ 77.740637000116351, 12.987388000083772 ], [ 77.740148899371206, 12.987541661152461 ], [ 77.740185145785915, 12.98754081105521 ], [ 77.740843433306097, 12.98735217012211 ], [ 77.741431346845957, 12.987183694784708 ], [ 77.740637000116351, 12.987388000083772 ] ] ], [ [ [ 77.759071000415318, 12.979673999928893 ], [ 77.758840999846058, 12.979673999666451 ], [ 77.757589999938844, 12.979665000190218 ], [ 77.757552000137565, 12.979669000391153 ], [ 77.757419000231437, 12.978820000051796 ], [ 77.757303000324285, 12.978260999809114 ], [ 77.757153999841833, 12.97751399968042 ], [ 77.757122000131517, 12.977314000393013 ], [ 77.757098000170316, 12.977155000406508 ], [ 77.756997999993246, 12.976675000196032 ], [ 77.756998000046949, 12.97667300023196 ], [ 77.756244999737262, 12.976681000090883 ], [ 77.756153000423566, 12.976686999765711 ], [ 77.756042999927033, 12.976692999644598 ], [ 77.755519999875048, 12.976739000033053 ], [ 77.755264000414527, 12.976766000196214 ], [ 77.755280999942244, 12.976806000014889 ], [ 77.755257000236654, 12.976814000404739 ], [ 77.755133999626693, 12.976857999747102 ], [ 77.754986000344033, 12.976789000274881 ], [ 77.754635999866707, 12.976584999804022 ], [ 77.754415999783404, 12.976268999938641 ], [ 77.753251000433906, 12.97444399983018 ], [ 77.753043000136984, 12.974410000440619 ], [ 77.751371000403878, 12.974701999860912 ], [ 77.75135300007571, 12.974704999693087 ], [ 77.751334999756793, 12.97470800042732 ], [ 77.751106000156099, 12.974740000368964 ], [ 77.750990000298827, 12.974755999879333 ], [ 77.750667999861435, 12.974800000441883 ], [ 77.750489999865209, 12.974997000148546 ], [ 77.74880700021231, 12.974371999604873 ], [ 77.748586000324025, 12.97430899968171 ], [ 77.748537999654104, 12.974312000280127 ], [ 77.747911000366997, 12.974355999975934 ], [ 77.746655000334286, 12.974551999617113 ], [ 77.746622999888828, 12.974556999756548 ], [ 77.746570000160531, 12.97440400020273 ], [ 77.746308000355796, 12.974921000040128 ], [ 77.746244999831191, 12.975045000288597 ], [ 77.746148000374319, 12.975205999740874 ], [ 77.746013000049658, 12.975321999898719 ], [ 77.745910000054366, 12.97537099964066 ], [ 77.74510699986763, 12.975638999809481 ], [ 77.744403000101201, 12.975651000157784 ], [ 77.744261000216554, 12.975599999931259 ], [ 77.744056999755813, 12.975500000392701 ], [ 77.743695999893475, 12.975411999779508 ], [ 77.743404000247608, 12.975416999722633 ], [ 77.743260999593602, 12.975440999828624 ], [ 77.743127999902086, 12.975480999911804 ], [ 77.742829000379444, 12.975564000231184 ], [ 77.742540999837956, 12.975643999868092 ], [ 77.74127800033709, 12.975961999735917 ], [ 77.741884000221575, 12.977562999579261 ], [ 77.74190999978309, 12.977669000138613 ], [ 77.74198500004205, 12.977990999948755 ], [ 77.742128000091981, 12.978828999583088 ], [ 77.742283000045987, 12.979128999965656 ], [ 77.742485999541941, 12.979515999858222 ], [ 77.742846999764069, 12.980222999936347 ], [ 77.743508000124748, 12.981547999777165 ], [ 77.743868999695835, 12.982305000433049 ], [ 77.743928000322072, 12.982465000272988 ], [ 77.743961000180278, 12.982587000352263 ], [ 77.743962999601465, 12.982679000118559 ], [ 77.743948000219461, 12.982772999600245 ], [ 77.743798999836571, 12.983330999914223 ], [ 77.743749000381783, 12.98350499972508 ], [ 77.743727999717635, 12.983660999720158 ], [ 77.743722999566813, 12.983700999780661 ], [ 77.744541999892164, 12.985770999698993 ], [ 77.744763000013506, 12.986323000260356 ], [ 77.744700000313202, 12.986342999910192 ], [ 77.744566285114374, 12.986377391344899 ], [ 77.745026097707779, 12.986265982493812 ], [ 77.747099508768983, 12.985541385793374 ], [ 77.747759406587008, 12.98526671954019 ], [ 77.750339015807242, 12.984390279353837 ], [ 77.752293545681141, 12.983718290985426 ], [ 77.752756027724473, 12.983665591320772 ], [ 77.753978851338275, 12.983497279578931 ], [ 77.754440937804731, 12.983408729988339 ], [ 77.755635435345653, 12.982882203437134 ], [ 77.756163478746871, 12.982697349034678 ], [ 77.758181282944292, 12.982388207157156 ], [ 77.758168232991608, 12.982315226947577 ], [ 77.758020535586823, 12.981489157426839 ], [ 77.757984858254432, 12.981289613982973 ], [ 77.757859618141921, 12.980589137156279 ], [ 77.757671815068022, 12.979693952726038 ], [ 77.758702625191191, 12.979687424799343 ], [ 77.75886297736669, 12.979686409315859 ], [ 77.75900417442908, 12.979685514864052 ], [ 77.75956507751286, 12.97968196037538 ], [ 77.759894385023543, 12.979679872070452 ], [ 77.759071000415318, 12.979673999928893 ] ] ], [ [ [ 77.765166000301036, 12.97940600018911 ], [ 77.762138755461308, 12.979648451184975 ], [ 77.762785381954373, 12.979622763905304 ], [ 77.76469559822111, 12.979546868989127 ], [ 77.765216510492749, 12.979541414305615 ], [ 77.765218383026124, 12.979454891550239 ], [ 77.765202641076797, 12.97939765924443 ], [ 77.765166000301036, 12.97940600018911 ] ] ], [ [ [ 77.77434574457763, 12.97764793562717 ], [ 77.774363091193237, 12.977653507435157 ], [ 77.774395735949724, 12.977647373911752 ], [ 77.77434574457763, 12.97764793562717 ] ] ], [ [ [ 77.777580000076952, 12.977187000259056 ], [ 77.777447493225239, 12.977286296503003 ], [ 77.777553031154881, 12.977253140737636 ], [ 77.777681615336533, 12.977181717374386 ], [ 77.777580000076952, 12.977187000259056 ] ] ], [ [ [ 77.778427999883647, 12.976750999993548 ], [ 77.778234999542207, 12.976914000184138 ], [ 77.77812657870497, 12.976998621289509 ], [ 77.778220077520757, 12.976979039984951 ], [ 77.778276045417186, 12.976933830018664 ], [ 77.778343918379107, 12.976879003526088 ], [ 77.77840741305576, 12.976827713305585 ], [ 77.778459188760806, 12.976795945163092 ], [ 77.778427999883647, 12.976750999993548 ] ] ] ] } },
{ "type": "Feature", "properties": { "KGISWardID": 4983, "KGISWardCode": "2003054", "KGISWardName": "Hudi", "SHAPE.STArea()": 14812086.802776625, "SHAPE.STLength()": 42457.913913157907, "OBJECTID": 18897, "KGISWardNo": "54", "KGISTownCode": "2003", "LGD_WardCode": 1302726, "created_user": "SA", "created_date": 1634898537000, "last_edited_user": "SURESHBV1", "last_edited_date": 1692254014000, "_overlap_percent": 1.5855354631171537, "_police_station": "Whitefield PS", "_police_feature_index": "721", "_admin_layer": "Ward", "_geometry_clipped": true }, "geometry": { "type": "Polygon", "coordinates": [ [ [ 77.740637000116351, 12.987388000083772 ], [ 77.740602000103848, 12.987066000136821 ], [ 77.740539000045956, 12.987049000014656 ], [ 77.739522000402502, 12.986640000175649 ], [ 77.73888800038408, 12.986424999669785 ], [ 77.738963999976022, 12.985318999927575 ], [ 77.738873000170486, 12.984904000165491 ], [ 77.73862499973589, 12.984910000034358 ], [ 77.737122999839272, 12.984901000104385 ], [ 77.737058000240367, 12.984897000129035 ], [ 77.733524000203388, 12.98490799970117 ], [ 77.733565000008326, 12.985595000354637 ], [ 77.732233999719924, 12.985652000132054 ], [ 77.731754240950821, 12.98643335025416 ], [ 77.731885533882263, 12.986481233779047 ], [ 77.731847600401736, 12.986750377081457 ], [ 77.731830481511111, 12.987501460581731 ], [ 77.731826174065475, 12.987686691095163 ], [ 77.731861001381645, 12.988068692542866 ], [ 77.731866080002717, 12.988124392525416 ], [ 77.73430138288262, 12.987701799032651 ], [ 77.735466574336186, 12.9875521011882 ], [ 77.736531893145298, 12.987463202748247 ], [ 77.737138010187479, 12.987486892773692 ], [ 77.739444417112722, 12.98755818357092 ], [ 77.740148899371206, 12.987541661152461 ], [ 77.740637000116351, 12.987388000083772 ] ] ] } }
]
}
