{
"type": "FeatureCollection",
"name": "police_station_boundary.writing_20260805_172659",
"crs": { "type": "name", "properties": { "name": "urn:ogc:def:crs:OGC:1.3:CRS84" } },
"features": [
{ "type": "Feature", "properties": { "Shape.STArea()": 332171121.03687716, "Shape.STLength()": 138403.88617357882, "OBJECTID": 119, "KGISPS_BOUNDID": 210, "PS_BOUNDName": "Srinivasapura PS", "PS_BOUNDCode": "PSB - 210", "KGISPS_SUB_DIVID": 124, "_source_layer": "Police Station Boundary", "_source_layer_url": "https://kgis.ksrsac.in/kgismaps/rest/services/Home/Home_Department/MapServer/82", "_police_station": "Srinivasapura PS" }, "geometry": { "type": "MultiPolygon", "coordinates": [ [ [ [ 78.20102342290663, 13.450351843351033 ], [ 78.200962569791031, 13.450157809791266 ], [ 78.200872319262999, 13.449870040777125 ], [ 78.193733368443773, 13.448497220779018 ], [ 78.193883396464415, 13.448244868401558 ], [ 78.193517358672651, 13.448176524478059 ], [ 78.193718163855337, 13.44674680805813 ], [ 78.194359676845906, 13.442179230344188 ], [ 78.192615339822666, 13.438839003400261 ], [ 78.192210419174458, 13.438489445793154 ], [ 78.192025566152367, 13.438329865740782 ], [ 78.191701805167597, 13.438050367240026 ], [ 78.187541408977779, 13.434458662646973 ], [ 78.187470074788706, 13.434397078644341 ], [ 78.185455048801842, 13.434555716935535 ], [ 78.185135978819389, 13.434584855505866 ], [ 78.185408275439727, 13.434430131935379 ], [ 78.185559639176091, 13.434344124627131 ], [ 78.185968108939079, 13.434078842778728 ], [ 78.186952887772421, 13.434011847288234 ], [ 78.186983996666569, 13.433731947839558 ], [ 78.185204310276916, 13.433882488408386 ], [ 78.184287788814189, 13.433960010954097 ], [ 78.183128871672025, 13.434063704394607 ], [ 78.183278401745923, 13.43342464399648 ], [ 78.183216321051574, 13.432888473512419 ], [ 78.183185424454848, 13.432621618546579 ], [ 78.182885431645559, 13.431756922285498 ], [ 78.182757360354429, 13.431387768154218 ], [ 78.182752341109136, 13.431373302526845 ], [ 78.182702439058417, 13.431229467900218 ], [ 78.182700013416323, 13.431224124881885 ], [ 78.182682081246597, 13.431184646280949 ], [ 78.182788226967503, 13.43096507989249 ], [ 78.182730210070488, 13.430955704446593 ], [ 78.182526654021444, 13.430922808513225 ], [ 78.182540104579545, 13.430887402037431 ], [ 78.18257193688099, 13.430803618519283 ], [ 78.182636055866979, 13.430634835734173 ], [ 78.182588952760312, 13.430553629462064 ], [ 78.182611605025869, 13.430164846588053 ], [ 78.182634807736235, 13.429766667482482 ], [ 78.182651421972949, 13.429757937752512 ], [ 78.182828102836652, 13.429477601697466 ], [ 78.182733784036444, 13.42901909871942 ], [ 78.182718328142343, 13.428943964967518 ], [ 78.18271935154344, 13.42892217645492 ], [ 78.182882415051736, 13.428578840441775 ], [ 78.183160093916641, 13.42796404922702 ], [ 78.183340179887878, 13.427917847535713 ], [ 78.183360166114852, 13.42791271781387 ], [ 78.183338811679008, 13.427807510622003 ], [ 78.183284694400683, 13.427540873199327 ], [ 78.183249657766993, 13.427368262908926 ], [ 78.183191936947466, 13.42708388751671 ], [ 78.183189829600266, 13.427073509019541 ], [ 78.183125685134002, 13.426781184502373 ], [ 78.183159920093317, 13.426753691880149 ], [ 78.183205302943435, 13.426680028491036 ], [ 78.183140883843123, 13.426447565637734 ], [ 78.183135984855326, 13.426429897382565 ], [ 78.18300026950007, 13.426131080163016 ], [ 78.182981981656823, 13.426095298319987 ], [ 78.182761965419118, 13.425664804306107 ], [ 78.182718655422946, 13.425580061655818 ], [ 78.182641369994968, 13.425427775868645 ], [ 78.18240013460111, 13.424952446008975 ], [ 78.182397164477436, 13.42494658882668 ], [ 78.182393201924739, 13.424938784698311 ], [ 78.182192289642387, 13.424192908603057 ], [ 78.182182618467422, 13.424171293131664 ], [ 78.181674723606747, 13.423035978393706 ], [ 78.181511879859031, 13.422627399720497 ], [ 78.18150982966381, 13.422622255094952 ], [ 78.18153215306846, 13.421818199072892 ], [ 78.18153248244171, 13.421806235711754 ], [ 78.181578435183155, 13.421028497789511 ], [ 78.181578002010085, 13.420930823207215 ], [ 78.18157521176613, 13.420304215798049 ], [ 78.181552993972119, 13.420300685769206 ], [ 78.181391131008979, 13.420274980090509 ], [ 78.179508878120856, 13.41997602707082 ], [ 78.173158500337962, 13.416945439108847 ], [ 78.168722429410252, 13.413624020493707 ], [ 78.168532573568868, 13.413633116619424 ], [ 78.166933681542289, 13.414149901824283 ], [ 78.166624708665907, 13.414249765046907 ], [ 78.166208401029181, 13.414371274984816 ], [ 78.164884182662504, 13.414757772270958 ], [ 78.1639463868961, 13.415031480814749 ], [ 78.162842248945736, 13.415353734500121 ], [ 78.161777799698285, 13.415223461995186 ], [ 78.159801541959396, 13.41498158295486 ], [ 78.159702279318537, 13.414951331478042 ], [ 78.159172562990648, 13.414789889927187 ], [ 78.158361510954762, 13.414542703296769 ], [ 78.157228923932422, 13.41336980676256 ], [ 78.155450693474833, 13.411528248610935 ], [ 78.154519635318721, 13.410521584123126 ], [ 78.152486704141253, 13.40905921180884 ], [ 78.152116016750327, 13.408792558580211 ], [ 78.14937759250752, 13.40900871731087 ], [ 78.148757823405617, 13.409057635814197 ], [ 78.147039433080039, 13.409282704960727 ], [ 78.145527602190811, 13.4087915779828 ], [ 78.144322088171933, 13.40846207756004 ], [ 78.143541715052791, 13.408221225406232 ], [ 78.143293537201103, 13.408118016728652 ], [ 78.143217579278272, 13.408086429603083 ], [ 78.142493375544717, 13.408007675602525 ], [ 78.142432171693102, 13.408001020062445 ], [ 78.141541822377334, 13.407631574030299 ], [ 78.14153302044086, 13.407638101471152 ], [ 78.141393397179314, 13.407741642293947 ], [ 78.14100048566705, 13.407638439853031 ], [ 78.140961063476951, 13.407442442250968 ], [ 78.140175918496695, 13.406973994564376 ], [ 78.139374288971084, 13.406305400521308 ], [ 78.139125196235753, 13.406097646198569 ], [ 78.138605291178322, 13.405947700085145 ], [ 78.137963045542008, 13.405748088027314 ], [ 78.137956487286459, 13.40574604842678 ], [ 78.13628121200054, 13.405620227985626 ], [ 78.136164563062593, 13.405611464512647 ], [ 78.136136865892453, 13.405099764088137 ], [ 78.136103457457622, 13.404482424556541 ], [ 78.136055205244944, 13.404067315394688 ], [ 78.136029974138864, 13.403850265212103 ], [ 78.135994211540904, 13.403642940615873 ], [ 78.135964847523084, 13.403472699602194 ], [ 78.135173866588488, 13.401033753064848 ], [ 78.133678518136065, 13.396422754279484 ], [ 78.132355051563238, 13.394580758522837 ], [ 78.132354951105327, 13.394580622509107 ], [ 78.131623113687468, 13.39356202963442 ], [ 78.130703254228379, 13.39223749129301 ], [ 78.130686526780721, 13.392213406313767 ], [ 78.130656892793652, 13.392134683660808 ], [ 78.130082462376379, 13.390608742925941 ], [ 78.12993876720077, 13.390249595314526 ], [ 78.129761306609197, 13.389806058758456 ], [ 78.129520206090532, 13.389203456912007 ], [ 78.12948034714961, 13.38910066665049 ], [ 78.12897277665742, 13.387791735454348 ], [ 78.128880883745154, 13.387554192648629 ], [ 78.128879664227824, 13.387551042629886 ], [ 78.128438403653774, 13.3864103847853 ], [ 78.128428049667875, 13.386409712970222 ], [ 78.127164081457238, 13.38632764685109 ], [ 78.126420633363168, 13.386342396048189 ], [ 78.12538724027992, 13.386180812735386 ], [ 78.124461836311127, 13.385795575688336 ], [ 78.124445696495798, 13.385719244845404 ], [ 78.124428796325248, 13.385639314872622 ], [ 78.124410217188029, 13.385551431856253 ], [ 78.124147769530353, 13.384310133414953 ], [ 78.123692218299865, 13.383089969299702 ], [ 78.123353398592997, 13.381981032893311 ], [ 78.123251260502528, 13.381638591568159 ], [ 78.122430163210723, 13.378885609615557 ], [ 78.122345292082755, 13.378722950258105 ], [ 78.122420700021408, 13.378447562427473 ], [ 78.122434365708827, 13.378397643357477 ], [ 78.122249185616369, 13.378029802461157 ], [ 78.122245953989861, 13.378000129718167 ], [ 78.122217332888056, 13.377737116710888 ], [ 78.122119426022422, 13.377567439072255 ], [ 78.121963800246988, 13.377297727891499 ], [ 78.121852077994006, 13.376946630481774 ], [ 78.121785687821784, 13.376741934382329 ], [ 78.121788798139306, 13.376624149613951 ], [ 78.121804363841733, 13.376604494117302 ], [ 78.122165508172785, 13.376148532814945 ], [ 78.122152009710831, 13.375914303255882 ], [ 78.12215192398439, 13.375912804367761 ], [ 78.122140018614971, 13.375706209774975 ], [ 78.122219327961716, 13.375689010451726 ], [ 78.12232747278324, 13.375665557994859 ], [ 78.122626032315139, 13.375600811898414 ], [ 78.123158814341224, 13.375567903601839 ], [ 78.123557422317504, 13.375543281840084 ], [ 78.124166292607882, 13.375493014685041 ], [ 78.124721372072386, 13.375447187715244 ], [ 78.125666551644457, 13.375070887563979 ], [ 78.125926366033795, 13.374967447901994 ], [ 78.12657904359834, 13.375008647335571 ], [ 78.127237654915504, 13.374957932964442 ], [ 78.127258617935709, 13.374956318108765 ], [ 78.127488361598054, 13.37493862198945 ], [ 78.127511718462827, 13.374936824876389 ], [ 78.127968845999888, 13.374876198812025 ], [ 78.128056335611348, 13.374864594688475 ], [ 78.128107625391664, 13.374787959597253 ], [ 78.129012098006044, 13.373436622404403 ], [ 78.131015028298606, 13.373670351962012 ], [ 78.131462264777312, 13.373722536581875 ], [ 78.132411194392844, 13.37383326391569 ], [ 78.132987594106808, 13.374021450428316 ], [ 78.133777234042, 13.374279252808979 ], [ 78.133972199188761, 13.374342904522997 ], [ 78.134502007257367, 13.374477724167026 ], [ 78.13452322882813, 13.374483278278724 ], [ 78.135404871500597, 13.374713930169472 ], [ 78.136403187268741, 13.374975104177311 ], [ 78.136713661881416, 13.375115617838841 ], [ 78.13726705111533, 13.37525214391696 ], [ 78.138166741058896, 13.375493007153093 ], [ 78.13986606318295, 13.375983947927837 ], [ 78.139943725672239, 13.376006383938632 ], [ 78.141022995392163, 13.376318180907566 ], [ 78.141550336348686, 13.376470518849528 ], [ 78.141555973520795, 13.376472150063513 ], [ 78.143699043979566, 13.377138744178646 ], [ 78.143748444153218, 13.377013433987994 ], [ 78.143872609716723, 13.376698476485595 ], [ 78.144235417548117, 13.375778166618334 ], [ 78.1453952422616, 13.374963745288108 ], [ 78.146099953363873, 13.374145331789389 ], [ 78.146732631413172, 13.373842396285447 ], [ 78.146732677239655, 13.373842374042413 ], [ 78.146559518277243, 13.373735113688788 ], [ 78.146481483982356, 13.373686771262667 ], [ 78.146386361155635, 13.373627842324124 ], [ 78.146358498226306, 13.373610581198697 ], [ 78.14633063157676, 13.373593317406577 ], [ 78.146300022065773, 13.373574354859652 ], [ 78.146269399555067, 13.373555385245632 ], [ 78.146195282537974, 13.3735094682176 ], [ 78.146349782922343, 13.373225532680614 ], [ 78.146535809409428, 13.372883659710858 ], [ 78.146679907670446, 13.372388531627422 ], [ 78.146745875019846, 13.372161884102434 ], [ 78.148754163253471, 13.367215212499167 ], [ 78.147593356564329, 13.364868353252255 ], [ 78.146431796835046, 13.363293562001687 ], [ 78.146353606636723, 13.363187559265468 ], [ 78.14635358785462, 13.363187533311512 ], [ 78.145319506820911, 13.361775011819436 ], [ 78.145228981109881, 13.361651343485105 ], [ 78.145525169274151, 13.361627101415387 ], [ 78.14563070088731, 13.361618496289875 ], [ 78.145734430704195, 13.361610058012205 ], [ 78.145742329848389, 13.361609416159681 ], [ 78.145751705186427, 13.361608676483048 ], [ 78.148291575817439, 13.361402044658629 ], [ 78.148720404626175, 13.36136715402054 ], [ 78.148739316961766, 13.36132308246259 ], [ 78.148870087019318, 13.36101831940187 ], [ 78.148926454865176, 13.360886948225296 ], [ 78.149651937895626, 13.359196195886485 ], [ 78.14965194953119, 13.359196168651076 ], [ 78.149652150930635, 13.359195698380356 ], [ 78.149683560874763, 13.359122473510126 ], [ 78.149795647370809, 13.358861266219499 ], [ 78.149988969378398, 13.35728428767451 ], [ 78.150083021865157, 13.356517043309285 ], [ 78.150151551064624, 13.355958025775486 ], [ 78.150151870832275, 13.355941315059727 ], [ 78.150193646815353, 13.353731095575833 ], [ 78.150254824046741, 13.350495057888351 ], [ 78.150254823706902, 13.350495031705048 ], [ 78.144617976857475, 13.351080947392232 ], [ 78.143261509636872, 13.351221921383097 ], [ 78.143200621536053, 13.351228249997295 ], [ 78.139267516112895, 13.351636985256807 ], [ 78.139160471964018, 13.351648096165642 ], [ 78.138794922645701, 13.351682970023733 ], [ 78.138097983839884, 13.351749449997357 ], [ 78.137404790574848, 13.35186181963932 ], [ 78.136802282968134, 13.35195948758602 ], [ 78.136117658074298, 13.352120103152753 ], [ 78.134825594751675, 13.352423213052449 ], [ 78.134401828470786, 13.352449838434794 ], [ 78.133706882539173, 13.352493494305257 ], [ 78.13354961844118, 13.352510297934554 ], [ 78.133474280724755, 13.352518351900944 ], [ 78.133410307589799, 13.352525181522314 ], [ 78.133322645330466, 13.352534540283038 ], [ 78.13319911815654, 13.352547753722252 ], [ 78.13283383178333, 13.352528799065198 ], [ 78.132650139043491, 13.352560971961774 ], [ 78.132042068762587, 13.352667490952104 ], [ 78.131819644454609, 13.35270645384554 ], [ 78.131669798458788, 13.352732701497068 ], [ 78.131488048683096, 13.35276453983035 ], [ 78.131422032705785, 13.352797753769535 ], [ 78.131422027710855, 13.352797724031255 ], [ 78.131420253588942, 13.35278573745175 ], [ 78.131312390367327, 13.352055970227756 ], [ 78.131300717766706, 13.351977069455028 ], [ 78.131292208929437, 13.351606782257113 ], [ 78.131290302405787, 13.351524487174188 ], [ 78.13128567045635, 13.351323085068735 ], [ 78.131285660781188, 13.351323049970127 ], [ 78.131248951837051, 13.351112216935919 ], [ 78.131279270343626, 13.350993275496711 ], [ 78.131318799217127, 13.350838238786386 ], [ 78.131336038824514, 13.350770568985094 ], [ 78.131240510497832, 13.350609231786036 ], [ 78.130936235345558, 13.350001894618661 ], [ 78.130637068639572, 13.349408665783651 ], [ 78.130550262013145, 13.349236528336309 ], [ 78.130551717408721, 13.349204572753418 ], [ 78.1305540454957, 13.349153472905238 ], [ 78.130558494379471, 13.349055865891577 ], [ 78.13056699338749, 13.348869490269303 ], [ 78.130578784736997, 13.3486108854378 ], [ 78.130613899121599, 13.347840448112407 ], [ 78.130613907059328, 13.347840420020219 ], [ 78.13067108334694, 13.347087310961165 ], [ 78.130680891674388, 13.346958118206363 ], [ 78.130731946546007, 13.346285473811323 ], [ 78.131047254792847, 13.343039499519737 ], [ 78.131254343196062, 13.340907520898087 ], [ 78.13128821277212, 13.340842720474363 ], [ 78.131678306693928, 13.340096341018038 ], [ 78.131762971287998, 13.33997467717227 ], [ 78.131959398037807, 13.339692381799058 ], [ 78.132017804265516, 13.339608434423683 ], [ 78.132017821458362, 13.339608408926221 ], [ 78.132032647479249, 13.339587093763154 ], [ 78.13208393420588, 13.339513361912079 ], [ 78.132526961866645, 13.339456676129664 ], [ 78.132778300616295, 13.339424518640792 ], [ 78.135171643822702, 13.332252952358177 ], [ 78.134889932679542, 13.332364263084717 ], [ 78.133960053768817, 13.332731681155996 ], [ 78.133817332772935, 13.332361617930667 ], [ 78.132527953226329, 13.329018361282683 ], [ 78.131836263756895, 13.328892353751963 ], [ 78.131836235105084, 13.328892348687685 ], [ 78.131438377809985, 13.328815215203466 ], [ 78.129471585066838, 13.328433900634661 ], [ 78.128391587512809, 13.328224505829827 ], [ 78.127291088410303, 13.327988628081068 ], [ 78.127298650689312, 13.327867367997426 ], [ 78.127362498694339, 13.326842819083803 ], [ 78.127103943827592, 13.326784332177276 ], [ 78.126580314062139, 13.326665870211002 ], [ 78.126580292236042, 13.326665893959113 ], [ 78.126006038846697, 13.327468105368833 ], [ 78.12567103527681, 13.327368711855348 ], [ 78.125671001011909, 13.327368700538242 ], [ 78.124749017474684, 13.326989332852344 ], [ 78.123804664929651, 13.326600771998448 ], [ 78.120183368388908, 13.326107632592771 ], [ 78.115763257466512, 13.325505630852369 ], [ 78.110823100277983, 13.324832719619279 ], [ 78.110764019270874, 13.324658544299265 ], [ 78.109699266099227, 13.323606756300965 ], [ 78.110366386282038, 13.322711313559552 ], [ 78.11099001890085, 13.321874234707066 ], [ 78.111306467606127, 13.321449470826165 ], [ 78.114056978984948, 13.317757384001336 ], [ 78.114056996202066, 13.317757360310775 ], [ 78.114096702915319, 13.317704058231923 ], [ 78.114484650770805, 13.317590472121365 ], [ 78.114614250033512, 13.317552515584223 ], [ 78.11469992938531, 13.317527431046106 ], [ 78.114837259476161, 13.317487232062813 ], [ 78.115769234671248, 13.317184711386847 ], [ 78.116364949308291, 13.317068229156423 ], [ 78.117115150250243, 13.316941659988007 ], [ 78.117952700934609, 13.316848715845566 ], [ 78.117982866372571, 13.316845361519649 ], [ 78.118035827301611, 13.316839483916466 ], [ 78.118035865954838, 13.316839478023235 ], [ 78.118707428077101, 13.316740367871533 ], [ 78.119380913356267, 13.31661525906029 ], [ 78.11938094371169, 13.316615253268877 ], [ 78.119571716229174, 13.316306414084774 ], [ 78.120309299044337, 13.315789201282124 ], [ 78.120814128023781, 13.315172942828115 ], [ 78.120798876670364, 13.314249038566274 ], [ 78.120904785319695, 13.313683816723636 ], [ 78.120967346038427, 13.313349895101943 ], [ 78.120967353560388, 13.313349834505589 ], [ 78.121047068396081, 13.312833842708738 ], [ 78.12114997769477, 13.312167622727443 ], [ 78.121380250834278, 13.31155803144712 ], [ 78.121574064441887, 13.31104493520481 ], [ 78.122171500540432, 13.310786135786806 ], [ 78.122554279902602, 13.310669889344853 ], [ 78.122803546439215, 13.310584342905237 ], [ 78.122836604288679, 13.310572997701392 ], [ 78.122803449745362, 13.310356665671568 ], [ 78.122777082091204, 13.310184497363867 ], [ 78.122769525968764, 13.310117877218516 ], [ 78.122728504670846, 13.30975604091511 ], [ 78.122728412817935, 13.309755205828466 ], [ 78.122721287580234, 13.309692341542567 ], [ 78.122770228185516, 13.309280084456221 ], [ 78.122817055226591, 13.309266001676024 ], [ 78.123099512879918, 13.309181069235326 ], [ 78.123095848857844, 13.309141696555757 ], [ 78.123061239028146, 13.308769309818176 ], [ 78.123225110253216, 13.308732032942116 ], [ 78.124229754234207, 13.308503497015824 ], [ 78.124332241680847, 13.308480181800228 ], [ 78.124332264369997, 13.308480153526768 ], [ 78.124406299034462, 13.308358646849953 ], [ 78.124435434448017, 13.308310829930667 ], [ 78.124578378744971, 13.308284209220176 ], [ 78.124877194220943, 13.308228560810242 ], [ 78.125096345731478, 13.308175336590748 ], [ 78.125221316321671, 13.308157736897874 ], [ 78.12534865048633, 13.308139803728317 ], [ 78.125598644477932, 13.308107941033654 ], [ 78.12566986321464, 13.308098860179632 ], [ 78.125851226937371, 13.308075744622601 ], [ 78.126131603999625, 13.308040009899756 ], [ 78.126964807404406, 13.308035363947216 ], [ 78.127187980103244, 13.307990694475007 ], [ 78.128292656008952, 13.307769563753421 ], [ 78.128542792750693, 13.307719493123967 ], [ 78.129200297228351, 13.307576962865737 ], [ 78.130372379563241, 13.307322879342072 ], [ 78.13037240717442, 13.307322875389511 ], [ 78.130681723386061, 13.307260595643259 ], [ 78.131718608144411, 13.307051830610344 ], [ 78.131989112161861, 13.306929279160423 ], [ 78.132510539122819, 13.306693057352792 ], [ 78.135815052417684, 13.305195993236921 ], [ 78.135087540694116, 13.300745686577816 ], [ 78.135097643169189, 13.300739500744156 ], [ 78.135302520734797, 13.300629206993271 ], [ 78.136405847451755, 13.300035276479159 ], [ 78.136587759784319, 13.299937325441853 ], [ 78.136586157635676, 13.299923670620379 ], [ 78.136450936758564, 13.298788348608575 ], [ 78.136205468356692, 13.296727332859485 ], [ 78.136007803651239, 13.295067478489043 ], [ 78.134932516248242, 13.292465896462712 ], [ 78.134917494691493, 13.292398830161732 ], [ 78.134845918188049, 13.29207918950962 ], [ 78.13467161897519, 13.291300844813341 ], [ 78.134626589820229, 13.291099773544884 ], [ 78.134186275828654, 13.289141152555118 ], [ 78.133957252314971, 13.288283715972756 ], [ 78.133920579006329, 13.288187407028863 ], [ 78.133575595989257, 13.287281676020751 ], [ 78.133568019896458, 13.287261787046235 ], [ 78.133568005744053, 13.28726176193568 ], [ 78.13353850208199, 13.287271231733225 ], [ 78.133475697395767, 13.287291487782898 ], [ 78.132685123403121, 13.287546171184189 ], [ 78.13201943357312, 13.28778174105825 ], [ 78.130734588588751, 13.288608789608537 ], [ 78.129912977918011, 13.28897224406316 ], [ 78.129861935505019, 13.288994825272439 ], [ 78.129810628687565, 13.289023530513758 ], [ 78.129462354993052, 13.289218387530315 ], [ 78.129451937481207, 13.289224219347849 ], [ 78.129162030491557, 13.289348523890867 ], [ 78.128737688295757, 13.289530477337669 ], [ 78.128273828319976, 13.28977927353667 ], [ 78.127787094186104, 13.289982922253818 ], [ 78.127761295710087, 13.28999241814866 ], [ 78.12705040064246, 13.290254060609147 ], [ 78.126967547909871, 13.290449889696408 ], [ 78.126653343552348, 13.291192519259292 ], [ 78.126375140040793, 13.291417361833403 ], [ 78.126340839885358, 13.29144508258322 ], [ 78.125935447411706, 13.29177271896444 ], [ 78.126029997985569, 13.292028544180583 ], [ 78.125739645632635, 13.292017062087405 ], [ 78.124917123676795, 13.291984534770666 ], [ 78.124504669290346, 13.291938755770911 ], [ 78.12448081236731, 13.291936106013861 ], [ 78.123013629409002, 13.291948380609243 ], [ 78.122913175669694, 13.291949221074425 ], [ 78.122713304365746, 13.291950890962072 ], [ 78.122580707989911, 13.291951998842935 ], [ 78.122575862037223, 13.292107740199608 ], [ 78.122554944933768, 13.292416150497669 ], [ 78.122546292300783, 13.292462481736735 ], [ 78.122411984960735, 13.293181656829182 ], [ 78.122328995926949, 13.293413489532401 ], [ 78.122019650492589, 13.293764693844199 ], [ 78.120244500321931, 13.295207278366496 ], [ 78.12016535365369, 13.29528509829856 ], [ 78.120106311261765, 13.29534090620654 ], [ 78.120095439285862, 13.29535118178087 ], [ 78.119948330635438, 13.295490235303637 ], [ 78.119678484901513, 13.29574528988655 ], [ 78.119678792032488, 13.295749331755873 ], [ 78.119727767823193, 13.296396571950774 ], [ 78.119149488755596, 13.297501048467256 ], [ 78.118903274601223, 13.29797129734968 ], [ 78.117422397407807, 13.298504613986637 ], [ 78.117112521158234, 13.29908603606294 ], [ 78.116928536459511, 13.299256844272945 ], [ 78.116744431537043, 13.29935598447881 ], [ 78.116213543379601, 13.299546052913357 ], [ 78.116146413611986, 13.299603662635064 ], [ 78.115762812587775, 13.299932849631572 ], [ 78.115660280020649, 13.30000102475789 ], [ 78.115287177474158, 13.300249105337068 ], [ 78.115063683553927, 13.300406876699437 ], [ 78.114956714698167, 13.300462439868642 ], [ 78.114859432135319, 13.300512968040108 ], [ 78.114745479827718, 13.300572160328155 ], [ 78.113093156256525, 13.301430400846213 ], [ 78.112851782021721, 13.301570869830989 ], [ 78.112254240257741, 13.301918612682687 ], [ 78.111273245785654, 13.302402743523025 ], [ 78.11104805767043, 13.302513873283319 ], [ 78.111026241719728, 13.302524638455976 ], [ 78.110974949683524, 13.302549953387224 ], [ 78.110796273044059, 13.302637476465875 ], [ 78.110740771646078, 13.30266466256092 ], [ 78.109832847378456, 13.30310939971049 ], [ 78.109725397672591, 13.303162034831177 ], [ 78.108518926546338, 13.303753001727292 ], [ 78.105070365091805, 13.304086620329578 ], [ 78.104847335752424, 13.304108193752166 ], [ 78.104790480612607, 13.303342815831057 ], [ 78.1047785609572, 13.303182337727995 ], [ 78.104769323411162, 13.303058017695605 ], [ 78.104742074212837, 13.303023347441545 ], [ 78.104673984855253, 13.302982975110366 ], [ 78.104658467591221, 13.302948626511531 ], [ 78.104499791220462, 13.302597385353199 ], [ 78.104460086372939, 13.302509493968355 ], [ 78.104436730800728, 13.302453880256524 ], [ 78.104362855719856, 13.30226545022059 ], [ 78.104345047585539, 13.302189446316987 ], [ 78.104228226266144, 13.301690884308858 ], [ 78.104210854200772, 13.301616747082535 ], [ 78.104188909936241, 13.301523092884993 ], [ 78.10407489658121, 13.301012391774378 ], [ 78.103969331791546, 13.300338672267756 ], [ 78.103940609584811, 13.300252458918566 ], [ 78.103707555857696, 13.299553047881775 ], [ 78.10370729205421, 13.299552099282799 ], [ 78.103463190016896, 13.298677742516062 ], [ 78.10345148991027, 13.298632403871675 ], [ 78.103449417937213, 13.298628412383293 ], [ 78.103428781385816, 13.298588657225721 ], [ 78.103402396818055, 13.298537828551691 ], [ 78.103079994848315, 13.298096659384109 ], [ 78.102991482761425, 13.297774269737847 ], [ 78.10287167830802, 13.297323310950013 ], [ 78.10280905108786, 13.29708757397905 ], [ 78.102828776251002, 13.297081688099897 ], [ 78.103595606937901, 13.296852877501006 ], [ 78.103599613842292, 13.296789490855579 ], [ 78.103626699120014, 13.296361098404082 ], [ 78.103655689173053, 13.295902561230884 ], [ 78.103618340504241, 13.295461501984313 ], [ 78.103510993101267, 13.294762280887836 ], [ 78.103535385121106, 13.294759050787805 ], [ 78.103866270367305, 13.294643553630921 ], [ 78.103812315377198, 13.294423973264925 ], [ 78.103666378104293, 13.293902958651202 ], [ 78.103628062503162, 13.29375481315574 ], [ 78.103605444628897, 13.293667364579955 ], [ 78.103178883880304, 13.29338027146232 ], [ 78.102607912761925, 13.292995980462933 ], [ 78.102212978096603, 13.292052746141646 ], [ 78.101834203264289, 13.291148096993163 ], [ 78.101668727065473, 13.290834442905147 ], [ 78.101375069574715, 13.290171994453697 ], [ 78.101365709912344, 13.290150881332453 ], [ 78.101286534867796, 13.289824620151004 ], [ 78.101285114295848, 13.289807819811234 ], [ 78.101281507310759, 13.289803902092247 ], [ 78.100642085724147, 13.289109479667014 ], [ 78.100471676953518, 13.288846277753912 ], [ 78.100453468472921, 13.288821728873945 ], [ 78.100436452067498, 13.288808776997527 ], [ 78.100241121490043, 13.288660101375724 ], [ 78.100021597633003, 13.288467486847242 ], [ 78.099991709937015, 13.288441263362767 ], [ 78.099875472495569, 13.28829527224878 ], [ 78.099665336411604, 13.288031345541796 ], [ 78.09946485468069, 13.287757360888127 ], [ 78.099381074393449, 13.287588557987014 ], [ 78.099274087733832, 13.28737299926661 ], [ 78.099187938803226, 13.287145900027864 ], [ 78.099285964968047, 13.286894553789574 ], [ 78.099301372364366, 13.286855047633562 ], [ 78.099309961716017, 13.286851989932931 ], [ 78.099475728199067, 13.286792960104654 ], [ 78.099492600305723, 13.286786952282265 ], [ 78.099490423732547, 13.286562244051956 ], [ 78.099485172669802, 13.286193302131162 ], [ 78.099479754198683, 13.286027427168762 ], [ 78.09944174243212, 13.285899120342352 ], [ 78.09942070090186, 13.285811573112525 ], [ 78.099171704002742, 13.284879154984926 ], [ 78.098589582014526, 13.283614888598224 ], [ 78.09837769122592, 13.28315469514018 ], [ 78.098353502483178, 13.283138061910108 ], [ 78.097830095048991, 13.282778149953224 ], [ 78.097373562689199, 13.282479703752514 ], [ 78.096859552923121, 13.282143682674283 ], [ 78.095500550049081, 13.281024614708128 ], [ 78.095500480245917, 13.281024563179816 ], [ 78.094195113475237, 13.280067385525035 ], [ 78.094079565828579, 13.279982661034358 ], [ 78.097797354106746, 13.278449448155788 ], [ 78.100022114818273, 13.277579877473135 ], [ 78.100838664720541, 13.277260714537164 ], [ 78.100905959374899, 13.277234411897528 ], [ 78.100883974009491, 13.278270561877092 ], [ 78.100854797388365, 13.278577515358334 ], [ 78.100857584802441, 13.27880498657327 ], [ 78.100878635909524, 13.280523171713007 ], [ 78.100880675064332, 13.280689539246207 ], [ 78.100883305838678, 13.280904207848293 ], [ 78.10166839588031, 13.280450403695566 ], [ 78.101960144360433, 13.280275613766605 ], [ 78.102847513691174, 13.27974397760207 ], [ 78.103150946088888, 13.27956089404427 ], [ 78.104116083312249, 13.279056809142975 ], [ 78.104510940007714, 13.278831763589174 ], [ 78.105043994987966, 13.278543169817587 ], [ 78.105182395868496, 13.278468239213675 ], [ 78.105232975664777, 13.278440855304824 ], [ 78.105295415203543, 13.27840705039727 ], [ 78.105334012623217, 13.278386162108109 ], [ 78.105887422975897, 13.279446521344635 ], [ 78.106411071378204, 13.280489970800732 ], [ 78.106737870462013, 13.281141163797011 ], [ 78.106767854897328, 13.281196899002239 ], [ 78.106921135257807, 13.281481808340134 ], [ 78.10701032108318, 13.28164758101099 ], [ 78.1072579836991, 13.282100650905095 ], [ 78.107283710398306, 13.282152093412241 ], [ 78.107313758813063, 13.282212178634454 ], [ 78.107518675813637, 13.282560943641194 ], [ 78.107703907449192, 13.28289808003108 ], [ 78.107774389198724, 13.283026361958308 ], [ 78.108017219257519, 13.283489568526035 ], [ 78.108277554153347, 13.28393733432968 ], [ 78.108509053149461, 13.284363197253446 ], [ 78.108566249386598, 13.284360967477168 ], [ 78.10943615107098, 13.284327038071563 ], [ 78.109463142186968, 13.284325494364145 ], [ 78.10987390072296, 13.284302005388533 ], [ 78.10991234642853, 13.284300368525582 ], [ 78.11038098178085, 13.284280403616961 ], [ 78.110385707355192, 13.284280069488991 ], [ 78.110692937361719, 13.28425838537901 ], [ 78.110695266433694, 13.284276545264111 ], [ 78.110754430891831, 13.284738117426084 ], [ 78.110793208833471, 13.285060591649808 ], [ 78.110790228145234, 13.285116929790231 ], [ 78.110786566249303, 13.285186077928596 ], [ 78.110826873502518, 13.286093733636051 ], [ 78.110828434558485, 13.286117023212119 ], [ 78.110802124432837, 13.286470946793342 ], [ 78.111238403826448, 13.28741608267519 ], [ 78.111286690981629, 13.287594683429619 ], [ 78.111322640096148, 13.287727615208142 ], [ 78.111587000711054, 13.288661231705566 ], [ 78.111702736640439, 13.289069869979039 ], [ 78.111889926652566, 13.28906939306064 ], [ 78.111958434654724, 13.289069229088401 ], [ 78.113863270498811, 13.289064430391768 ], [ 78.115405835406321, 13.289127529417863 ], [ 78.115634349473908, 13.289065284167041 ], [ 78.115713437231761, 13.289048154002003 ], [ 78.11583995215075, 13.289020773637056 ], [ 78.116067196795626, 13.289115305457385 ], [ 78.116109805808577, 13.289118064889085 ], [ 78.116132121250118, 13.289123121161081 ], [ 78.116582368627917, 13.289225298679932 ], [ 78.116730595759151, 13.289285572383347 ], [ 78.116813244404966, 13.289319173853334 ], [ 78.116847427659565, 13.289333079811669 ], [ 78.116857572978816, 13.289324674489725 ], [ 78.116879484091356, 13.28930653275377 ], [ 78.116956649645033, 13.289291805297312 ], [ 78.116986810499469, 13.289346640586192 ], [ 78.116997169097601, 13.289347059929032 ], [ 78.117170099388119, 13.289354140815709 ], [ 78.11721361700188, 13.289345390414521 ], [ 78.117490788063861, 13.289289673786698 ], [ 78.11764040418214, 13.289259596322379 ], [ 78.11768949885743, 13.289300675287693 ], [ 78.117696781964128, 13.289306746556946 ], [ 78.118040196540662, 13.289290644571953 ], [ 78.118078185863979, 13.289286737140573 ], [ 78.118174618633972, 13.289276783122945 ], [ 78.118263970572599, 13.28926756611232 ], [ 78.118468778821551, 13.289246434082294 ], [ 78.11891770298503, 13.289200129329364 ], [ 78.118989825603421, 13.289199733978897 ], [ 78.119156002456705, 13.289198787926328 ], [ 78.119250762339774, 13.289198261964824 ], [ 78.119529699882705, 13.289282177477949 ], [ 78.11960751909514, 13.289305603908296 ], [ 78.120191554716342, 13.289298166714211 ], [ 78.120267451305352, 13.289297214456001 ], [ 78.120334968709358, 13.289296335217063 ], [ 78.120442531078723, 13.289352847788559 ], [ 78.120485149908092, 13.289375259297051 ], [ 78.120553487547028, 13.289378963713805 ], [ 78.12064174419902, 13.289383748375922 ], [ 78.120954462672117, 13.289250804137909 ], [ 78.121592392229431, 13.289244584085376 ], [ 78.121706129967578, 13.289159740912199 ], [ 78.121751800157213, 13.289110009422636 ], [ 78.121832475744881, 13.289159726482763 ], [ 78.121854263996369, 13.2888300748125 ], [ 78.121880769683173, 13.288429217152164 ], [ 78.121896675035771, 13.288189053457897 ], [ 78.121896414730685, 13.288177720752033 ], [ 78.121896371018735, 13.288175746333135 ], [ 78.121892609257102, 13.288007043535922 ], [ 78.121886331094643, 13.287820236718067 ], [ 78.121877950650884, 13.287570817012478 ], [ 78.121871192372353, 13.287369469858083 ], [ 78.121869738674746, 13.287325621473927 ], [ 78.121855833931477, 13.28697895943372 ], [ 78.121844618422756, 13.286896517428868 ], [ 78.121822902016092, 13.286737038383478 ], [ 78.121806164939954, 13.286522701523282 ], [ 78.121739480184914, 13.286031151998399 ], [ 78.121704532885431, 13.285729472322338 ], [ 78.121646118227645, 13.285430738347817 ], [ 78.121595102704362, 13.285169829594778 ], [ 78.121573263624839, 13.285097851465617 ], [ 78.12149857930109, 13.284851662917363 ], [ 78.120801094357176, 13.282552623359365 ], [ 78.120685485437207, 13.282171545575629 ], [ 78.120677489447772, 13.282145185375898 ], [ 78.12050678361291, 13.281569287744981 ], [ 78.120442972994908, 13.281354013478403 ], [ 78.120419343087804, 13.281274292681656 ], [ 78.120183394449512, 13.280405102898323 ], [ 78.120122252093083, 13.280078854798472 ], [ 78.119756131106371, 13.277394734093866 ], [ 78.119588031413173, 13.276321666943502 ], [ 78.119341174122766, 13.275362292821042 ], [ 78.119313932699981, 13.274507622860279 ], [ 78.119224089119896, 13.271688773019742 ], [ 78.11918021285814, 13.270312062249561 ], [ 78.119099337827961, 13.26762041359228 ], [ 78.120107141533325, 13.264919159602565 ], [ 78.120145458959513, 13.264927961714063 ], [ 78.121564596746026, 13.265253985822369 ], [ 78.122251648173403, 13.265362341212247 ], [ 78.124186213948406, 13.265667432625689 ], [ 78.125296079697492, 13.265022391701963 ], [ 78.125428365530396, 13.264953995510625 ], [ 78.126104853231965, 13.264582071889809 ], [ 78.128060193378957, 13.263406735577753 ], [ 78.126811402622906, 13.261339539642893 ], [ 78.126798564400971, 13.261318287941572 ], [ 78.126732860400367, 13.260919867310612 ], [ 78.126706838399741, 13.26059025078828 ], [ 78.126695759596728, 13.259927237758061 ], [ 78.126698138713977, 13.259894062440182 ], [ 78.126702871359583, 13.259828089589726 ], [ 78.126741584151674, 13.259505194524563 ], [ 78.126738556624531, 13.259364934338659 ], [ 78.126725183626561, 13.259175584484929 ], [ 78.126569968026601, 13.258931283355979 ], [ 78.126485354989242, 13.258798107225974 ], [ 78.12646274870994, 13.258715442113749 ], [ 78.126570198827267, 13.258590218153438 ], [ 78.126553081903353, 13.258545575961275 ], [ 78.126368058130382, 13.258062965652682 ], [ 78.126475410526126, 13.257818879273424 ], [ 78.126802322088352, 13.257789278143905 ], [ 78.127073970979993, 13.257630779343495 ], [ 78.127376907277451, 13.257314816014423 ], [ 78.127871170002024, 13.256799296199389 ], [ 78.128299455274686, 13.256154324133691 ], [ 78.128467760023369, 13.25591561812201 ], [ 78.128965509641276, 13.255257648701297 ], [ 78.129447159722801, 13.254574369298499 ], [ 78.129567573624414, 13.25452989333184 ], [ 78.129589154852113, 13.254521922680187 ], [ 78.12979336570848, 13.254446494472544 ], [ 78.129930835477111, 13.254383696650903 ], [ 78.130050497178786, 13.254299915944278 ], [ 78.13017412139186, 13.254213359353379 ], [ 78.130188244856683, 13.254152178409297 ], [ 78.130225562145583, 13.253990575557072 ], [ 78.130189614351352, 13.253550096764579 ], [ 78.130324940175797, 13.253221242193776 ], [ 78.13033331600397, 13.253198394492605 ], [ 78.130399207958916, 13.25301863008028 ], [ 78.130369159079237, 13.253016836363338 ], [ 78.130259097020186, 13.253010266660338 ], [ 78.130283865348872, 13.252924105177732 ], [ 78.130310750046647, 13.252830580515919 ], [ 78.130408523980933, 13.252763712534566 ], [ 78.130465444536355, 13.252751926835236 ], [ 78.130499549800888, 13.252291632050175 ], [ 78.130523151268704, 13.251526063211225 ], [ 78.130579403941198, 13.25125697851505 ], [ 78.130614391241011, 13.25034069002915 ], [ 78.130456022117428, 13.250127759542746 ], [ 78.130532692285485, 13.250023662148251 ], [ 78.130557286904349, 13.249890441896159 ], [ 78.130594605891645, 13.249688290887505 ], [ 78.130868450191315, 13.248289901808754 ], [ 78.13089533415112, 13.248152618698901 ], [ 78.130895913208789, 13.248090316395867 ], [ 78.130897485125644, 13.247921182405541 ], [ 78.130599826143893, 13.247349465473162 ], [ 78.130583406941128, 13.246781674771032 ], [ 78.130592893042305, 13.246605824289244 ], [ 78.130624787979556, 13.24601457095217 ], [ 78.130545888293383, 13.245511027236086 ], [ 78.130539139927421, 13.245404189397053 ], [ 78.130538134049701, 13.245388251372937 ], [ 78.130649990899684, 13.245377223803327 ], [ 78.130849998172053, 13.245357503149144 ], [ 78.130885887719899, 13.245353964197168 ], [ 78.131014432994732, 13.245303210110942 ], [ 78.131472934690038, 13.245115376123087 ], [ 78.131546414786982, 13.245085273180933 ], [ 78.132080570182382, 13.244906892383716 ], [ 78.132310240258519, 13.244841655409246 ], [ 78.132489087854154, 13.244803849178718 ], [ 78.132558314517468, 13.24479622787144 ], [ 78.132664300695026, 13.244784558202719 ], [ 78.132982817660647, 13.244747959059792 ], [ 78.133518070158331, 13.24463003667417 ], [ 78.133926983133833, 13.244567847098347 ], [ 78.13402378685123, 13.24458901305241 ], [ 78.134231763160912, 13.244665706659756 ], [ 78.134450738208628, 13.244746456776804 ], [ 78.134983918687837, 13.244944790834925 ], [ 78.135246963939338, 13.245038713687681 ], [ 78.135416084320568, 13.245099100058376 ], [ 78.135564766014042, 13.245055234806671 ], [ 78.136213515242119, 13.244905062791808 ], [ 78.136752079202722, 13.244774068661455 ], [ 78.137283858661803, 13.24463674723974 ], [ 78.137527704424812, 13.244580266112942 ], [ 78.137859991419973, 13.244504652197742 ], [ 78.138383179117554, 13.244404812764607 ], [ 78.138912052594435, 13.24429941734423 ], [ 78.139196304929598, 13.2442335633424 ], [ 78.14283611561946, 13.244321464643566 ], [ 78.144073601507188, 13.244305507191124 ], [ 78.144186302578191, 13.244304053639294 ], [ 78.144226157169982, 13.244303539703738 ], [ 78.144597176418301, 13.243649805571881 ], [ 78.145525871823637, 13.242171002788062 ], [ 78.145674839264657, 13.241914467772499 ], [ 78.145825679427446, 13.241646877355359 ], [ 78.14623701117057, 13.240984970513631 ], [ 78.146255574901957, 13.240955098795794 ], [ 78.146312931107602, 13.240872389317353 ], [ 78.148442685855542, 13.242914405454082 ], [ 78.148671431117307, 13.243176993257139 ], [ 78.149507426740385, 13.24393526202085 ], [ 78.149782050857624, 13.244198564071038 ], [ 78.14982023616443, 13.244235177833959 ], [ 78.149970598754095, 13.244255830358922 ], [ 78.150672947816261, 13.244313084999558 ], [ 78.150833941650532, 13.244347197044466 ], [ 78.151615329431507, 13.244441453566809 ], [ 78.151798698848538, 13.244473518510329 ], [ 78.152902940629374, 13.244658627626205 ], [ 78.15290304037849, 13.244658642647368 ], [ 78.153741783492691, 13.244773845692542 ], [ 78.153766253860937, 13.244776419194618 ], [ 78.153884353254142, 13.244899859037444 ], [ 78.154153807837091, 13.244887556753497 ], [ 78.154731865041782, 13.245076114332928 ], [ 78.155434534593994, 13.245279853331915 ], [ 78.156054241107199, 13.245339722148007 ], [ 78.156951006050861, 13.24519865238355 ], [ 78.15736294202992, 13.245209331753941 ], [ 78.157630162662898, 13.245216266005126 ], [ 78.157906892759968, 13.245185349631949 ], [ 78.158598155771827, 13.245156675608563 ], [ 78.158737956931731, 13.245049599855928 ], [ 78.159331078135494, 13.245050152925282 ], [ 78.160521557585895, 13.245046865209257 ], [ 78.160575442589831, 13.245046713901033 ], [ 78.160666140985697, 13.245040863407725 ], [ 78.162239876147211, 13.244939348976214 ], [ 78.16229408749372, 13.244936211509621 ], [ 78.163523847048594, 13.244865051655884 ], [ 78.163954596062666, 13.244865592696092 ], [ 78.164811527854937, 13.244876220808923 ], [ 78.165995418786466, 13.244893362208671 ], [ 78.167176380862344, 13.244910918204928 ], [ 78.167715225975456, 13.244934510535415 ], [ 78.167832024304914, 13.244935562813373 ], [ 78.167984425545555, 13.244940265191106 ], [ 78.16836323000615, 13.244951943297105 ], [ 78.16849601757724, 13.24495603841407 ], [ 78.16853977283445, 13.244957192416031 ], [ 78.16866075500046, 13.244960369479893 ], [ 78.169684987202089, 13.244987268463712 ], [ 78.170831670231152, 13.245015650458772 ], [ 78.170864067105683, 13.245016099168097 ], [ 78.172039416028696, 13.245032306984353 ], [ 78.172352771041062, 13.245088218728609 ], [ 78.17319348678754, 13.244929137625526 ], [ 78.174198714250252, 13.244770185283921 ], [ 78.174474163485655, 13.244772214358127 ], [ 78.175738845607469, 13.244789589528727 ], [ 78.176963817908813, 13.244821548932817 ], [ 78.178336931070788, 13.244844125931813 ], [ 78.179699892656359, 13.244939323011232 ], [ 78.180924355961778, 13.245048441497181 ], [ 78.181250305661337, 13.245070153389879 ], [ 78.181489212776114, 13.245086067249536 ], [ 78.181560431440033, 13.245001714540297 ], [ 78.181656281982256, 13.244901967200525 ], [ 78.182066111065964, 13.244419114221675 ], [ 78.182868536315752, 13.243438085365403 ], [ 78.183329499097098, 13.242817579601301 ], [ 78.183385483980445, 13.242742216491445 ], [ 78.183240782744718, 13.24428324499355 ], [ 78.183227941965967, 13.244419997188121 ], [ 78.183170728296844, 13.245029297343571 ], [ 78.183103400131984, 13.245617994573632 ], [ 78.183032747628943, 13.246564588549063 ], [ 78.183016819156336, 13.246777960726391 ], [ 78.182964170849658, 13.248450331865619 ], [ 78.182957650020313, 13.248657574445534 ], [ 78.18300047247007, 13.249617296303555 ], [ 78.183013647691439, 13.249912495020162 ], [ 78.183057113601564, 13.250041212750009 ], [ 78.183164767436949, 13.250360033407263 ], [ 78.183206684031617, 13.250488966371499 ], [ 78.183226636986262, 13.250550341348651 ], [ 78.183243665193331, 13.25060273100066 ], [ 78.18337300557215, 13.251502657212486 ], [ 78.183582126679596, 13.252957680033651 ], [ 78.183609785131409, 13.25318989684709 ], [ 78.183646537608993, 13.25349846128938 ], [ 78.183675445073533, 13.253741205849154 ], [ 78.183694421216629, 13.253900559908946 ], [ 78.183709184656678, 13.254024508619485 ], [ 78.183775417093429, 13.254329074640586 ], [ 78.183947753981116, 13.254668080839524 ], [ 78.18385826194023, 13.254710031537584 ], [ 78.183862770416482, 13.254730763091802 ], [ 78.183961025721288, 13.254861163474271 ], [ 78.184398958015407, 13.25526210830731 ], [ 78.184534119544082, 13.255380434630945 ], [ 78.184614252518131, 13.255420319046221 ], [ 78.184692559788502, 13.255569160949559 ], [ 78.184841077183989, 13.255757561443948 ], [ 78.184854689787812, 13.255774828152393 ], [ 78.185263574082754, 13.255818803282043 ], [ 78.185375316918822, 13.25583082134612 ], [ 78.185397418233109, 13.256222933501146 ], [ 78.185399787406141, 13.256264969011674 ], [ 78.185400498293475, 13.256277575870504 ], [ 78.185401865285797, 13.256301839419018 ], [ 78.185720566347229, 13.25620837189698 ], [ 78.185767446605297, 13.256198235705506 ], [ 78.185801916207694, 13.256190782155162 ], [ 78.185946574217766, 13.256544442806737 ], [ 78.186067296355915, 13.256777765208543 ], [ 78.18609220945531, 13.256825916506683 ], [ 78.186384622075451, 13.256820591176879 ], [ 78.186425254090395, 13.256819851883794 ], [ 78.186438514497439, 13.256852803370768 ], [ 78.186465070556721, 13.256918792586823 ], [ 78.18652666258626, 13.257071842873245 ], [ 78.186543275552935, 13.257113126788903 ], [ 78.186636542531289, 13.257109432859751 ], [ 78.187037661863201, 13.257054718681596 ], [ 78.187236687350619, 13.257024911775215 ], [ 78.187660731413274, 13.25708970280918 ], [ 78.188207030690378, 13.257035607671874 ], [ 78.188792057433687, 13.257074602037378 ], [ 78.188986001891294, 13.257086184639213 ], [ 78.189032534501251, 13.257019368654465 ], [ 78.189092376068004, 13.256933442214322 ], [ 78.18912445291636, 13.257072590952301 ], [ 78.189124471876795, 13.25707270178304 ], [ 78.189193755430111, 13.25745831973714 ], [ 78.189338837135537, 13.257975239188369 ], [ 78.189333579272528, 13.258183848297582 ], [ 78.189381584468904, 13.258235061931199 ], [ 78.189328417080063, 13.258287581817106 ], [ 78.189285377075777, 13.258249314521493 ], [ 78.189243790133077, 13.258212337461744 ], [ 78.18927245116241, 13.258589472691064 ], [ 78.189330761826113, 13.259277731003342 ], [ 78.189500454773949, 13.260822567759346 ], [ 78.18952844065592, 13.260935001905697 ], [ 78.189647616861137, 13.261413802717566 ], [ 78.189755731908377, 13.261860561975279 ], [ 78.189810067833392, 13.262154977302082 ], [ 78.18993208804909, 13.262685282118655 ], [ 78.190478789385793, 13.265061218461256 ], [ 78.19096883657916, 13.267190908605231 ], [ 78.190969014331898, 13.267205505020902 ], [ 78.190995375477357, 13.267168341673996 ], [ 78.191102861756633, 13.267076911359478 ], [ 78.191286211830587, 13.266954566258242 ], [ 78.192993311033604, 13.265478509175299 ], [ 78.194092968020342, 13.264533511872575 ], [ 78.195028348497175, 13.263737855175444 ], [ 78.195247369161606, 13.263551549044706 ], [ 78.195354694465436, 13.263460255058211 ], [ 78.196180781387852, 13.262833584726286 ], [ 78.196382403484975, 13.262680633188006 ], [ 78.197153023224189, 13.26209603437399 ], [ 78.197645028845173, 13.261977002017828 ], [ 78.198508531131083, 13.262190963302539 ], [ 78.198808182112487, 13.262265211664269 ], [ 78.200435265553082, 13.264364880844552 ], [ 78.200690627375252, 13.264681070909159 ], [ 78.200872101592594, 13.26510736893637 ], [ 78.201012822177844, 13.265137289339318 ], [ 78.201079633383273, 13.26532277447863 ], [ 78.201150478600283, 13.265785391007292 ], [ 78.201292433179717, 13.265747359788335 ], [ 78.201318029804582, 13.265952125994177 ], [ 78.201339987254812, 13.266127783357007 ], [ 78.201347087381436, 13.266232467100972 ], [ 78.201713088356229, 13.267375366340287 ], [ 78.202179353078748, 13.268512235417454 ], [ 78.202377855915429, 13.268996230515684 ], [ 78.202377969800153, 13.269016307771317 ], [ 78.202400954648496, 13.269071294629454 ], [ 78.202626100371319, 13.269970004816384 ], [ 78.202587198632003, 13.270023656331087 ], [ 78.202647631178635, 13.270166757136748 ], [ 78.202661279686424, 13.270190468362241 ], [ 78.202491963498716, 13.270155002903335 ], [ 78.202542271768678, 13.270429124514074 ], [ 78.20271146124999, 13.270726404446545 ], [ 78.20297318165494, 13.271122686582327 ], [ 78.203049032551931, 13.271238541671453 ], [ 78.203145846077476, 13.271370781174504 ], [ 78.203215506226513, 13.271465931088846 ], [ 78.20324386878471, 13.271606723524206 ], [ 78.203404742008459, 13.272138223845337 ], [ 78.203446743666305, 13.272246455556679 ], [ 78.203461712513132, 13.272277684542713 ], [ 78.203478298632646, 13.272294179110936 ], [ 78.203595151305564, 13.272410365728867 ], [ 78.203865054628622, 13.272678726426427 ], [ 78.203879117903412, 13.272697139039106 ], [ 78.204001584585839, 13.272817354241015 ], [ 78.204165214461341, 13.272963168008985 ], [ 78.204448152242165, 13.273183457046869 ], [ 78.2044744585573, 13.273203939496542 ], [ 78.204784323934618, 13.273426540129403 ], [ 78.204793991560081, 13.273433485103588 ], [ 78.204964241407268, 13.273559143383427 ], [ 78.204975936277634, 13.273567775769569 ], [ 78.205179386153048, 13.273703985143577 ], [ 78.205298268196955, 13.273760111462273 ], [ 78.205396017039263, 13.273806259600258 ], [ 78.205527831582444, 13.273861284706561 ], [ 78.205529650263429, 13.273862042875173 ], [ 78.205551196518954, 13.27387103784643 ], [ 78.205580482747251, 13.273884517035089 ], [ 78.205646655988303, 13.273914977124107 ], [ 78.205647176301269, 13.273915216180194 ], [ 78.205854170722262, 13.274006719823712 ], [ 78.206011796904136, 13.274076399880487 ], [ 78.206041594944764, 13.274089607984619 ], [ 78.206042058780923, 13.274205669122306 ], [ 78.206453123507103, 13.274272024045462 ], [ 78.206748254850694, 13.274319663931603 ], [ 78.207383108190825, 13.274585618426359 ], [ 78.207581781353511, 13.274672319399199 ], [ 78.208126373273899, 13.274911641920871 ], [ 78.208137253444932, 13.274916422363829 ], [ 78.208839422295682, 13.274798358776343 ], [ 78.209555279338829, 13.274630458920324 ], [ 78.209772266798552, 13.274579566460693 ], [ 78.209824903243359, 13.274567220759064 ], [ 78.209911341223787, 13.274546947677278 ], [ 78.209939333625798, 13.274550630887395 ], [ 78.210076675776406, 13.274568705201993 ], [ 78.210778233266822, 13.274661026511582 ], [ 78.210797921052105, 13.274663561976443 ], [ 78.210842582384913, 13.27466931206537 ], [ 78.211020947039515, 13.274692279760401 ], [ 78.211579116932057, 13.27476415416832 ], [ 78.211704239748073, 13.274757568953891 ], [ 78.211900274012663, 13.274747248818898 ], [ 78.211957486678941, 13.274744237657549 ], [ 78.212739079269383, 13.274697809038363 ], [ 78.213065299824962, 13.274617726875196 ], [ 78.21324425137351, 13.274620088761091 ], [ 78.213350188710706, 13.274621487092606 ], [ 78.214003240849834, 13.27463010571203 ], [ 78.214492901538406, 13.274636565220565 ], [ 78.21466725296338, 13.274668350627627 ], [ 78.214771662552991, 13.274687384621375 ], [ 78.214977066330491, 13.274724831934879 ], [ 78.215104486912736, 13.274772781652535 ], [ 78.215180511809862, 13.274801390701192 ], [ 78.215379874476866, 13.274876415248297 ], [ 78.215495498487414, 13.274919926700372 ], [ 78.215609381706628, 13.27496278376332 ], [ 78.215813746753682, 13.274962018010816 ], [ 78.21583680632213, 13.274961931574625 ], [ 78.216375753019378, 13.274959915827026 ], [ 78.216379454170138, 13.274959902456345 ], [ 78.216613958845329, 13.274998320523203 ], [ 78.21705402804578, 13.275070412827546 ], [ 78.217688302030211, 13.275174319979271 ], [ 78.21921574429939, 13.275381374204667 ], [ 78.219303358062405, 13.275393382290488 ], [ 78.22075041757607, 13.275614994429926 ], [ 78.226903884089893, 13.276571543186334 ], [ 78.227053889735373, 13.276612581033694 ], [ 78.227065450924428, 13.278109826437673 ], [ 78.227070547056712, 13.278769907543733 ], [ 78.227070719185718, 13.27879205950766 ], [ 78.227072322363426, 13.278999694006915 ], [ 78.226659643431503, 13.279319852568495 ], [ 78.22561279582176, 13.280131995249452 ], [ 78.224569375061634, 13.280971566079938 ], [ 78.223723469012214, 13.281653487231539 ], [ 78.22462258502857, 13.282289655138831 ], [ 78.225816770752658, 13.284349053941936 ], [ 78.226634761044266, 13.285689121487643 ], [ 78.229287739493586, 13.287866725999317 ], [ 78.229426438450389, 13.288054842901827 ], [ 78.230459243953007, 13.289422079520502 ], [ 78.230764267998069, 13.289820749749579 ], [ 78.23175751911073, 13.291118932926778 ], [ 78.231820499348373, 13.291363417608355 ], [ 78.232034969062909, 13.291487054805643 ], [ 78.232044336418767, 13.291492455464613 ], [ 78.232158239900087, 13.291881194334639 ], [ 78.232438079196797, 13.292304033985161 ], [ 78.232829553253609, 13.292648663075624 ], [ 78.233051175341075, 13.292861099523464 ], [ 78.2332491859935, 13.293022212313749 ], [ 78.233556602139643, 13.293242184401764 ], [ 78.233588821278062, 13.293364202528451 ], [ 78.233812982870205, 13.293532305836306 ], [ 78.235749198789861, 13.296291020583567 ], [ 78.235855790855922, 13.296480122136398 ], [ 78.236001589800594, 13.296770201734832 ], [ 78.236251880755219, 13.296671504053037 ], [ 78.236310854601058, 13.296648248605866 ], [ 78.23651327431746, 13.296568427186321 ], [ 78.236593806618245, 13.296472612114608 ], [ 78.236742027537744, 13.29638060665185 ], [ 78.237170233657636, 13.296033214409688 ], [ 78.237179834044184, 13.296028304648305 ], [ 78.237228020946958, 13.296003661379498 ], [ 78.237422271666318, 13.296427012266252 ], [ 78.237594527709376, 13.296903537120894 ], [ 78.237705722261879, 13.297413074303975 ], [ 78.237719420133956, 13.297487302050062 ], [ 78.237723111273766, 13.297492760307442 ], [ 78.23790810534615, 13.297766355538602 ], [ 78.238042120798212, 13.297951748975981 ], [ 78.238071456125056, 13.297992338375236 ], [ 78.238217061065058, 13.297968016220617 ], [ 78.239493562701711, 13.297754781440194 ], [ 78.240279557324101, 13.29734208607729 ], [ 78.242376627942065, 13.296276658036572 ], [ 78.242497595859078, 13.296234938601657 ], [ 78.242588477810813, 13.29634328470169 ], [ 78.243532051756972, 13.297584618312618 ], [ 78.243996454151201, 13.299025716761644 ], [ 78.244081256229265, 13.299288860336107 ], [ 78.24422060875996, 13.299721280484926 ], [ 78.244441679520435, 13.300468163203954 ], [ 78.244449137014897, 13.300493354051092 ], [ 78.244656169482838, 13.301074101979212 ], [ 78.244896624626165, 13.301880275387052 ], [ 78.244916754656643, 13.301949016794042 ], [ 78.245049322483894, 13.302394696429573 ], [ 78.245124642187861, 13.302524163626922 ], [ 78.245136451802281, 13.302544463541704 ], [ 78.248351294624925, 13.308070330787039 ], [ 78.2483610081498, 13.30808702651594 ], [ 78.249648737543993, 13.309243005431071 ], [ 78.25272103092982, 13.311826824762031 ], [ 78.253479142002874, 13.312488092255938 ], [ 78.25355262789526, 13.31257458171959 ], [ 78.254944280253085, 13.314212475720176 ], [ 78.255442837460308, 13.314089854559882 ], [ 78.259733122488015, 13.312765750617869 ], [ 78.260084550411605, 13.312657286493589 ], [ 78.260721674535304, 13.31296256903574 ], [ 78.261055022887348, 13.313122294498177 ], [ 78.266550245938674, 13.315755247094812 ], [ 78.271888313795657, 13.318371050654406 ], [ 78.272815089644666, 13.318825181143238 ], [ 78.272317371965357, 13.319307243330051 ], [ 78.270806673127097, 13.320770420960278 ], [ 78.268153033528819, 13.325386660569123 ], [ 78.267817908811381, 13.325969625123488 ], [ 78.267603235562746, 13.326434297069531 ], [ 78.26740190886909, 13.326870074921519 ], [ 78.269052069374283, 13.33243859173475 ], [ 78.269225951804827, 13.333015019602948 ], [ 78.269126052675688, 13.333347990342219 ], [ 78.270868841594805, 13.342250416410256 ], [ 78.270892888345728, 13.342376156569584 ], [ 78.271731668145009, 13.346663190086749 ], [ 78.272499359571512, 13.35024017432457 ], [ 78.272500811876583, 13.350246942806018 ], [ 78.272559182200581, 13.350300590073521 ], [ 78.273521843589265, 13.351185366241442 ], [ 78.273666816104338, 13.351765988423818 ], [ 78.27388187836705, 13.352539973227683 ], [ 78.273882708533478, 13.352541769231408 ], [ 78.274319056853727, 13.353484866957441 ], [ 78.274496556765143, 13.353954277025998 ], [ 78.2744993155804, 13.353961573935498 ], [ 78.274537691672691, 13.354030918168426 ], [ 78.274580298443581, 13.354107909546563 ], [ 78.275028000166984, 13.354916899019194 ], [ 78.275031261051311, 13.35492279079768 ], [ 78.275601253605686, 13.354787386586487 ], [ 78.275752058061002, 13.355097129022917 ], [ 78.275779634446906, 13.355087503583778 ], [ 78.275965710244279, 13.355022552280367 ], [ 78.276304695692431, 13.354904225257116 ], [ 78.276319109793462, 13.354899193577204 ], [ 78.276161343170628, 13.35453266153433 ], [ 78.276158943275689, 13.354527091805188 ], [ 78.276444321684579, 13.354352552387081 ], [ 78.276446017307734, 13.35435151555391 ], [ 78.278547221962427, 13.353121929352213 ], [ 78.278550824817472, 13.353119823127553 ], [ 78.279459018846737, 13.352823300257617 ], [ 78.280239658161989, 13.352596702614292 ], [ 78.280597331743238, 13.352492877883078 ], [ 78.280990095467445, 13.352375779148977 ], [ 78.282178250667414, 13.352065558088587 ], [ 78.282653609302713, 13.35148392362264 ], [ 78.282724925361478, 13.351396664894574 ], [ 78.282761287283549, 13.351352174499729 ], [ 78.284146366171825, 13.351744235056113 ], [ 78.284220218825894, 13.351765140769695 ], [ 78.284349617377373, 13.351825749020351 ], [ 78.285082109647604, 13.35223249732649 ], [ 78.285088708081332, 13.352236160566145 ], [ 78.28695517201642, 13.353230597789112 ], [ 78.286955761821957, 13.353230912467279 ], [ 78.286956183506774, 13.353231137232266 ], [ 78.286960446782629, 13.353233408657694 ], [ 78.287095707554997, 13.353295515511853 ], [ 78.288801950931159, 13.353948841241101 ], [ 78.288935751506983, 13.354001133228692 ], [ 78.289151347416279, 13.354085388561215 ], [ 78.289298035624554, 13.354142715366928 ], [ 78.28940116085748, 13.354173689961758 ], [ 78.289440115701993, 13.354185391810317 ], [ 78.289503753580476, 13.354196876634752 ], [ 78.289600571989894, 13.354214347982012 ], [ 78.290376111671932, 13.354288436033919 ], [ 78.290494789865832, 13.354239688964249 ], [ 78.290581895450089, 13.354203910013242 ], [ 78.290769897279617, 13.354215742970435 ], [ 78.290679833509614, 13.353734793927353 ], [ 78.290674129465444, 13.353704684852048 ], [ 78.290790967105195, 13.353689277073158 ], [ 78.291617699543934, 13.353580261175722 ], [ 78.291621591626139, 13.353647950117224 ], [ 78.291624955191935, 13.353706451648051 ], [ 78.294789796212484, 13.353426692291608 ], [ 78.294814840243163, 13.353530963900987 ], [ 78.294835159996552, 13.353621153943426 ], [ 78.294857781771952, 13.353710763238286 ], [ 78.294876801994278, 13.353802966506947 ], [ 78.294876970790654, 13.353803785047715 ], [ 78.294884297784236, 13.353874804968566 ], [ 78.294939424354652, 13.35440918608691 ], [ 78.294958062792873, 13.354578440774828 ], [ 78.294975315997789, 13.354718343879505 ], [ 78.295151863000839, 13.354691937496401 ], [ 78.295555910659573, 13.354631502139156 ], [ 78.295660509199749, 13.354732346593357 ], [ 78.295725517251626, 13.354871977920777 ], [ 78.297249141217137, 13.358144499341773 ], [ 78.298238938262386, 13.35744456912454 ], [ 78.298521702441747, 13.35732327916803 ], [ 78.30136192830814, 13.356101799850318 ], [ 78.301417592694094, 13.356080868524607 ], [ 78.304235632939552, 13.355021166898679 ], [ 78.307436475409531, 13.355931237743029 ], [ 78.308333928347736, 13.356187415564158 ], [ 78.310456919032333, 13.357298982801245 ], [ 78.31110166063489, 13.357835079073869 ], [ 78.3141495307882, 13.356620781718386 ], [ 78.314434759135565, 13.356507142474753 ], [ 78.314440954233589, 13.356191125088788 ], [ 78.317311078878234, 13.355195595786606 ], [ 78.317313223333102, 13.355193277958609 ], [ 78.320120470327495, 13.352158692793765 ], [ 78.320622576149404, 13.352325902089799 ], [ 78.327885011233619, 13.354684195858521 ], [ 78.328858978846895, 13.355023897948634 ], [ 78.328601361896716, 13.35635062970276 ], [ 78.328280867224663, 13.357916340279843 ], [ 78.328281976021472, 13.358497556900362 ], [ 78.32828240533442, 13.358722698481014 ], [ 78.32932810262686, 13.358646667235714 ], [ 78.32990124429412, 13.358604994109516 ], [ 78.330536760126733, 13.358565150285424 ], [ 78.331624809056564, 13.358351608173544 ], [ 78.332584327626478, 13.358103419801493 ], [ 78.332981156099649, 13.358000775838633 ], [ 78.335417914170904, 13.358381706291514 ], [ 78.33560209905157, 13.358410495419051 ], [ 78.336915048438826, 13.358212266358061 ], [ 78.336931495745247, 13.358209783213074 ], [ 78.337122596895838, 13.358180927588135 ], [ 78.337222249603442, 13.358165880416434 ], [ 78.339682250400855, 13.35938174267835 ], [ 78.340106773988694, 13.359591560323109 ], [ 78.340148320253491, 13.359693418308488 ], [ 78.340394275762492, 13.360296416275048 ], [ 78.34062917986472, 13.360750035346852 ], [ 78.340771067471564, 13.361024030709281 ], [ 78.34099281760983, 13.36103427177002 ], [ 78.341196659674409, 13.361962917847142 ], [ 78.341206776734012, 13.362009005421072 ], [ 78.341405302801604, 13.361915537371738 ], [ 78.341500198442944, 13.361870859491738 ], [ 78.341874382437325, 13.361868428208236 ], [ 78.342007681486606, 13.361867561581644 ], [ 78.342453504082656, 13.361810265623157 ], [ 78.342531141136973, 13.361800287702861 ], [ 78.342595801403135, 13.361791978210494 ], [ 78.343062427169528, 13.361673098311623 ], [ 78.343068325074, 13.361670768614223 ], [ 78.343152026253023, 13.361637687367008 ], [ 78.343405073818943, 13.361537671122791 ], [ 78.343426242029963, 13.361519919104285 ], [ 78.343506226728408, 13.361435925730937 ], [ 78.343552196541538, 13.361414290369757 ], [ 78.343555087931279, 13.361412930356396 ], [ 78.344316236624167, 13.361054704717422 ], [ 78.344314109177617, 13.361041654896264 ], [ 78.344298929214361, 13.360948556594444 ], [ 78.344298030725682, 13.360943047475322 ], [ 78.344534303288185, 13.360923140950979 ], [ 78.344632686249696, 13.360824127836226 ], [ 78.346290537247825, 13.359893122041878 ], [ 78.346296204929061, 13.359891822785512 ], [ 78.346480849696462, 13.359849516064658 ], [ 78.346515018496049, 13.35984168584603 ], [ 78.346855805803841, 13.359767887074964 ], [ 78.346916996828611, 13.359772314926168 ], [ 78.346996014999391, 13.359747975615871 ], [ 78.347503938492778, 13.359391718835955 ], [ 78.348732669432138, 13.358708650629319 ], [ 78.34877581487153, 13.358685226338364 ], [ 78.349726933238586, 13.358168853922249 ], [ 78.349816235647694, 13.358120369852458 ], [ 78.350023714640784, 13.358015544533684 ], [ 78.350204826283104, 13.357984597830132 ], [ 78.353466361335421, 13.35742725277359 ], [ 78.361162316689473, 13.356104245441232 ], [ 78.365650689407019, 13.355380124483004 ], [ 78.365863644776283, 13.357063686010754 ], [ 78.366004403050923, 13.358176454333776 ], [ 78.365959653705431, 13.358744075370327 ], [ 78.365801324427267, 13.360752386867302 ], [ 78.365796505625795, 13.362240299626141 ], [ 78.365937166898675, 13.362826677158731 ], [ 78.366090247138416, 13.363382718817594 ], [ 78.366147015373599, 13.363588921976516 ], [ 78.366262542728194, 13.363999977210835 ], [ 78.366359516108091, 13.364345012417143 ], [ 78.366394273930197, 13.364559262949111 ], [ 78.366478592244718, 13.364698268870359 ], [ 78.366580174918099, 13.365037782989207 ], [ 78.366607277660577, 13.365157733180823 ], [ 78.3666331438329, 13.365250854696171 ], [ 78.36671148072665, 13.365519900705779 ], [ 78.366813904752433, 13.365909099438129 ], [ 78.367163492990429, 13.367205656696152 ], [ 78.36717916878149, 13.367341127970413 ], [ 78.367323716185695, 13.368036241180318 ], [ 78.367434552690327, 13.368562599720883 ], [ 78.367641258048167, 13.369559553045182 ], [ 78.367714117648873, 13.369710304922455 ], [ 78.369187134635396, 13.37231527362273 ], [ 78.370683497149585, 13.374153008994023 ], [ 78.370815448910321, 13.374431620106188 ], [ 78.370844001551788, 13.374493309401288 ], [ 78.371363158116324, 13.375686302733826 ], [ 78.371586084418311, 13.376046376560669 ], [ 78.372781565155947, 13.37808329319504 ], [ 78.373295197940308, 13.379070180419166 ], [ 78.373668544475166, 13.379270353291206 ], [ 78.373750626981419, 13.379314361828783 ], [ 78.376411867128255, 13.380741178387735 ], [ 78.378792974600728, 13.382828209007505 ], [ 78.379185369848031, 13.383512765496704 ], [ 78.379291314551395, 13.383736386675043 ], [ 78.379322748078167, 13.383925631059732 ], [ 78.379366839356422, 13.384175454851764 ], [ 78.379376025318408, 13.384364447108389 ], [ 78.379865033077166, 13.385405615087969 ], [ 78.380011911092296, 13.386242209950582 ], [ 78.380165438451911, 13.387068816804605 ], [ 78.38033248221835, 13.387888645329966 ], [ 78.380351945100557, 13.388033643816044 ], [ 78.380396640922569, 13.388280595998575 ], [ 78.380558531398165, 13.389175070352364 ], [ 78.380733794245671, 13.390072429395058 ], [ 78.380853024558775, 13.3906816031867 ], [ 78.381010019745702, 13.391511463255975 ], [ 78.381170810113275, 13.392364381832198 ], [ 78.381337809002034, 13.393180910448327 ], [ 78.381435220701263, 13.393707834373302 ], [ 78.381562358392657, 13.394381071339899 ], [ 78.381697638406138, 13.395133648787839 ], [ 78.381950578972081, 13.396396710747005 ], [ 78.381988934923683, 13.39665451574991 ], [ 78.381575835592173, 13.397432429323855 ], [ 78.380781605633757, 13.398915611252205 ], [ 78.380837860981188, 13.399509704576662 ], [ 78.380923455704817, 13.400277377971026 ], [ 78.381030117139233, 13.401118455002775 ], [ 78.381165305559946, 13.402275145843159 ], [ 78.381349897430937, 13.403821325005659 ], [ 78.381409012424299, 13.403931805993279 ], [ 78.376062573081896, 13.403011752344129 ], [ 78.375902314948789, 13.40298459167925 ], [ 78.37523693063811, 13.402871824661899 ], [ 78.374725976988358, 13.402803060034241 ], [ 78.374650738743995, 13.402805840885117 ], [ 78.374562487310826, 13.402823645663034 ], [ 78.372489429052976, 13.403336626361464 ], [ 78.369807785552808, 13.404038213266215 ], [ 78.365235290361468, 13.40521920015747 ], [ 78.365222713638985, 13.405222973053776 ], [ 78.365185860519233, 13.405234026335945 ], [ 78.364886551826871, 13.405323806032129 ], [ 78.364877800107479, 13.405327876367547 ], [ 78.363715988585568, 13.405868252841191 ], [ 78.363692493225798, 13.405879179203803 ], [ 78.36364738916474, 13.405914462734946 ], [ 78.363384979017013, 13.406119737041893 ], [ 78.363255734167623, 13.406179481408609 ], [ 78.363079375617218, 13.406261005067607 ], [ 78.362268391056716, 13.406835738558858 ], [ 78.362150418202432, 13.40691934333559 ], [ 78.361829362211992, 13.407155064267872 ], [ 78.360451641328353, 13.408196646547323 ], [ 78.360353907517194, 13.408270534500419 ], [ 78.360080988402089, 13.408468609163393 ], [ 78.359813794881887, 13.408661557698078 ], [ 78.356827032004048, 13.410820972828988 ], [ 78.356523742032465, 13.411040247381502 ], [ 78.354386309707124, 13.412194378931611 ], [ 78.348369409717293, 13.414798264611685 ], [ 78.346735643567811, 13.415338557585136 ], [ 78.342624167481091, 13.411413865234865 ], [ 78.342409342076323, 13.411208789748356 ], [ 78.342177651614833, 13.410987618404489 ], [ 78.34215912531964, 13.410969935038196 ], [ 78.341990387968693, 13.410711831404761 ], [ 78.34198942987247, 13.410709376587933 ], [ 78.341941929471588, 13.410587599144968 ], [ 78.341856445003188, 13.410378443452304 ], [ 78.341698704411669, 13.409992493834075 ], [ 78.34166351626088, 13.409878271614781 ], [ 78.341663497591853, 13.409878188799011 ], [ 78.341649840086276, 13.409819294714373 ], [ 78.341546657738846, 13.409423117180889 ], [ 78.341544280172087, 13.409413988262459 ], [ 78.341521945102258, 13.409328231675413 ], [ 78.341496158129445, 13.409229218976623 ], [ 78.34131903000771, 13.408537373442437 ], [ 78.341303390912898, 13.408476289939967 ], [ 78.341289799198037, 13.408423202130372 ], [ 78.341233425738835, 13.408344176908511 ], [ 78.340154950554407, 13.406832442820241 ], [ 78.339777916999921, 13.407146519945709 ], [ 78.339337086919784, 13.4075137391787 ], [ 78.337324831178805, 13.409189965240612 ], [ 78.337274377929347, 13.409231992516769 ], [ 78.337019077690513, 13.409442773884594 ], [ 78.336825525769513, 13.409213369945734 ], [ 78.336813358206157, 13.409214116962547 ], [ 78.336696303869559, 13.409221300214778 ], [ 78.336685786237851, 13.409198739578029 ], [ 78.33618625546616, 13.40922194738023 ], [ 78.336131127865983, 13.409224507949842 ], [ 78.335773521594163, 13.409322016958193 ], [ 78.335670717461198, 13.409350048875892 ], [ 78.335377280005403, 13.409439283118932 ], [ 78.335183937674287, 13.409184349844235 ], [ 78.334871484520832, 13.408821804681525 ], [ 78.33468389291582, 13.408776222021451 ], [ 78.33466092285127, 13.408770640069132 ], [ 78.334594594751451, 13.408764094949124 ], [ 78.334151604307721, 13.409005412131101 ], [ 78.333818254564164, 13.409180688505156 ], [ 78.332939790268995, 13.409675878140281 ], [ 78.332824229853486, 13.40972053875929 ], [ 78.332774840654508, 13.409739627417135 ], [ 78.331940457828367, 13.41003819698275 ], [ 78.331925046286017, 13.410042142182689 ], [ 78.331920721004522, 13.410096258669405 ], [ 78.331124094248054, 13.41030006187918 ], [ 78.331023545031343, 13.410419416524709 ], [ 78.33057497556895, 13.410726106280238 ], [ 78.3305282969948, 13.41074389022981 ], [ 78.330249878188823, 13.410385048081968 ], [ 78.329685972851223, 13.409658257192877 ], [ 78.329355002807887, 13.409797734359348 ], [ 78.329101493469153, 13.409904569620339 ], [ 78.32832297358911, 13.410232648460765 ], [ 78.327743362972114, 13.410458514390895 ], [ 78.327427763096054, 13.410626110618853 ], [ 78.327365582648426, 13.410659130596834 ], [ 78.327267112284048, 13.410528627156106 ], [ 78.327292676709135, 13.410255572293996 ], [ 78.327222447115957, 13.40984052202146 ], [ 78.327150530213643, 13.409558139601147 ], [ 78.326961590934019, 13.40886475146247 ], [ 78.326797658135817, 13.408908717902383 ], [ 78.326690038371581, 13.408724525255813 ], [ 78.326595555757379, 13.408523908346838 ], [ 78.326522005479205, 13.408441170689322 ], [ 78.326107998498827, 13.408261580004135 ], [ 78.325760653254235, 13.407960298172306 ], [ 78.325777544289835, 13.407861415523378 ], [ 78.325777416665446, 13.407856901027511 ], [ 78.325777409960111, 13.407856614904672 ], [ 78.325772836119455, 13.407695725177172 ], [ 78.32568192353834, 13.407514635793447 ], [ 78.325668795470122, 13.407488489257844 ], [ 78.325651677081609, 13.407456811977518 ], [ 78.325674611560956, 13.407445078158839 ], [ 78.325735912782648, 13.407399670241238 ], [ 78.3257573486692, 13.407383792126334 ], [ 78.325718904621169, 13.407168882335665 ], [ 78.326727341258703, 13.406524122810984 ], [ 78.326852975806304, 13.406455252512586 ], [ 78.326830085977079, 13.406385945658442 ], [ 78.326839192297498, 13.406379625471482 ], [ 78.327210077767546, 13.405714736398956 ], [ 78.327434074653695, 13.405597218612352 ], [ 78.328058261499237, 13.405275564078615 ], [ 78.328565815698497, 13.404987093601703 ], [ 78.328690698093297, 13.404932352619653 ], [ 78.32889032107957, 13.404810070609901 ], [ 78.328998059076653, 13.404753053071483 ], [ 78.329351990193857, 13.404565743878369 ], [ 78.330134232382633, 13.404140893220669 ], [ 78.331095420797766, 13.405421431409783 ], [ 78.331524785700012, 13.40595985919656 ], [ 78.331567110837625, 13.405947275545612 ], [ 78.3319057117602, 13.405846608826621 ], [ 78.332376712707699, 13.405678731239348 ], [ 78.333012200654082, 13.405480350348565 ], [ 78.333979940108321, 13.405189830124993 ], [ 78.334055814917747, 13.405167051553516 ], [ 78.333000989311159, 13.403812399421646 ], [ 78.332943163359189, 13.40373103509244 ], [ 78.332710228404906, 13.403404033533224 ], [ 78.332661962343337, 13.403336273597329 ], [ 78.332589688853872, 13.403243103627723 ], [ 78.331791995255074, 13.402235105745289 ], [ 78.331618861614558, 13.402016326860664 ], [ 78.331192168520801, 13.401474368228948 ], [ 78.33063830959324, 13.400752534698082 ], [ 78.330632362128938, 13.400744783532167 ], [ 78.330574423963938, 13.400661579736484 ], [ 78.329730933196032, 13.399173082615327 ], [ 78.328672656635078, 13.397291434900465 ], [ 78.328667911182293, 13.397286575948829 ], [ 78.328520365516653, 13.397135509929411 ], [ 78.328358225538736, 13.396928835136551 ], [ 78.328357003794409, 13.396926037900837 ], [ 78.328110832301803, 13.396363035555709 ], [ 78.328062114289736, 13.396311473111439 ], [ 78.328042462402422, 13.39630673220646 ], [ 78.328041502853523, 13.396306501087036 ], [ 78.327812988535399, 13.396251383554889 ], [ 78.327807472865899, 13.39623384484816 ], [ 78.327622567625696, 13.395645796809331 ], [ 78.327470510383094, 13.395329845059178 ], [ 78.327085679483503, 13.394656126833931 ], [ 78.326634813281487, 13.394633347785208 ], [ 78.326528564382741, 13.394613739430689 ], [ 78.325032668655012, 13.395081144610055 ], [ 78.325030089154808, 13.395081950558707 ], [ 78.324476996656045, 13.395254765915412 ], [ 78.323204437563874, 13.395652376589071 ], [ 78.323186805815254, 13.395672426960582 ], [ 78.322227124581872, 13.396763795094943 ], [ 78.322046515078512, 13.396968460340355 ], [ 78.321904836336785, 13.397280671243266 ], [ 78.32186011510592, 13.39737840346012 ], [ 78.321679251045282, 13.397773651567309 ], [ 78.321484292071418, 13.397990074177828 ], [ 78.321359122876871, 13.398129022834905 ], [ 78.321348967759008, 13.398210319917069 ], [ 78.32117400545539, 13.399610950689222 ], [ 78.321125463609278, 13.400075981939679 ], [ 78.31969862243848, 13.400930242712924 ], [ 78.31810541843754, 13.401721748248278 ], [ 78.317761188344022, 13.401527589266534 ], [ 78.317501455764301, 13.401381091112968 ], [ 78.315844973693927, 13.401393111773274 ], [ 78.31557783436547, 13.401493667187653 ], [ 78.315042933653743, 13.401695008496008 ], [ 78.314093571338518, 13.402079272376927 ], [ 78.313931368061318, 13.402152852518004 ], [ 78.313915536970171, 13.40215862590672 ], [ 78.313966814277151, 13.402273689340378 ], [ 78.313973003375708, 13.402294788790996 ], [ 78.3140064561819, 13.402385189364868 ], [ 78.314015804943821, 13.402410453835392 ], [ 78.313804048399305, 13.402444087750112 ], [ 78.313695339756208, 13.40246135264484 ], [ 78.313465425279375, 13.402552449719003 ], [ 78.313063988238852, 13.402711503705373 ], [ 78.313063560023366, 13.402711685393159 ], [ 78.313025442083202, 13.40272803536798 ], [ 78.312904758883377, 13.402779797607851 ], [ 78.312796516021493, 13.402826223761926 ], [ 78.312786493149943, 13.402830634190051 ], [ 78.312559099225339, 13.402930673063683 ], [ 78.312290812208914, 13.403048702533095 ], [ 78.311986232269206, 13.403182700109991 ], [ 78.311977797145218, 13.403186408885036 ], [ 78.31154708040286, 13.403207589077574 ], [ 78.311520746499639, 13.403206722281139 ], [ 78.3099388703682, 13.403154628800108 ], [ 78.309874219353148, 13.40315249956185 ], [ 78.309743561897704, 13.403164498168083 ], [ 78.308291684660603, 13.403297817315762 ], [ 78.308191157973766, 13.403307048908392 ], [ 78.303327761962166, 13.404211193217463 ], [ 78.30120721151944, 13.404005082499232 ], [ 78.300457984913436, 13.404961728556687 ], [ 78.298859106265212, 13.406791005183544 ], [ 78.298767656957963, 13.406896162997883 ], [ 78.298765367501844, 13.406898439358816 ], [ 78.297618579748075, 13.408188373653918 ], [ 78.295388222391082, 13.411874795018781 ], [ 78.295367485591669, 13.411909070232175 ], [ 78.295329241447632, 13.411874821252487 ], [ 78.295228060491269, 13.41178421355138 ], [ 78.292793049213969, 13.411816855873637 ], [ 78.292578503328372, 13.411820180464877 ], [ 78.291701866226717, 13.411833619586927 ], [ 78.289743801021388, 13.411863790098586 ], [ 78.28936032815038, 13.411859644791265 ], [ 78.288907189592763, 13.411859527471389 ], [ 78.288825435199712, 13.411877935417955 ], [ 78.288438677792598, 13.411951649336897 ], [ 78.285562755298045, 13.412484891044052 ], [ 78.285510106746528, 13.412495378411958 ], [ 78.284573936112636, 13.412681851383566 ], [ 78.284213243321233, 13.412753695557216 ], [ 78.282941584503291, 13.412994315335544 ], [ 78.281570843335444, 13.413217240156836 ], [ 78.281530024476069, 13.413232694943636 ], [ 78.280712861396111, 13.413542091390328 ], [ 78.280688211825449, 13.413551072987859 ], [ 78.280253296761657, 13.413709587051423 ], [ 78.279548876046093, 13.413930734930842 ], [ 78.279513358258114, 13.413884085874496 ], [ 78.279464781660295, 13.413901342415329 ], [ 78.279406723744771, 13.413921962876872 ], [ 78.279360410719306, 13.413938414344114 ], [ 78.279314916148053, 13.413841791561561 ], [ 78.27853967593623, 13.414219122408777 ], [ 78.278454452659076, 13.414260604854192 ], [ 78.278452228775009, 13.414261685678586 ], [ 78.278371812354393, 13.414300826616627 ], [ 78.278799341578036, 13.414937027933366 ], [ 78.278851422386268, 13.415014528999373 ], [ 78.278826418179733, 13.415062148905122 ], [ 78.279165294456433, 13.415455093175872 ], [ 78.279330549269559, 13.415646713965232 ], [ 78.279659200025321, 13.415968685052745 ], [ 78.279686309217695, 13.415995243506222 ], [ 78.279966450256111, 13.41648921079382 ], [ 78.280541510453631, 13.417503189830711 ], [ 78.280573138438385, 13.417544805830875 ], [ 78.279951165326125, 13.417773806196918 ], [ 78.279791390954898, 13.417805379732501 ], [ 78.279326635904923, 13.417897221295021 ], [ 78.279105928454214, 13.417938762009152 ], [ 78.278176609751512, 13.418113669544374 ], [ 78.278069906342154, 13.418122168326818 ], [ 78.277533543766268, 13.418164884599516 ], [ 78.277411262549407, 13.418174623209259 ], [ 78.277323797310146, 13.418181588385785 ], [ 78.277131045281749, 13.418138344095649 ], [ 78.277074492525429, 13.418134583175638 ], [ 78.277010184750267, 13.41815238447483 ], [ 78.276812846871778, 13.41820701136394 ], [ 78.276742997048274, 13.418226347404362 ], [ 78.276639588253659, 13.418254972954081 ], [ 78.276517017171727, 13.418288902187324 ], [ 78.275839382278306, 13.418478906372613 ], [ 78.275384159981741, 13.418590585251234 ], [ 78.27483286215049, 13.418725835954612 ], [ 78.27471203410191, 13.418793455730249 ], [ 78.274703727508481, 13.418798103562445 ], [ 78.27450952145449, 13.418906788176027 ], [ 78.274423522358148, 13.418965310636676 ], [ 78.273718883143502, 13.419276947826143 ], [ 78.27370037182412, 13.419291087874591 ], [ 78.273681797518336, 13.4193052765952 ], [ 78.273948885929656, 13.419626210990778 ], [ 78.273987429999295, 13.419678009699023 ], [ 78.274053912648455, 13.419770112649612 ], [ 78.274604655021079, 13.420527051421605 ], [ 78.274638211582811, 13.420573170449675 ], [ 78.27508192000451, 13.421150255664976 ], [ 78.275828281297478, 13.422120959811446 ], [ 78.276275429095548, 13.422682425238492 ], [ 78.276690825425987, 13.422993519010721 ], [ 78.276704274552301, 13.423045471976733 ], [ 78.276749463155525, 13.423216786259614 ], [ 78.276749516709529, 13.423216994136 ], [ 78.276754283993313, 13.423215730333487 ], [ 78.276824975289813, 13.423196992501374 ], [ 78.277027362851413, 13.423419405080915 ], [ 78.277171530342457, 13.423577836092646 ], [ 78.277330336643004, 13.423710475272992 ], [ 78.277746724033079, 13.424446616329165 ], [ 78.277889525825501, 13.424717844617243 ], [ 78.278029949566942, 13.424993789823585 ], [ 78.27804582215289, 13.425022712985022 ], [ 78.278162592232647, 13.425211269635412 ], [ 78.2784446199353, 13.42565322247534 ], [ 78.278478115357785, 13.425696083751038 ], [ 78.278836861765285, 13.426198681538638 ], [ 78.278856872866328, 13.426287637718847 ], [ 78.278924607770492, 13.426588738267942 ], [ 78.278986572593425, 13.426903768180622 ], [ 78.279053666635861, 13.42738231631404 ], [ 78.279058838536045, 13.427580548287086 ], [ 78.279111895831406, 13.427513128492315 ], [ 78.279399044549251, 13.427310989132948 ], [ 78.279864102053224, 13.42719344186041 ], [ 78.280349127989155, 13.428017075390569 ], [ 78.280624138588337, 13.428010880018551 ], [ 78.280796273234373, 13.428141428989058 ], [ 78.280906357325833, 13.42839246899414 ], [ 78.281033522776511, 13.428663848266051 ], [ 78.281143554055575, 13.428783808755854 ], [ 78.28124389149329, 13.428883467174728 ], [ 78.281543961463242, 13.429441240964797 ], [ 78.281567973959383, 13.429485876617536 ], [ 78.281969891875164, 13.430091970165021 ], [ 78.28214498605189, 13.430242786463273 ], [ 78.28229631445744, 13.430371777651093 ], [ 78.282370520608353, 13.430509968238772 ], [ 78.282398184768894, 13.430561483256614 ], [ 78.282441209746224, 13.430721906402789 ], [ 78.28249009323288, 13.431011184926074 ], [ 78.282514041649847, 13.431063283790824 ], [ 78.282522434137377, 13.431081540421332 ], [ 78.282551732343578, 13.431145278438919 ], [ 78.282529666437753, 13.431362844908207 ], [ 78.282516913570689, 13.431417912592538 ], [ 78.282395714442629, 13.431628366639442 ], [ 78.282319013575915, 13.431719330890928 ], [ 78.282194427850513, 13.431867082298067 ], [ 78.282112041364783, 13.431906829091162 ], [ 78.282021572140593, 13.431950473474258 ], [ 78.281794895840719, 13.432059829700576 ], [ 78.281821752961704, 13.432142113802987 ], [ 78.281757894351074, 13.432169951538164 ], [ 78.28166906134507, 13.432211292842425 ], [ 78.281677913303227, 13.432314358327529 ], [ 78.28173457985983, 13.432408806929541 ], [ 78.281724679194028, 13.4325712647082 ], [ 78.28163720053054, 13.432606057629648 ], [ 78.281597351668154, 13.432621906784066 ], [ 78.281580833403183, 13.432664106545726 ], [ 78.281565717338282, 13.432702722435309 ], [ 78.281475628988034, 13.43270924221739 ], [ 78.281467214186605, 13.432710293661382 ], [ 78.281359198151534, 13.432723769300312 ], [ 78.28129109010608, 13.432737941742717 ], [ 78.280826069430489, 13.432834705612681 ], [ 78.280543503724516, 13.432912466234059 ], [ 78.280076696614842, 13.433064523822157 ], [ 78.279963429652184, 13.433074329290807 ], [ 78.279905182996018, 13.433078327996816 ], [ 78.279840572876765, 13.433053325947398 ], [ 78.279760091886345, 13.433022180520059 ], [ 78.279756039488916, 13.432980117038124 ], [ 78.279746065184909, 13.432876609971185 ], [ 78.279742171957707, 13.432836211187468 ], [ 78.279636484667549, 13.432853412784254 ], [ 78.279378429729874, 13.432895414418379 ], [ 78.279077365759775, 13.432944416613523 ], [ 78.278496511135458, 13.43302837438252 ], [ 78.277148926603729, 13.433725172584383 ], [ 78.27487832241124, 13.434812859262346 ], [ 78.274121797931997, 13.436867011224287 ], [ 78.273893998151507, 13.437573838664745 ], [ 78.273849419855537, 13.437606575144713 ], [ 78.272842090160694, 13.438346315753755 ], [ 78.272364010771895, 13.438585381214679 ], [ 78.271334176232273, 13.439084956120197 ], [ 78.2704149274728, 13.439709614276287 ], [ 78.270375058764202, 13.435139348734463 ], [ 78.270355709679819, 13.432920871660947 ], [ 78.26954126778837, 13.429536526196392 ], [ 78.269510222780781, 13.429402936119166 ], [ 78.269151567991926, 13.427830477064086 ], [ 78.268511375988609, 13.425023607918989 ], [ 78.268432648657765, 13.424949511236214 ], [ 78.264628304956403, 13.421368909438698 ], [ 78.264411634671703, 13.420973070177494 ], [ 78.264186265500697, 13.421094276477131 ], [ 78.263756154529105, 13.420077486145555 ], [ 78.263706119702306, 13.419959202943796 ], [ 78.262996235483328, 13.420119348103626 ], [ 78.26275664247315, 13.420163489360998 ], [ 78.261297512464154, 13.420432310156407 ], [ 78.258666561954243, 13.420884119300466 ], [ 78.257796502322876, 13.421059362284018 ], [ 78.257507326757278, 13.42111760375874 ], [ 78.256676775241729, 13.422812008217642 ], [ 78.25613033240721, 13.423797780503332 ], [ 78.255130817717173, 13.424875728523151 ], [ 78.251392266262457, 13.428907544009432 ], [ 78.250517485839396, 13.429834491657791 ], [ 78.25036808395032, 13.42999289026881 ], [ 78.249556532308972, 13.4308533059193 ], [ 78.249445363373738, 13.43097848378453 ], [ 78.248691163278352, 13.431745576863834 ], [ 78.247330421273645, 13.432425952665719 ], [ 78.247167593425729, 13.432526625200861 ], [ 78.245106288367751, 13.433801060358736 ], [ 78.244803048402304, 13.433706706824971 ], [ 78.24450114897985, 13.433612768099458 ], [ 78.243597489273583, 13.433329433310908 ], [ 78.243474448691344, 13.433290856164669 ], [ 78.241234635645796, 13.432588562866457 ], [ 78.23829549191592, 13.431666958516763 ], [ 78.238292986680477, 13.4315309377641 ], [ 78.234999360034067, 13.43253598466349 ], [ 78.233967764777617, 13.432360033732238 ], [ 78.232235268770808, 13.432064527559987 ], [ 78.232126998215762, 13.432046059272784 ], [ 78.231907752765679, 13.431884204384621 ], [ 78.231888876977635, 13.431870270430407 ], [ 78.231407553656382, 13.431521722351492 ], [ 78.231398791055753, 13.431515376939831 ], [ 78.23124179245886, 13.431443047003517 ], [ 78.231208140029011, 13.431427542812004 ], [ 78.230766206555742, 13.431099105454868 ], [ 78.230682809783204, 13.431037124540241 ], [ 78.229965218421469, 13.430360389834618 ], [ 78.22830412171642, 13.428681376636115 ], [ 78.228097180976235, 13.428250268611041 ], [ 78.22805514559272, 13.428162698305872 ], [ 78.227944373824599, 13.427931929523801 ], [ 78.227996258335139, 13.426830294623347 ], [ 78.228015144871947, 13.425970527878569 ], [ 78.228018615228635, 13.425870213162096 ], [ 78.227154855793771, 13.425913963711208 ], [ 78.225966460466623, 13.4266759106845 ], [ 78.225949112739897, 13.425937521395204 ], [ 78.225829769870188, 13.420857469891239 ], [ 78.22576271805228, 13.420597248979144 ], [ 78.225591473240499, 13.419932695934794 ], [ 78.225427157385695, 13.419295017896104 ], [ 78.2254110854348, 13.419296211492396 ], [ 78.225185378523605, 13.419299430601747 ], [ 78.225478100011614, 13.420107951990422 ], [ 78.225563026335507, 13.420342519700355 ], [ 78.225764170243679, 13.420898086906135 ], [ 78.225779628065467, 13.42409645636841 ], [ 78.225764924042551, 13.426080986553769 ], [ 78.225762715770202, 13.426379202140954 ], [ 78.225652293625032, 13.426501269489444 ], [ 78.225544763954943, 13.426611936071989 ], [ 78.225545867650013, 13.426755905334762 ], [ 78.225504106556173, 13.426862299115724 ], [ 78.225498384812525, 13.427039645057096 ], [ 78.222192051818553, 13.430599965366138 ], [ 78.222170156923397, 13.431724926116797 ], [ 78.222162856190238, 13.432100035861088 ], [ 78.222156066896943, 13.432448860285128 ], [ 78.222155901679855, 13.432457345685208 ], [ 78.222154052206037, 13.432552356870906 ], [ 78.222186831129306, 13.432569810394362 ], [ 78.222198830049436, 13.432577843905081 ], [ 78.222354874665911, 13.432682314843699 ], [ 78.222359492689719, 13.43287287090244 ], [ 78.222323772442152, 13.432898603785471 ], [ 78.222482123747966, 13.433013170817642 ], [ 78.22276892362467, 13.433251053266666 ], [ 78.222633129727612, 13.434384816520197 ], [ 78.22153864519403, 13.436073416430402 ], [ 78.221527099373176, 13.436091229704916 ], [ 78.22077019400092, 13.43641753083498 ], [ 78.219620434867139, 13.436502699419556 ], [ 78.219539293286019, 13.436558835263739 ], [ 78.219381716390245, 13.43666784840298 ], [ 78.219170946644041, 13.436733056775131 ], [ 78.218949111033652, 13.436801687004721 ], [ 78.217253303050271, 13.437429421297676 ], [ 78.216845634870154, 13.437580325372254 ], [ 78.216711273268984, 13.437641640362013 ], [ 78.216285470497965, 13.437835951531158 ], [ 78.215074193189224, 13.438015702491368 ], [ 78.214831631676446, 13.438051696750328 ], [ 78.213956978119114, 13.438233079329342 ], [ 78.213958898632356, 13.438613898684411 ], [ 78.213959158525157, 13.438665772432266 ], [ 78.213959169468239, 13.438667354284798 ], [ 78.213962457749304, 13.439138843502967 ], [ 78.214001227154768, 13.439127308607699 ], [ 78.214787804044633, 13.43889328008383 ], [ 78.214889311725216, 13.438867491077009 ], [ 78.214902319380059, 13.438985105538881 ], [ 78.214988302861272, 13.439762565723704 ], [ 78.215145234401518, 13.440663503897651 ], [ 78.215188571887893, 13.441020874446529 ], [ 78.215274642804644, 13.44145774095735 ], [ 78.215318145333754, 13.441754557531009 ], [ 78.215321703049881, 13.442224912126646 ], [ 78.215324169649975, 13.442551038736797 ], [ 78.215255551873142, 13.442555040112625 ], [ 78.215253121082853, 13.442555181345972 ], [ 78.214754874996117, 13.442558315337919 ], [ 78.214473418893519, 13.44258238254565 ], [ 78.214329702483312, 13.442594671837643 ], [ 78.213933340703335, 13.44269797634645 ], [ 78.213918693700307, 13.442925531508333 ], [ 78.213915234107574, 13.442979265019053 ], [ 78.213923336985644, 13.443106426959638 ], [ 78.2139232031803, 13.443107253977995 ], [ 78.213890789783719, 13.443307584263584 ], [ 78.213898975758582, 13.443445607791759 ], [ 78.214055975960463, 13.44391793003296 ], [ 78.214119671223088, 13.444018813199625 ], [ 78.214120984963273, 13.444020893091494 ], [ 78.21415809516553, 13.444199174860204 ], [ 78.214172887938489, 13.444238395641566 ], [ 78.214203106399097, 13.444295125486704 ], [ 78.214296441938629, 13.444390845867064 ], [ 78.214312689218218, 13.444500852990636 ], [ 78.214367007601098, 13.444868609216721 ], [ 78.214390998185266, 13.444904728116143 ], [ 78.214404533173195, 13.444925103850279 ], [ 78.214504739587838, 13.445075967793358 ], [ 78.214513597711971, 13.445127483279281 ], [ 78.214544922822554, 13.445309663778465 ], [ 78.214583583249507, 13.445436685116206 ], [ 78.214605233727525, 13.445654871187998 ], [ 78.21463725051504, 13.445683804600593 ], [ 78.214769594765016, 13.445781299654689 ], [ 78.214770342910285, 13.445781850830555 ], [ 78.214838585932185, 13.445991112277392 ], [ 78.214862472509665, 13.446064357726506 ], [ 78.214932571445601, 13.446158483917513 ], [ 78.214972234904863, 13.44621767439414 ], [ 78.215033808780603, 13.44625670150309 ], [ 78.215224569289248, 13.446351723787389 ], [ 78.215336223263165, 13.446423271767909 ], [ 78.215460783891558, 13.446507911937314 ], [ 78.215680417998428, 13.446559730782537 ], [ 78.216015741973749, 13.446673108315879 ], [ 78.216185129929883, 13.446705322164933 ], [ 78.216193817969113, 13.446714831196397 ], [ 78.216242341110927, 13.44671620160868 ], [ 78.216512769649682, 13.446723842720768 ], [ 78.216860128925404, 13.446645472077893 ], [ 78.216999420336407, 13.446626710859274 ], [ 78.217263518581603, 13.446576422357619 ], [ 78.217478996128776, 13.446601044973379 ], [ 78.217608293396196, 13.446588897271031 ], [ 78.217649940396484, 13.446584984590045 ], [ 78.217642966891887, 13.446889022005857 ], [ 78.21764121234321, 13.446965489077686 ], [ 78.217789550047613, 13.447188795493402 ], [ 78.217790209434071, 13.447253699057272 ], [ 78.2177911288356, 13.447344214467851 ], [ 78.21779862928021, 13.447616133429431 ], [ 78.217830073853733, 13.447937059318175 ], [ 78.21783870026033, 13.44798448706142 ], [ 78.217749332493142, 13.447984558032033 ], [ 78.217726440092164, 13.448030920925575 ], [ 78.217540064988597, 13.448046326644338 ], [ 78.217259690408937, 13.44806950495599 ], [ 78.217226172938737, 13.448079872713175 ], [ 78.217208972948455, 13.448090906648845 ], [ 78.217167002905526, 13.448117829980369 ], [ 78.217206962477817, 13.448190695975935 ], [ 78.217204150272607, 13.448330196933036 ], [ 78.217226259616027, 13.448349316849153 ], [ 78.21723611637961, 13.448357841088079 ], [ 78.217959132526858, 13.448983076902218 ], [ 78.217916756950132, 13.44904773303851 ], [ 78.217872709665869, 13.449114940662144 ], [ 78.217743167778934, 13.449283307628875 ], [ 78.217416968975314, 13.44966191916401 ], [ 78.217384292724802, 13.449699846311104 ], [ 78.217373361252015, 13.449712532840147 ], [ 78.217304589295892, 13.449792356957795 ], [ 78.217241574388382, 13.449794586428524 ], [ 78.217076770841103, 13.449800412842462 ], [ 78.215110490036906, 13.449869941403033 ], [ 78.214898407890061, 13.449902058494997 ], [ 78.214894559980948, 13.449902889666205 ], [ 78.214852151976729, 13.449912046223274 ], [ 78.214804753973524, 13.449922035906596 ], [ 78.21480284321234, 13.449922437778426 ], [ 78.213892202839034, 13.450129646343193 ], [ 78.213597914999326, 13.450132399698669 ], [ 78.212792512018211, 13.450032656633017 ], [ 78.211953203104827, 13.449924706255734 ], [ 78.208415953335589, 13.449469726676066 ], [ 78.20102342290663, 13.450351843351033 ] ], [ [ 78.264763875717591, 13.407746726882243 ], [ 78.265202058040074, 13.409365320864593 ], [ 78.265266217262862, 13.409602314623188 ], [ 78.265337934818007, 13.409865953232481 ], [ 78.265464579217323, 13.410335028615785 ], [ 78.26580816824989, 13.410209109068646 ], [ 78.266126600473655, 13.410065983007444 ], [ 78.266663223265809, 13.409824785425881 ], [ 78.266879423091837, 13.409744338740882 ], [ 78.267112363982591, 13.409690879993095 ], [ 78.267415464336253, 13.409594143901433 ], [ 78.268423370066259, 13.409265045988725 ], [ 78.268968945837585, 13.409111252920306 ], [ 78.269487697021759, 13.408965019224445 ], [ 78.269930564941674, 13.408838515261035 ], [ 78.270522375263695, 13.408658028781847 ], [ 78.270885052209209, 13.40859227007979 ], [ 78.271329660914247, 13.408472608967998 ], [ 78.27188259224576, 13.408185338462198 ], [ 78.271825592561797, 13.408102162707749 ], [ 78.271713247450066, 13.407938223033039 ], [ 78.271534456123391, 13.407677321422408 ], [ 78.271080799737987, 13.406982863509104 ], [ 78.270887473256835, 13.406605389546737 ], [ 78.270785234011626, 13.40639076900729 ], [ 78.270233922242298, 13.406552912318961 ], [ 78.270058031526645, 13.406604641896635 ], [ 78.269838479977778, 13.406602029168564 ], [ 78.26960213229772, 13.406195630339552 ], [ 78.269380214151795, 13.405698193934743 ], [ 78.269353302832684, 13.405629231030924 ], [ 78.26933975258828, 13.405594507014257 ], [ 78.269247859930147, 13.405394262146757 ], [ 78.269127469420781, 13.405134497706486 ], [ 78.268757942274334, 13.404337177710891 ], [ 78.268708869361092, 13.404231292517254 ], [ 78.268817420669833, 13.403790551073351 ], [ 78.268993581135462, 13.403650922573119 ], [ 78.268847119846782, 13.403479053739261 ], [ 78.268744319336989, 13.403349106776691 ], [ 78.268579894000965, 13.403296636315773 ], [ 78.268398017810028, 13.403238597832907 ], [ 78.268196038706677, 13.402924276108816 ], [ 78.268046534542876, 13.402712480876694 ], [ 78.267985734695785, 13.402626347975412 ], [ 78.267977763522865, 13.402615055478094 ], [ 78.267602783155567, 13.402051456430147 ], [ 78.267531005554943, 13.40194357420504 ], [ 78.267270059082662, 13.401553459002551 ], [ 78.26723173444033, 13.401496162050082 ], [ 78.26706549723724, 13.40128057902313 ], [ 78.267000184363837, 13.401195879327737 ], [ 78.266970784060376, 13.401157752254202 ], [ 78.266418705474265, 13.40157036067189 ], [ 78.265770939899809, 13.401852576255388 ], [ 78.265666925119675, 13.401898499425695 ], [ 78.265545491644801, 13.401953864223456 ], [ 78.265461392408724, 13.40199220947772 ], [ 78.265117706580853, 13.402148907163431 ], [ 78.265068981275434, 13.402169182846242 ], [ 78.264876984816297, 13.402238097243288 ], [ 78.264857418364755, 13.402725229153273 ], [ 78.264833770663813, 13.403412762938883 ], [ 78.264831037720029, 13.403611593423292 ], [ 78.264830861423647, 13.403615680536443 ], [ 78.264818697317466, 13.403897373510208 ], [ 78.264798109088858, 13.404323299464229 ], [ 78.264794842965983, 13.404371424287906 ], [ 78.264768039056591, 13.404766336701989 ], [ 78.264729689204898, 13.405157543113955 ], [ 78.264706777136482, 13.405438944555842 ], [ 78.264667770305536, 13.405843508332403 ], [ 78.264623155432119, 13.406186743144367 ], [ 78.264619113691793, 13.406237533517183 ], [ 78.264605578963156, 13.406376646281341 ], [ 78.264550095964751, 13.406957040454149 ], [ 78.264763875717591, 13.407746726882243 ] ] ], [ [ [ 78.294489951422847, 13.351872413739976 ], [ 78.294540189866339, 13.352051956662518 ], [ 78.29455362112499, 13.352146152341817 ], [ 78.294588529264132, 13.352331094604882 ], [ 78.294655391221781, 13.352764806717872 ], [ 78.29467234417082, 13.352866881301074 ], [ 78.294713972999475, 13.352968500106561 ], [ 78.294719385378912, 13.352981714054236 ], [ 78.294740525172543, 13.353128775419362 ], [ 78.29474257399535, 13.3531430290562 ], [ 78.294333304379734, 13.35318036390181 ], [ 78.293641741935119, 13.353243447237585 ], [ 78.293222060893129, 13.353281728463489 ], [ 78.292860786550463, 13.353314681278485 ], [ 78.292520957749261, 13.353345680603676 ], [ 78.292278528769401, 13.3533677928041 ], [ 78.291631104074995, 13.353470810007831 ], [ 78.291613080606311, 13.35322489078175 ], [ 78.291584432369049, 13.35284143201611 ], [ 78.291560208128828, 13.352517213090776 ], [ 78.291553542920042, 13.352428008753876 ], [ 78.291544735453286, 13.352310100923603 ], [ 78.291654097702619, 13.352284429283262 ], [ 78.292015562038728, 13.352198124272503 ], [ 78.292012859993036, 13.352002210067585 ], [ 78.292759482136645, 13.351953403789079 ], [ 78.293131186679389, 13.351929108328839 ], [ 78.293539021992729, 13.351902446980013 ], [ 78.294253531058018, 13.351855738198237 ], [ 78.294481121733753, 13.351840857542834 ], [ 78.294489951422847, 13.351872413739976 ] ] ], [ [ [ 78.283392875628024, 13.435109019058848 ], [ 78.283259985926918, 13.435082358238407 ], [ 78.283247761577258, 13.434995493630877 ], [ 78.283122316317488, 13.435034841122034 ], [ 78.283044929115121, 13.43487788871561 ], [ 78.28296940627196, 13.434810702572237 ], [ 78.282952263478563, 13.434685478817594 ], [ 78.282992524605547, 13.434378565166972 ], [ 78.28307554755294, 13.434372854697529 ], [ 78.283303279212305, 13.434266880854857 ], [ 78.283306055548351, 13.43434287582261 ], [ 78.283448190259733, 13.434517407231974 ], [ 78.283428896356568, 13.434849569769375 ], [ 78.283392875628024, 13.435109019058848 ] ] ], [ [ [ 78.282743589653876, 13.432807323927429 ], [ 78.282688459610299, 13.432838796945912 ], [ 78.282620693656796, 13.432877142467198 ], [ 78.28254223038401, 13.432794393916968 ], [ 78.282305198432297, 13.432810078946451 ], [ 78.282645017108564, 13.432486347877765 ], [ 78.282773443006505, 13.432351420731612 ], [ 78.282880763349056, 13.432354560807617 ], [ 78.282711019499004, 13.432481764365891 ], [ 78.28276193130408, 13.432500576993855 ], [ 78.282919479859558, 13.432383677549746 ], [ 78.282996543697294, 13.432453886586368 ], [ 78.282886608008809, 13.432656042505764 ], [ 78.282773450947545, 13.432790157504838 ], [ 78.282743589653876, 13.432807323927429 ] ] ] ] } }
]
}
