{
"type": "FeatureCollection",
"name": "hoblis_in_police_area.writing_20260805_172659",
"crs": { "type": "name", "properties": { "name": "urn:ogc:def:crs:OGC:1.3:CRS84" } },
"features": [
{ "type": "Feature", "properties": { "OBJECTID": 388, "KGISHobliID": 574, "KGISHobliCode": "200141", "KGISHobliName": "Kasaba ", "BhuCodeHobli": null, "SHAPE.STArea()": 89716967.367870346, "SHAPE.STLength()": 77128.595071578398, "KGISTalukCode": "2001", "created_user": null, "created_date": null, "last_edited_user": "SURESHBV1", "last_edited_date": 1669289844000.0, "_overlap_percent": 2.1516834672272447, "_police_station": "Yeshwanthapura PS", "_police_feature_index": "742", "_admin_layer": "Hobli", "_geometry_clipped": true }, "geometry": { "type": "Polygon", "coordinates": [ [ [ 77.560594807127416, 13.03962291092995 ], [ 77.560602705976493, 13.039623537480344 ], [ 77.560608017009415, 13.039633712924688 ], [ 77.560670912811545, 13.03963728090463 ], [ 77.560936621886199, 13.039652331714677 ], [ 77.560953385972468, 13.039690842786236 ], [ 77.561185695634009, 13.039037260676489 ], [ 77.561552936166478, 13.038004059101569 ], [ 77.561636594510276, 13.037568616645549 ], [ 77.561646651285258, 13.037520450773226 ], [ 77.561977934853488, 13.03754983213353 ], [ 77.562008815120038, 13.037352320164628 ], [ 77.562019341988403, 13.037309188189393 ], [ 77.5621937789914, 13.037305579877913 ], [ 77.563349008317658, 13.037281683090624 ], [ 77.563300128988288, 13.037566025945299 ], [ 77.56361473343614, 13.037634621971387 ], [ 77.563653670354157, 13.03727269075714 ], [ 77.563658300029942, 13.036341906347888 ], [ 77.563914344705665, 13.036319043119086 ], [ 77.564051523951605, 13.036307250591655 ], [ 77.564529799688373, 13.036266135017559 ], [ 77.56454666903953, 13.035626509464477 ], [ 77.564260616834957, 13.034656652774283 ], [ 77.564229323376168, 13.034414160368177 ], [ 77.564189950767343, 13.03411415297931 ], [ 77.564153056183827, 13.033831060721901 ], [ 77.56413739217453, 13.033708120691323 ], [ 77.564112037777392, 13.033538974768245 ], [ 77.564110804666981, 13.03353108178575 ], [ 77.564087951437898, 13.033381109411708 ], [ 77.564087329068329, 13.03337659832115 ], [ 77.564065697359865, 13.033233389723419 ], [ 77.564003257045187, 13.032818420654269 ], [ 77.563991536794035, 13.032742872699403 ], [ 77.563985382936025, 13.03270453697273 ], [ 77.563861980801661, 13.031906204756027 ], [ 77.563528875523076, 13.029982999354958 ], [ 77.563092949826384, 13.030023724437049 ], [ 77.562998714896864, 13.02988811560698 ], [ 77.562527162006077, 13.029624251062423 ], [ 77.562302315485098, 13.028975628607759 ], [ 77.562385113048805, 13.028901987718445 ], [ 77.562217095332741, 13.02791145061013 ], [ 77.561969461270891, 13.027921511402385 ], [ 77.561846025750398, 13.027398729752379 ], [ 77.561824443325676, 13.026868164871823 ], [ 77.561834010447754, 13.026566543006988 ], [ 77.561882197935191, 13.026324392972707 ], [ 77.562047886157188, 13.025916200952542 ], [ 77.562086770417608, 13.025833376402701 ], [ 77.562281743990212, 13.025416989535335 ], [ 77.562411623739578, 13.025110789962389 ], [ 77.562444231784951, 13.025033674043362 ], [ 77.562546599360886, 13.024740169013356 ], [ 77.562629370468059, 13.024501064915453 ], [ 77.562664049367555, 13.024401342209382 ], [ 77.562689020544511, 13.024309620719672 ], [ 77.562802225381759, 13.023894042478359 ], [ 77.563029847189654, 13.022844916253169 ], [ 77.563116127095142, 13.022443156123162 ], [ 77.563194164522628, 13.022079874229751 ], [ 77.563224603197611, 13.021959865804224 ], [ 77.563214294730173, 13.02168554426091 ], [ 77.563206327824545, 13.021582855406459 ], [ 77.56315877055593, 13.021382307706757 ], [ 77.563064746434961, 13.021199159241913 ], [ 77.562974258675652, 13.021023880950958 ], [ 77.562807363620465, 13.020692508007864 ], [ 77.562807300610828, 13.020692383954501 ], [ 77.562779656576964, 13.020636191537632 ], [ 77.562705326957499, 13.020464141251766 ], [ 77.562623901877004, 13.020274092031972 ], [ 77.562560181033021, 13.020125652398326 ], [ 77.562413259558625, 13.019894465921055 ], [ 77.562333636777183, 13.019767640390938 ], [ 77.562082535258838, 13.019485534961211 ], [ 77.561645003611844, 13.018994089514857 ], [ 77.561642665540461, 13.018990724671809 ], [ 77.561434013252523, 13.018692388397634 ], [ 77.56120964772785, 13.018321930847605 ], [ 77.560991624126117, 13.017896073798202 ], [ 77.560616986412001, 13.017079890334101 ], [ 77.56064617865141, 13.017062662240464 ], [ 77.561301515480039, 13.016726428060592 ], [ 77.562175322734504, 13.016243481105519 ], [ 77.562587291187825, 13.015985313461176 ], [ 77.562746361337418, 13.015885561188398 ], [ 77.563086799514039, 13.01567207279488 ], [ 77.565446612360475, 13.014292117522183 ], [ 77.565504977543213, 13.014257986804651 ], [ 77.565693588357988, 13.014147691185373 ], [ 77.56581295917691, 13.014077367146525 ], [ 77.564772777084301, 13.013576118144952 ], [ 77.565352632985054, 13.012476781135996 ], [ 77.56272823412209, 13.011516693216738 ], [ 77.56268015865507, 13.011582903483864 ], [ 77.561816261042182, 13.011137264246271 ], [ 77.561548081487672, 13.011609624852994 ], [ 77.560018403294308, 13.011044885223352 ], [ 77.559770721585622, 13.01214930332749 ], [ 77.559740711339288, 13.012295839926379 ], [ 77.559697860190028, 13.012508370532212 ], [ 77.559505061700207, 13.012758016989677 ], [ 77.559378331238051, 13.013356238153582 ], [ 77.559364262639306, 13.01342255687495 ], [ 77.559198670829886, 13.013356263998721 ], [ 77.55919683805692, 13.01335553041184 ], [ 77.558887938234136, 13.013588342735352 ], [ 77.558838854911215, 13.013625350157872 ], [ 77.559283206524654, 13.014633377352752 ], [ 77.559329238769294, 13.014680778998006 ], [ 77.559541983559342, 13.014705470977299 ], [ 77.559570837759438, 13.014708818939374 ], [ 77.559808346389943, 13.014736374119614 ], [ 77.559856498183294, 13.014726642855765 ], [ 77.559690288929076, 13.014952621388071 ], [ 77.559652502581315, 13.015021845776483 ], [ 77.559591248655906, 13.01513405600814 ], [ 77.559469154204351, 13.015357743285925 ], [ 77.559411252945623, 13.015457828568934 ], [ 77.558707524971865, 13.016674575603702 ], [ 77.558577223638395, 13.016899913914363 ], [ 77.558653024816181, 13.017396405776475 ], [ 77.558635916371927, 13.017422158670611 ], [ 77.558584550219749, 13.017499481897868 ], [ 77.558659887370027, 13.017833514494216 ], [ 77.558746210203068, 13.017820003258594 ], [ 77.558871826618045, 13.018140336350658 ], [ 77.55876791751615, 13.018227304075529 ], [ 77.55877093249201, 13.018323260072599 ], [ 77.558927765299771, 13.018313358612888 ], [ 77.558960393475317, 13.018419320748821 ], [ 77.559086008183741, 13.018827355597386 ], [ 77.559133873780155, 13.018982860870523 ], [ 77.559235977958863, 13.019314633962196 ], [ 77.559527230810929, 13.019279137139591 ], [ 77.559535306727511, 13.019319585452655 ], [ 77.559652744514011, 13.019907814946162 ], [ 77.559912635944883, 13.020762392187478 ], [ 77.560070719572721, 13.021220725832801 ], [ 77.560285717043598, 13.021801526635993 ], [ 77.560313949970663, 13.021876951717141 ], [ 77.560413167036174, 13.02214200787995 ], [ 77.560481462523441, 13.022324456835914 ], [ 77.560484101929745, 13.022329615677899 ], [ 77.56070504561886, 13.022761317908982 ], [ 77.560772315916864, 13.022932101516492 ], [ 77.560552206243912, 13.022978475256098 ], [ 77.560552742631401, 13.023002603909003 ], [ 77.560559001945748, 13.023080169493795 ], [ 77.560614098849925, 13.02323986066863 ], [ 77.560614053016565, 13.023241049162792 ], [ 77.560609644741788, 13.023259851126411 ], [ 77.560590858125877, 13.02333999871793 ], [ 77.560428999776533, 13.023519788002105 ], [ 77.560326171141341, 13.023634006756449 ], [ 77.559816612265166, 13.023711173656517 ], [ 77.559443589348177, 13.024077084742688 ], [ 77.559317859681713, 13.024200412178654 ], [ 77.559285605452288, 13.024206949229749 ], [ 77.558810171824945, 13.024303283832952 ], [ 77.558739639784832, 13.024350784708076 ], [ 77.558671997031553, 13.024366235896036 ], [ 77.558196810276854, 13.024649620135946 ], [ 77.557427983011408, 13.024805670886849 ], [ 77.557317978008626, 13.0248329911746 ], [ 77.557418562524916, 13.024947752722852 ], [ 77.557399774446438, 13.025026967021759 ], [ 77.557297797605315, 13.025456902557934 ], [ 77.557285141480577, 13.025510263586744 ], [ 77.557276262252927, 13.025549712972154 ], [ 77.55721925271915, 13.025802961308777 ], [ 77.557188569024405, 13.025908026144 ], [ 77.55701980538916, 13.026485726024756 ], [ 77.557002928419735, 13.026576091791906 ], [ 77.55678671119955, 13.026978369856202 ], [ 77.556764201274476, 13.027353065350777 ], [ 77.55674749579623, 13.02763094797624 ], [ 77.556583956193947, 13.027652875288435 ], [ 77.556580493970159, 13.027708126865759 ], [ 77.55654041290623, 13.02834722769971 ], [ 77.55653281988512, 13.028468088346079 ], [ 77.556437565751963, 13.028502004559208 ], [ 77.556432472196903, 13.028652452210807 ], [ 77.556427950109537, 13.028785862273555 ], [ 77.556416792053128, 13.028795515597341 ], [ 77.556308270052739, 13.028889392286423 ], [ 77.556265509219671, 13.029101963789262 ], [ 77.556086555537789, 13.029306098494089 ], [ 77.55589508490074, 13.029638079126617 ], [ 77.555773950517718, 13.029912568092906 ], [ 77.555673742480366, 13.030161357737287 ], [ 77.555762394511191, 13.030701626992553 ], [ 77.555631790462911, 13.030723991575638 ], [ 77.555460281855588, 13.030978800699692 ], [ 77.554912535698804, 13.031169694285378 ], [ 77.554555912702739, 13.031579533693613 ], [ 77.554410631748112, 13.031746453791831 ], [ 77.554328369882285, 13.032121163532302 ], [ 77.553858518176909, 13.032220414697836 ], [ 77.553909904189112, 13.032253521971782 ], [ 77.55384217293556, 13.032267964027289 ], [ 77.55375505521836, 13.032292367229454 ], [ 77.553688523392609, 13.03231100482096 ], [ 77.553563222889323, 13.032345852612542 ], [ 77.553517811663681, 13.032358481705904 ], [ 77.553454614662371, 13.032376055515488 ], [ 77.553323502958847, 13.032405108806927 ], [ 77.553048519863765, 13.032472715277219 ], [ 77.55288788191946, 13.032622437077915 ], [ 77.552899156782644, 13.032691805448495 ], [ 77.552916548266509, 13.032798824749522 ], [ 77.5535747417876, 13.036870089569852 ], [ 77.553639088160566, 13.037271895311731 ], [ 77.553732956214432, 13.037859954661188 ], [ 77.553760818358171, 13.038034743558633 ], [ 77.553780018996889, 13.037971260652801 ], [ 77.553954557658713, 13.03798925303828 ], [ 77.554287702121186, 13.038049320899752 ], [ 77.554575807313412, 13.038126465411796 ], [ 77.555290602782449, 13.038254488843995 ], [ 77.556368684773815, 13.038447587133858 ], [ 77.556656026597068, 13.038486629379541 ], [ 77.557884455338552, 13.038483618798146 ], [ 77.558696072048036, 13.038577189928727 ], [ 77.559203637694566, 13.038739499052754 ], [ 77.560165765465158, 13.039243919386792 ], [ 77.560578017886556, 13.039621159703559 ], [ 77.560594807127416, 13.03962291092995 ] ] ] } },
{ "type": "Feature", "properties": { "OBJECTID": 880, "KGISHobliID": 1134, "KGISHobliCode": "200140", "KGISHobliName": "Yeshwanthapura", "BhuCodeHobli": null, "SHAPE.STArea()": 10476127.08107839, "SHAPE.STLength()": 19270.088232526348, "KGISTalukCode": "2001", "created_user": null, "created_date": null, "last_edited_user": "SURESHBV1", "last_edited_date": 1658486259000.0, "_overlap_percent": 12.628008754627334, "_police_station": "Yeshwanthapura PS", "_police_feature_index": "742", "_admin_layer": "Hobli", "_geometry_clipped": true }, "geometry": { "type": "Polygon", "coordinates": [ [ [ 77.547392849816447, 13.032936251437652 ], [ 77.547757173505971, 13.032921466172924 ], [ 77.550584728137579, 13.032816072507268 ], [ 77.55135063178669, 13.032814810348018 ], [ 77.552030783756052, 13.032795744535431 ], [ 77.552037563684664, 13.032795553945601 ], [ 77.552639328700891, 13.032778682887045 ], [ 77.552803140611005, 13.032701409818662 ], [ 77.55288788191946, 13.032622437077915 ], [ 77.553048519863765, 13.032472715277219 ], [ 77.553323502958847, 13.032405108806927 ], [ 77.553454614662371, 13.032376055515488 ], [ 77.553517811663681, 13.032358481705904 ], [ 77.553563222889323, 13.032345852612542 ], [ 77.553688523392609, 13.03231100482096 ], [ 77.55375505521836, 13.032292367229454 ], [ 77.55384217293556, 13.032267964027289 ], [ 77.553909904189112, 13.032253521971782 ], [ 77.553858518176909, 13.032220414697836 ], [ 77.554328369882285, 13.032121163532302 ], [ 77.554410631748112, 13.031746453791831 ], [ 77.554555912702739, 13.031579533693613 ], [ 77.554912535698804, 13.031169694285378 ], [ 77.555460281855588, 13.030978800699692 ], [ 77.555631790462911, 13.030723991575638 ], [ 77.555762394511191, 13.030701626992553 ], [ 77.555673742480366, 13.030161357737287 ], [ 77.555773950517718, 13.029912568092906 ], [ 77.55589508490074, 13.029638079126617 ], [ 77.556086555537789, 13.029306098494089 ], [ 77.556265509219671, 13.029101963789262 ], [ 77.556308270052739, 13.028889392286423 ], [ 77.556416792053128, 13.028795515597341 ], [ 77.556427950109537, 13.028785862273555 ], [ 77.556432472196903, 13.028652452210807 ], [ 77.556437565751963, 13.028502004559208 ], [ 77.55653281988512, 13.028468088346079 ], [ 77.55654041290623, 13.02834722769971 ], [ 77.556580493970159, 13.027708126865759 ], [ 77.556583956193947, 13.027652875288435 ], [ 77.55674749579623, 13.02763094797624 ], [ 77.556764201274476, 13.027353065350777 ], [ 77.55678671119955, 13.026978369856202 ], [ 77.557002928419735, 13.026576091791906 ], [ 77.55701980538916, 13.026485726024756 ], [ 77.557188569024405, 13.025908026144 ], [ 77.55721925271915, 13.025802961308777 ], [ 77.557276262252927, 13.025549712972154 ], [ 77.557285141480577, 13.025510263586744 ], [ 77.557297797605315, 13.025456902557934 ], [ 77.557399774446438, 13.025026967021759 ], [ 77.557418562524916, 13.024947752722852 ], [ 77.557317978008626, 13.0248329911746 ], [ 77.557427983011408, 13.024805670886849 ], [ 77.558196810276854, 13.024649620135946 ], [ 77.558671997031553, 13.024366235896036 ], [ 77.558739639784832, 13.024350784708076 ], [ 77.558810171824945, 13.024303283832952 ], [ 77.559285605452288, 13.024206949229749 ], [ 77.559317859681713, 13.024200412178654 ], [ 77.559443589348177, 13.024077084742688 ], [ 77.559816612265166, 13.023711173656517 ], [ 77.560326171141341, 13.023634006756449 ], [ 77.560428999776533, 13.023519788002105 ], [ 77.560590858125877, 13.02333999871793 ], [ 77.560609644741788, 13.023259851126411 ], [ 77.560614053016565, 13.023241049162792 ], [ 77.560614098849925, 13.02323986066863 ], [ 77.560559001945748, 13.023080169493795 ], [ 77.560552742631401, 13.023002603909003 ], [ 77.560552206243912, 13.022978475256098 ], [ 77.560772315916864, 13.022932101516492 ], [ 77.56070504561886, 13.022761317908982 ], [ 77.560484101929745, 13.022329615677899 ], [ 77.560481462523441, 13.022324456835914 ], [ 77.560413167036174, 13.02214200787995 ], [ 77.560313949970663, 13.021876951717141 ], [ 77.560285717043598, 13.021801526635993 ], [ 77.560070719572721, 13.021220725832801 ], [ 77.559912635944883, 13.020762392187478 ], [ 77.559652744514011, 13.019907814946162 ], [ 77.559535306727511, 13.019319585452655 ], [ 77.559527230810929, 13.019279137139591 ], [ 77.559235977958863, 13.019314633962196 ], [ 77.559133873780155, 13.018982860870523 ], [ 77.559086008183741, 13.018827355597386 ], [ 77.558960393475317, 13.018419320748821 ], [ 77.558927765299771, 13.018313358612888 ], [ 77.55877093249201, 13.018323260072599 ], [ 77.55876791751615, 13.018227304075529 ], [ 77.558871826618045, 13.018140336350658 ], [ 77.558746210203068, 13.017820003258594 ], [ 77.558659887370027, 13.017833514494216 ], [ 77.558584550219749, 13.017499481897868 ], [ 77.558635916371927, 13.017422158670611 ], [ 77.558653024816181, 13.017396405776475 ], [ 77.558577223638395, 13.016899913914363 ], [ 77.558707524971865, 13.016674575603702 ], [ 77.559411252945623, 13.015457828568934 ], [ 77.559469154204351, 13.015357743285925 ], [ 77.559591248655906, 13.01513405600814 ], [ 77.559652502581315, 13.015021845776483 ], [ 77.559690288929076, 13.014952621388071 ], [ 77.559856498183294, 13.014726642855765 ], [ 77.559808346389943, 13.014736374119614 ], [ 77.559570837759438, 13.014708818939374 ], [ 77.559541983559342, 13.014705470977299 ], [ 77.559329238769294, 13.014680778998006 ], [ 77.559283206524654, 13.014633377352752 ], [ 77.558838854911215, 13.013625350157872 ], [ 77.558887938234136, 13.013588342735352 ], [ 77.55919683805692, 13.01335553041184 ], [ 77.559198670829886, 13.013356263998721 ], [ 77.559364262639306, 13.01342255687495 ], [ 77.559378331238051, 13.013356238153582 ], [ 77.559505061700207, 13.012758016989677 ], [ 77.559697860190028, 13.012508370532212 ], [ 77.559740711339288, 13.012295839926379 ], [ 77.559770721585622, 13.01214930332749 ], [ 77.560018403294308, 13.011044885223352 ], [ 77.559448038769219, 13.010834313187967 ], [ 77.559231255791218, 13.011418992895059 ], [ 77.558723088881393, 13.012380165186096 ], [ 77.558200952050584, 13.01316817137648 ], [ 77.557472231907923, 13.014017975513672 ], [ 77.556314586790663, 13.015303995296977 ], [ 77.555861092530108, 13.015807774093938 ], [ 77.555158452593034, 13.016929547863187 ], [ 77.554828346909602, 13.017545939765858 ], [ 77.554289584205321, 13.018497848404582 ], [ 77.553945217416938, 13.019150235924917 ], [ 77.553918662642943, 13.019228364792911 ], [ 77.55399825324352, 13.019263437032725 ], [ 77.554099785435412, 13.019358052260253 ], [ 77.554171735337505, 13.019539612277688 ], [ 77.554212939318177, 13.019694582007487 ], [ 77.554204624902596, 13.019775340002223 ], [ 77.554156545701744, 13.019841550268579 ], [ 77.554047494929833, 13.019905372694248 ], [ 77.553655741458314, 13.020632329705522 ], [ 77.553290987373714, 13.021317786667927 ], [ 77.552936337465056, 13.02191888104972 ], [ 77.552509730729184, 13.022635424127094 ], [ 77.552037611048902, 13.023609384131921 ], [ 77.551565503544509, 13.02452537599844 ], [ 77.551276482437132, 13.025167656081102 ], [ 77.551230844922387, 13.025611326318348 ], [ 77.551105441708572, 13.027649188745416 ], [ 77.551096392474051, 13.029145672820459 ], [ 77.551064176503857, 13.02992765303366 ], [ 77.551021638662874, 13.029940023855552 ], [ 77.550574031834671, 13.029083885018206 ], [ 77.550444827386841, 13.028965636751263 ], [ 77.549727409087637, 13.029140028488445 ], [ 77.549179592305876, 13.029211157018006 ], [ 77.548121853927924, 13.031210386612909 ], [ 77.547483262062215, 13.032417851285514 ], [ 77.547210659826163, 13.032944079837337 ], [ 77.547392849816447, 13.032936251437652 ] ] ] } },
{ "type": "Feature", "properties": { "OBJECTID": 874, "KGISHobliID": 1133, "KGISHobliCode": "200103", "KGISHobliName": "Yashavantapura-1", "BhuCodeHobli": null, "SHAPE.STArea()": 14237373.861325189, "SHAPE.STLength()": 27990.929579128449, "KGISTalukCode": "2001", "created_user": null, "created_date": null, "last_edited_user": "SURESHBV2", "last_edited_date": 1713418692000.0, "_overlap_percent": 4.7233558563659193, "_police_station": "Yeshwanthapura PS", "_police_feature_index": "742", "_admin_layer": "Hobli", "_geometry_clipped": true }, "geometry": { "type": "Polygon", "coordinates": [ [ [ 77.553777025807776, 13.038136445727957 ], [ 77.553763141740561, 13.038049324116145 ], [ 77.553760818358171, 13.038034743558633 ], [ 77.553732956214432, 13.037859954661188 ], [ 77.553639088160566, 13.037271895311731 ], [ 77.5535747417876, 13.036870089569852 ], [ 77.552916548266509, 13.032798824749522 ], [ 77.552899156782644, 13.032691805448495 ], [ 77.55288788191946, 13.032622437077915 ], [ 77.552803140611005, 13.032701409818662 ], [ 77.552639328700891, 13.032778682887045 ], [ 77.552037563684664, 13.032795553945601 ], [ 77.552030783756052, 13.032795744535431 ], [ 77.55135063178669, 13.032814810348018 ], [ 77.550584728137579, 13.032816072507268 ], [ 77.547757173505971, 13.032921466172924 ], [ 77.547392849816447, 13.032936251437652 ], [ 77.547210659826163, 13.032944079837337 ], [ 77.546984780169197, 13.033380115603212 ], [ 77.545649570920332, 13.035725931487887 ], [ 77.544628496184885, 13.037679378136941 ], [ 77.544617400627345, 13.037702258983124 ], [ 77.544437478148183, 13.038073284542026 ], [ 77.544297416078024, 13.038681827173372 ], [ 77.544298931352643, 13.038830018146584 ], [ 77.544312201809163, 13.039174107077631 ], [ 77.544403972473233, 13.039565233780859 ], [ 77.544642846300064, 13.040036187894932 ], [ 77.545032378211147, 13.040457851674967 ], [ 77.545626007185248, 13.040810576061833 ], [ 77.546051270430254, 13.040911571204266 ], [ 77.546753471154815, 13.040914223661909 ], [ 77.547462779403105, 13.040658640317732 ], [ 77.54840991748101, 13.04029553550909 ], [ 77.550186970877817, 13.039551348340479 ], [ 77.551697420865125, 13.038962765241195 ], [ 77.552416859485007, 13.038745316322585 ], [ 77.55311753031954, 13.038599762653554 ], [ 77.553839980677708, 13.038531778240948 ], [ 77.553777025807776, 13.038136445727957 ] ] ] } },
{ "type": "Feature", "properties": { "OBJECTID": 872, "KGISHobliID": 1136, "KGISHobliCode": "200102", "KGISHobliName": "Kasaba-2", "BhuCodeHobli": null, "SHAPE.STArea()": 5325040.2519461354, "SHAPE.STLength()": 14207.592766046342, "KGISTalukCode": "2001", "created_user": null, "created_date": null, "last_edited_user": "SURESHBV2", "last_edited_date": 1713418347000.0, "_overlap_percent": 0.17861492044107802, "_police_station": "Yeshwanthapura PS", "_police_feature_index": "742", "_admin_layer": "Hobli", "_geometry_clipped": true }, "geometry": { "type": "MultiPolygon", "coordinates": [ [ [ [ 77.556368684773815, 13.038447587133858 ], [ 77.555290602782449, 13.038254488843995 ], [ 77.554575807313412, 13.038126465411796 ], [ 77.554287702121186, 13.038049320899752 ], [ 77.553954557658713, 13.03798925303828 ], [ 77.553780018996889, 13.037971260652801 ], [ 77.553760818358171, 13.038034743558633 ], [ 77.553763141740561, 13.038049324116145 ], [ 77.553777025807776, 13.038136445727957 ], [ 77.553839980677708, 13.038531778240948 ], [ 77.554221395478763, 13.038495886139966 ], [ 77.556275377374234, 13.038487562258616 ], [ 77.556656026597068, 13.038486629379541 ], [ 77.556368684773815, 13.038447587133858 ] ] ], [ [ [ 77.560936621886199, 13.039652331714677 ], [ 77.560670912811545, 13.03963728090463 ], [ 77.560608017009415, 13.039633712924688 ], [ 77.560602705976493, 13.039623537480344 ], [ 77.560594807127416, 13.03962291092995 ], [ 77.560578017886556, 13.039621159703559 ], [ 77.560811841531205, 13.039835124985983 ], [ 77.560962689700375, 13.040001593281966 ], [ 77.560926432447985, 13.039766674076599 ], [ 77.560953385972468, 13.039690842786236 ], [ 77.560936621886199, 13.039652331714677 ] ] ] ] } }
]
}
