{
"type": "FeatureCollection",
"name": "police_station_boundary.writing_20260805_172659",
"crs": { "type": "name", "properties": { "name": "urn:ogc:def:crs:OGC:1.3:CRS84" } },
"features": [
{ "type": "Feature", "properties": { "Shape.STArea()": 353117231.52887952, "Shape.STLength()": 101732.94110766228, "OBJECTID": 293, "KGISPS_BOUNDID": 393, "PS_BOUNDName": "Chittapura PS", "PS_BOUNDCode": "PSB - 393", "KGISPS_SUB_DIVID": 150, "_source_layer": "Police Station Boundary", "_source_layer_url": "https://kgis.ksrsac.in/kgismaps/rest/services/Home/Home_Department/MapServer/82", "_police_station": "Chittapura PS" }, "geometry": { "type": "Polygon", "coordinates": [ [ [ 77.108088845050077, 17.175863589931332 ], [ 77.101484787394583, 17.175320835968485 ], [ 77.09617163213845, 17.173243336563523 ], [ 77.092324990800577, 17.169290584150001 ], [ 77.087560237085341, 17.16393448312844 ], [ 77.088114462515151, 17.162905194493479 ], [ 77.088188037536341, 17.162833981306182 ], [ 77.089439074413278, 17.161623053854733 ], [ 77.091391177487608, 17.160492457025537 ], [ 77.092106855920406, 17.160077949909009 ], [ 77.092231865212625, 17.160005547545719 ], [ 77.092909971256546, 17.159867614065767 ], [ 77.09321268448474, 17.15980603799764 ], [ 77.093807898742682, 17.159684963565581 ], [ 77.094951299788534, 17.1594523735297 ], [ 77.096252052753329, 17.159187767468811 ], [ 77.09635281042253, 17.159115441073329 ], [ 77.096490413209352, 17.159016665194898 ], [ 77.096949499825314, 17.15868711771947 ], [ 77.097095372753003, 17.158579323316978 ], [ 77.099070489544133, 17.157119780149266 ], [ 77.099634617443854, 17.156850748998348 ], [ 77.100139678125757, 17.156625242115737 ], [ 77.101599396896603, 17.155973475825128 ], [ 77.102451824464183, 17.155688330971731 ], [ 77.102936977433217, 17.15434657190298 ], [ 77.102715915756917, 17.151870300241782 ], [ 77.102669841465712, 17.15155325129032 ], [ 77.10239954159897, 17.149693222460005 ], [ 77.102119314635488, 17.148166160316133 ], [ 77.101963596750196, 17.147292216514828 ], [ 77.101949118853298, 17.14721095852725 ], [ 77.101915312235931, 17.145563795298226 ], [ 77.101912657214072, 17.145434498753129 ], [ 77.101820628109138, 17.144699432952411 ], [ 77.101279378957514, 17.143440838250729 ], [ 77.100345135604798, 17.141268347157641 ], [ 77.100225965101302, 17.140991223945331 ], [ 77.099807615076315, 17.139727189850177 ], [ 77.099460839549081, 17.13855260278439 ], [ 77.099294880543368, 17.138557165985297 ], [ 77.098965379879303, 17.137109790973845 ], [ 77.098647284889879, 17.135295475039008 ], [ 77.096589969900876, 17.135689986151331 ], [ 77.095763121762786, 17.135842736002356 ], [ 77.094782126902714, 17.136023957295858 ], [ 77.093477458721395, 17.136133605622337 ], [ 77.091518038195574, 17.136298264669556 ], [ 77.091372350696517, 17.136335470524383 ], [ 77.089774919959055, 17.136743412291789 ], [ 77.088336775283707, 17.137192794443639 ], [ 77.088462390017924, 17.138694149356279 ], [ 77.085863552077669, 17.138997864995414 ], [ 77.085280988304135, 17.139065942615112 ], [ 77.084285502746681, 17.139050291395339 ], [ 77.084138863988997, 17.139047986396477 ], [ 77.08323398708913, 17.139033754572239 ], [ 77.082383469437431, 17.139156955502081 ], [ 77.082041550605965, 17.139206483092565 ], [ 77.08059207055021, 17.139358253742522 ], [ 77.079140697286817, 17.139510520639998 ], [ 77.079199029447352, 17.140526282627135 ], [ 77.079241464189366, 17.141356583924569 ], [ 77.079367300666178, 17.141595334287377 ], [ 77.080180728216931, 17.143056274115636 ], [ 77.07974559703392, 17.143621367680943 ], [ 77.079266170861231, 17.143923676252861 ], [ 77.078854574984248, 17.144095074891304 ], [ 77.078607392024395, 17.144155989382778 ], [ 77.07653833646286, 17.144665858448565 ], [ 77.07517247283792, 17.144887135741978 ], [ 77.073534826378918, 17.145152431207784 ], [ 77.072625601526269, 17.145243634582265 ], [ 77.071092395373441, 17.145423197952887 ], [ 77.069438074842367, 17.145675309778692 ], [ 77.069193205536791, 17.147186845547917 ], [ 77.069000810283427, 17.148374459662605 ], [ 77.06759635083246, 17.148277654496521 ], [ 77.067457519471319, 17.148252030402464 ], [ 77.066647364400808, 17.148102499693014 ], [ 77.06540395454266, 17.147872995505701 ], [ 77.064243967899827, 17.147658881450738 ], [ 77.064520449223849, 17.145464544867409 ], [ 77.064622504728206, 17.143201229016487 ], [ 77.064684958230359, 17.142918176637018 ], [ 77.064698444460504, 17.14274694724303 ], [ 77.064372940259574, 17.142775188936753 ], [ 77.063395328302519, 17.142860003458974 ], [ 77.062802354752421, 17.142926862282117 ], [ 77.061999092546586, 17.143017428864418 ], [ 77.061697067547854, 17.141021699047393 ], [ 77.06167736023059, 17.140599533674845 ], [ 77.060810782766623, 17.140599199593588 ], [ 77.059561105730666, 17.140612247783832 ], [ 77.058543117437438, 17.140624932464966 ], [ 77.058316675581437, 17.140627754556942 ], [ 77.057781799639471, 17.140618678867707 ], [ 77.056488589854425, 17.140553841336157 ], [ 77.056493011343647, 17.140524761915241 ], [ 77.056753615980739, 17.13853883992158 ], [ 77.056765690633114, 17.13780661872773 ], [ 77.057113262595607, 17.13550842755928 ], [ 77.057132974655033, 17.135378091960447 ], [ 77.056981808426301, 17.132927518541621 ], [ 77.056889523463994, 17.132271340374647 ], [ 77.056685891163326, 17.130621422152586 ], [ 77.056647425640591, 17.130492669359136 ], [ 77.056383454263099, 17.129609102233289 ], [ 77.056012505402066, 17.127948675877629 ], [ 77.056006693805031, 17.127922258180337 ], [ 77.055874696964153, 17.127322310755851 ], [ 77.055787058559787, 17.127151647281423 ], [ 77.055457564906064, 17.126191256768333 ], [ 77.055231786542834, 17.125329124335707 ], [ 77.055086914492989, 17.12462497871509 ], [ 77.054813693073683, 17.123296970210056 ], [ 77.054665386420638, 17.122692407423983 ], [ 77.05443087028236, 17.121182155078042 ], [ 77.054409060220479, 17.121041697801399 ], [ 77.054299767261639, 17.119978346607709 ], [ 77.054201090480362, 17.118976523263118 ], [ 77.054174925354701, 17.11871088320278 ], [ 77.054269813976859, 17.11634984774938 ], [ 77.054241162735892, 17.115064383389999 ], [ 77.054045253417883, 17.113340639769927 ], [ 77.054025168700051, 17.113163917859751 ], [ 77.053794052635752, 17.111347150601734 ], [ 77.053781498680991, 17.111023820642124 ], [ 77.053755121686919, 17.110344438428292 ], [ 77.05367754542732, 17.109155416879926 ], [ 77.052970122716843, 17.109174535100525 ], [ 77.052954273664042, 17.108784861826489 ], [ 77.05292218213296, 17.107914845019277 ], [ 77.052067237984105, 17.107643573795787 ], [ 77.052036213991641, 17.106820106380674 ], [ 77.05056974610234, 17.106750311542751 ], [ 77.050432600549399, 17.105406986180352 ], [ 77.04944276561173, 17.105403643489918 ], [ 77.049415323266885, 17.104981689086383 ], [ 77.049322950814442, 17.103191626217765 ], [ 77.049251824825646, 17.102773545982735 ], [ 77.049050669637097, 17.101591137622975 ], [ 77.049034516707209, 17.101483405696975 ], [ 77.048794462551768, 17.09988227107608 ], [ 77.047042064414725, 17.099913526030946 ], [ 77.046400855824416, 17.099924958576523 ], [ 77.04517651133213, 17.099951119704933 ], [ 77.044687319351041, 17.097865087861198 ], [ 77.044648881101267, 17.097706166634271 ], [ 77.044765176904136, 17.096570029484472 ], [ 77.044985463521371, 17.095035233969124 ], [ 77.045008905821916, 17.094871898043888 ], [ 77.045018846164254, 17.093519467401595 ], [ 77.045131964757203, 17.092483096814135 ], [ 77.045244967265205, 17.091447764544853 ], [ 77.045304606426413, 17.090324121197884 ], [ 77.045317597527117, 17.089658328040425 ], [ 77.04545584591736, 17.088050699686598 ], [ 77.045485104498908, 17.087473366097331 ], [ 77.045545005093487, 17.086704959698029 ], [ 77.045529332092045, 17.085745179193527 ], [ 77.045638531328038, 17.084263465521534 ], [ 77.045668064730023, 17.082835894651549 ], [ 77.045607826564861, 17.082599333230021 ], [ 77.045648123067906, 17.08234659348695 ], [ 77.045713317698329, 17.081856021200931 ], [ 77.045784861425844, 17.079761115176435 ], [ 77.045783985893848, 17.079691185661904 ], [ 77.045786486482257, 17.077178845569986 ], [ 77.046325072247896, 17.077333875914487 ], [ 77.046324606059329, 17.077203661097965 ], [ 77.04632395880499, 17.077022750011849 ], [ 77.046302650289675, 17.075554031104623 ], [ 77.046287741852623, 17.074362674425757 ], [ 77.046270679425106, 17.074034526300881 ], [ 77.046247418936062, 17.073587139540457 ], [ 77.046149405205227, 17.072341429054095 ], [ 77.046033172217051, 17.071653895853416 ], [ 77.046056360241579, 17.071265453336924 ], [ 77.046061314801904, 17.071034289823455 ], [ 77.046074646449242, 17.07041220498397 ], [ 77.046077418181326, 17.070391596918139 ], [ 77.046330920298161, 17.070286534872139 ], [ 77.045928058771224, 17.069647891897585 ], [ 77.045919354817997, 17.069481839946665 ], [ 77.045672605486502, 17.069242929750885 ], [ 77.045451538284368, 17.068892474554321 ], [ 77.04530941357217, 17.068667168495654 ], [ 77.045215699369308, 17.066840287056529 ], [ 77.045205775363641, 17.066646821551178 ], [ 77.045189176434775, 17.06632324426397 ], [ 77.045042726475174, 17.064259292995523 ], [ 77.044869076188377, 17.064280678200177 ], [ 77.044726042555595, 17.064313668784482 ], [ 77.044672690537638, 17.064314069993131 ], [ 77.044605270966855, 17.064314575899292 ], [ 77.04460078848966, 17.064285323355502 ], [ 77.044265819944314, 17.062099069702747 ], [ 77.044239936853586, 17.061877075029582 ], [ 77.044085376902174, 17.060362474525679 ], [ 77.044021558105968, 17.059061074867078 ], [ 77.044016463393618, 17.058957166561594 ], [ 77.043998052610775, 17.058855660972227 ], [ 77.043539820942044, 17.056329645901229 ], [ 77.043232511042902, 17.055355540794427 ], [ 77.042774815997674, 17.053904737187942 ], [ 77.042644335586942, 17.053491135373676 ], [ 77.042209966037575, 17.052259220009105 ], [ 77.042001513271742, 17.05164528350781 ], [ 77.041922568748817, 17.051412773921609 ], [ 77.04156777458212, 17.05059759091068 ], [ 77.041085939516165, 17.048883888675313 ], [ 77.041081995516976, 17.048869859444686 ], [ 77.041080666553583, 17.048207433239352 ], [ 77.041079729536563, 17.047740262443781 ], [ 77.040995731430186, 17.047488363822623 ], [ 77.040994160634284, 17.04748365354418 ], [ 77.040468045005326, 17.046383139265487 ], [ 77.040287683872748, 17.044703044894437 ], [ 77.040233132817619, 17.044140481518792 ], [ 77.040231847906199, 17.044127234149009 ], [ 77.040219698644449, 17.044001955004429 ], [ 77.040209109158511, 17.043892747433631 ], [ 77.040195938077915, 17.043736401776208 ], [ 77.04018332249602, 17.043586669379412 ], [ 77.040171405416586, 17.043445217522667 ], [ 77.04015109555597, 17.043204144449671 ], [ 77.040150756034862, 17.04320012017569 ], [ 77.040124092234223, 17.042883633839107 ], [ 77.04013609433521, 17.042541578444972 ], [ 77.040155033264696, 17.042001782431793 ], [ 77.040156030035604, 17.041623629945928 ], [ 77.040156147974216, 17.0415787649811 ], [ 77.040151378867563, 17.041492486892786 ], [ 77.040102802964, 17.040613636615486 ], [ 77.040094146613768, 17.040405487346202 ], [ 77.040082187278571, 17.040117887247177 ], [ 77.040122877016543, 17.039017470615939 ], [ 77.040292729839521, 17.038990726114932 ], [ 77.040806688851504, 17.038909799793576 ], [ 77.040984337860905, 17.038839056779253 ], [ 77.041034401506636, 17.038819121049311 ], [ 77.041005822732615, 17.038721873688726 ], [ 77.04087601619338, 17.038280160385952 ], [ 77.040829538226333, 17.038122004418184 ], [ 77.040796402706306, 17.038009250379957 ], [ 77.040996536298479, 17.037906495593102 ], [ 77.041100136151542, 17.037853303702601 ], [ 77.041286269422656, 17.037757736392603 ], [ 77.042255713987615, 17.03725998554803 ], [ 77.042260999545491, 17.03713390609974 ], [ 77.042263068143967, 17.037084582797807 ], [ 77.042268148858298, 17.036963422106272 ], [ 77.042269360237711, 17.036934527712127 ], [ 77.042304335695448, 17.036100341229407 ], [ 77.042271619664021, 17.035978252180168 ], [ 77.042065527557952, 17.035631481626982 ], [ 77.042040099489725, 17.035588696607 ], [ 77.043789502917619, 17.035038571924748 ], [ 77.043900593082128, 17.035003636746495 ], [ 77.045175022274137, 17.034813557094054 ], [ 77.045954803732627, 17.033630766859783 ], [ 77.045968022768207, 17.033610714946292 ], [ 77.046896057128876, 17.03220302909309 ], [ 77.047083619178451, 17.03215731716606 ], [ 77.04714035543256, 17.032143489073846 ], [ 77.047188016785952, 17.032071061100268 ], [ 77.048507242410381, 17.031660633049459 ], [ 77.049510813194331, 17.031660507155706 ], [ 77.050559476654314, 17.031945211672639 ], [ 77.053025136466715, 17.032505690842985 ], [ 77.053708285481903, 17.032546632844575 ], [ 77.055827890102663, 17.032673650966267 ], [ 77.056068511828698, 17.032562794497927 ], [ 77.056338731943256, 17.032438305844572 ], [ 77.057214670518476, 17.032386954022527 ], [ 77.057365311667795, 17.032579622855867 ], [ 77.05749040549162, 17.032739612520537 ], [ 77.058046877974874, 17.032726570683213 ], [ 77.05840121850207, 17.032606257130762 ], [ 77.058561392125213, 17.032529995010421 ], [ 77.058595799842834, 17.032513612694821 ], [ 77.058666894830168, 17.032479761578625 ], [ 77.058750833948793, 17.032439796681139 ], [ 77.059035330904578, 17.032283546852387 ], [ 77.059022360294108, 17.032245162629724 ], [ 77.058990545148021, 17.03215100235175 ], [ 77.058836882887135, 17.031696230386164 ], [ 77.0590965492066, 17.031251102424815 ], [ 77.059067594861204, 17.031152314517236 ], [ 77.058997020759804, 17.030911526843063 ], [ 77.058882041722129, 17.030455875935552 ], [ 77.058862187996127, 17.030377197274262 ], [ 77.058782310190836, 17.029525358916725 ], [ 77.058773139152265, 17.029427555884197 ], [ 77.058740022074403, 17.02907437964835 ], [ 77.058631578546709, 17.028401920730857 ], [ 77.058614787226233, 17.028297797397954 ], [ 77.058581215681741, 17.028089613849957 ], [ 77.058360834210248, 17.026279961585455 ], [ 77.058344732391205, 17.026147740629881 ], [ 77.058329437453864, 17.026022145651705 ], [ 77.058324438530164, 17.025981095782779 ], [ 77.058324886817473, 17.025902400250391 ], [ 77.058332279842887, 17.024604740214329 ], [ 77.058284818243479, 17.023768758204898 ], [ 77.058174329410264, 17.023265867999523 ], [ 77.058124896453975, 17.023097479770534 ], [ 77.057893607014094, 17.022309618136777 ], [ 77.057751449655498, 17.020909451032477 ], [ 77.057751914471297, 17.020840384426393 ], [ 77.057759782829251, 17.019671482574061 ], [ 77.057749314575901, 17.019569632258605 ], [ 77.057748108203853, 17.019557892167828 ], [ 77.057746891306905, 17.019546048284809 ], [ 77.058070883457106, 17.019454020507567 ], [ 77.059069269165207, 17.019153940952151 ], [ 77.059920273036212, 17.018949891873373 ], [ 77.061941055459926, 17.018422281479186 ], [ 77.062064651176371, 17.018471794105722 ], [ 77.062899392002052, 17.018271214652522 ], [ 77.063047214696098, 17.018230349514663 ], [ 77.064312662159509, 17.017880512103869 ], [ 77.065638656953652, 17.017513927344748 ], [ 77.065657395172607, 17.017508495147453 ], [ 77.066633134358156, 17.017225454704349 ], [ 77.067286846818732, 17.017024817363914 ], [ 77.068346078635685, 17.016648327450831 ], [ 77.068450020671591, 17.01660838094454 ], [ 77.070720077252247, 17.015735944457592 ], [ 77.070902464707814, 17.015678119185541 ], [ 77.071021655689279, 17.015640328175905 ], [ 77.071727208896661, 17.015416630953631 ], [ 77.072191846216171, 17.015221352118122 ], [ 77.072318968329299, 17.015167924730275 ], [ 77.072687622171017, 17.015012982819474 ], [ 77.072842984447419, 17.01494455092319 ], [ 77.07300091465892, 17.014874993238994 ], [ 77.07450301569321, 17.014213369859625 ], [ 77.074633065932574, 17.014156091464862 ], [ 77.074693910425637, 17.014126552116057 ], [ 77.074757160972197, 17.014095846239268 ], [ 77.074782725339219, 17.014083436692832 ], [ 77.07491282993638, 17.014038267547605 ], [ 77.076035552917176, 17.013556680296574 ], [ 77.076883431506488, 17.013454608409898 ], [ 77.077335530872489, 17.013411686688602 ], [ 77.077449184953522, 17.013387413845098 ], [ 77.0774590130425, 17.013385314129959 ], [ 77.077735238026435, 17.013352059296519 ], [ 77.078686813722541, 17.013134135795347 ], [ 77.078828312436215, 17.013101730271803 ], [ 77.078973180235749, 17.013068554811095 ], [ 77.079203860262794, 17.012977566377465 ], [ 77.079119179644778, 17.012674502476457 ], [ 77.078838085795923, 17.011668486771605 ], [ 77.07879742245612, 17.011539557860576 ], [ 77.078607774249321, 17.010938246917043 ], [ 77.078220994733073, 17.009850454985944 ], [ 77.077982728902896, 17.009350824156158 ], [ 77.077974300738163, 17.009333145531244 ], [ 77.078589198379746, 17.009340716936808 ], [ 77.079442040441677, 17.008624380996356 ], [ 77.080167532255416, 17.00816913662814 ], [ 77.080407357207207, 17.007482357778763 ], [ 77.080972933984995, 17.006735117023819 ], [ 77.081598179944251, 17.005837564743743 ], [ 77.081837085996327, 17.005451298374947 ], [ 77.082176257950181, 17.005220711459003 ], [ 77.082861594572691, 17.004765308154379 ], [ 77.082936648467552, 17.002825443184744 ], [ 77.083407077675119, 17.002293517194602 ], [ 77.085176053154001, 17.001372946764999 ], [ 77.086270108336819, 17.000803590738283 ], [ 77.086379400867685, 17.000019979460731 ], [ 77.087063518685156, 16.999282204289088 ], [ 77.087181266406546, 16.998981477614574 ], [ 77.087239981713168, 16.998831518377415 ], [ 77.087589711536253, 16.997938306543446 ], [ 77.087816346944635, 16.997364845044938 ], [ 77.088323138453276, 16.994714860681437 ], [ 77.088388317629139, 16.994374038113147 ], [ 77.088440308885339, 16.993830393411152 ], [ 77.088453928728867, 16.993687977760555 ], [ 77.088458139353392, 16.993643946295332 ], [ 77.088675521237263, 16.993056939859368 ], [ 77.088891550735482, 16.992443901489846 ], [ 77.089468324238922, 16.992473713607886 ], [ 77.089477115666398, 16.991596840401364 ], [ 77.089478652297771, 16.991443520253092 ], [ 77.089482803013155, 16.991029561155806 ], [ 77.089436155959604, 16.989970224916995 ], [ 77.08953866622133, 16.989116912593708 ], [ 77.08960243756519, 16.988586066380694 ], [ 77.089634263292965, 16.987997694283173 ], [ 77.089806727125492, 16.985126103884966 ], [ 77.09128123550407, 16.980942721078769 ], [ 77.092098851748943, 16.978622945643355 ], [ 77.092350262087436, 16.977909625887971 ], [ 77.093971844794453, 16.973259606971457 ], [ 77.095119831697986, 16.973173984474801 ], [ 77.095669195485897, 16.973133008234772 ], [ 77.096414568129518, 16.9730774090777 ], [ 77.096364360887165, 16.972840868609545 ], [ 77.096197949907506, 16.971969698662544 ], [ 77.096103912324125, 16.971477411329005 ], [ 77.096091931572289, 16.971414684042117 ], [ 77.095943083614799, 16.969888674169155 ], [ 77.095916636189003, 16.969617530843031 ], [ 77.096134833784191, 16.967678919945584 ], [ 77.096317973914722, 16.966483729236085 ], [ 77.096328776108734, 16.966271743213603 ], [ 77.096338350321901, 16.966083856760939 ], [ 77.096345662002435, 16.9659403675407 ], [ 77.096421211220147, 16.965189927668735 ], [ 77.096542223886772, 16.964758798379307 ], [ 77.09665107016761, 16.964371013492986 ], [ 77.096849710952156, 16.96366331803986 ], [ 77.096875427958238, 16.963575499163749 ], [ 77.09702835485048, 16.963053286222028 ], [ 77.09706904439922, 16.96283620191031 ], [ 77.097099433629012, 16.962674066675969 ], [ 77.097179873761206, 16.962404808544274 ], [ 77.097323980809605, 16.962118627299819 ], [ 77.097383357938341, 16.961482652127124 ], [ 77.097628240747312, 16.960705889860083 ], [ 77.097834812960954, 16.96005064637195 ], [ 77.098438176878062, 16.959293189598334 ], [ 77.098924967857045, 16.958520952386564 ], [ 77.099214678544826, 16.95809253794868 ], [ 77.099735548987411, 16.957332392849455 ], [ 77.099730220212521, 16.957285114958285 ], [ 77.099675451198806, 16.956799139180465 ], [ 77.099673963119869, 16.956785940610249 ], [ 77.099648089841324, 16.956556361533877 ], [ 77.099900433678414, 16.955938059611857 ], [ 77.100030891975521, 16.955646715316227 ], [ 77.100073452515645, 16.955551665117113 ], [ 77.100256716602914, 16.954335081941714 ], [ 77.100502022457789, 16.954296929375115 ], [ 77.100722675008484, 16.952967158972076 ], [ 77.101010513593536, 16.952249282956259 ], [ 77.101054558839635, 16.952139435999275 ], [ 77.101119029523488, 16.951725988947224 ], [ 77.101129802075107, 16.951656904950248 ], [ 77.10124584212943, 16.950912757952718 ], [ 77.101252397098875, 16.950892070995646 ], [ 77.101772385694474, 16.949251229847995 ], [ 77.101778965965011, 16.949230463118486 ], [ 77.101787721052233, 16.949205210041722 ], [ 77.101793131699495, 16.949187144026741 ], [ 77.10184910077291, 16.949000261597174 ], [ 77.101856825718514, 16.948974467118116 ], [ 77.101970374584951, 16.948595319148676 ], [ 77.100224461299263, 16.948245834294333 ], [ 77.102305935169525, 16.946822781427002 ], [ 77.102743325456899, 16.946523743336204 ], [ 77.109130546468748, 16.94450033567913 ], [ 77.109003712992632, 16.944085354207079 ], [ 77.111338762766891, 16.94203011832089 ], [ 77.111506271442181, 16.941882680034041 ], [ 77.112552790887634, 16.941256591910189 ], [ 77.112892702991829, 16.93561390728981 ], [ 77.114490278460565, 16.935381360172041 ], [ 77.114105132942953, 16.93287351294018 ], [ 77.117659247079715, 16.928089184416901 ], [ 77.117956083237843, 16.92773368843314 ], [ 77.120506875109982, 16.924678743319227 ], [ 77.121399080717069, 16.923570022030976 ], [ 77.121477942644006, 16.923472021837014 ], [ 77.126179059559945, 16.917629786506222 ], [ 77.12622240741004, 16.917575896209698 ], [ 77.136979298045659, 16.921573992060949 ], [ 77.149737678216198, 16.926315028940202 ], [ 77.167278290307877, 16.930198478233251 ], [ 77.169558224574715, 16.930703120963035 ], [ 77.180118894482021, 16.933693569078233 ], [ 77.182723925042836, 16.934580114013844 ], [ 77.183163417602984, 16.934729661177414 ], [ 77.184579188519919, 16.935567386962312 ], [ 77.190395057552223, 16.930478478221058 ], [ 77.190477435953568, 16.930406385598708 ], [ 77.19200883988978, 16.929066347477832 ], [ 77.192008875623117, 16.929066353418328 ], [ 77.193311948046741, 16.929439707935117 ], [ 77.195828298154098, 16.93016067152557 ], [ 77.196809844706635, 16.930598212502048 ], [ 77.198707790006566, 16.9337689888273 ], [ 77.198987783834326, 16.934059903706657 ], [ 77.200042467590691, 16.935155713216812 ], [ 77.200853673012062, 16.935998553394874 ], [ 77.201065755930131, 16.936026692749675 ], [ 77.203002700388254, 16.936283728576257 ], [ 77.203132036981117, 16.936300868557858 ], [ 77.204047392010409, 16.936612367689541 ], [ 77.204127731909608, 16.936639683181774 ], [ 77.204260744485737, 16.936800094723836 ], [ 77.204618597286355, 16.937557799361283 ], [ 77.206028018596228, 16.937923517509507 ], [ 77.20656993753849, 16.937801221848737 ], [ 77.207380631961811, 16.937618284524167 ], [ 77.207645709186878, 16.93755844904906 ], [ 77.2077274689874, 16.937539995904373 ], [ 77.20784989225244, 16.937515970913108 ], [ 77.208227846599883, 16.937861511837028 ], [ 77.208373103284231, 16.938339942438898 ], [ 77.208304746956131, 16.938506824872992 ], [ 77.208196887222314, 16.938770174832126 ], [ 77.20848781971624, 16.940622469393013 ], [ 77.209556165477323, 16.941037924608164 ], [ 77.209622107181644, 16.941254715927339 ], [ 77.209365673192693, 16.941930827092765 ], [ 77.209295410500573, 16.942116103800391 ], [ 77.209599577506268, 16.942691925852415 ], [ 77.209662058295905, 16.942810199194039 ], [ 77.209771608770964, 16.942779663932665 ], [ 77.209958833684325, 16.942727417570683 ], [ 77.209922847691132, 16.94288461982547 ], [ 77.210407780800722, 16.943708529592048 ], [ 77.210522156912759, 16.943898268594378 ], [ 77.210777611974223, 16.944322041635616 ], [ 77.210778344087728, 16.944323246067029 ], [ 77.211254446247636, 16.944800930330722 ], [ 77.211444130796636, 16.944760086485346 ], [ 77.211812012023216, 16.944680891460642 ], [ 77.212437602271777, 16.94590083221598 ], [ 77.212812808874574, 16.946632481408191 ], [ 77.213087332663534, 16.947167794806063 ], [ 77.213594923528746, 16.947742301755071 ], [ 77.213799051578221, 16.947814233233245 ], [ 77.214171758852743, 16.948203622042101 ], [ 77.215281671885393, 16.948711250456334 ], [ 77.215483336553675, 16.948866240522772 ], [ 77.215657301867594, 16.949069701858782 ], [ 77.215713866134678, 16.949236032431671 ], [ 77.215753948968697, 16.94946153628198 ], [ 77.21576837492087, 16.94954195885315 ], [ 77.216254734317133, 16.949534497348974 ], [ 77.216900911420467, 16.949659696739808 ], [ 77.218688487431947, 16.950290991607257 ], [ 77.218858031335586, 16.950350866394295 ], [ 77.21908336882035, 16.950662728437202 ], [ 77.219219981868392, 16.950851794680567 ], [ 77.219218530828726, 16.950860917561478 ], [ 77.219113676917488, 16.95152011611799 ], [ 77.219264900238969, 16.952324852576147 ], [ 77.21900696576246, 16.952737251232481 ], [ 77.219004794136239, 16.953279866946762 ], [ 77.219791546082945, 16.953914374365812 ], [ 77.219631922630896, 16.953968370226466 ], [ 77.219770345251845, 16.954712278627088 ], [ 77.219783962981722, 16.954785463337728 ], [ 77.220002452548613, 16.955959650437947 ], [ 77.219225215333623, 16.956672134935296 ], [ 77.219356177084791, 16.956964132160284 ], [ 77.219447293669603, 16.95702210626304 ], [ 77.219429703849855, 16.957128068577671 ], [ 77.21965407702676, 16.95762833180699 ], [ 77.219704474840015, 16.957827686045086 ], [ 77.219192555130661, 16.95858326776645 ], [ 77.219126395330449, 16.958680917833394 ], [ 77.219334389959769, 16.958751686268325 ], [ 77.219025511143556, 16.959199233481385 ], [ 77.218886658357775, 16.959400420648997 ], [ 77.218777544473099, 16.959558520404489 ], [ 77.218749518510151, 16.960994112286542 ], [ 77.218775697545709, 16.961116404291992 ], [ 77.218896853186763, 16.961682359689576 ], [ 77.218821587640846, 16.962007517911623 ], [ 77.218450693454457, 16.96215422506933 ], [ 77.218415630880486, 16.962337787286256 ], [ 77.218327687978046, 16.962798174790592 ], [ 77.218404830286204, 16.963827791877563 ], [ 77.218410891642463, 16.963908693372197 ], [ 77.21786596062627, 16.965107824426834 ], [ 77.217802588999902, 16.965247284622411 ], [ 77.217368103552829, 16.965499468410197 ], [ 77.217022152139648, 16.966570347933683 ], [ 77.216784302019065, 16.966517036315555 ], [ 77.216687420930882, 16.966532378450108 ], [ 77.214500795022033, 16.966878652642592 ], [ 77.213227309912966, 16.967115237723011 ], [ 77.213147829875226, 16.96712664298785 ], [ 77.2122709555276, 16.967252473964287 ], [ 77.211034760556842, 16.96734070303355 ], [ 77.210312932911592, 16.967340007863651 ], [ 77.210310646158661, 16.967340005549435 ], [ 77.210183963104257, 16.968644593460887 ], [ 77.21017169646322, 16.968821259040464 ], [ 77.210091314734953, 16.969664269777166 ], [ 77.209906258305537, 16.970804475173825 ], [ 77.20976455464131, 16.971269357544596 ], [ 77.209467761063138, 16.973085228664576 ], [ 77.209449781661704, 16.973195238553295 ], [ 77.209430653670125, 16.973367530172393 ], [ 77.209262445731824, 16.97458167645641 ], [ 77.209233086078385, 16.974793594412937 ], [ 77.209095236012203, 16.975652935291393 ], [ 77.209078599447338, 16.975971632263121 ], [ 77.209034923466788, 16.976088507313793 ], [ 77.208990601125777, 16.976441809912384 ], [ 77.208870970018936, 16.976998243352924 ], [ 77.208285193357426, 16.978430477532566 ], [ 77.208207663156116, 16.978620038013101 ], [ 77.207705569175317, 16.981466359671554 ], [ 77.207686595263525, 16.981558393676288 ], [ 77.207266978666922, 16.9835937495737 ], [ 77.20725842277605, 16.983736932118621 ], [ 77.207204828660736, 16.984633819231483 ], [ 77.207260342660334, 16.984854657369404 ], [ 77.207273788978839, 16.984908151740623 ], [ 77.207294477273393, 16.984990448319408 ], [ 77.208293413096769, 16.985571445299964 ], [ 77.208709750612613, 16.985813590359324 ], [ 77.208878165256252, 16.985911541616673 ], [ 77.210291652171605, 16.986179800223816 ], [ 77.211817384973315, 16.986536604617541 ], [ 77.212293818202966, 16.986648016670316 ], [ 77.214695658071648, 16.987091038717406 ], [ 77.216581841187661, 16.987435727808663 ], [ 77.217316419836834, 16.987584609516901 ], [ 77.217654719073636, 16.987667780487143 ], [ 77.217956098794389, 16.987741871786469 ], [ 77.218279581149559, 16.987861765913195 ], [ 77.21903157339888, 16.987992764885025 ], [ 77.220109849797268, 16.988216459232799 ], [ 77.220513166937238, 16.988263417828527 ], [ 77.221345338128899, 16.988421318428873 ], [ 77.221914338841088, 16.988578088070906 ], [ 77.222344295429323, 16.988718545685572 ], [ 77.222893096575845, 16.988897825699297 ], [ 77.22326437792448, 16.98904560482589 ], [ 77.223699216573578, 16.989189428992372 ], [ 77.223904826623723, 16.989257437824623 ], [ 77.224749399342869, 16.989626909683157 ], [ 77.22483798219514, 16.989665665791474 ], [ 77.225091871856577, 16.989793961926104 ], [ 77.225270886219718, 16.989884426203684 ], [ 77.226867975815736, 16.990514073804714 ], [ 77.226884522072211, 16.990521496684877 ], [ 77.226889907967575, 16.990523788404584 ], [ 77.228271064955095, 16.991111493629571 ], [ 77.22825397850545, 16.991238000010274 ], [ 77.228341584066968, 16.992095078360428 ], [ 77.228350932364705, 16.99218654226609 ], [ 77.228390308247867, 16.993525627030209 ], [ 77.228411167951563, 16.994235152965377 ], [ 77.228331630837559, 16.994269949097674 ], [ 77.228234811604736, 16.994312308650141 ], [ 77.22820137380819, 16.994326939002036 ], [ 77.228020024029874, 16.994347651464377 ], [ 77.22780246603773, 16.995026158645185 ], [ 77.227722531082378, 16.995275449652191 ], [ 77.227572339352108, 16.995743843919968 ], [ 77.22732390913697, 16.996402094148454 ], [ 77.227295368613014, 16.996517532873511 ], [ 77.226862209379675, 16.998269544691642 ], [ 77.226714513743175, 16.999070957024099 ], [ 77.226324900432829, 16.999917066035007 ], [ 77.225977999747158, 17.000860187349204 ], [ 77.225483478582433, 17.001278331682062 ], [ 77.225308120639724, 17.001325801181643 ], [ 77.224621360616908, 17.001459362019858 ], [ 77.224644728095896, 17.001505376262987 ], [ 77.224834708641993, 17.001879467051914 ], [ 77.224957287147618, 17.002120834458111 ], [ 77.225177130320958, 17.002588179164086 ], [ 77.225213161519548, 17.002664775397246 ], [ 77.225039954411471, 17.003125485084272 ], [ 77.224493024531611, 17.00309759735827 ], [ 77.224200084616768, 17.00308265974008 ], [ 77.224216958667597, 17.003193243141144 ], [ 77.224258718228398, 17.003929068215498 ], [ 77.224304857439165, 17.004741951143949 ], [ 77.224309738140562, 17.004779672889399 ], [ 77.224526276264157, 17.006452906296829 ], [ 77.224555024507723, 17.006675044467219 ], [ 77.22441883251787, 17.007032288411015 ], [ 77.224468870013425, 17.007455217079709 ], [ 77.22446285799731, 17.007736751616964 ], [ 77.224481668745483, 17.007964428650233 ], [ 77.224457880211546, 17.007969903052224 ], [ 77.223961893014149, 17.008084055254141 ], [ 77.223787551868583, 17.008245179764735 ], [ 77.22350279342335, 17.008508349463632 ], [ 77.22351429871739, 17.00867138702942 ], [ 77.223524717427111, 17.008819049087577 ], [ 77.223185469205006, 17.008915316158721 ], [ 77.222761116299779, 17.009136474226377 ], [ 77.222833124934041, 17.009522883532366 ], [ 77.222903860078276, 17.009941294692005 ], [ 77.221927531737563, 17.010577030720544 ], [ 77.22191077812181, 17.010762528145499 ], [ 77.221952865670488, 17.010921294943888 ], [ 77.222114127210574, 17.011705600266435 ], [ 77.222307616635291, 17.01264663405842 ], [ 77.222376180455242, 17.013174720252476 ], [ 77.222327760433615, 17.013188357361845 ], [ 77.221957818237996, 17.013368506472599 ], [ 77.221175506553891, 17.013521318216878 ], [ 77.221174906760496, 17.013666288571066 ], [ 77.221302149874333, 17.0140352796599 ], [ 77.221046350684972, 17.014078469577136 ], [ 77.220533092205144, 17.014165124068853 ], [ 77.220534903375267, 17.014172762311826 ], [ 77.220726547891815, 17.014979254999758 ], [ 77.220104279539896, 17.015232879418093 ], [ 77.219735135674853, 17.015423702558337 ], [ 77.219753742767367, 17.016102238979222 ], [ 77.219831757929086, 17.016433991335603 ], [ 77.219847755213578, 17.016502017073726 ], [ 77.219990753978493, 17.017110109087913 ], [ 77.220474595731332, 17.018742906478227 ], [ 77.220367773224879, 17.018779980625222 ], [ 77.218706365501802, 17.019356649877039 ], [ 77.218778508945448, 17.01982576715174 ], [ 77.218796319353871, 17.019941577750522 ], [ 77.218735093609965, 17.020004545201555 ], [ 77.218460156668414, 17.020287305937874 ], [ 77.21848944818035, 17.020397962160779 ], [ 77.218475525486866, 17.020535194129597 ], [ 77.218539597994209, 17.020699866573313 ], [ 77.218594447413466, 17.020840836246421 ], [ 77.219171377638332, 17.021675892692116 ], [ 77.219128473803536, 17.022017332776922 ], [ 77.218995498161974, 17.023075604588382 ], [ 77.219001604925765, 17.023219308433401 ], [ 77.218957433441759, 17.02353744139749 ], [ 77.219027379834287, 17.023825751118878 ], [ 77.219241765041332, 17.024709440664239 ], [ 77.21930868447761, 17.024985271298693 ], [ 77.219559597429225, 17.027226451207511 ], [ 77.218640178890368, 17.026709014705329 ], [ 77.215437649908765, 17.026335420378853 ], [ 77.214852483868057, 17.02709131165177 ], [ 77.212720340906216, 17.027164598177212 ], [ 77.212735473291076, 17.027267604243661 ], [ 77.212753619003067, 17.027391128730333 ], [ 77.212783704268915, 17.027595919606497 ], [ 77.21285776535936, 17.028634854032564 ], [ 77.212925155092492, 17.029196813138768 ], [ 77.213166146104427, 17.031011602772882 ], [ 77.213284454418371, 17.031912820599757 ], [ 77.213106840431948, 17.031972140863807 ], [ 77.212651757721559, 17.032124130019124 ], [ 77.212588335980485, 17.03214531301569 ], [ 77.212120645616778, 17.032270393535885 ], [ 77.211893616655843, 17.03281114974429 ], [ 77.211982372403739, 17.033827291757376 ], [ 77.211637595320624, 17.034421300705883 ], [ 77.21148038862664, 17.034692146105783 ], [ 77.211406583151117, 17.035168067631439 ], [ 77.210844372319983, 17.035661260271365 ], [ 77.2108907167936, 17.035666999340961 ], [ 77.210793817253688, 17.035930623251879 ], [ 77.210787330138814, 17.035948270203008 ], [ 77.210660502679332, 17.03629331799122 ], [ 77.210612418130111, 17.036489765809161 ], [ 77.210491618073348, 17.036856948795922 ], [ 77.210181275124768, 17.037551317764521 ], [ 77.210173843439819, 17.037567946018918 ], [ 77.210136592677387, 17.037598095387345 ], [ 77.209873790789729, 17.037771750939129 ], [ 77.209342101479649, 17.038128513579135 ], [ 77.209123292389577, 17.038302928441311 ], [ 77.208247817601503, 17.038947779858614 ], [ 77.207021205050594, 17.039993911353712 ], [ 77.206501454460124, 17.040540129362977 ], [ 77.206142564309658, 17.040830582536309 ], [ 77.206067310824366, 17.040847275121884 ], [ 77.206065269862194, 17.040847728205033 ], [ 77.206060030210125, 17.040848889053382 ], [ 77.20565893778577, 17.040948531677206 ], [ 77.205149643289417, 17.041075049711697 ], [ 77.204658541604502, 17.041232845117062 ], [ 77.20370461754905, 17.041399868056846 ], [ 77.20343356390083, 17.041432650260258 ], [ 77.202395785045525, 17.041610483475651 ], [ 77.201627546255338, 17.041747012289946 ], [ 77.201032332629566, 17.041810275431519 ], [ 77.20067868717905, 17.041895887893844 ], [ 77.200424799042182, 17.041957350037109 ], [ 77.199718685911378, 17.042219173824897 ], [ 77.199513071657307, 17.04226909971894 ], [ 77.199436888031684, 17.042408592313578 ], [ 77.199337599698453, 17.043124761268963 ], [ 77.200114993635566, 17.044416923434056 ], [ 77.19954566943629, 17.044935643202351 ], [ 77.19909688638873, 17.045325398507043 ], [ 77.198544177303575, 17.045544222696336 ], [ 77.197796896420869, 17.045780172030017 ], [ 77.197412272155944, 17.045897504374405 ], [ 77.19779884606578, 17.047514938487254 ], [ 77.197409184794338, 17.047846945602405 ], [ 77.196984147486873, 17.048123903334737 ], [ 77.196872692341614, 17.048196528103379 ], [ 77.196478725592556, 17.04829473330927 ], [ 77.196261694110333, 17.0483488373218 ], [ 77.196212063281465, 17.048400062821333 ], [ 77.196270806240236, 17.049714730095467 ], [ 77.196273940218333, 17.049714494738719 ], [ 77.195588754910233, 17.049911589533448 ], [ 77.195428903031043, 17.049956309791401 ], [ 77.194556588496724, 17.050200359579687 ], [ 77.193501999007893, 17.050495398027124 ], [ 77.192133976460738, 17.05083520398269 ], [ 77.19207717703506, 17.050849312205994 ], [ 77.192076242391551, 17.05131210194941 ], [ 77.192074408372974, 17.052219984323042 ], [ 77.1920951473451, 17.052960450752078 ], [ 77.19210651309163, 17.053366301875652 ], [ 77.192129052360741, 17.054171149343915 ], [ 77.192298534873814, 17.055911926033179 ], [ 77.192369291906388, 17.057002675728128 ], [ 77.192505013905986, 17.059094872920152 ], [ 77.192455330040119, 17.059466989054503 ], [ 77.192186880894113, 17.061477604696833 ], [ 77.192143397731428, 17.061803294144685 ], [ 77.19207318439129, 17.06232916363545 ], [ 77.191717956861055, 17.063389048063499 ], [ 77.191684914878024, 17.063487629652862 ], [ 77.191580223505142, 17.063799992002199 ], [ 77.191513800848895, 17.06417902462206 ], [ 77.19144452099772, 17.06445895007883 ], [ 77.191438164695256, 17.064610625217753 ], [ 77.191408922479596, 17.065308387069351 ], [ 77.191393223699052, 17.065398353513789 ], [ 77.191347788605569, 17.065658744703541 ], [ 77.191055172149959, 17.067335698855295 ], [ 77.191048190214843, 17.067375709886665 ], [ 77.190943987991119, 17.068540330016905 ], [ 77.190978789918418, 17.068875505102369 ], [ 77.1910103644896, 17.069179601086294 ], [ 77.191162509796825, 17.070644774176895 ], [ 77.191173265191594, 17.070748375290421 ], [ 77.191426409081757, 17.072571962693466 ], [ 77.191787002325384, 17.073407707934201 ], [ 77.192229585919719, 17.074208901618476 ], [ 77.192559876150185, 17.074518816750885 ], [ 77.192697576287301, 17.074648020480709 ], [ 77.192901834345847, 17.074839677978265 ], [ 77.193222007684952, 17.075378918179258 ], [ 77.193532039641994, 17.075906659624792 ], [ 77.193689332875479, 17.076174404061835 ], [ 77.193931977209033, 17.07643496430731 ], [ 77.194124988483679, 17.076733383273194 ], [ 77.194152210777474, 17.076775471516019 ], [ 77.194274097703484, 17.07719303006483 ], [ 77.194565451893851, 17.078091154890487 ], [ 77.194858127783363, 17.079038448184921 ], [ 77.195108010508051, 17.079756027963121 ], [ 77.195184883932427, 17.079957107123018 ], [ 77.195195999842497, 17.079986181779663 ], [ 77.196291917010754, 17.079858130017801 ], [ 77.197544375548318, 17.079732200647211 ], [ 77.197584730588517, 17.079728219193132 ], [ 77.197939200287593, 17.081091331378413 ], [ 77.198235645033506, 17.082393619077163 ], [ 77.198255555610302, 17.082451878908625 ], [ 77.198606643277145, 17.083479153599473 ], [ 77.198798156156812, 17.08359921942948 ], [ 77.198995016647558, 17.083722639150032 ], [ 77.199336280220848, 17.0838906479554 ], [ 77.199760998713643, 17.084213031832707 ], [ 77.200133448152499, 17.084657191103101 ], [ 77.201239334171021, 17.085671900817097 ], [ 77.201318536919388, 17.085744564898306 ], [ 77.201883693609005, 17.08646418848431 ], [ 77.202008176106702, 17.086651284276751 ], [ 77.202262098893613, 17.087032927041427 ], [ 77.202266716431396, 17.087039867302487 ], [ 77.202267034492039, 17.087046551650172 ], [ 77.202691652086941, 17.088218420897832 ], [ 77.20274540233774, 17.088366757886735 ], [ 77.202830774207357, 17.08860235922144 ], [ 77.202830866776608, 17.088602642783208 ], [ 77.203551060083669, 17.090810219796769 ], [ 77.204353675870323, 17.090875791343692 ], [ 77.205023713355303, 17.090864351282921 ], [ 77.205005400297111, 17.091016544941091 ], [ 77.20506438171023, 17.09109997336483 ], [ 77.205133807527702, 17.091436356343557 ], [ 77.205487355034279, 17.092701010916777 ], [ 77.205534450224732, 17.092869470811699 ], [ 77.205674151452826, 17.093469787583683 ], [ 77.205687572797416, 17.093527467378713 ], [ 77.205712253488315, 17.093633522109041 ], [ 77.206054318627594, 17.095179707881204 ], [ 77.206188881292519, 17.095787937460532 ], [ 77.206371779644797, 17.097068866944969 ], [ 77.206449558908403, 17.097613586642808 ], [ 77.206471375722742, 17.097769243054127 ], [ 77.206552844658304, 17.098350556615539 ], [ 77.206581827655455, 17.098557357014641 ], [ 77.206588655505684, 17.098702124631981 ], [ 77.206676078410581, 17.100555087600007 ], [ 77.206680808991464, 17.101710471720175 ], [ 77.206681321042723, 17.101835963858985 ], [ 77.206633801239605, 17.102254002194538 ], [ 77.206617118336169, 17.102400763162819 ], [ 77.20666578117465, 17.103391759529167 ], [ 77.206692223329313, 17.104332447068064 ], [ 77.206688603190273, 17.105045007211146 ], [ 77.20673321697106, 17.105736862625864 ], [ 77.206734462136069, 17.105852390494263 ], [ 77.206737909276171, 17.106172113204927 ], [ 77.206727329780918, 17.107376153826554 ], [ 77.206722792619217, 17.107891966941903 ], [ 77.206712294252782, 17.10969224202837 ], [ 77.206445824302563, 17.109599171868393 ], [ 77.20614847764071, 17.109680458267299 ], [ 77.206026378848648, 17.109713836642126 ], [ 77.205825042932247, 17.109768875321151 ], [ 77.205445183789479, 17.109872716808031 ], [ 77.204826427095441, 17.109804870210272 ], [ 77.204370661038624, 17.109791096015712 ], [ 77.203915061549367, 17.109804797340331 ], [ 77.203467510921143, 17.109818253740499 ], [ 77.203233416434273, 17.109809431838571 ], [ 77.202905921891144, 17.109797087524104 ], [ 77.201940461525211, 17.109661729177176 ], [ 77.20069420020512, 17.109526454158299 ], [ 77.200602778986593, 17.109496268444708 ], [ 77.200266279519568, 17.109385165081168 ], [ 77.200098741953667, 17.109329848444744 ], [ 77.198594847020658, 17.109234903213483 ], [ 77.198476726521292, 17.109227443099336 ], [ 77.198390544128685, 17.109257581207455 ], [ 77.197840572201571, 17.109449906745056 ], [ 77.196526558699517, 17.109716407578926 ], [ 77.195671086044825, 17.10965537683462 ], [ 77.195586848012042, 17.110699086658911 ], [ 77.195584873328073, 17.110706777882264 ], [ 77.194896767519708, 17.112619257909042 ], [ 77.194884058890992, 17.112805047477742 ], [ 77.194883595003844, 17.112811793625887 ], [ 77.194847508993476, 17.113339231577147 ], [ 77.194925483907696, 17.115181868941072 ], [ 77.194925900388384, 17.115230909609568 ], [ 77.194939517809175, 17.116838066204959 ], [ 77.194940472857169, 17.116950707985648 ], [ 77.194938140247828, 17.117122733797153 ], [ 77.194888468063255, 17.118653858813509 ], [ 77.194871659599755, 17.119335853056022 ], [ 77.194824564256749, 17.120137104731864 ], [ 77.194806917159923, 17.120437326313798 ], [ 77.194666538310528, 17.121797511490001 ], [ 77.194392551685439, 17.123410797744334 ], [ 77.194390585839344, 17.123422375264557 ], [ 77.192484449957803, 17.123382139816197 ], [ 77.191454917687167, 17.123360400044746 ], [ 77.190744727421674, 17.12328555698112 ], [ 77.189351092549884, 17.123301656518059 ], [ 77.188090614440881, 17.123316209460867 ], [ 77.186935577311885, 17.123459340471861 ], [ 77.186930837741784, 17.123459927427565 ], [ 77.18489445085585, 17.123674217096521 ], [ 77.181941523228161, 17.123485631739243 ], [ 77.181827267418299, 17.123437550345624 ], [ 77.180554217688297, 17.123519572911441 ], [ 77.180120277341061, 17.123440685863066 ], [ 77.178194394349987, 17.123090569504779 ], [ 77.177115107504832, 17.123011660442831 ], [ 77.176968257002173, 17.123000926633615 ], [ 77.175205968033637, 17.122918676486332 ], [ 77.174721192086679, 17.122896053157287 ], [ 77.172960893604824, 17.122887378311404 ], [ 77.17255760492634, 17.122885388942144 ], [ 77.172221188543318, 17.120840223629031 ], [ 77.17222528969171, 17.120711926100562 ], [ 77.172145235500054, 17.119937992356384 ], [ 77.172155339670965, 17.119534388559789 ], [ 77.171171081764967, 17.119721722465087 ], [ 77.171071777060021, 17.119723183815079 ], [ 77.1709411085385, 17.119725104525337 ], [ 77.170546260442052, 17.119730908390309 ], [ 77.169975599881667, 17.11977042058205 ], [ 77.169771955601163, 17.119828517308548 ], [ 77.169635245648905, 17.119867518990858 ], [ 77.169052351486911, 17.12003380910572 ], [ 77.168587076823925, 17.119997233870841 ], [ 77.16853856583441, 17.120532167846328 ], [ 77.168505732365304, 17.120894235178898 ], [ 77.168046128951133, 17.120810946252551 ], [ 77.167750484285577, 17.120757368710361 ], [ 77.167097357709125, 17.120832608362505 ], [ 77.164846175928886, 17.121091925899837 ], [ 77.164626618772928, 17.121105651849675 ], [ 77.164518914515028, 17.121112383681929 ], [ 77.163574862308849, 17.121171398096674 ], [ 77.163610934598481, 17.12108591129666 ], [ 77.164775181282764, 17.118326734171784 ], [ 77.165038602733787, 17.117807660809934 ], [ 77.164905647297985, 17.117833769908476 ], [ 77.164592893224267, 17.117822194369595 ], [ 77.163978364461386, 17.117820037949986 ], [ 77.162327266990175, 17.117847752475591 ], [ 77.162266743586414, 17.117837359605378 ], [ 77.159740300510563, 17.117400857761833 ], [ 77.159393470005369, 17.117428679552162 ], [ 77.157918171452295, 17.117447434036581 ], [ 77.15777464956021, 17.117504454807289 ], [ 77.157707151819736, 17.117502886249049 ], [ 77.15745924789212, 17.117629767653373 ], [ 77.155811582819155, 17.11828439351968 ], [ 77.155735922190786, 17.118278411407584 ], [ 77.153188798432112, 17.118076975975033 ], [ 77.153163811506431, 17.118087848848507 ], [ 77.151650562078785, 17.118746326088658 ], [ 77.151649124430094, 17.118822769289984 ], [ 77.151619632151522, 17.118836811197635 ], [ 77.151626195662232, 17.119735376217434 ], [ 77.151626843380939, 17.119823303115119 ], [ 77.151629649455984, 17.120544294156154 ], [ 77.151642927091913, 17.120543752732878 ], [ 77.154353510886267, 17.120433481290036 ], [ 77.155254944852246, 17.120396800468686 ], [ 77.155805116910031, 17.120343042518304 ], [ 77.155805918677601, 17.120374378748334 ], [ 77.155821671644247, 17.120989791103032 ], [ 77.155286908935196, 17.121170937856082 ], [ 77.154610270897507, 17.121400144497787 ], [ 77.154701873853355, 17.121660770836993 ], [ 77.154640694362669, 17.122991919996927 ], [ 77.154561567013445, 17.123770692782223 ], [ 77.154629007663416, 17.124720909530392 ], [ 77.154456639229437, 17.125215882082649 ], [ 77.154342533173534, 17.125667236092983 ], [ 77.154263786503364, 17.125978722118955 ], [ 77.154241620823896, 17.126172506113896 ], [ 77.15413830176324, 17.127075759280572 ], [ 77.154107489926375, 17.128040122944977 ], [ 77.156002944317962, 17.127342249665908 ], [ 77.156483543267356, 17.128392772931392 ], [ 77.15651749459586, 17.12859059481648 ], [ 77.156942937256659, 17.13106951207693 ], [ 77.15698036900389, 17.131287598953072 ], [ 77.157088190046039, 17.132247048445077 ], [ 77.157167041785186, 17.13294874497749 ], [ 77.157411201979187, 17.133970202835719 ], [ 77.157497300827814, 17.134870349516451 ], [ 77.157649655743285, 17.136139502009232 ], [ 77.157894221183682, 17.136136998090024 ], [ 77.15790789192512, 17.13622330121845 ], [ 77.157545067915962, 17.136257458080618 ], [ 77.156949834165275, 17.137455807144882 ], [ 77.156916797558992, 17.137461324462521 ], [ 77.156049785557101, 17.137384134949542 ], [ 77.156002281846526, 17.137515796032794 ], [ 77.155764389834985, 17.138420337071317 ], [ 77.155615983346621, 17.138772573173714 ], [ 77.155452253015071, 17.139161202101747 ], [ 77.155429615479449, 17.139214922703655 ], [ 77.155354580847401, 17.140506962028716 ], [ 77.155237075210366, 17.142530286100062 ], [ 77.155233614080771, 17.142589860463239 ], [ 77.15522954104199, 17.142660004025707 ], [ 77.155203110788392, 17.142794108075488 ], [ 77.154799304788156, 17.144842965793057 ], [ 77.153568205679179, 17.144807914472501 ], [ 77.153000681164642, 17.144865518243044 ], [ 77.152969110546152, 17.145482792357516 ], [ 77.152966872229186, 17.145526558475044 ], [ 77.151609602560072, 17.14544542621865 ], [ 77.151620550792089, 17.145540977337845 ], [ 77.151780429609175, 17.147538510428152 ], [ 77.151773875703938, 17.147566661878869 ], [ 77.151638995345536, 17.148145831071179 ], [ 77.151756863463262, 17.150135519448753 ], [ 77.15178006731189, 17.150421607629497 ], [ 77.151774306085869, 17.150751984215354 ], [ 77.15173154269506, 17.150929092809577 ], [ 77.151723536435313, 17.150962256502787 ], [ 77.151646292046621, 17.150975668352565 ], [ 77.151523974331411, 17.150996905905963 ], [ 77.151613397937751, 17.151668024661394 ], [ 77.149456479298593, 17.152133840701641 ], [ 77.148990393069312, 17.152236421957465 ], [ 77.14748951533781, 17.152501190276283 ], [ 77.147347034719786, 17.152526324838522 ], [ 77.14597142306414, 17.152817320898428 ], [ 77.145904459999656, 17.152531832562207 ], [ 77.144401752678107, 17.15274938193074 ], [ 77.144525168862984, 17.153395349310514 ], [ 77.143898645070877, 17.153561244771254 ], [ 77.14284095285943, 17.153802184365986 ], [ 77.140932281339133, 17.154114813943561 ], [ 77.140893143314003, 17.15412122479675 ], [ 77.139893530159611, 17.1542798226019 ], [ 77.138222611459199, 17.1545668150609 ], [ 77.138067696965194, 17.154593422885331 ], [ 77.136493629834703, 17.154813679608317 ], [ 77.135608146900466, 17.154854098287608 ], [ 77.134124713373183, 17.154921799207337 ], [ 77.132751704205134, 17.15497258383013 ], [ 77.132277056164014, 17.154990142450508 ], [ 77.131647051707745, 17.155060466197323 ], [ 77.131381050459723, 17.155166190480937 ], [ 77.1305566845556, 17.158164442027623 ], [ 77.130341604026086, 17.159221414979342 ], [ 77.130057020826484, 17.160619919627393 ], [ 77.129775127089715, 17.161757129932454 ], [ 77.129755864222304, 17.16183483856107 ], [ 77.128112546564296, 17.161504455812672 ], [ 77.128081149233978, 17.161746553379253 ], [ 77.128081277521503, 17.16176925412228 ], [ 77.128075214212217, 17.16179231464595 ], [ 77.127966814736197, 17.162204583001035 ], [ 77.127912409491586, 17.162411497181971 ], [ 77.126614736039969, 17.164424469044079 ], [ 77.125203333220412, 17.163964392828291 ], [ 77.1234809487174, 17.163402928420464 ], [ 77.122479607080251, 17.163038099590128 ], [ 77.122193161096206, 17.162941077496463 ], [ 77.121214735197256, 17.162609668020451 ], [ 77.12103359939691, 17.162523484492084 ], [ 77.120666364853534, 17.162348748750173 ], [ 77.118362377766275, 17.160827892558611 ], [ 77.11741790900966, 17.162955386592856 ], [ 77.116955882241001, 17.163787046190972 ], [ 77.116519823401731, 17.164571953266847 ], [ 77.116415838703176, 17.164759130641688 ], [ 77.115699624248265, 17.166745861171492 ], [ 77.115560680923963, 17.167149370042292 ], [ 77.115491899923683, 17.167732614913444 ], [ 77.115373636464923, 17.168661538440688 ], [ 77.115174522554071, 17.169562031071937 ], [ 77.114975664592308, 17.170420582922585 ], [ 77.11496639736734, 17.170503285877015 ], [ 77.114728571495192, 17.170470980046698 ], [ 77.114621945999289, 17.170456496990724 ], [ 77.113442266110098, 17.170400690612574 ], [ 77.110873490062929, 17.170290426328592 ], [ 77.110273574935391, 17.170231912950854 ], [ 77.110064837420396, 17.171825864625102 ], [ 77.109138490750041, 17.174612614975203 ], [ 77.10890487195293, 17.174620928449023 ], [ 77.108751502542759, 17.174626388258517 ], [ 77.108569220890715, 17.174596550433264 ], [ 77.108088845050077, 17.175863589931332 ] ] ] } }
]
}
