{
"type": "FeatureCollection",
"name": "police_station_boundary.writing_20260805_172659",
"crs": { "type": "name", "properties": { "name": "urn:ogc:def:crs:OGC:1.3:CRS84" } },
"features": [
{ "type": "Feature", "properties": { "Shape.STArea()": 126152687.82192738, "Shape.STLength()": 76972.342812704606, "OBJECTID": 642, "KGISPS_BOUNDID": 751, "PS_BOUNDName": "Nandagudi PS", "PS_BOUNDCode": "PSB - 751", "KGISPS_SUB_DIVID": 23, "_source_layer": "Police Station Boundary", "_source_layer_url": "https://kgis.ksrsac.in/kgismaps/rest/services/Home/Home_Department/MapServer/82", "_police_station": "Nandagudi PS" }, "geometry": { "type": "Polygon", "coordinates": [ [ [ 77.90133389523308, 13.255799248936283 ], [ 77.899974736398192, 13.256136666353482 ], [ 77.89975498058007, 13.256176917418259 ], [ 77.898884071023076, 13.256336431259056 ], [ 77.898219461127809, 13.256431202458902 ], [ 77.896942530286992, 13.256613281141858 ], [ 77.895332727750073, 13.256842817910407 ], [ 77.895287642424165, 13.256850480871776 ], [ 77.893907892562808, 13.257085020374324 ], [ 77.891592947219934, 13.257513175839186 ], [ 77.891289591804721, 13.257569278070555 ], [ 77.891270528493806, 13.257370291712238 ], [ 77.891262212601617, 13.257283510156947 ], [ 77.890664883873242, 13.255574405829883 ], [ 77.890344714921113, 13.254960090713558 ], [ 77.890172115978743, 13.254574226136379 ], [ 77.890086775377725, 13.254302260366991 ], [ 77.889927073417624, 13.253968774040523 ], [ 77.889411197580401, 13.252854810478274 ], [ 77.888127071189828, 13.250081858740286 ], [ 77.887955620168029, 13.249679743729278 ], [ 77.887699192294463, 13.248984933360619 ], [ 77.88738118868433, 13.248130329203301 ], [ 77.887204805755474, 13.247623146795634 ], [ 77.887139115102343, 13.247402834604312 ], [ 77.887108318559498, 13.247067944030261 ], [ 77.88707744299461, 13.246490456571657 ], [ 77.887057036894475, 13.246236049890781 ], [ 77.886964031279717, 13.245312312463279 ], [ 77.88683512029931, 13.243887607034843 ], [ 77.886785547565424, 13.243285679223717 ], [ 77.886786730256233, 13.243005280840274 ], [ 77.88676480900601, 13.242457128499785 ], [ 77.886473715421246, 13.241690867245795 ], [ 77.886457548862609, 13.241648311546474 ], [ 77.885913538587729, 13.241370744301774 ], [ 77.884379965010694, 13.239944727684561 ], [ 77.882001276848072, 13.239589550345858 ], [ 77.879917360016549, 13.239299530464644 ], [ 77.879180106041659, 13.238839366911098 ], [ 77.878177273446639, 13.237480856906448 ], [ 77.876781822076239, 13.234326941473352 ], [ 77.877793676575862, 13.233021623877677 ], [ 77.877513886278749, 13.232498051534677 ], [ 77.876671224940296, 13.230741765610679 ], [ 77.87603779173412, 13.229397625061747 ], [ 77.875884062073339, 13.229073985399685 ], [ 77.875418037828993, 13.228092876266382 ], [ 77.874770965605165, 13.226782050776166 ], [ 77.874158523333236, 13.225423477024679 ], [ 77.874151251321607, 13.225408643809349 ], [ 77.873559320295783, 13.224153967195083 ], [ 77.873548948860474, 13.224131510317791 ], [ 77.873504326423017, 13.22403489598137 ], [ 77.873308505430259, 13.22340582045204 ], [ 77.873074283452695, 13.222484309021381 ], [ 77.873010566942526, 13.222492705783917 ], [ 77.872731120210673, 13.222529534410336 ], [ 77.872614287709325, 13.222551926014978 ], [ 77.87261065363225, 13.222506065536185 ], [ 77.872591947512532, 13.222270219824882 ], [ 77.872630344098582, 13.22206298047541 ], [ 77.872708945171766, 13.221638749136613 ], [ 77.87252256824587, 13.221376527468484 ], [ 77.872355654516724, 13.221092247514255 ], [ 77.87220769478219, 13.220810364635133 ], [ 77.871987662359103, 13.220430631677957 ], [ 77.871822139880479, 13.220144974303649 ], [ 77.871654027784459, 13.219893616303786 ], [ 77.871556373832703, 13.2197186448329 ], [ 77.871555362135112, 13.219552709750843 ], [ 77.871498459465045, 13.219403555286311 ], [ 77.871368452171069, 13.219202717372129 ], [ 77.871196315476595, 13.218960118459055 ], [ 77.8711070282733, 13.218813058308253 ], [ 77.870986922522292, 13.21861523581139 ], [ 77.8707861326413, 13.218284524600286 ], [ 77.870662117521746, 13.218198004263998 ], [ 77.870589761889789, 13.216979442648032 ], [ 77.870652402429698, 13.216956093158309 ], [ 77.872032670636543, 13.216381664013385 ], [ 77.872034877091352, 13.21638074501764 ], [ 77.872555590398733, 13.216100223551217 ], [ 77.872788397399745, 13.215974804273124 ], [ 77.872815852182697, 13.215960013247491 ], [ 77.873204706959228, 13.215750526241374 ], [ 77.873668211604169, 13.215442144642434 ], [ 77.874154038675016, 13.214965947562074 ], [ 77.874313513337697, 13.214809633978172 ], [ 77.874545367772569, 13.214461941775999 ], [ 77.87479401541357, 13.214416576999167 ], [ 77.875272393476649, 13.214329294937277 ], [ 77.875321126527624, 13.214251811385541 ], [ 77.875353448208728, 13.214246505324137 ], [ 77.87540233150898, 13.214171855314653 ], [ 77.875463091202207, 13.214079068513216 ], [ 77.875461109642714, 13.214029240618647 ], [ 77.875474961335655, 13.214007217590787 ], [ 77.875652315000011, 13.213739372872141 ], [ 77.875644640324722, 13.213634767601029 ], [ 77.875641502663001, 13.213592017785645 ], [ 77.875568507546561, 13.212597135005087 ], [ 77.875533574867404, 13.212200543742545 ], [ 77.875383574459448, 13.210497603664521 ], [ 77.875380630156783, 13.210464180212455 ], [ 77.875108593035677, 13.207565785528331 ], [ 77.875107621578323, 13.207508657157991 ], [ 77.875108341832529, 13.207454130944187 ], [ 77.875107647225789, 13.207311384909238 ], [ 77.875106088597008, 13.207018270567355 ], [ 77.875105850051725, 13.206941855393262 ], [ 77.875104975099916, 13.206871474633701 ], [ 77.875103356687205, 13.206741388728586 ], [ 77.875093660981761, 13.205962105111066 ], [ 77.875090561537078, 13.205713092962622 ], [ 77.875089667231606, 13.205641052275153 ], [ 77.874964016828201, 13.205514800206039 ], [ 77.874907940365091, 13.20545845380539 ], [ 77.87438031384994, 13.205195802622933 ], [ 77.873556675695198, 13.204772791232108 ], [ 77.870306719131776, 13.203039249558378 ], [ 77.87023189959784, 13.20300157422292 ], [ 77.869826099345374, 13.202774322596431 ], [ 77.869852530313736, 13.202665780603356 ], [ 77.870466933221493, 13.200142646505045 ], [ 77.87049967702508, 13.200008175915766 ], [ 77.870612801766711, 13.199789741187621 ], [ 77.871943070819711, 13.197221062922177 ], [ 77.873277842825019, 13.194640507051801 ], [ 77.876265151779222, 13.189002582266477 ], [ 77.877789593369627, 13.186138444153249 ], [ 77.877791128475479, 13.186071283484891 ], [ 77.877792973400048, 13.185990504043946 ], [ 77.877827776070632, 13.184467187446437 ], [ 77.877829458489387, 13.183380860768191 ], [ 77.877862387826099, 13.181753904962903 ], [ 77.877927482798896, 13.178537851581124 ], [ 77.877962813766771, 13.177996165942998 ], [ 77.878148222967027, 13.177975351531112 ], [ 77.88421743104314, 13.177293968791993 ], [ 77.884551028600541, 13.177337123143596 ], [ 77.884535470480699, 13.177309627940428 ], [ 77.884534367345012, 13.17730768035706 ], [ 77.884403401676678, 13.1770762657708 ], [ 77.884624074883845, 13.177053529867401 ], [ 77.884697382498075, 13.177045977491577 ], [ 77.884749614206171, 13.177041191365847 ], [ 77.884413197411718, 13.175788460653632 ], [ 77.88428898148112, 13.175319395200997 ], [ 77.883605774119488, 13.172694674622898 ], [ 77.88356284855675, 13.17252975858656 ], [ 77.882905836005321, 13.169981917971128 ], [ 77.882818651431123, 13.169612360918819 ], [ 77.882717535040314, 13.169229796765055 ], [ 77.882528652383556, 13.168515167456736 ], [ 77.882359660391415, 13.167866143252336 ], [ 77.882247379368081, 13.167434918931058 ], [ 77.882032346382061, 13.166654347007208 ], [ 77.88193691078159, 13.166243865318286 ], [ 77.881903395000236, 13.166099707341505 ], [ 77.881328989820631, 13.165644008726341 ], [ 77.880651951111219, 13.165096787059301 ], [ 77.880595698166758, 13.165045916691323 ], [ 77.880421030854833, 13.164993212101695 ], [ 77.880271149308712, 13.164832817002662 ], [ 77.880096662653301, 13.164646088907858 ], [ 77.879980999579502, 13.164645661515108 ], [ 77.879847105960692, 13.164645165976284 ], [ 77.879556278153231, 13.164541412738888 ], [ 77.87922521918729, 13.16445435801694 ], [ 77.878992006867776, 13.164343936383142 ], [ 77.878945275260577, 13.164321809671288 ], [ 77.878829971567654, 13.16420890832894 ], [ 77.878664198432901, 13.164021708124256 ], [ 77.878399695753217, 13.163827706942381 ], [ 77.878278004899244, 13.163635908343011 ], [ 77.878163061013169, 13.163563214382778 ], [ 77.877906796242272, 13.163407213862993 ], [ 77.877863658979678, 13.16336286592348 ], [ 77.87784042330992, 13.163265175675265 ], [ 77.877482647889707, 13.163470099421897 ], [ 77.876692336272342, 13.163620185444231 ], [ 77.876461443064713, 13.163665533648706 ], [ 77.876148564355915, 13.163727023991697 ], [ 77.87601116970616, 13.163718279342142 ], [ 77.875562904082372, 13.163689747843231 ], [ 77.87551742462162, 13.163694163238077 ], [ 77.875436225780106, 13.163793644161773 ], [ 77.875275303990378, 13.163992246196477 ], [ 77.875129570551707, 13.164169490797358 ], [ 77.875081005805981, 13.164243462576691 ], [ 77.875085138837804, 13.164281765728148 ], [ 77.875120875419171, 13.164612921302705 ], [ 77.875121427369791, 13.164664787797529 ], [ 77.874956416107395, 13.164851307907503 ], [ 77.874922832782929, 13.16488618060845 ], [ 77.874896675184104, 13.164913343175217 ], [ 77.874764980966546, 13.165050096472314 ], [ 77.874748341620062, 13.165063408751132 ], [ 77.874732977998093, 13.16507569962595 ], [ 77.874846247721564, 13.165294372843036 ], [ 77.874911824329686, 13.165450379514766 ], [ 77.875306568735667, 13.166616679143452 ], [ 77.875405675015855, 13.166909500773157 ], [ 77.875675024749199, 13.168105895992943 ], [ 77.87574982790764, 13.16843816299188 ], [ 77.875278736799231, 13.168649520836489 ], [ 77.874830571958881, 13.168716632023228 ], [ 77.874826320960722, 13.16871639967883 ], [ 77.87423549073317, 13.168683989545283 ], [ 77.873541366239607, 13.168637710242661 ], [ 77.872956400899497, 13.168648049191464 ], [ 77.872602782471475, 13.170426549947431 ], [ 77.872601406840232, 13.170433468782134 ], [ 77.872597351314056, 13.170452520986105 ], [ 77.872568262054784, 13.170589201006123 ], [ 77.87240926698432, 13.171410953267651 ], [ 77.872401992494702, 13.171448553334178 ], [ 77.872395782921956, 13.171480648899262 ], [ 77.872375374609646, 13.171586126075791 ], [ 77.872375108586766, 13.171587500166606 ], [ 77.872363112788236, 13.171649502533025 ], [ 77.872360370093418, 13.17166368062767 ], [ 77.872349617333086, 13.171719249778333 ], [ 77.871749404515384, 13.171517247748913 ], [ 77.864493285914804, 13.171363223775957 ], [ 77.862770505676536, 13.171399861628831 ], [ 77.857877466315486, 13.171077405412428 ], [ 77.857404416653424, 13.17103590241557 ], [ 77.85712480040857, 13.171011367456195 ], [ 77.857203599844979, 13.170856978224942 ], [ 77.857556672101481, 13.170165200374534 ], [ 77.859908277338548, 13.162854152449903 ], [ 77.858883674408872, 13.16274325717068 ], [ 77.857356057158256, 13.162595676097006 ], [ 77.857769826473827, 13.161524117311771 ], [ 77.857789882046561, 13.161468476181982 ], [ 77.857159064926435, 13.161345392921374 ], [ 77.858552625677873, 13.158218233711064 ], [ 77.858772903143361, 13.157723924975524 ], [ 77.858930741434762, 13.157694095615373 ], [ 77.859093099957576, 13.157663412821227 ], [ 77.862567953905838, 13.156024080163617 ], [ 77.862671005648806, 13.155975462691776 ], [ 77.863272187769454, 13.154140822263022 ], [ 77.863340506841467, 13.153932330764396 ], [ 77.86389647611766, 13.15455042310313 ], [ 77.864592221689009, 13.155357632486034 ], [ 77.865077395930015, 13.155894235801926 ], [ 77.865730227847706, 13.156657370882295 ], [ 77.866146041854506, 13.157107013945156 ], [ 77.866286366576375, 13.157258754577127 ], [ 77.866291641413383, 13.157258195269652 ], [ 77.867149531583649, 13.157167130273281 ], [ 77.868878198902607, 13.156975714411715 ], [ 77.869982054159138, 13.156828716187764 ], [ 77.870671706308215, 13.156738810361125 ], [ 77.8711528855209, 13.156676079487427 ], [ 77.872068043851584, 13.156513219206238 ], [ 77.872386064307065, 13.156404508202932 ], [ 77.872714440799868, 13.156281189436015 ], [ 77.872819797226995, 13.156241623573413 ], [ 77.872901661162359, 13.156210881503407 ], [ 77.873940135547585, 13.155862718110324 ], [ 77.87425118765195, 13.155759606411014 ], [ 77.874258427210137, 13.155758236423422 ], [ 77.874556508572951, 13.155661016933735 ], [ 77.87476680477161, 13.155593146443064 ], [ 77.875145085583995, 13.155471059865569 ], [ 77.875247193824777, 13.155437958746083 ], [ 77.875250246902297, 13.155326347198397 ], [ 77.875251894561671, 13.15526610925534 ], [ 77.875420325387083, 13.155231034024986 ], [ 77.875593589694915, 13.155194951630893 ], [ 77.875544039795344, 13.155081565664101 ], [ 77.875699609558538, 13.15503877623453 ], [ 77.875686307194343, 13.154936173449993 ], [ 77.875853560411073, 13.154893805832922 ], [ 77.876181073485853, 13.154791902336745 ], [ 77.876437518964295, 13.154561488980445 ], [ 77.876686203592669, 13.154425002880169 ], [ 77.877325800081948, 13.15417555929616 ], [ 77.87740263976616, 13.154136559897388 ], [ 77.87733687001375, 13.15388074397795 ], [ 77.877281135954902, 13.153663962512292 ], [ 77.877503242140207, 13.153589743631045 ], [ 77.877514722024813, 13.153585907179707 ], [ 77.877573278908599, 13.153549497242688 ], [ 77.877526354663559, 13.153057163835381 ], [ 77.877499681339302, 13.152777296481126 ], [ 77.877499037625924, 13.1527705511332 ], [ 77.877532456778482, 13.15229753054277 ], [ 77.877536290023727, 13.151988906456076 ], [ 77.877536455133196, 13.151975571092922 ], [ 77.877536932298142, 13.151937167540819 ], [ 77.877537299281784, 13.151907644898607 ], [ 77.877538459852886, 13.151814155494863 ], [ 77.877538089282524, 13.151804199707643 ], [ 77.877521289484406, 13.151354229743877 ], [ 77.877513927216938, 13.151157102352231 ], [ 77.877571079341465, 13.151017657608755 ], [ 77.878082556235285, 13.150939943365895 ], [ 77.878287413721907, 13.150864953016509 ], [ 77.878340132098572, 13.150863762272216 ], [ 77.878436294709857, 13.15086159040159 ], [ 77.878649270841336, 13.150856778373482 ], [ 77.878990289607529, 13.150806269409582 ], [ 77.879088645924881, 13.150805694903946 ], [ 77.879143785149211, 13.150802898003269 ], [ 77.879282960909123, 13.150805303381068 ], [ 77.879649320921388, 13.150810075242639 ], [ 77.87976225528611, 13.150794041668455 ], [ 77.879793924673564, 13.150789545147997 ], [ 77.879799771481686, 13.150686062378938 ], [ 77.8797784503206, 13.150641686444466 ], [ 77.879721373561409, 13.150296413666178 ], [ 77.879706306600539, 13.150222970254292 ], [ 77.879674553285852, 13.150068184766445 ], [ 77.879615265174223, 13.149779915204036 ], [ 77.879574199880309, 13.149580245085007 ], [ 77.879520113513038, 13.149653925708005 ], [ 77.879508561370642, 13.149686443307251 ], [ 77.879483428128552, 13.14975720877451 ], [ 77.87948202983894, 13.149761144477027 ], [ 77.879392453660159, 13.149407130458906 ], [ 77.879467399363421, 13.149401676338117 ], [ 77.879532949829596, 13.149390238876101 ], [ 77.879503490710221, 13.149254543568173 ], [ 77.879529679174098, 13.149030480774778 ], [ 77.879553967189182, 13.14882268028993 ], [ 77.879376785101357, 13.148842526682664 ], [ 77.879294595782355, 13.148851730889408 ], [ 77.879273930069488, 13.149065091712018 ], [ 77.879258577022043, 13.149223605682264 ], [ 77.878953870092474, 13.149282705444412 ], [ 77.878659705953055, 13.149339762797762 ], [ 77.878611196971164, 13.14934512354281 ], [ 77.878583884677681, 13.149348143031691 ], [ 77.878577134840228, 13.149348888897348 ], [ 77.878471182754041, 13.149360599279456 ], [ 77.878459084038511, 13.149361936202697 ], [ 77.878109800815253, 13.14940054090423 ], [ 77.877740764903791, 13.149441328341689 ], [ 77.876906927168207, 13.149501588944053 ], [ 77.876896113085067, 13.149501887137529 ], [ 77.876479535389336, 13.149447236966443 ], [ 77.876130096802427, 13.149448421641303 ], [ 77.876004784374757, 13.149398767241122 ], [ 77.875839574505676, 13.149359975697719 ], [ 77.875563647546969, 13.149348336801181 ], [ 77.875332523973583, 13.149365903274109 ], [ 77.8751232975536, 13.149427769156157 ], [ 77.874839838872617, 13.149511586315626 ], [ 77.874770016975859, 13.149472348423538 ], [ 77.874385646686321, 13.149502783756452 ], [ 77.87390469824264, 13.149540865087385 ], [ 77.873530165352747, 13.14958395720466 ], [ 77.873186700495353, 13.149623473904997 ], [ 77.8731310327138, 13.149629877500145 ], [ 77.873006957158026, 13.149624903396655 ], [ 77.872761675835307, 13.149619047073486 ], [ 77.872535703229289, 13.149613651031455 ], [ 77.872407741362238, 13.149623349821271 ], [ 77.872390714771711, 13.149624640429357 ], [ 77.872264658933233, 13.149637825093603 ], [ 77.8713982056628, 13.149728448416305 ], [ 77.871232462056042, 13.149745783286074 ], [ 77.870080195304496, 13.149903280876945 ], [ 77.868885791016481, 13.150057379413493 ], [ 77.868252460906817, 13.150120463808582 ], [ 77.868222876875038, 13.150123219475901 ], [ 77.867836057803231, 13.150171108801944 ], [ 77.866918309585202, 13.150547437017112 ], [ 77.866743124292114, 13.150611666911526 ], [ 77.866703677926196, 13.150626130132563 ], [ 77.866613041619644, 13.150121584192032 ], [ 77.866593129523778, 13.150010717003715 ], [ 77.86635942950592, 13.148709534798472 ], [ 77.866171547313996, 13.147614322134116 ], [ 77.866049668068186, 13.146903839360164 ], [ 77.866041892038979, 13.14672441519825 ], [ 77.866018552396852, 13.146185762551271 ], [ 77.865975525872386, 13.145008663380885 ], [ 77.866033165069354, 13.144625308133218 ], [ 77.866062512598532, 13.144425326551593 ], [ 77.866135245875938, 13.143906251776409 ], [ 77.866191526308199, 13.143562635347728 ], [ 77.866255531995265, 13.143101525003013 ], [ 77.866332639995107, 13.142959930757218 ], [ 77.86615626290282, 13.142838795949032 ], [ 77.866143101865745, 13.142829756824614 ], [ 77.865523064477102, 13.142403917230798 ], [ 77.86464513511909, 13.141100352880745 ], [ 77.86340607942978, 13.13925194628089 ], [ 77.863401173473733, 13.139244629583754 ], [ 77.863043109733582, 13.137724228451951 ], [ 77.862834084504328, 13.136826423516416 ], [ 77.862774990946846, 13.136572601946011 ], [ 77.862587884517126, 13.135817216861543 ], [ 77.862476667376356, 13.135373484218912 ], [ 77.862332946809019, 13.134800065238199 ], [ 77.862296913152576, 13.134663628651573 ], [ 77.862256747207823, 13.13451154691044 ], [ 77.86225563480059, 13.134507332115453 ], [ 77.862254621583119, 13.134404506365634 ], [ 77.862399741985726, 13.13430114091131 ], [ 77.863234325937384, 13.133706682723007 ], [ 77.863537686496159, 13.133486892952771 ], [ 77.86404148812646, 13.133121877543717 ], [ 77.864102101262105, 13.133077910736745 ], [ 77.865853615136018, 13.131829211316095 ], [ 77.866251437999722, 13.131546139250608 ], [ 77.866292034830536, 13.131517251729024 ], [ 77.867914123624686, 13.130400383194083 ], [ 77.868113340518263, 13.130263213430176 ], [ 77.868669540547558, 13.130105739579353 ], [ 77.86897419849906, 13.129970489214452 ], [ 77.869041122531215, 13.129973151321659 ], [ 77.869150823121672, 13.129985790193954 ], [ 77.869301121767108, 13.129988585014711 ], [ 77.869411376847438, 13.129952489642385 ], [ 77.870035749078866, 13.129748083325264 ], [ 77.870239614652164, 13.129629971972191 ], [ 77.870391894884889, 13.129635347206833 ], [ 77.870474018818527, 13.129638186123625 ], [ 77.87057247697409, 13.129566396865497 ], [ 77.870620964315862, 13.129547882939368 ], [ 77.870631133102009, 13.129546687339021 ], [ 77.871899089936747, 13.129397619807783 ], [ 77.87202424606383, 13.12938290464017 ], [ 77.872083379306645, 13.129375159182491 ], [ 77.872166050978706, 13.129364329087077 ], [ 77.872626868628885, 13.129265750745207 ], [ 77.872828340808297, 13.129228395678979 ], [ 77.872926530162687, 13.129201645866425 ], [ 77.873119290428448, 13.129160410068998 ], [ 77.873961232150208, 13.128940662365622 ], [ 77.874035430802365, 13.128926461594167 ], [ 77.87409973518605, 13.128914154375749 ], [ 77.874087088362344, 13.128833455218338 ], [ 77.874061721482846, 13.128738392256089 ], [ 77.874059401474923, 13.128655826301712 ], [ 77.874059156514235, 13.128647129072005 ], [ 77.874047035167649, 13.128532935661205 ], [ 77.874025280580653, 13.128440690151475 ], [ 77.873950237799875, 13.128003685205906 ], [ 77.873927484287861, 13.127843547359118 ], [ 77.873862744808562, 13.127387638952912 ], [ 77.873841589901545, 13.127187843789478 ], [ 77.873788451670848, 13.127021092306023 ], [ 77.873771664205833, 13.126968412575215 ], [ 77.873507146111166, 13.126096873685579 ], [ 77.873466414549654, 13.125962671551815 ], [ 77.873176000816116, 13.125104728518561 ], [ 77.873028646215943, 13.12453910743068 ], [ 77.872905159894671, 13.124173916071772 ], [ 77.872897902774866, 13.124152456728 ], [ 77.872899185690272, 13.12415222652645 ], [ 77.873279489799543, 13.124065071723724 ], [ 77.873683709408951, 13.124017082737335 ], [ 77.874030819558243, 13.123975871405877 ], [ 77.874186970336396, 13.123957332892932 ], [ 77.874737867415121, 13.12390184143217 ], [ 77.87475318670262, 13.123899469050157 ], [ 77.874902711765145, 13.123876304630848 ], [ 77.875497852671032, 13.123812813965182 ], [ 77.876451399703996, 13.12371108473765 ], [ 77.877094648646661, 13.123642458736748 ], [ 77.877166854896032, 13.123634754967242 ], [ 77.878097063769985, 13.123506784558762 ], [ 77.879431170618972, 13.123323246050015 ], [ 77.879480411884927, 13.123316469809291 ], [ 77.879393931079122, 13.122993342690226 ], [ 77.879511746341194, 13.122819659290807 ], [ 77.880258910434065, 13.122961208208858 ], [ 77.88081661651664, 13.123123771144867 ], [ 77.881175422675383, 13.123231973918939 ], [ 77.881233486145817, 13.123249483074233 ], [ 77.88146347809429, 13.123267315561737 ], [ 77.881500774233785, 13.123270207245916 ], [ 77.881491447904551, 13.123394200651832 ], [ 77.881485115331543, 13.123478405725011 ], [ 77.881679552585183, 13.123757177618501 ], [ 77.882067037823688, 13.123801521682251 ], [ 77.882196730033812, 13.123831284256742 ], [ 77.883062372727792, 13.124029564321059 ], [ 77.887460035820197, 13.12503681873098 ], [ 77.897427566060756, 13.127198400922889 ], [ 77.89759107562621, 13.127214904923267 ], [ 77.898613306918449, 13.127591120004698 ], [ 77.899473885120926, 13.127919682004405 ], [ 77.900152732272403, 13.128191811427603 ], [ 77.900231682799173, 13.128224380718262 ], [ 77.900261730691724, 13.128237193581368 ], [ 77.90030263552184, 13.12825463401165 ], [ 77.900990319611054, 13.128516596639413 ], [ 77.901146532091488, 13.128263030251158 ], [ 77.901267125527241, 13.128019876023508 ], [ 77.901305292827914, 13.127955907770016 ], [ 77.901437660237761, 13.127947069423952 ], [ 77.901490918172328, 13.127865767981088 ], [ 77.901867538737861, 13.127290828705622 ], [ 77.902054243514712, 13.127103185156397 ], [ 77.902083595297498, 13.127081146959684 ], [ 77.902237695910628, 13.126965440249206 ], [ 77.902307429937338, 13.126913081501867 ], [ 77.902315311341837, 13.126902981318135 ], [ 77.902400250177791, 13.126794147216556 ], [ 77.90244510661104, 13.126730805194136 ], [ 77.902898080716341, 13.126050199812155 ], [ 77.903098984577369, 13.125751936876332 ], [ 77.903613089145622, 13.125407414506407 ], [ 77.903846010119381, 13.124607775755166 ], [ 77.903894306799316, 13.124606057246977 ], [ 77.903899889483213, 13.124586996909304 ], [ 77.903941537307418, 13.124455986029426 ], [ 77.903979609964608, 13.124248562011882 ], [ 77.904028072669817, 13.124115912541953 ], [ 77.904133502123287, 13.123493451617598 ], [ 77.904169107095498, 13.123283234740869 ], [ 77.904524390731169, 13.123186363220373 ], [ 77.904524995420459, 13.122814102063073 ], [ 77.904620821217947, 13.122384990545655 ], [ 77.905381063412477, 13.122328971928171 ], [ 77.906061767148444, 13.122282003802306 ], [ 77.906575129011131, 13.121759813251083 ], [ 77.906850020055884, 13.121140523216303 ], [ 77.907022215020291, 13.120173939450593 ], [ 77.907038702767665, 13.120081377106105 ], [ 77.90696930663691, 13.11898555980801 ], [ 77.90697602670015, 13.11878763605749 ], [ 77.906404426077472, 13.118937736910873 ], [ 77.905671119939313, 13.119130300015316 ], [ 77.905337600169943, 13.119208848354958 ], [ 77.905322569960788, 13.119144783291574 ], [ 77.905192794640271, 13.118591571241179 ], [ 77.905118689681302, 13.11827567325744 ], [ 77.90504104197116, 13.117867884260612 ], [ 77.905020476297466, 13.117658647502784 ], [ 77.904947402420461, 13.117474279125243 ], [ 77.90482330005851, 13.117270280864364 ], [ 77.9048322077373, 13.117183634326505 ], [ 77.904825254236499, 13.117166091099387 ], [ 77.904808482271534, 13.117048182419273 ], [ 77.904794090934558, 13.116947006910348 ], [ 77.904792573212816, 13.116936341724179 ], [ 77.904768116043513, 13.116764409102665 ], [ 77.905040899486224, 13.116709089192069 ], [ 77.905272113464477, 13.116662199197091 ], [ 77.905296908969774, 13.116657744640557 ], [ 77.905326673820269, 13.116645491634799 ], [ 77.905447958000835, 13.116622537478714 ], [ 77.906011433808374, 13.116373930311072 ], [ 77.906165934511421, 13.116299994661155 ], [ 77.906251294457334, 13.116264854112684 ], [ 77.908663594933145, 13.116470263591392 ], [ 77.909694464185804, 13.116558036721468 ], [ 77.910467881582974, 13.116587671824774 ], [ 77.910761592077975, 13.116597660836744 ], [ 77.911286177309279, 13.116615500804759 ], [ 77.911295838786174, 13.116563249221953 ], [ 77.912195119976005, 13.111699491172637 ], [ 77.912331611288067, 13.110961251880655 ], [ 77.912467470044561, 13.110226451092878 ], [ 77.912553366818145, 13.109761872182453 ], [ 77.913639293100374, 13.109985855272484 ], [ 77.9137223062, 13.110918916334473 ], [ 77.91374736031419, 13.111056569857245 ], [ 77.913754393096312, 13.111260972084182 ], [ 77.913829546236755, 13.112042160683393 ], [ 77.913838129709831, 13.112125128872652 ], [ 77.913926754347671, 13.113033872103504 ], [ 77.913942654589079, 13.113181747778611 ], [ 77.914139163749041, 13.115130712212121 ], [ 77.914284742027405, 13.116672782075005 ], [ 77.914685734653645, 13.116664737609335 ], [ 77.914805392556516, 13.117004010766685 ], [ 77.915038856133606, 13.117503425832547 ], [ 77.915107898608369, 13.117651115631274 ], [ 77.916196690974743, 13.117425473553725 ], [ 77.918595159099766, 13.117099358779733 ], [ 77.918653463060068, 13.117099510457935 ], [ 77.920170546597944, 13.117103464937944 ], [ 77.92042650496397, 13.117065374450592 ], [ 77.920625330521574, 13.117035785444489 ], [ 77.920710551380708, 13.117026240592439 ], [ 77.921479873077146, 13.116947072391795 ], [ 77.921863430284603, 13.116914837153326 ], [ 77.921955579222228, 13.116907505576172 ], [ 77.922038174748323, 13.116897044455877 ], [ 77.922170909992815, 13.116880231716115 ], [ 77.92316927372903, 13.116751698308917 ], [ 77.923323130116771, 13.116731887634495 ], [ 77.923339673618187, 13.116729757839947 ], [ 77.923579969217542, 13.116716895267418 ], [ 77.923601186372551, 13.116715760078387 ], [ 77.923639257445984, 13.116700405819408 ], [ 77.923865574284889, 13.11660912423876 ], [ 77.923984464912195, 13.116271245549955 ], [ 77.924083026968091, 13.1158160182808 ], [ 77.924115722732282, 13.115700611607418 ], [ 77.924084144456572, 13.115626252203141 ], [ 77.924124209117196, 13.115399542619024 ], [ 77.924040243516984, 13.115240782666257 ], [ 77.923937456638996, 13.114837027442404 ], [ 77.923891387642598, 13.114473033432139 ], [ 77.92394589379532, 13.114343939419564 ], [ 77.923863883980232, 13.114129823402505 ], [ 77.923865131676777, 13.113776838397534 ], [ 77.92396705982928, 13.113491020697856 ], [ 77.92403076629482, 13.113349557648359 ], [ 77.924059125274738, 13.113286586823314 ], [ 77.924113351662797, 13.113275148724385 ], [ 77.924163854365645, 13.1132644962469 ], [ 77.924289652837729, 13.113160455555866 ], [ 77.924325506727314, 13.113130803543413 ], [ 77.924392161078245, 13.11313127652256 ], [ 77.924670092549661, 13.113133248365624 ], [ 77.924735249437148, 13.11304870830004 ], [ 77.925095991338111, 13.112135572334511 ], [ 77.925441965436264, 13.111256414520657 ], [ 77.925481775501837, 13.111172590524246 ], [ 77.925501598075243, 13.111145132915 ], [ 77.925596023546277, 13.111014332514662 ], [ 77.925683088181273, 13.110931917948626 ], [ 77.925889452825842, 13.110761813556792 ], [ 77.925870992392333, 13.110574421594761 ], [ 77.925858517127352, 13.110303989195806 ], [ 77.92585765799879, 13.110285343373988 ], [ 77.925645695465121, 13.110190140398771 ], [ 77.92574519952322, 13.110177586103426 ], [ 77.926714208219408, 13.110153679549844 ], [ 77.926847997284597, 13.110167422851561 ], [ 77.92722975366388, 13.110206636239665 ], [ 77.927415315400438, 13.110225699368096 ], [ 77.927422992547548, 13.110348206801792 ], [ 77.928199229343164, 13.110207645222513 ], [ 77.929052657203769, 13.110053098898623 ], [ 77.929672852138822, 13.109940785436892 ], [ 77.930770221038074, 13.109742058350896 ], [ 77.9310653497662, 13.109688611403493 ], [ 77.931200829045991, 13.1096640756382 ], [ 77.931686212188396, 13.109239722775341 ], [ 77.931778453260847, 13.109159080309295 ], [ 77.933300161936799, 13.108423525091068 ], [ 77.933483396084327, 13.108334954310525 ], [ 77.935121548618795, 13.108640687046494 ], [ 77.935276279383459, 13.10866956418163 ], [ 77.936851402323526, 13.108963522233449 ], [ 77.937597565160701, 13.109102771366141 ], [ 77.938116548522444, 13.109199621595311 ], [ 77.938312223603162, 13.109236137513008 ], [ 77.939123751714405, 13.109387580495191 ], [ 77.939508254303703, 13.109459332092531 ], [ 77.93913322739229, 13.109959815579082 ], [ 77.938042467169808, 13.111415447768438 ], [ 77.937004074026575, 13.112801182078309 ], [ 77.935948580697328, 13.114202409510916 ], [ 77.93633163007641, 13.116866320944505 ], [ 77.936447003196974, 13.117186269751846 ], [ 77.936533187143681, 13.117862373651151 ], [ 77.936891968159102, 13.119818151342256 ], [ 77.936880704062389, 13.120019059248936 ], [ 77.93687716642188, 13.120082115257214 ], [ 77.936894564611521, 13.120153785376843 ], [ 77.936978906833403, 13.120501234839178 ], [ 77.936992682235442, 13.120557980420999 ], [ 77.937056400362252, 13.12081290482514 ], [ 77.937224820819694, 13.121486694288452 ], [ 77.937231482115479, 13.121513340035147 ], [ 77.937235101271625, 13.121531050023835 ], [ 77.937243188539881, 13.121570599630727 ], [ 77.93726596936061, 13.121682026282395 ], [ 77.937509940369978, 13.122875323975391 ], [ 77.937525863570514, 13.123487531345145 ], [ 77.937544277684339, 13.12353608159774 ], [ 77.937686435760739, 13.123910905116585 ], [ 77.937695490160991, 13.123932800713279 ], [ 77.937800880205728, 13.124470870174635 ], [ 77.937610704758413, 13.124480601850337 ], [ 77.937607446316008, 13.12457633386515 ], [ 77.937606611027434, 13.124600872242395 ], [ 77.937755023083781, 13.124582229784954 ], [ 77.937807418320958, 13.124575649536981 ], [ 77.937845281063858, 13.124752517794482 ], [ 77.937874320445815, 13.124888169487349 ], [ 77.937869052183416, 13.125297770291601 ], [ 77.937867496741703, 13.125418754992005 ], [ 77.937867069254835, 13.125451933136853 ], [ 77.937867013009182, 13.125456425342687 ], [ 77.937900208204766, 13.125513998449643 ], [ 77.937935399165468, 13.125575035064841 ], [ 77.937939040575088, 13.125581350120273 ], [ 77.937940679292481, 13.125591987235444 ], [ 77.93795235719189, 13.125667802171556 ], [ 77.937981150025649, 13.125818809951712 ], [ 77.938037139349632, 13.125799743498849 ], [ 77.94011579669376, 13.125091824049223 ], [ 77.9401407490423, 13.125083323422691 ], [ 77.940684250517066, 13.124885722835792 ], [ 77.940795094797977, 13.124846210963975 ], [ 77.940922491247875, 13.124800798943417 ], [ 77.941187343929599, 13.124706387857257 ], [ 77.941603180504714, 13.124558033035552 ], [ 77.94177629064896, 13.124472383818471 ], [ 77.941946581755317, 13.124388130562634 ], [ 77.942045088399638, 13.124337026944998 ], [ 77.942488610491537, 13.124106940111197 ], [ 77.942571599467755, 13.124063888727569 ], [ 77.943913686143574, 13.123371329281509 ], [ 77.9439633490951, 13.123345701138408 ], [ 77.944131518676784, 13.123651782590381 ], [ 77.944274877902231, 13.12391270766993 ], [ 77.944300959850679, 13.123929432369994 ], [ 77.944331516844059, 13.123949031261153 ], [ 77.94442728854952, 13.12401045258885 ], [ 77.944936384771594, 13.123901747347015 ], [ 77.944937948302112, 13.123901414235277 ], [ 77.945025023469611, 13.123812892406942 ], [ 77.945191074500542, 13.123795048241693 ], [ 77.945556235465475, 13.123599539204111 ], [ 77.945688805822684, 13.12359383758835 ], [ 77.946109658935626, 13.123575741134342 ], [ 77.946273883120881, 13.123464067402901 ], [ 77.946342294471549, 13.123449843569565 ], [ 77.946366189985028, 13.123444874223765 ], [ 77.94681543133818, 13.124568662445107 ], [ 77.946910910998895, 13.124807507348578 ], [ 77.947723155535925, 13.126054641997021 ], [ 77.948096657670035, 13.126611397966194 ], [ 77.948097688758438, 13.126612934201297 ], [ 77.948324579125313, 13.126931284441314 ], [ 77.94837229673989, 13.126998234901174 ], [ 77.948718729245087, 13.126927324574408 ], [ 77.949209819133614, 13.126826803319258 ], [ 77.949524300498865, 13.126762431642048 ], [ 77.950912707227388, 13.126479314023095 ], [ 77.951800417446051, 13.126295817600138 ], [ 77.952079088121039, 13.126238210636496 ], [ 77.952448085057057, 13.126160244780543 ], [ 77.952614232969452, 13.126125138345007 ], [ 77.953572911864384, 13.12592813730614 ], [ 77.954694310810623, 13.125697691315303 ], [ 77.95514989629747, 13.1256040667762 ], [ 77.955178042085009, 13.125598282776968 ], [ 77.955560202943559, 13.125520867856057 ], [ 77.955992458430387, 13.126022225644103 ], [ 77.957764115242668, 13.129001690488503 ], [ 77.957986178979894, 13.12969873809317 ], [ 77.958032391058936, 13.129843790125072 ], [ 77.957670875538426, 13.130182039715223 ], [ 77.95756179431811, 13.130499426586494 ], [ 77.957492241513776, 13.130701800016048 ], [ 77.95777406712908, 13.130687224973787 ], [ 77.957772494927553, 13.130697606994236 ], [ 77.957764030494886, 13.130753533232626 ], [ 77.957537258909298, 13.130793413273514 ], [ 77.957467572563644, 13.131105452692383 ], [ 77.957163001117706, 13.132469198801518 ], [ 77.956906350294673, 13.133658747544889 ], [ 77.956705626729502, 13.134506306003624 ], [ 77.956263654626937, 13.13652307670845 ], [ 77.955198787189104, 13.138462342117917 ], [ 77.955089440747344, 13.138978178171792 ], [ 77.955019557755762, 13.139307856455837 ], [ 77.954969102562558, 13.139536040835917 ], [ 77.954560209923599, 13.142207897427987 ], [ 77.955050261107232, 13.142878734641959 ], [ 77.955523942731361, 13.143526218321993 ], [ 77.956308608977182, 13.144586186474161 ], [ 77.956667285025489, 13.145100391986141 ], [ 77.957057304272453, 13.145661351733565 ], [ 77.957436836137504, 13.146185820197775 ], [ 77.957751863486394, 13.146777895367881 ], [ 77.958021682971832, 13.147280462178292 ], [ 77.958319489990899, 13.147839435297607 ], [ 77.958631219193123, 13.148514396388221 ], [ 77.958803326336266, 13.14885617465109 ], [ 77.959053551602167, 13.149337879735983 ], [ 77.95910233547832, 13.149431793052852 ], [ 77.959137703292157, 13.149499873067439 ], [ 77.960156124672309, 13.151444852246291 ], [ 77.960513918930914, 13.151543703484602 ], [ 77.960452115155405, 13.151582101938811 ], [ 77.96018477478917, 13.151748219875495 ], [ 77.957792125566613, 13.152814358120857 ], [ 77.957595766019395, 13.152901853972205 ], [ 77.958951596606013, 13.158213504280255 ], [ 77.952826618371063, 13.16032131057977 ], [ 77.952838372515401, 13.16033541479327 ], [ 77.95392024700719, 13.161633199166355 ], [ 77.954600490277613, 13.162611833326149 ], [ 77.955213168616552, 13.163704823561234 ], [ 77.955298902146723, 13.163857763958008 ], [ 77.955425254366318, 13.164551938110069 ], [ 77.955413473825331, 13.165390248267109 ], [ 77.955412410704525, 13.165465712659952 ], [ 77.955411217725938, 13.165550939161102 ], [ 77.955504582931766, 13.166357242028223 ], [ 77.955589268019736, 13.166913039028687 ], [ 77.955716357801677, 13.167826867754867 ], [ 77.955461046370218, 13.168130390612109 ], [ 77.955540767334512, 13.168205545281268 ], [ 77.955297840988422, 13.168383984634852 ], [ 77.955289546192972, 13.16839007550818 ], [ 77.955311078434491, 13.168673977915235 ], [ 77.955354253669128, 13.169243300543885 ], [ 77.955374622519372, 13.169511873177713 ], [ 77.955408916669086, 13.169964065996954 ], [ 77.955116492594186, 13.170609832382492 ], [ 77.95462633685365, 13.17169225072022 ], [ 77.954634267941103, 13.171705915575284 ], [ 77.955381055938545, 13.172992367054155 ], [ 77.955395290257556, 13.173507493861807 ], [ 77.955401846867034, 13.173886429156106 ], [ 77.955402629099254, 13.173931692665354 ], [ 77.955465990377206, 13.174985225945447 ], [ 77.955600030612999, 13.175749226208994 ], [ 77.955679815965468, 13.1762039773746 ], [ 77.955700885253464, 13.176324073317085 ], [ 77.955685804695889, 13.176355184572577 ], [ 77.955632916061447, 13.17646428744167 ], [ 77.955805256073532, 13.176489940535008 ], [ 77.955845739263722, 13.176364329807811 ], [ 77.956184674560447, 13.176256007181317 ], [ 77.956344399254576, 13.176204958906517 ], [ 77.956508552444149, 13.176367854708513 ], [ 77.956652720027336, 13.176539839260439 ], [ 77.95683230916967, 13.176841315719097 ], [ 77.956841849554564, 13.176857329996382 ], [ 77.956852566742143, 13.176875320385927 ], [ 77.95692150481257, 13.176995581797836 ], [ 77.95696807501001, 13.177312503522161 ], [ 77.957095061342244, 13.177382431340195 ], [ 77.957047702363042, 13.177541442274251 ], [ 77.957017641760288, 13.177642375551063 ], [ 77.957019008725183, 13.177662628789866 ], [ 77.957032650786218, 13.177864703583399 ], [ 77.957038026695713, 13.177944351998132 ], [ 77.957070905892422, 13.178161995865258 ], [ 77.957084741917896, 13.178253581425492 ], [ 77.957326071199375, 13.179358793514057 ], [ 77.957301827799355, 13.179533429048069 ], [ 77.957346284195623, 13.179890362838554 ], [ 77.95732957922479, 13.179901347666439 ], [ 77.957223833102276, 13.17997087878746 ], [ 77.957355606825345, 13.180056850878334 ], [ 77.957474419023697, 13.179984544261504 ], [ 77.957489199814717, 13.180078703714516 ], [ 77.957502025363141, 13.180160418337818 ], [ 77.957648045849467, 13.18041516692341 ], [ 77.957675045233742, 13.180462268186698 ], [ 77.957798723688839, 13.181224329995032 ], [ 77.957818248761967, 13.181223198689686 ], [ 77.957918106935992, 13.181217422431656 ], [ 77.958093052713664, 13.181684812696083 ], [ 77.958234563537744, 13.181821338697324 ], [ 77.958791570930586, 13.182358711133142 ], [ 77.958781911938956, 13.182422901820532 ], [ 77.958730341688195, 13.182765661337397 ], [ 77.958722135403605, 13.18282020382563 ], [ 77.958740930611029, 13.182829802406086 ], [ 77.959221343523481, 13.183075182939129 ], [ 77.959248358089681, 13.183173513415252 ], [ 77.959330252776837, 13.183125406419164 ], [ 77.959432425004465, 13.183065388937205 ], [ 77.959413708977863, 13.182959650545541 ], [ 77.95952238808232, 13.182973056126851 ], [ 77.959630674867569, 13.182986412905208 ], [ 77.959804460404101, 13.183046401305228 ], [ 77.959837828202879, 13.183057916833041 ], [ 77.960112587152196, 13.183036869069142 ], [ 77.960440518690476, 13.18302279674835 ], [ 77.960564439262484, 13.182961220640619 ], [ 77.961003574300165, 13.182908346487123 ], [ 77.961018903643875, 13.182901465061072 ], [ 77.96111825509476, 13.182856864206304 ], [ 77.961245325258176, 13.183154053679589 ], [ 77.961342185521545, 13.183338127069 ], [ 77.961400494914074, 13.183621274023238 ], [ 77.961443663058958, 13.184059252949778 ], [ 77.961443815175187, 13.184062853031426 ], [ 77.961447743886353, 13.184155800659783 ], [ 77.961418120610716, 13.184388663274733 ], [ 77.961426657790511, 13.184488328681464 ], [ 77.961446791164803, 13.184723381505233 ], [ 77.961576626877942, 13.185496636177422 ], [ 77.961578652501785, 13.185508698967368 ], [ 77.961584637017978, 13.185543111870542 ], [ 77.961612529856311, 13.185762691206271 ], [ 77.961689077068797, 13.186365307364609 ], [ 77.96169974683356, 13.186408060127961 ], [ 77.961747057225821, 13.186597627409197 ], [ 77.961758976361551, 13.186658547416309 ], [ 77.961788729546427, 13.18680350246682 ], [ 77.961910928381016, 13.186983465383413 ], [ 77.96236803381673, 13.187973467320768 ], [ 77.962562217590119, 13.188412205501576 ], [ 77.962661489213644, 13.188618453317188 ], [ 77.962825109124068, 13.188958385866133 ], [ 77.962871568709517, 13.189101765425905 ], [ 77.96291332192115, 13.189230615065483 ], [ 77.962970184755719, 13.189564203350278 ], [ 77.963001984804052, 13.189750764968192 ], [ 77.96312396490795, 13.190075305767612 ], [ 77.963196150666164, 13.190334258475396 ], [ 77.963260851766449, 13.190566355355479 ], [ 77.963328652583186, 13.190930771048702 ], [ 77.963358776915541, 13.191092662014963 ], [ 77.963435309237298, 13.191519703347433 ], [ 77.963559108433842, 13.192170229046315 ], [ 77.963560095670672, 13.192175429797736 ], [ 77.962446981188052, 13.192519781849741 ], [ 77.962407827897891, 13.192531895762517 ], [ 77.961441066105721, 13.193666255726066 ], [ 77.961438966367155, 13.193688976659157 ], [ 77.961294413912185, 13.195254907353604 ], [ 77.96127836823797, 13.195428722760164 ], [ 77.961145311004842, 13.195531202258469 ], [ 77.961084411387873, 13.195570758493634 ], [ 77.961055768379794, 13.195589361904259 ], [ 77.960782749953239, 13.195783587816202 ], [ 77.960713813251701, 13.195832629929175 ], [ 77.960791174325948, 13.196388429652139 ], [ 77.960805514121517, 13.196501685574248 ], [ 77.960808179158946, 13.196522734715698 ], [ 77.960947888137852, 13.197375721497881 ], [ 77.961011002255404, 13.197763366625454 ], [ 77.961098655977892, 13.198311028498118 ], [ 77.961101401301903, 13.198325884568801 ], [ 77.961101491039798, 13.198326370338499 ], [ 77.961102731142873, 13.198334654305768 ], [ 77.961196407568622, 13.19880531440937 ], [ 77.961306844067707, 13.199332978106538 ], [ 77.961336763196897, 13.199475933121184 ], [ 77.960392460303694, 13.199628053217346 ], [ 77.959902268291927, 13.19994621855175 ], [ 77.959796223927597, 13.200015096374871 ], [ 77.959648564568539, 13.200111003347132 ], [ 77.958760308773734, 13.200553617650399 ], [ 77.957113861695319, 13.20069312451864 ], [ 77.956472027507729, 13.200739374205602 ], [ 77.956256579233127, 13.200754895701742 ], [ 77.956261065804071, 13.200821537732713 ], [ 77.956290984241591, 13.201265980999334 ], [ 77.956313280709381, 13.201597177712891 ], [ 77.956324515830573, 13.201764054401778 ], [ 77.956450221210403, 13.20363138804252 ], [ 77.956471505458666, 13.203947555784257 ], [ 77.956473271171248, 13.203973776141192 ], [ 77.955448044811661, 13.204631268284874 ], [ 77.954628306317957, 13.205156465673808 ], [ 77.954483655161255, 13.205250542189061 ], [ 77.954486010728402, 13.205257770171668 ], [ 77.95489473389263, 13.206511022419951 ], [ 77.954932891492746, 13.206628024754112 ], [ 77.955224972610424, 13.207462643380049 ], [ 77.955665716247708, 13.208722044478268 ], [ 77.955925279538477, 13.209463725858733 ], [ 77.955921423579753, 13.20952833190621 ], [ 77.955910711514832, 13.209707788746565 ], [ 77.955894013836811, 13.209979538619866 ], [ 77.955971688524812, 13.210046829200834 ], [ 77.956087070695503, 13.210420547365651 ], [ 77.956561313274491, 13.211918160024112 ], [ 77.956563073682162, 13.211931906711399 ], [ 77.956584377543919, 13.21209817628926 ], [ 77.956973418683745, 13.213283628314269 ], [ 77.957422826525303, 13.214653007545923 ], [ 77.957383077780676, 13.214769897958856 ], [ 77.957374921899259, 13.214793887525179 ], [ 77.957357202443603, 13.214845994180621 ], [ 77.957305946260036, 13.214942317967264 ], [ 77.957370275662882, 13.215240325425821 ], [ 77.957390317726649, 13.215333168894965 ], [ 77.957392008417969, 13.21535511715879 ], [ 77.957429319990155, 13.215839510272485 ], [ 77.957437363375462, 13.215872714396536 ], [ 77.957453899471986, 13.215940988812813 ], [ 77.957512227372249, 13.21618180184149 ], [ 77.957742923497676, 13.216200702416225 ], [ 77.957762054197389, 13.216287739935986 ], [ 77.957879510570223, 13.216822214438988 ], [ 77.957862602617865, 13.217060643949676 ], [ 77.957825416731069, 13.2171087310586 ], [ 77.957755079685853, 13.217199689723778 ], [ 77.957694533979478, 13.217277984593562 ], [ 77.957704818568104, 13.217442916378848 ], [ 77.95770675335244, 13.217473938669036 ], [ 77.957743395928048, 13.218061555372879 ], [ 77.957759732660392, 13.218450003271712 ], [ 77.957667610251931, 13.218433055869117 ], [ 77.957474635392927, 13.218397554103898 ], [ 77.956946501305637, 13.218379924637942 ], [ 77.95685409008702, 13.218530720835219 ], [ 77.956654562663104, 13.218518401001175 ], [ 77.956464064787681, 13.218476094199989 ], [ 77.956450198794712, 13.218292069965599 ], [ 77.956358308704068, 13.218166133656492 ], [ 77.955938740621519, 13.218178328550838 ], [ 77.955831099064667, 13.218122625122334 ], [ 77.955174139176606, 13.217782646805379 ], [ 77.955154237244216, 13.217750523519671 ], [ 77.955129869683745, 13.217711196689251 ], [ 77.955019735419199, 13.217588128732796 ], [ 77.954894140007895, 13.217447782967032 ], [ 77.954823868947571, 13.217438878289304 ], [ 77.954299106135835, 13.217372400936091 ], [ 77.954235310909255, 13.217364317168256 ], [ 77.954234287292422, 13.217445650715074 ], [ 77.954229972500229, 13.217789043684915 ], [ 77.954249571744938, 13.217967947942757 ], [ 77.954320472587938, 13.218415925771788 ], [ 77.954196238704711, 13.218459048074189 ], [ 77.954173718770278, 13.218453258078439 ], [ 77.954061131047098, 13.218424304315754 ], [ 77.953867758985368, 13.218472937613006 ], [ 77.953827160758308, 13.218478970479193 ], [ 77.953481102178259, 13.218530400842198 ], [ 77.953455421608439, 13.218534217341986 ], [ 77.95343054961846, 13.218516760171562 ], [ 77.953370878975988, 13.218474877867136 ], [ 77.952743510776088, 13.218486271199549 ], [ 77.952263003205573, 13.218494998027849 ], [ 77.952075545571958, 13.218498401168588 ], [ 77.952052135264751, 13.218498826975935 ], [ 77.951977153724158, 13.218312354006896 ], [ 77.951928750616929, 13.217956292795204 ], [ 77.951907915525666, 13.21758425022314 ], [ 77.951901323802019, 13.21745552821144 ], [ 77.951898161171698, 13.217402467093052 ], [ 77.951885815752888, 13.217195272354083 ], [ 77.951888472150699, 13.217057045972451 ], [ 77.95189532053962, 13.216701054530217 ], [ 77.951883241668767, 13.216541812576716 ], [ 77.951852119838335, 13.216135953755083 ], [ 77.951807067085269, 13.216063429845574 ], [ 77.951745325792658, 13.215963847170801 ], [ 77.951718521354834, 13.215918833622039 ], [ 77.951631324009838, 13.215086925323684 ], [ 77.951830769059754, 13.215017044565029 ], [ 77.951842974580089, 13.215012767960308 ], [ 77.951865707877857, 13.214950509662289 ], [ 77.951993654529801, 13.214600133626236 ], [ 77.952047647676778, 13.214390843191552 ], [ 77.951727735946577, 13.214302455552209 ], [ 77.95124408332849, 13.214387888435613 ], [ 77.950706420313679, 13.214242347109659 ], [ 77.950068695958649, 13.214069722510327 ], [ 77.949436715562541, 13.213898650152494 ], [ 77.949139770614948, 13.213975591448675 ], [ 77.948919656893054, 13.213983397443862 ], [ 77.94829672484282, 13.214005486852269 ], [ 77.948253418032763, 13.21400702232366 ], [ 77.948157834010516, 13.214026370818855 ], [ 77.946705500117176, 13.214320349790217 ], [ 77.946587384113684, 13.214344258445728 ], [ 77.946605507606165, 13.214749206541716 ], [ 77.946610286433071, 13.214856041767495 ], [ 77.94662964286222, 13.215288632763249 ], [ 77.946635818879656, 13.215426593479123 ], [ 77.946607888470965, 13.215528373190683 ], [ 77.946504006397362, 13.215906880175563 ], [ 77.946504133959209, 13.215919112263306 ], [ 77.946506551005513, 13.216148665249912 ], [ 77.946509788539231, 13.216456499028141 ], [ 77.946509895019119, 13.21646651495748 ], [ 77.946515982825986, 13.216689909283994 ], [ 77.946525321298409, 13.217032573340971 ], [ 77.94652668629675, 13.217074681863458 ], [ 77.946497631520657, 13.217252163661426 ], [ 77.946383368253265, 13.217412126306279 ], [ 77.946356079531128, 13.217544085595442 ], [ 77.946347583780835, 13.21758515987637 ], [ 77.946266355293488, 13.218403423727644 ], [ 77.946271699742965, 13.218479505509663 ], [ 77.94629146930032, 13.218761069385625 ], [ 77.946291725996389, 13.218764710752708 ], [ 77.947859121610037, 13.218861812376145 ], [ 77.947846861974952, 13.218947743058601 ], [ 77.947786301875581, 13.219372231723991 ], [ 77.947845122409888, 13.219391436561677 ], [ 77.948329984140599, 13.219549741723856 ], [ 77.949290513067623, 13.219863344494074 ], [ 77.949302017210996, 13.219887113365079 ], [ 77.949878067325969, 13.221077222208026 ], [ 77.949986867732775, 13.221302000178285 ], [ 77.950102688116957, 13.221596781644529 ], [ 77.950343914161493, 13.222210736693482 ], [ 77.95037247201644, 13.22228342411143 ], [ 77.950430034958131, 13.222416086079036 ], [ 77.950712978171651, 13.223068173841916 ], [ 77.950770347196595, 13.223200389015163 ], [ 77.95083853155964, 13.223229327563164 ], [ 77.951069543459639, 13.223327374558231 ], [ 77.951131039507004, 13.223353472125519 ], [ 77.951172118090625, 13.22332109647814 ], [ 77.95157631549867, 13.223002545916037 ], [ 77.951638055574975, 13.222953887478852 ], [ 77.951726624930856, 13.222922280739413 ], [ 77.952024435972646, 13.22285934444043 ], [ 77.952906486588489, 13.222672940307026 ], [ 77.952937832852598, 13.222666315341838 ], [ 77.953220811305982, 13.222605255321872 ], [ 77.95422038186959, 13.222389573976077 ], [ 77.954235230450678, 13.222443885259517 ], [ 77.954275875196771, 13.22259254079251 ], [ 77.954402647562588, 13.223022491362661 ], [ 77.954418490355394, 13.223076216700896 ], [ 77.954472518561658, 13.223230625011283 ], [ 77.954561891064529, 13.223502847966344 ], [ 77.954569469064779, 13.223523434836371 ], [ 77.954587593884327, 13.223572669370359 ], [ 77.954602037068582, 13.22361191314338 ], [ 77.954688621384847, 13.223847126429515 ], [ 77.954730127028981, 13.224026462522096 ], [ 77.95483802993779, 13.224456221684974 ], [ 77.954843329667781, 13.224473949256385 ], [ 77.954848311452494, 13.224490614762404 ], [ 77.954848335389016, 13.224490688545609 ], [ 77.954982298807707, 13.224872033164456 ], [ 77.955019844419795, 13.224967539142009 ], [ 77.955171007473211, 13.22535203260065 ], [ 77.95531371997761, 13.225671364964043 ], [ 77.955353617473236, 13.225779549445193 ], [ 77.955400562288318, 13.225908023401626 ], [ 77.95550317932603, 13.226227561216623 ], [ 77.955506449502849, 13.226237748179212 ], [ 77.95560518428708, 13.226352347874435 ], [ 77.955729079894539, 13.226537389092112 ], [ 77.955805362398792, 13.226651320969053 ], [ 77.955821709824207, 13.226675738665891 ], [ 77.9558826749725, 13.226832925459721 ], [ 77.955903208055929, 13.22697737766714 ], [ 77.955891036532051, 13.227056518960783 ], [ 77.955901301402008, 13.227218538386975 ], [ 77.955919076356579, 13.227472001881393 ], [ 77.955925001004417, 13.227496812060567 ], [ 77.955926353294927, 13.22752730011851 ], [ 77.955951153862856, 13.227736175790122 ], [ 77.955958048318976, 13.227794232219606 ], [ 77.955977882322642, 13.22789247358965 ], [ 77.955978270576153, 13.227894395559705 ], [ 77.955986630173896, 13.227935807640533 ], [ 77.956156602717527, 13.227970735408348 ], [ 77.956182414459121, 13.227976040766471 ], [ 77.956199451909228, 13.227979541107484 ], [ 77.956304107300738, 13.22800104785731 ], [ 77.95648827705169, 13.227954730649085 ], [ 77.956975018880271, 13.227856317336432 ], [ 77.957050169453538, 13.227841122801081 ], [ 77.957083915184725, 13.227828866161159 ], [ 77.957176694958889, 13.22779516107631 ], [ 77.957298679312188, 13.227760521649799 ], [ 77.95742195057386, 13.227746203049771 ], [ 77.957620177926884, 13.227734809549554 ], [ 77.957670269576639, 13.227814131019091 ], [ 77.957781329433772, 13.22787330644463 ], [ 77.957943447101698, 13.227982992629384 ], [ 77.957892085856244, 13.228134964286641 ], [ 77.957890275377054, 13.228140322089992 ], [ 77.958329166048813, 13.228270022227084 ], [ 77.958360627456813, 13.228279318028221 ], [ 77.958403152432169, 13.228291885174162 ], [ 77.958563064742179, 13.228417398254322 ], [ 77.958607661628037, 13.228450385495202 ], [ 77.958949991802157, 13.228703588933898 ], [ 77.959126061474208, 13.228833954894236 ], [ 77.959170101726698, 13.228866564609604 ], [ 77.959387632311021, 13.229082203898354 ], [ 77.959404493860944, 13.229098919397995 ], [ 77.95985112445527, 13.229524792129057 ], [ 77.960047102808844, 13.229700344059923 ], [ 77.960308486476322, 13.229928290685869 ], [ 77.960341608200707, 13.229957174711119 ], [ 77.96067492660184, 13.230153896058775 ], [ 77.96089814898744, 13.23026320264659 ], [ 77.961005744637205, 13.230321268528611 ], [ 77.961417591105018, 13.23053783360597 ], [ 77.961566919492824, 13.2306306548893 ], [ 77.962032077453799, 13.23088980962981 ], [ 77.962241780460744, 13.231013545279831 ], [ 77.962506593899519, 13.231169800955605 ], [ 77.962662556433244, 13.231280259150912 ], [ 77.962957154717017, 13.231488908965792 ], [ 77.963064967964911, 13.231580290840876 ], [ 77.963109837370069, 13.231615823524855 ], [ 77.963297249583434, 13.231764247433016 ], [ 77.963346576795672, 13.231803312077028 ], [ 77.96354595180496, 13.23196810764564 ], [ 77.963994596952347, 13.232127200016276 ], [ 77.964040544762511, 13.232143492482329 ], [ 77.964226539347891, 13.23220050366456 ], [ 77.964226662410255, 13.232223857181307 ], [ 77.964227676933007, 13.232417279876715 ], [ 77.964230290367354, 13.232914817606773 ], [ 77.964236375556027, 13.234073715370869 ], [ 77.964242526431008, 13.234506968937419 ], [ 77.964251233259432, 13.235120102351038 ], [ 77.964256246181549, 13.235231056642965 ], [ 77.964291614802491, 13.236013849640003 ], [ 77.964333500036474, 13.236745961629694 ], [ 77.964351432435194, 13.237059391733522 ], [ 77.964385770246196, 13.237258994158811 ], [ 77.964470842303172, 13.237753520840492 ], [ 77.964500733428224, 13.237927262168141 ], [ 77.964514379528239, 13.23800659114578 ], [ 77.964912278376474, 13.237883733094129 ], [ 77.96545331877897, 13.237716675646332 ], [ 77.965449366962218, 13.237818356410305 ], [ 77.965437351001668, 13.238210712129364 ], [ 77.965436047682928, 13.238253294292665 ], [ 77.965446232754189, 13.238934317716843 ], [ 77.965427810237131, 13.239560197666959 ], [ 77.965426499767588, 13.23960477409751 ], [ 77.965426373720575, 13.239604795432115 ], [ 77.965432177118132, 13.240356641640703 ], [ 77.965440832054824, 13.241477521678163 ], [ 77.965440852962416, 13.241480237248389 ], [ 77.965489525726582, 13.242545285340842 ], [ 77.965502673909853, 13.242832986984666 ], [ 77.965527239078853, 13.243364929362242 ], [ 77.965560240971939, 13.244079544094831 ], [ 77.965561704212604, 13.244111208250612 ], [ 77.965572746909714, 13.244185590844911 ], [ 77.965606539675434, 13.244413217802581 ], [ 77.965613553840825, 13.24446046562303 ], [ 77.965280333314453, 13.244560310046559 ], [ 77.964750381046585, 13.244733860498757 ], [ 77.964592724826318, 13.244785491739233 ], [ 77.964549232513008, 13.24479973440007 ], [ 77.964184266650037, 13.24488220208087 ], [ 77.964056968891967, 13.244924586738476 ], [ 77.963823005475064, 13.245002483286902 ], [ 77.963072990802672, 13.24527145402006 ], [ 77.962152797944967, 13.24561207330704 ], [ 77.962012517544338, 13.245672243092788 ], [ 77.961588584797369, 13.245907555972451 ], [ 77.961014878750248, 13.246240019651054 ], [ 77.960965993161622, 13.246268349686288 ], [ 77.960530861945813, 13.246515414077292 ], [ 77.960336460789179, 13.246625792573454 ], [ 77.959840099554697, 13.246922198774438 ], [ 77.959716230533218, 13.246996166230476 ], [ 77.959324281923514, 13.24722892654327 ], [ 77.959098279500907, 13.247363137150806 ], [ 77.958496471320629, 13.247729440959333 ], [ 77.958438449834318, 13.247764835531388 ], [ 77.95817397040625, 13.24792618777356 ], [ 77.957922228652137, 13.248079764789154 ], [ 77.957416356840909, 13.248386591913988 ], [ 77.957380674251127, 13.248408234763726 ], [ 77.957350267266108, 13.248426678812594 ], [ 77.957215313860814, 13.248509068609273 ], [ 77.957159617889502, 13.248543071301535 ], [ 77.956700138279885, 13.248810785847692 ], [ 77.956329208746595, 13.249042377688582 ], [ 77.955959851812253, 13.249114890866567 ], [ 77.955954948355654, 13.249115852689911 ], [ 77.955085155058001, 13.249230238476089 ], [ 77.953933106825247, 13.249459051312344 ], [ 77.953849539500794, 13.24947564795421 ], [ 77.953109206762562, 13.24964061710703 ], [ 77.952545657992545, 13.249755026828486 ], [ 77.951761442419325, 13.249843324410547 ], [ 77.951311485525721, 13.249902794163729 ], [ 77.950103055249897, 13.250062508592963 ], [ 77.950023025145001, 13.250073086831982 ], [ 77.948795674775837, 13.250264871095123 ], [ 77.948668419819214, 13.25028475593213 ], [ 77.948270337047674, 13.250446599851887 ], [ 77.948083056812351, 13.2505227401321 ], [ 77.948076730463555, 13.250380914405151 ], [ 77.948074973065758, 13.250341502966155 ], [ 77.947961517921854, 13.250262649842302 ], [ 77.947883253969252, 13.250208256008339 ], [ 77.947875162078816, 13.250174009909554 ], [ 77.947847942456832, 13.250058793947463 ], [ 77.94767753225419, 13.249337465377952 ], [ 77.947658583612807, 13.249257264714732 ], [ 77.947536868114952, 13.249080827329699 ], [ 77.947241998624719, 13.248471093615853 ], [ 77.947046318151493, 13.248051709899473 ], [ 77.947010514457332, 13.247974974322364 ], [ 77.946827058178073, 13.247516971846967 ], [ 77.946815995596566, 13.247489354990375 ], [ 77.946474268291865, 13.246523473741355 ], [ 77.946259370995449, 13.245556810917817 ], [ 77.946118870322707, 13.244877718890391 ], [ 77.946114201815959, 13.244855152731256 ], [ 77.946084177599218, 13.244842802668996 ], [ 77.946050617652759, 13.244828999587115 ], [ 77.945936166451304, 13.244781700792355 ], [ 77.945896861289995, 13.244765564302135 ], [ 77.945888675544552, 13.244743539119305 ], [ 77.945596509121032, 13.243957557514197 ], [ 77.945553193368852, 13.243850079172571 ], [ 77.945530896338809, 13.243794748751441 ], [ 77.944314570656104, 13.243989162170186 ], [ 77.944089866116599, 13.244027083759811 ], [ 77.94341504423403, 13.244140963972987 ], [ 77.943396615249668, 13.244143901534095 ], [ 77.943275701216066, 13.24416779684773 ], [ 77.943136052910631, 13.24418848974493 ], [ 77.941832351135375, 13.244381667591789 ], [ 77.940819736680908, 13.244519470645814 ], [ 77.940757529252068, 13.244527759261942 ], [ 77.940638856184165, 13.244541476711097 ], [ 77.939511238027166, 13.244726288200933 ], [ 77.93751181677365, 13.245074005762989 ], [ 77.935965812956724, 13.245644265562763 ], [ 77.935863445441825, 13.245683860961433 ], [ 77.935513849617394, 13.245828878648162 ], [ 77.93548264929575, 13.2455939299701 ], [ 77.935012778885849, 13.24471131731252 ], [ 77.934679222417017, 13.244481007171512 ], [ 77.93433491882378, 13.244202303644345 ], [ 77.934032356914727, 13.243957388953318 ], [ 77.933679413831825, 13.24367044087899 ], [ 77.933081052588079, 13.243183956948902 ], [ 77.93279559733476, 13.242955874982892 ], [ 77.932461259679613, 13.242695631136138 ], [ 77.931949669089207, 13.242283908227844 ], [ 77.93178602578665, 13.242152211053856 ], [ 77.931493772905014, 13.242322313588849 ], [ 77.931417053615775, 13.242186792057774 ], [ 77.931355368915192, 13.242077826689574 ], [ 77.931642272166357, 13.241927261278819 ], [ 77.931627775591707, 13.241904821065198 ], [ 77.931557044071525, 13.24179535547891 ], [ 77.931536077140592, 13.241766987922773 ], [ 77.931325128469084, 13.241481544920049 ], [ 77.930644885774313, 13.240933034497514 ], [ 77.930356172976516, 13.24039523831012 ], [ 77.930105103426982, 13.239968987582312 ], [ 77.929797727176975, 13.239447137264573 ], [ 77.929570083389848, 13.239068297828728 ], [ 77.929543683276748, 13.238968444384167 ], [ 77.929519492435617, 13.238876932720354 ], [ 77.92950457360611, 13.238878040612464 ], [ 77.92910576674079, 13.238917693510711 ], [ 77.928689042980778, 13.238990327344741 ], [ 77.927931055705059, 13.239144892625657 ], [ 77.927865090577498, 13.239216099395367 ], [ 77.927755558822938, 13.239334334870257 ], [ 77.927629798631486, 13.239470082447257 ], [ 77.927576138443627, 13.239243829087938 ], [ 77.92756961402759, 13.239216325897997 ], [ 77.926469845977039, 13.239414342935973 ], [ 77.926292743947485, 13.239421686732248 ], [ 77.926021169668289, 13.239432947128506 ], [ 77.925476556560938, 13.239455527210302 ], [ 77.925179621293324, 13.239482129217006 ], [ 77.925169931661245, 13.239482998083078 ], [ 77.925116639116069, 13.239487774577141 ], [ 77.924020799736326, 13.2389758531552 ], [ 77.924111432796948, 13.238943284018863 ], [ 77.924208237696277, 13.23890849542563 ], [ 77.923918348425076, 13.23884631150386 ], [ 77.923783331149266, 13.238817348738356 ], [ 77.923208335238812, 13.238769988873617 ], [ 77.923145147998866, 13.238764785989074 ], [ 77.923160978199576, 13.238739843554761 ], [ 77.923187759279017, 13.238697659222959 ], [ 77.923150389612715, 13.238631806384204 ], [ 77.922785977681627, 13.238679802000792 ], [ 77.922522952077685, 13.238808280244044 ], [ 77.922205405470933, 13.238929094950519 ], [ 77.921936010576459, 13.239013636532325 ], [ 77.921636265573355, 13.239089633421983 ], [ 77.921341972054151, 13.239182180063645 ], [ 77.921103335563657, 13.239182205276464 ], [ 77.920840731920748, 13.239214340490786 ], [ 77.920678315251237, 13.239234218439268 ], [ 77.920558946879268, 13.239206226375712 ], [ 77.920448085416638, 13.239285445679595 ], [ 77.920265246640881, 13.239428369310716 ], [ 77.919573014216681, 13.239604787982186 ], [ 77.919008104357175, 13.239627106138645 ], [ 77.918997556525412, 13.239699998351824 ], [ 77.919005432560425, 13.239813733735039 ], [ 77.919010776201347, 13.239890908647078 ], [ 77.918968522393513, 13.239889456501603 ], [ 77.916178113288396, 13.239793393197745 ], [ 77.915008841742733, 13.239753133429918 ], [ 77.915007392518518, 13.239657419757165 ], [ 77.915025896204526, 13.238825049908005 ], [ 77.915027920507313, 13.238733938096599 ], [ 77.915030756100762, 13.238645842738887 ], [ 77.9150306081156, 13.23861366068166 ], [ 77.915030365609567, 13.238561378071037 ], [ 77.915024804236097, 13.238246370899232 ], [ 77.915016446362287, 13.237772864075556 ], [ 77.915007357884704, 13.237257784926765 ], [ 77.91499986961621, 13.236833520568799 ], [ 77.914999918351057, 13.236833044928538 ], [ 77.91500901868875, 13.236748423971466 ], [ 77.915013706616762, 13.23662748152133 ], [ 77.915083672900053, 13.235807314905827 ], [ 77.915088469443674, 13.235773039650605 ], [ 77.915097018286247, 13.235711954280202 ], [ 77.915108737833734, 13.235648242314904 ], [ 77.915155437932498, 13.235462949268394 ], [ 77.915136157420903, 13.235397214160013 ], [ 77.915115971767463, 13.235328397730028 ], [ 77.915062739665444, 13.234836757684739 ], [ 77.91505684199899, 13.234782301519573 ], [ 77.914935457989188, 13.234264502650527 ], [ 77.914789057402814, 13.233639993369962 ], [ 77.914669817204555, 13.233250021376591 ], [ 77.914415762894166, 13.232419154349815 ], [ 77.914208156318708, 13.231740189818842 ], [ 77.914174181281609, 13.231629075606097 ], [ 77.91259892070579, 13.231676064194026 ], [ 77.912116005665681, 13.231690467108251 ], [ 77.912097039951234, 13.231610540431559 ], [ 77.911197560421016, 13.231719058639003 ], [ 77.911378642794233, 13.231854130632003 ], [ 77.911365675167957, 13.231863405390422 ], [ 77.911236848300405, 13.231955560695919 ], [ 77.911187918098321, 13.231895147008068 ], [ 77.911136734833136, 13.231831952744008 ], [ 77.91045875278526, 13.232003896444905 ], [ 77.9101700006687, 13.232089328401685 ], [ 77.909637342106265, 13.23224691712506 ], [ 77.909388028845754, 13.232246899062922 ], [ 77.908825084844125, 13.232409612976229 ], [ 77.908560366336047, 13.232276559487294 ], [ 77.9081799274189, 13.232333097242178 ], [ 77.907989669458161, 13.232454178003268 ], [ 77.907702746666814, 13.232404307068647 ], [ 77.907314013175082, 13.232554696338342 ], [ 77.907199870983689, 13.232598852512533 ], [ 77.90669923740343, 13.23262857334899 ], [ 77.906429660334496, 13.232664683872802 ], [ 77.905420163132618, 13.232799908645658 ], [ 77.903900936444202, 13.233213487359915 ], [ 77.903643572819448, 13.233253491732382 ], [ 77.902198825583767, 13.233478045678938 ], [ 77.902075754912346, 13.233499531397158 ], [ 77.9015270087056, 13.233595326483929 ], [ 77.899596403098784, 13.233932353472792 ], [ 77.891829630889845, 13.23541470250235 ], [ 77.89168687304597, 13.235473587570896 ], [ 77.891709061743342, 13.235510250677878 ], [ 77.891967514796178, 13.235732421216326 ], [ 77.892397564160134, 13.236102089432322 ], [ 77.892967278979881, 13.236591811485976 ], [ 77.893341862296211, 13.236913803152474 ], [ 77.894024204386639, 13.237500334337801 ], [ 77.895328662071151, 13.238621613002577 ], [ 77.896870971503773, 13.239449715018367 ], [ 77.896973992352144, 13.239505031439235 ], [ 77.899479415495293, 13.240850223541889 ], [ 77.902132630396409, 13.24208011112408 ], [ 77.902342335854442, 13.242177316906618 ], [ 77.905114040603422, 13.245527283101264 ], [ 77.90513614835065, 13.245749431651134 ], [ 77.905581192702599, 13.250221733032975 ], [ 77.905587822987727, 13.250288348459197 ], [ 77.905291596285963, 13.25037038987557 ], [ 77.905407865159546, 13.250645549241604 ], [ 77.906108876494372, 13.252304514695753 ], [ 77.906087393056922, 13.252327086864884 ], [ 77.905921520263107, 13.252501361009616 ], [ 77.905348956235414, 13.253102931627621 ], [ 77.905180347858092, 13.253276834737818 ], [ 77.904753770627153, 13.253716817088939 ], [ 77.904313078680701, 13.254171356064305 ], [ 77.904427621208626, 13.254191125444452 ], [ 77.904546881369924, 13.254211711702546 ], [ 77.904917437059055, 13.254275671053261 ], [ 77.904953868632873, 13.254281961257554 ], [ 77.904959920376285, 13.254283005037351 ], [ 77.904957013860113, 13.254288806043123 ], [ 77.904807005476883, 13.254588223559074 ], [ 77.904701112138795, 13.254555854533947 ], [ 77.904493629569345, 13.254492433840948 ], [ 77.904312404905866, 13.254537410272349 ], [ 77.90385899860253, 13.254702826101427 ], [ 77.902517517932935, 13.255190328851659 ], [ 77.902183103974423, 13.255456447828657 ], [ 77.902067951250814, 13.255388029494533 ], [ 77.90133389523308, 13.255799248936283 ] ] ] } }
]
}
