{
"type": "FeatureCollection",
"name": "police_station_boundary.writing_20260805_172659",
"crs": { "type": "name", "properties": { "name": "urn:ogc:def:crs:OGC:1.3:CRS84" } },
"features": [
{ "type": "Feature", "properties": { "Shape.STArea()": 3016531.5376708899, "Shape.STLength()": 11125.761379772042, "OBJECTID": 943, "KGISPS_BOUNDID": 107, "PS_BOUNDName": "Mahalakshmi Layout PS", "PS_BOUNDCode": "PSB - 107", "KGISPS_SUB_DIVID": 112, "_source_layer": "Police Station Boundary", "_source_layer_url": "https://kgis.ksrsac.in/kgismaps/rest/services/Home/Home_Department/MapServer/82", "_police_station": "Mahalakshmi Layout PS" }, "geometry": { "type": "Polygon", "coordinates": [ [ [ 77.545602418595038, 13.016705521502859 ], [ 77.544588626109658, 13.019016432847463 ], [ 77.543823888563736, 13.018354678591617 ], [ 77.543753444941046, 13.018033960575083 ], [ 77.543690362202895, 13.017876701865829 ], [ 77.543293719215754, 13.017710747575491 ], [ 77.543109626314518, 13.017658218293523 ], [ 77.543137902353493, 13.017562323608665 ], [ 77.543768570143953, 13.015958687941712 ], [ 77.543784445653429, 13.015870731692427 ], [ 77.543988707803877, 13.014990524885235 ], [ 77.544131032958632, 13.014078850114974 ], [ 77.544062071251801, 13.013771162540229 ], [ 77.543969818443841, 13.013331034150541 ], [ 77.543930731083933, 13.013084009241755 ], [ 77.543987110057941, 13.01251692605218 ], [ 77.544034238439593, 13.01211845867655 ], [ 77.544015115112572, 13.01203617711448 ], [ 77.543959392092901, 13.011950667808115 ], [ 77.54373046642371, 13.011734189865432 ], [ 77.543633901279875, 13.011588126068837 ], [ 77.543596131372794, 13.011470170604854 ], [ 77.543460917989137, 13.010761541208675 ], [ 77.543250312861701, 13.009472777784817 ], [ 77.543088778621993, 13.008334129503353 ], [ 77.542525635415956, 13.008422417831442 ], [ 77.541479743819664, 13.008653781021993 ], [ 77.539325308249218, 13.008949779594925 ], [ 77.536855096384471, 13.009274646295113 ], [ 77.535595280922493, 13.00941666439733 ], [ 77.535590147825374, 13.009419281332233 ], [ 77.535525121851023, 13.009426359602632 ], [ 77.535301441647292, 13.009118750499812 ], [ 77.535276357974837, 13.009100060729367 ], [ 77.535223047092956, 13.00901094034144 ], [ 77.534948404880467, 13.008372987876704 ], [ 77.534611971842253, 13.007755264657023 ], [ 77.534464169985199, 13.007604247944725 ], [ 77.534363925801912, 13.007543113627365 ], [ 77.53420618211797, 13.007490446316941 ], [ 77.533975451976985, 13.007395576917517 ], [ 77.533771440401253, 13.007266566158201 ], [ 77.533650410409663, 13.007199987817058 ], [ 77.53352832299322, 13.007085987479515 ], [ 77.533243056328701, 13.006667529403975 ], [ 77.533073252013978, 13.006447836732937 ], [ 77.533000890115886, 13.006353678663801 ], [ 77.532918163942682, 13.006259621746267 ], [ 77.532766101549882, 13.006142525511592 ], [ 77.532519943838921, 13.006002631483142 ], [ 77.532273912455182, 13.005875158683365 ], [ 77.532014741140017, 13.005757977899904 ], [ 77.531938163118852, 13.005702258153999 ], [ 77.53179852549097, 13.005617790847381 ], [ 77.531568084186532, 13.005551149536002 ], [ 77.531480322689973, 13.005528289632611 ], [ 77.531368205943778, 13.005488727190338 ], [ 77.531240955201909, 13.005489968620646 ], [ 77.531078417558234, 13.005532210503226 ], [ 77.530738471394059, 13.005683470196695 ], [ 77.530591064540872, 13.005741375012006 ], [ 77.530455508803399, 13.005775447994596 ], [ 77.530176754672311, 13.005771390398468 ], [ 77.529909897550979, 13.005748017677954 ], [ 77.529905291179517, 13.0057480625927 ], [ 77.529878380860026, 13.005706539314412 ], [ 77.529715450261747, 13.005369325153625 ], [ 77.529601524751811, 13.00515134338476 ], [ 77.529577690121542, 13.004901991020439 ], [ 77.52956552837955, 13.004724802780999 ], [ 77.529584875059811, 13.004531496580944 ], [ 77.529609564156161, 13.004353949099663 ], [ 77.529608716975275, 13.004270386000126 ], [ 77.529575888700947, 13.004213109542567 ], [ 77.529463725686583, 13.004084653736282 ], [ 77.528525034337804, 13.005030482340118 ], [ 77.527682013358955, 13.005917186572482 ], [ 77.526957757103915, 13.006616276622241 ], [ 77.526951347739725, 13.006545024097907 ], [ 77.52694697010952, 13.005511196877306 ], [ 77.52692891196989, 13.004931688228405 ], [ 77.526788372206767, 13.00429361092592 ], [ 77.52656403291023, 13.003805752624453 ], [ 77.526215155581241, 13.003056156760818 ], [ 77.526088544124875, 13.002764509265383 ], [ 77.525846692416124, 13.002207402550708 ], [ 77.52550259117065, 13.001414758329561 ], [ 77.525368460415464, 13.001105782361092 ], [ 77.525301440310756, 13.000977653732638 ], [ 77.524652285753064, 12.999736584471959 ], [ 77.524651641253243, 12.999735352976233 ], [ 77.524643733351354, 12.999720233397207 ], [ 77.524642677337226, 12.999718214457538 ], [ 77.523760723408671, 12.998068757650312 ], [ 77.525832499831481, 12.998683404082049 ], [ 77.525839751366803, 12.998685555174564 ], [ 77.525844832734577, 12.998686846492653 ], [ 77.526749861278844, 12.998916791643454 ], [ 77.527526121638431, 12.999142303389871 ], [ 77.527911634438794, 12.999229108413932 ], [ 77.527931447949783, 12.999233570168427 ], [ 77.527996172440098, 12.999248143531743 ], [ 77.528095391432444, 12.999270484206511 ], [ 77.528340874546217, 12.999325758524211 ], [ 77.528628637196434, 12.999384395458749 ], [ 77.528808283697828, 12.999419443957596 ], [ 77.529318195275508, 12.999518924831444 ], [ 77.530204083980351, 12.999691754924063 ], [ 77.530788634313325, 12.999833230417677 ], [ 77.531941570292048, 13.000112263723363 ], [ 77.533635185740081, 13.000533188969616 ], [ 77.53467619211203, 13.000792916518069 ], [ 77.535460794049754, 13.000988668804244 ], [ 77.535652476644159, 13.001034073956848 ], [ 77.536125231280877, 13.001146057743842 ], [ 77.536609005274542, 13.001260650534514 ], [ 77.537609784688755, 13.001495494642347 ], [ 77.538231535721181, 13.001648422646053 ], [ 77.538743117235512, 13.001774251143466 ], [ 77.539077039151024, 13.001850663218439 ], [ 77.539494468264877, 13.001946182814729 ], [ 77.539613879944113, 13.001994150363251 ], [ 77.539763942058002, 13.002054430315983 ], [ 77.540039089840448, 13.002164955619817 ], [ 77.540177804519985, 13.002233623021899 ], [ 77.540673127021421, 13.002447530987773 ], [ 77.54067519929221, 13.002432072252118 ], [ 77.540677769940913, 13.002412896290503 ], [ 77.540693071445062, 13.0022987605456 ], [ 77.540811283047873, 13.001772559617331 ], [ 77.540831786004972, 13.001685713680533 ], [ 77.540889077335947, 13.001443044376421 ], [ 77.540942000885977, 13.001218872056103 ], [ 77.540952393448805, 13.001174965708008 ], [ 77.541158284358261, 13.000525132466056 ], [ 77.54119341863705, 13.000095653384285 ], [ 77.541197495840834, 13.000045819784212 ], [ 77.541200558668891, 13.000008385358912 ], [ 77.541201834887929, 12.999878995477532 ], [ 77.541205964318792, 12.999460272144464 ], [ 77.541252010673304, 12.999435374441955 ], [ 77.541819503878216, 12.999147747664807 ], [ 77.542560788511494, 12.99869108762765 ], [ 77.543004700779889, 12.998455249696123 ], [ 77.543147534463444, 12.998379366016762 ], [ 77.543518210542032, 12.998224960454994 ], [ 77.544264130804805, 12.997914244777556 ], [ 77.544924531205055, 12.997654386852853 ], [ 77.54567896612393, 12.997532250172066 ], [ 77.545750021433562, 12.997532880606277 ], [ 77.546891091857873, 12.997542999721967 ], [ 77.547726797993008, 12.997550408030568 ], [ 77.547984897397342, 12.997561677224645 ], [ 77.548695687068033, 12.997592710616196 ], [ 77.549367951763344, 12.997659771855847 ], [ 77.549402262687906, 12.997663194225943 ], [ 77.549665207078363, 12.997689424246717 ], [ 77.550026987560031, 12.9977255120754 ], [ 77.550133462761011, 12.997736133494536 ], [ 77.550023141893575, 12.998266304128556 ], [ 77.549789224967014, 12.999454637356493 ], [ 77.549640099000186, 13.000212217403297 ], [ 77.549632474176008, 13.000230808748148 ], [ 77.549600885926864, 13.000411427403915 ], [ 77.549558962351227, 13.000651142731053 ], [ 77.54948096282655, 13.001108478717358 ], [ 77.549403520545624, 13.001598911179547 ], [ 77.549290685966199, 13.002086111795503 ], [ 77.549193680703269, 13.002675410749475 ], [ 77.5491318810938, 13.003056770051195 ], [ 77.549128806542768, 13.003088333781522 ], [ 77.549092967759094, 13.003456272834899 ], [ 77.549012335000072, 13.003973025645786 ], [ 77.548936715981952, 13.004478585020507 ], [ 77.548928688179259, 13.004645963340584 ], [ 77.548840764870093, 13.005066702822877 ], [ 77.548804160643002, 13.005325371195919 ], [ 77.548771570314642, 13.005555681128602 ], [ 77.548646592349883, 13.006076593690461 ], [ 77.548637242973584, 13.006176752982057 ], [ 77.548601117147228, 13.006563792301764 ], [ 77.548590019287786, 13.007094151295712 ], [ 77.548618516885057, 13.007438005423667 ], [ 77.548645727833758, 13.007654743331958 ], [ 77.548653934257487, 13.007720107683756 ], [ 77.548670155365315, 13.008008357750226 ], [ 77.548764017243812, 13.008642415639574 ], [ 77.548769439687305, 13.008679043813725 ], [ 77.548857735572795, 13.008990972769283 ], [ 77.548870740238243, 13.009036914304172 ], [ 77.54900748104231, 13.009378779443425 ], [ 77.549101854826688, 13.009695111578536 ], [ 77.549153260096489, 13.009811789863122 ], [ 77.549243125989207, 13.01004798127062 ], [ 77.549266154064412, 13.010083344999234 ], [ 77.549354529718372, 13.010219066200118 ], [ 77.549381130802573, 13.010259918556612 ], [ 77.54941423941618, 13.010310764276955 ], [ 77.549470891961192, 13.010397766375874 ], [ 77.549743065972635, 13.010638421917257 ], [ 77.549970538094229, 13.01083571317352 ], [ 77.550083203845617, 13.010933431433072 ], [ 77.55028982527206, 13.011103007672782 ], [ 77.55042537133869, 13.011185375016813 ], [ 77.550633022612459, 13.011311556604293 ], [ 77.550879178692014, 13.01143237669242 ], [ 77.550976680684528, 13.011483130852968 ], [ 77.55098203815237, 13.01148517147465 ], [ 77.550985352342664, 13.011486433534969 ], [ 77.551315705459814, 13.011636772188982 ], [ 77.551590516294823, 13.011761682338387 ], [ 77.551883158414839, 13.011924736932478 ], [ 77.552470841870402, 13.012252181013091 ], [ 77.552601539385847, 13.01230623149887 ], [ 77.552668657744647, 13.012334029821648 ], [ 77.55267953832346, 13.012338535785526 ], [ 77.552580036354385, 13.012408208786283 ], [ 77.552216133247015, 13.012663015287698 ], [ 77.551602164817069, 13.013236381782484 ], [ 77.551538814971579, 13.013460527378147 ], [ 77.551542224852525, 13.014005117425068 ], [ 77.551476660129111, 13.015042602770061 ], [ 77.551429193249888, 13.015168565833669 ], [ 77.550347987527033, 13.015821625594988 ], [ 77.550286758971367, 13.015918585531555 ], [ 77.549903441554562, 13.016299077103968 ], [ 77.549506332694534, 13.016801382940237 ], [ 77.549126516841284, 13.01746305606477 ], [ 77.548867744136828, 13.017819188959422 ], [ 77.548753689292241, 13.017938253602269 ], [ 77.548706338756247, 13.017956647427932 ], [ 77.548602975933733, 13.017914985027019 ], [ 77.547427155801145, 13.017440511153339 ], [ 77.545630372451086, 13.016642871015911 ], [ 77.545602418595038, 13.016705521502859 ] ] ] } }
]
}
