{
"type": "FeatureCollection",
"name": "wards_in_police_area.writing_20260805_172659",
"crs": { "type": "name", "properties": { "name": "urn:ogc:def:crs:OGC:1.3:CRS84" } },
"features": [
{ "type": "Feature", "properties": { "KGISWardID": 5908, "KGISWardCode": "0406033", "KGISWardName": " ", "SHAPE.STArea()": 1171578.744157745, "SHAPE.STLength()": 6132.1622619581267, "OBJECTID": 15523, "KGISWardNo": "33", "KGISTownCode": "0406", "LGD_WardCode": 27012, "created_user": "SA", "created_date": 1634898537000, "last_edited_user": "SURESHBV1", "last_edited_date": 1692253949000, "_overlap_percent": 43.367529608813967, "_police_station": "Chowka PS", "_police_feature_index": "711", "_admin_layer": "Ward", "_geometry_clipped": true }, "geometry": { "type": "Polygon", "coordinates": [ [ [ 76.828582478926819, 17.34408484243755 ], [ 76.828861137198771, 17.344494536653162 ], [ 76.828947652075243, 17.345332911138428 ], [ 76.829108626547225, 17.345911965513938 ], [ 76.829124455629568, 17.346263072991917 ], [ 76.829135481574028, 17.346575614190147 ], [ 76.830083419509634, 17.346458297237579 ], [ 76.830105809605925, 17.346825300082568 ], [ 76.830106798682607, 17.34683348435399 ], [ 76.830088058221449, 17.34704704086224 ], [ 76.830471345462158, 17.347020400288539 ], [ 76.830830523155655, 17.346892800139315 ], [ 76.831405320171967, 17.346628003096004 ], [ 76.83141927734205, 17.346621573104315 ], [ 76.831504634142803, 17.34659401692759 ], [ 76.83162483459445, 17.346583287268921 ], [ 76.831882575887377, 17.345765732878423 ], [ 76.832210152910619, 17.345534588542762 ], [ 76.832285407618159, 17.345296719629854 ], [ 76.832567126724555, 17.345303174435465 ], [ 76.832760933665682, 17.344332350880112 ], [ 76.832824794650008, 17.343894677707521 ], [ 76.833084100124267, 17.343775970965083 ], [ 76.833507680509157, 17.343798066137513 ], [ 76.833627078763257, 17.34380148952981 ], [ 76.833808003401202, 17.341889971407387 ], [ 76.833811144675025, 17.341614362586974 ], [ 76.833812591885575, 17.34146413561562 ], [ 76.83388072316643, 17.341338144830374 ], [ 76.833899938789486, 17.341260038287555 ], [ 76.833897718817184, 17.340859112272909 ], [ 76.833896363392398, 17.340841053873774 ], [ 76.833851488532375, 17.339934535718651 ], [ 76.833875449361386, 17.339007801502813 ], [ 76.832731195500841, 17.338396212508183 ], [ 76.83257611229196, 17.338286170054225 ], [ 76.832638987502108, 17.338254851238705 ], [ 76.832733954635572, 17.338207546683442 ], [ 76.832722977082113, 17.338199715930774 ], [ 76.83191156548763, 17.337657785567213 ], [ 76.8318902133325, 17.33764352435081 ], [ 76.831634729679635, 17.337603578912521 ], [ 76.831380251465646, 17.337563790188611 ], [ 76.830277474498217, 17.337856381742938 ], [ 76.830044596606086, 17.337918168845082 ], [ 76.828901830852288, 17.338045922202998 ], [ 76.82876644905005, 17.338061056847085 ], [ 76.827353534849379, 17.338138504036039 ], [ 76.827298582196534, 17.338138782655772 ], [ 76.827302311090705, 17.338159085576471 ], [ 76.827416012951673, 17.33877815407174 ], [ 76.827692336448933, 17.339457828643859 ], [ 76.827950981249543, 17.340094014832481 ], [ 76.828095683376944, 17.340679471227627 ], [ 76.828268873313178, 17.341308947054827 ], [ 76.82838167119985, 17.342277982138658 ], [ 76.828282972377011, 17.343125883650654 ], [ 76.828493083368514, 17.343740751822228 ], [ 76.828561336485976, 17.343929837705613 ], [ 76.828598746343985, 17.344033477310507 ], [ 76.828571098940344, 17.344066916404827 ], [ 76.828582478926819, 17.34408484243755 ] ] ] } },
{ "type": "Feature", "properties": { "KGISWardID": 5915, "KGISWardCode": "0406031", "KGISWardName": " ", "SHAPE.STArea()": 225324.25031475499, "SHAPE.STLength()": 2579.4866044582659, "OBJECTID": 15521, "KGISWardNo": "31", "KGISTownCode": "0406", "LGD_WardCode": 27010, "created_user": "SA", "created_date": 1634898537000, "last_edited_user": "SURESHBV1", "last_edited_date": 1692253949000, "_overlap_percent": 0.098258339836932843, "_police_station": "Chowka PS", "_police_feature_index": "711", "_admin_layer": "Ward", "_geometry_clipped": true }, "geometry": { "type": "Polygon", "coordinates": [ [ [ 76.843363910548504, 17.340862944781303 ], [ 76.843834896333107, 17.340667356137846 ], [ 76.844030511375593, 17.340626705854397 ], [ 76.844176228173254, 17.340574562406648 ], [ 76.844228432743336, 17.340521074352917 ], [ 76.844129752020933, 17.34054973600422 ], [ 76.84398422912021, 17.340592001972297 ], [ 76.843289006144857, 17.340886224781997 ], [ 76.843363910548504, 17.340862944781303 ] ] ] } },
{ "type": "Feature", "properties": { "KGISWardID": 5913, "KGISWardCode": "0406027", "KGISWardName": " ", "SHAPE.STArea()": 218931.54061905999, "SHAPE.STLength()": 2622.2563551089206, "OBJECTID": 15517, "KGISWardNo": "27", "KGISTownCode": "0406", "LGD_WardCode": 27006, "created_user": "SA", "created_date": 1634898537000, "last_edited_user": "SURESHBV1", "last_edited_date": 1692253949000, "_overlap_percent": 29.005338499589868, "_police_station": "Chowka PS", "_police_feature_index": "711", "_admin_layer": "Ward", "_geometry_clipped": true }, "geometry": { "type": "Polygon", "coordinates": [ [ [ 76.840183788152999, 17.341788514158473 ], [ 76.840248021771416, 17.342038655263885 ], [ 76.840263526430448, 17.342237291090068 ], [ 76.840268860611246, 17.342300489709491 ], [ 76.84030839413694, 17.342727047918991 ], [ 76.840308618316101, 17.342730471170508 ], [ 76.84080403245666, 17.342764317493526 ], [ 76.841066942303414, 17.342769547652548 ], [ 76.841187983476814, 17.342764609086611 ], [ 76.84115396198932, 17.342553243119923 ], [ 76.841146476038602, 17.342495150369015 ], [ 76.84137124903927, 17.342445269247829 ], [ 76.841358772941788, 17.342317486480869 ], [ 76.841369949116483, 17.342314992859219 ], [ 76.841635718574949, 17.34225756276733 ], [ 76.841792260219705, 17.342229825198565 ], [ 76.841928770630531, 17.34219031812297 ], [ 76.84213482793534, 17.342135827875147 ], [ 76.842239006568747, 17.342099009045402 ], [ 76.842355795820936, 17.34207880845927 ], [ 76.842736723837959, 17.342087254159814 ], [ 76.842851382893755, 17.342102931592358 ], [ 76.842899078772575, 17.342143133370524 ], [ 76.843003972453062, 17.342178025833068 ], [ 76.843120881002775, 17.34216977750015 ], [ 76.843234871607038, 17.342118524124416 ], [ 76.84332696261653, 17.342117675686257 ], [ 76.843436667398066, 17.342135790084388 ], [ 76.84364973211936, 17.342284435591292 ], [ 76.844170122571924, 17.342797804265452 ], [ 76.844319036361142, 17.343065375539517 ], [ 76.844372852460424, 17.343157515406784 ], [ 76.844469866868053, 17.343213398338786 ], [ 76.844563441855911, 17.343236441370191 ], [ 76.844740899750789, 17.343246758920539 ], [ 76.844826241144688, 17.3432432167039 ], [ 76.844814809767996, 17.343200488562573 ], [ 76.844686236028835, 17.342783183163863 ], [ 76.844588054717647, 17.342484611239009 ], [ 76.84442267513262, 17.341981686028429 ], [ 76.844420262054101, 17.341974348064582 ], [ 76.844416444895117, 17.341914065859697 ], [ 76.844402831711122, 17.341699068316746 ], [ 76.844408566456693, 17.341695650680702 ], [ 76.844310728361236, 17.341076676700041 ], [ 76.844281581295917, 17.340892278718592 ], [ 76.844239114448968, 17.340560418891961 ], [ 76.844233454342387, 17.340519615837845 ], [ 76.844228432743336, 17.340521074352917 ], [ 76.844176228173254, 17.340574562406648 ], [ 76.844030511375593, 17.340626705854397 ], [ 76.843834896333107, 17.340667356137846 ], [ 76.843363910548504, 17.340862944781303 ], [ 76.843289006144857, 17.340886224781997 ], [ 76.843220387971101, 17.340915264432002 ], [ 76.842944087279022, 17.340998050914681 ], [ 76.842712089813986, 17.341067562648085 ], [ 76.842330506999176, 17.341164644189593 ], [ 76.841842033968774, 17.341312857188839 ], [ 76.841041568128674, 17.341508902880456 ], [ 76.841029090055642, 17.341512444817674 ], [ 76.840765990514527, 17.341576394697366 ], [ 76.840168653057418, 17.341722687270927 ], [ 76.840183788152999, 17.341788514158473 ] ] ] } },
{ "type": "Feature", "properties": { "KGISWardID": 5909, "KGISWardCode": "0406024", "KGISWardName": " ", "SHAPE.STArea()": 279339.29140652501, "SHAPE.STLength()": 3169.2726951679851, "OBJECTID": 15514, "KGISWardNo": "24", "KGISTownCode": "0406", "LGD_WardCode": 27003, "created_user": "SA", "created_date": 1634898537000, "last_edited_user": "SURESHBV1", "last_edited_date": 1692253949000, "_overlap_percent": 58.479200504772841, "_police_station": "Chowka PS", "_police_feature_index": "711", "_admin_layer": "Ward", "_geometry_clipped": true }, "geometry": { "type": "Polygon", "coordinates": [ [ [ 76.837634646219456, 17.341296925878972 ], [ 76.837605606204818, 17.342218802872694 ], [ 76.837598419396372, 17.342559955020711 ], [ 76.837589347296358, 17.34347938968067 ], [ 76.837581808875598, 17.343844262933537 ], [ 76.837570939005559, 17.344346956521044 ], [ 76.837568524739552, 17.344458791684684 ], [ 76.837561494483978, 17.345051803904912 ], [ 76.837569925139846, 17.345130786145617 ], [ 76.837577317964033, 17.345164600957016 ], [ 76.837636584403157, 17.345447541952353 ], [ 76.837740225693082, 17.345817040879886 ], [ 76.83780380857894, 17.345942952201707 ], [ 76.837884079249818, 17.346091298645458 ], [ 76.837948771544234, 17.346211164067949 ], [ 76.83942311651748, 17.346144021296066 ], [ 76.839415747372314, 17.345964277692872 ], [ 76.839402088054939, 17.345183971978408 ], [ 76.839400147789576, 17.345092305060586 ], [ 76.839754503612923, 17.34508139618351 ], [ 76.839876099968194, 17.345093665578837 ], [ 76.840510196510195, 17.345102075914774 ], [ 76.840627270514048, 17.344479740476046 ], [ 76.84063523718784, 17.344437390632507 ], [ 76.840610913800305, 17.344394583429629 ], [ 76.840598709190587, 17.344368877121681 ], [ 76.840658172804609, 17.344330516942534 ], [ 76.840711491112842, 17.344296121093723 ], [ 76.841018910673313, 17.343971993260055 ], [ 76.841193197759139, 17.343776749392507 ], [ 76.841385706527518, 17.343611459826917 ], [ 76.841529347162208, 17.343488216100365 ], [ 76.841682426338323, 17.343263045861946 ], [ 76.841744833196046, 17.34323091530927 ], [ 76.841921581184522, 17.34328235919731 ], [ 76.84204604725349, 17.343332850395072 ], [ 76.842014333734511, 17.343381740964649 ], [ 76.841984270370205, 17.343428088239204 ], [ 76.842067947882768, 17.343464116160359 ], [ 76.842448499015006, 17.343627965018371 ], [ 76.842426536596463, 17.343393112046098 ], [ 76.842416866092833, 17.343147269080607 ], [ 76.842361462667583, 17.342983305672146 ], [ 76.842306803920621, 17.342893921491424 ], [ 76.842233092394167, 17.342890775578422 ], [ 76.84198603512624, 17.342877749863064 ], [ 76.841781002246719, 17.342885374942529 ], [ 76.841627548433522, 17.342873400748431 ], [ 76.841563658814721, 17.342856776455889 ], [ 76.84146954011608, 17.3428040928031 ], [ 76.841268012231325, 17.34276387257626 ], [ 76.841187983476814, 17.342764609086611 ], [ 76.841066942303414, 17.342769547652548 ], [ 76.84080403245666, 17.342764317493526 ], [ 76.840308618316101, 17.342730471170508 ], [ 76.84030839413694, 17.342727047918991 ], [ 76.840268860611246, 17.342300489709491 ], [ 76.840263526430448, 17.342237291090068 ], [ 76.840248021771416, 17.342038655263885 ], [ 76.840183788152999, 17.341788514158473 ], [ 76.840168653057418, 17.341722687270927 ], [ 76.839865916435954, 17.341796829816214 ], [ 76.839541622343063, 17.341877582888166 ], [ 76.837644776408311, 17.340767664861094 ], [ 76.837634646219456, 17.341296925878972 ] ] ] } },
{ "type": "Feature", "properties": { "KGISWardID": 5902, "KGISWardCode": "0406017", "KGISWardName": " ", "SHAPE.STArea()": 703715.71692254499, "SHAPE.STLength()": 5046.0833745635982, "OBJECTID": 15507, "KGISWardNo": "17", "KGISTownCode": "0406", "LGD_WardCode": 26996, "created_user": "SA", "created_date": 1634898537000, "last_edited_user": "SURESHBV1", "last_edited_date": 1692253949000, "_overlap_percent": 69.752525633392722, "_police_station": "Chowka PS", "_police_feature_index": "711", "_admin_layer": "Ward", "_geometry_clipped": true }, "geometry": { "type": "Polygon", "coordinates": [ [ [ 76.833851488532375, 17.339934535718651 ], [ 76.833896363392398, 17.340841053873774 ], [ 76.833897718817184, 17.340859112272909 ], [ 76.833899938789486, 17.341260038287555 ], [ 76.83388072316643, 17.341338144830374 ], [ 76.833812591885575, 17.34146413561562 ], [ 76.833811144675025, 17.341614362586974 ], [ 76.833808003401202, 17.341889971407387 ], [ 76.833627078763257, 17.34380148952981 ], [ 76.833507680509157, 17.343798066137513 ], [ 76.833084100124267, 17.343775970965083 ], [ 76.832824794650008, 17.343894677707521 ], [ 76.832760933665682, 17.344332350880112 ], [ 76.832567126724555, 17.345303174435465 ], [ 76.832285407618159, 17.345296719629854 ], [ 76.832210152910619, 17.345534588542762 ], [ 76.831882575887377, 17.345765732878423 ], [ 76.83162483459445, 17.346583287268921 ], [ 76.831504634142803, 17.34659401692759 ], [ 76.83141927734205, 17.346621573104315 ], [ 76.831405320171967, 17.346628003096004 ], [ 76.831422442528492, 17.346680835433062 ], [ 76.83156268564673, 17.346824897755912 ], [ 76.832724581398452, 17.347317242242234 ], [ 76.834035253838294, 17.346949504814763 ], [ 76.834054004585965, 17.346999498362887 ], [ 76.834655173787638, 17.348361463598021 ], [ 76.834897933895718, 17.34860909531421 ], [ 76.83492729808944, 17.348782757381308 ], [ 76.834982933384396, 17.349055567809209 ], [ 76.835036295666939, 17.349336305030693 ], [ 76.835094140938011, 17.349713002197674 ], [ 76.835175550306417, 17.350271320477905 ], [ 76.835290297294577, 17.350043253126351 ], [ 76.835336556646695, 17.349994699758156 ], [ 76.835569204308555, 17.349959573683929 ], [ 76.835618338247713, 17.350252353864867 ], [ 76.836805110535991, 17.350315747477566 ], [ 76.83698508832461, 17.349818749883063 ], [ 76.837216020749068, 17.349212386885952 ], [ 76.837312185969324, 17.349008207211227 ], [ 76.83732105939383, 17.34899078136133 ], [ 76.837630370615202, 17.348338209341815 ], [ 76.837797319550461, 17.347711689411611 ], [ 76.837903394593582, 17.347380923047076 ], [ 76.838068990811024, 17.347004432759107 ], [ 76.838181130364404, 17.346574221301051 ], [ 76.838123266119652, 17.34649117569457 ], [ 76.83800090153683, 17.34630820403703 ], [ 76.837981127782797, 17.346271114746205 ], [ 76.837948771544234, 17.346211164067949 ], [ 76.837884079249818, 17.346091298645458 ], [ 76.83780380857894, 17.345942952201707 ], [ 76.837740225693082, 17.345817040879886 ], [ 76.837636584403157, 17.345447541952353 ], [ 76.837577317964033, 17.345164600957016 ], [ 76.837569925139846, 17.345130786145617 ], [ 76.837561494483978, 17.345051803904912 ], [ 76.837568524739552, 17.344458791684684 ], [ 76.837570939005559, 17.344346956521044 ], [ 76.837581808875598, 17.343844262933537 ], [ 76.837589347296358, 17.34347938968067 ], [ 76.837598419396372, 17.342559955020711 ], [ 76.837605606204818, 17.342218802872694 ], [ 76.837634646219456, 17.341296925878972 ], [ 76.837644776408311, 17.340767664861094 ], [ 76.837464236662768, 17.340662024063125 ], [ 76.837286721582814, 17.340560298245713 ], [ 76.836813955011294, 17.340364988090087 ], [ 76.836267652839979, 17.340139296001421 ], [ 76.835966583856731, 17.339976541859745 ], [ 76.835672388101969, 17.339786104737556 ], [ 76.834855830759054, 17.339432718084321 ], [ 76.834860541210332, 17.339615928329479 ], [ 76.834685481039585, 17.339489974321769 ], [ 76.834545787642199, 17.339389465788479 ], [ 76.834493137702367, 17.339351585034201 ], [ 76.834419426483365, 17.339298549795014 ], [ 76.834337800898268, 17.339254922462032 ], [ 76.833875449361386, 17.339007801502813 ], [ 76.833851488532375, 17.339934535718651 ] ] ] } },
{ "type": "Feature", "properties": { "KGISWardID": 5911, "KGISWardCode": "0406026", "KGISWardName": " ", "SHAPE.STArea()": 135702.25465123501, "SHAPE.STLength()": 2000.791951704254, "OBJECTID": 15516, "KGISWardNo": "26", "KGISTownCode": "0406", "LGD_WardCode": 27005, "created_user": "SA", "created_date": 1634898537000, "last_edited_user": "SURESHBV1", "last_edited_date": 1692253949000, "_overlap_percent": 80.054086064423288, "_police_station": "Chowka PS", "_police_feature_index": "711", "_admin_layer": "Ward", "_geometry_clipped": true }, "geometry": { "type": "Polygon", "coordinates": [ [ [ 76.844740899750789, 17.343246758920539 ], [ 76.844563441855911, 17.343236441370191 ], [ 76.844469866868053, 17.343213398338786 ], [ 76.844372852460424, 17.343157515406784 ], [ 76.844319036361142, 17.343065375539517 ], [ 76.844170122571924, 17.342797804265452 ], [ 76.84364973211936, 17.342284435591292 ], [ 76.843436667398066, 17.342135790084388 ], [ 76.84332696261653, 17.342117675686257 ], [ 76.843234871607038, 17.342118524124416 ], [ 76.843120881002775, 17.34216977750015 ], [ 76.843003972453062, 17.342178025833068 ], [ 76.842899078772575, 17.342143133370524 ], [ 76.842851382893755, 17.342102931592358 ], [ 76.842736723837959, 17.342087254159814 ], [ 76.842355795820936, 17.34207880845927 ], [ 76.842239006568747, 17.342099009045402 ], [ 76.84213482793534, 17.342135827875147 ], [ 76.841928770630531, 17.34219031812297 ], [ 76.841792260219705, 17.342229825198565 ], [ 76.841635718574949, 17.34225756276733 ], [ 76.841369949116483, 17.342314992859219 ], [ 76.841358772941788, 17.342317486480869 ], [ 76.84137124903927, 17.342445269247829 ], [ 76.841146476038602, 17.342495150369015 ], [ 76.84115396198932, 17.342553243119923 ], [ 76.841187983476814, 17.342764609086611 ], [ 76.841268012231325, 17.34276387257626 ], [ 76.84146954011608, 17.3428040928031 ], [ 76.841563658814721, 17.342856776455889 ], [ 76.841627548433522, 17.342873400748431 ], [ 76.841781002246719, 17.342885374942529 ], [ 76.84198603512624, 17.342877749863064 ], [ 76.842233092394167, 17.342890775578422 ], [ 76.842306803920621, 17.342893921491424 ], [ 76.842361462667583, 17.342983305672146 ], [ 76.842416866092833, 17.343147269080607 ], [ 76.842426536596463, 17.343393112046098 ], [ 76.842448499015006, 17.343627965018371 ], [ 76.842067947882768, 17.343464116160359 ], [ 76.841984270370205, 17.343428088239204 ], [ 76.842014333734511, 17.343381740964649 ], [ 76.84204604725349, 17.343332850395072 ], [ 76.841921581184522, 17.34328235919731 ], [ 76.841744833196046, 17.34323091530927 ], [ 76.841682426338323, 17.343263045861946 ], [ 76.841529347162208, 17.343488216100365 ], [ 76.841385706527518, 17.343611459826917 ], [ 76.841193197759139, 17.343776749392507 ], [ 76.841018910673313, 17.343971993260055 ], [ 76.840711491112842, 17.344296121093723 ], [ 76.840658172804609, 17.344330516942534 ], [ 76.840598709190587, 17.344368877121681 ], [ 76.840610913800305, 17.344394583429629 ], [ 76.84063523718784, 17.344437390632507 ], [ 76.840627270514048, 17.344479740476046 ], [ 76.840510196510195, 17.345102075914774 ], [ 76.840541688495861, 17.345102493638503 ], [ 76.840738592238608, 17.345116331161492 ], [ 76.841238228498838, 17.345096432520481 ], [ 76.841600587129918, 17.345089272295212 ], [ 76.841853830943521, 17.345123278334231 ], [ 76.84191774047855, 17.345141815066377 ], [ 76.842037708115868, 17.345190434784847 ], [ 76.842143241709493, 17.34518946297764 ], [ 76.842320094317685, 17.345151496746649 ], [ 76.842519098777132, 17.345138188966107 ], [ 76.842801848561805, 17.345135584462476 ], [ 76.844448906660688, 17.34511850387101 ], [ 76.844458499045004, 17.345118404583921 ], [ 76.844471704282526, 17.345116826693907 ], [ 76.84444580021561, 17.344863465102616 ], [ 76.844395003803925, 17.344230081868819 ], [ 76.844574449049006, 17.343879515960317 ], [ 76.844724574216031, 17.343604656548731 ], [ 76.844852074900118, 17.343371217786693 ], [ 76.8448530306121, 17.343343350238261 ], [ 76.844826241144688, 17.3432432167039 ], [ 76.844740899750789, 17.343246758920539 ] ] ] } },
{ "type": "Feature", "properties": { "KGISWardID": 5903, "KGISWardCode": "0406019", "KGISWardName": " ", "SHAPE.STArea()": 309378.54591354501, "SHAPE.STLength()": 3227.4346020182193, "OBJECTID": 15509, "KGISWardNo": "19", "KGISTownCode": "0406", "LGD_WardCode": 26998, "created_user": "SA", "created_date": 1634898537000, "last_edited_user": "SURESHBV1", "last_edited_date": 1692253949000, "_overlap_percent": 26.284908242744031, "_police_station": "Chowka PS", "_police_feature_index": "711", "_admin_layer": "Ward", "_geometry_clipped": true }, "geometry": { "type": "Polygon", "coordinates": [ [ [ 76.82679343848487, 17.346011052612802 ], [ 76.827004797952227, 17.345800177835955 ], [ 76.827037147383933, 17.345765070648454 ], [ 76.827117010085999, 17.34588047546718 ], [ 76.827123239145735, 17.345884932674824 ], [ 76.827186572352787, 17.346164452665665 ], [ 76.827197048557863, 17.346212922433459 ], [ 76.827235833193797, 17.346507349202255 ], [ 76.827281064637916, 17.346680868123105 ], [ 76.82746742123048, 17.347032676968308 ], [ 76.827525348308839, 17.34712250205305 ], [ 76.827608361354933, 17.347251627922649 ], [ 76.82761914602537, 17.347271859105021 ], [ 76.827840697206298, 17.347674170192196 ], [ 76.827821469885606, 17.348098556663381 ], [ 76.827851516554119, 17.348232009161936 ], [ 76.82788533676522, 17.348440644409774 ], [ 76.827893483863534, 17.34849139424767 ], [ 76.827968433335769, 17.348756125014038 ], [ 76.828034210054398, 17.348949946393518 ], [ 76.829225096273262, 17.348711723350139 ], [ 76.829224365876712, 17.348689300492889 ], [ 76.829204655583169, 17.348124766718684 ], [ 76.829194649616923, 17.347649368981948 ], [ 76.829143672238175, 17.346777916576581 ], [ 76.829136723502202, 17.346610824732615 ], [ 76.829135481574028, 17.346575614190147 ], [ 76.829124455629568, 17.346263072991917 ], [ 76.829108626547225, 17.345911965513938 ], [ 76.828947652075243, 17.345332911138428 ], [ 76.828861137198771, 17.344494536653162 ], [ 76.828582478926819, 17.34408484243755 ], [ 76.828571098940344, 17.344066916404827 ], [ 76.828413177151759, 17.344257920292634 ], [ 76.827938899169482, 17.344586936435356 ], [ 76.827574856126361, 17.345025095513613 ], [ 76.827401478576689, 17.345233768839559 ], [ 76.826789516481384, 17.346014349308259 ], [ 76.82679343848487, 17.346011052612802 ] ] ] } },
{ "type": "Feature", "properties": { "KGISWardID": 5905, "KGISWardCode": "0406015", "KGISWardName": " ", "SHAPE.STArea()": 170164.69473680001, "SHAPE.STLength()": 2567.043163938878, "OBJECTID": 15505, "KGISWardNo": "15", "KGISTownCode": "0406", "LGD_WardCode": 26994, "created_user": "SA", "created_date": 1634898537000, "last_edited_user": "SURESHBV1", "last_edited_date": 1692253949000, "_overlap_percent": 0.11538036706937363, "_police_station": "Chowka PS", "_police_feature_index": "711", "_admin_layer": "Ward", "_geometry_clipped": true }, "geometry": { "type": "MultiPolygon", "coordinates": [ [ [ [ 76.844212447814698, 17.347524734858339 ], [ 76.844217894736758, 17.347537493624657 ], [ 76.844325178686773, 17.347332790961442 ], [ 76.844212447814698, 17.347524734858339 ] ] ], [ [ [ 76.844625215512096, 17.346760307032572 ], [ 76.844642767556067, 17.346726816933216 ], [ 76.844636793449965, 17.34666654818081 ], [ 76.844625215512096, 17.346760307032572 ] ] ], [ [ [ 76.844458499045004, 17.345118404583921 ], [ 76.844448906660688, 17.34511850387101 ], [ 76.844453611096014, 17.345182635970605 ], [ 76.844530341404592, 17.34574099155396 ], [ 76.84457252952555, 17.346061454240047 ], [ 76.844531504060114, 17.34556603091233 ], [ 76.844513804945947, 17.345528603389621 ], [ 76.844471704282526, 17.345116826693907 ], [ 76.844458499045004, 17.345118404583921 ] ] ] ] } },
{ "type": "Feature", "properties": { "KGISWardID": 5907, "KGISWardCode": "0406025", "KGISWardName": " ", "SHAPE.STArea()": 83532.87542851, "SHAPE.STLength()": 1602.6172161025338, "OBJECTID": 15515, "KGISWardNo": "25", "KGISTownCode": "0406", "LGD_WardCode": 27004, "created_user": "SA", "created_date": 1634898537000, "last_edited_user": "SURESHBV1", "last_edited_date": 1692253949000, "_overlap_percent": 99.86510070116465, "_police_station": "Chowka PS", "_police_feature_index": "711", "_admin_layer": "Ward", "_geometry_clipped": true }, "geometry": { "type": "Polygon", "coordinates": [ [ [ 76.844530341404592, 17.34574099155396 ], [ 76.844453611096014, 17.345182635970605 ], [ 76.844448906660688, 17.34511850387101 ], [ 76.842801848561805, 17.345135584462476 ], [ 76.842519098777132, 17.345138188966107 ], [ 76.842320094317685, 17.345151496746649 ], [ 76.842143241709493, 17.34518946297764 ], [ 76.842037708115868, 17.345190434784847 ], [ 76.84191774047855, 17.345141815066377 ], [ 76.841853830943521, 17.345123278334231 ], [ 76.841600587129918, 17.345089272295212 ], [ 76.841238228498838, 17.345096432520481 ], [ 76.840738592238608, 17.345116331161492 ], [ 76.840541688495861, 17.345102493638503 ], [ 76.840510196510195, 17.345102075914774 ], [ 76.839876099968194, 17.345093665578837 ], [ 76.839754503612923, 17.34508139618351 ], [ 76.839400147789576, 17.345092305060586 ], [ 76.839402088054939, 17.345183971978408 ], [ 76.839415747372314, 17.345964277692872 ], [ 76.83942311651748, 17.346144021296066 ], [ 76.839426624625645, 17.346229592069012 ], [ 76.839417624313214, 17.346450164395282 ], [ 76.839866395389663, 17.346468712311044 ], [ 76.839868402475645, 17.34654289692115 ], [ 76.839871283619701, 17.346595953286727 ], [ 76.839871983894398, 17.346619286139475 ], [ 76.840442927710413, 17.346576649859873 ], [ 76.840415185917635, 17.346300688139962 ], [ 76.840397559429789, 17.346215201240739 ], [ 76.840670717070296, 17.346249025444269 ], [ 76.840941368057685, 17.346231235153756 ], [ 76.841012396466581, 17.346364455919016 ], [ 76.841103839393838, 17.346348313781746 ], [ 76.841120475470362, 17.346412675055554 ], [ 76.841131885744929, 17.346410423227066 ], [ 76.841277722826092, 17.346411738152451 ], [ 76.84139719495019, 17.346410638374547 ], [ 76.841714121508588, 17.346440233511238 ], [ 76.841781770591325, 17.346234973883124 ], [ 76.841916166937565, 17.345933474670684 ], [ 76.842081817770918, 17.345970199638984 ], [ 76.842208046949722, 17.346047448846534 ], [ 76.842378444795628, 17.34616062961565 ], [ 76.842494793989744, 17.346245619866004 ], [ 76.842747174864485, 17.346392468973843 ], [ 76.842977290267029, 17.346503186234113 ], [ 76.84336582034868, 17.346723366972434 ], [ 76.843451651649914, 17.346743613913954 ], [ 76.843691093839041, 17.3467911313877 ], [ 76.843751460616105, 17.346853686986996 ], [ 76.84384154260961, 17.34690066906656 ], [ 76.843949545490446, 17.346947485896205 ], [ 76.844071391591925, 17.346984612010022 ], [ 76.844265093190771, 17.34703828880269 ], [ 76.844431409889168, 17.347130096988622 ], [ 76.844625215512096, 17.346760307032572 ], [ 76.844636793449965, 17.34666654818081 ], [ 76.844600108786992, 17.346296461203735 ], [ 76.844579761601096, 17.346148788750359 ], [ 76.84457252952555, 17.346061454240047 ], [ 76.844530341404592, 17.34574099155396 ] ] ] } },
{ "type": "Feature", "properties": { "KGISWardID": 5896, "KGISWardCode": "0406022", "KGISWardName": " ", "SHAPE.STArea()": 1851447.6287477301, "SHAPE.STLength()": 7808.8804305643034, "OBJECTID": 15512, "KGISWardNo": "22", "KGISTownCode": "0406", "LGD_WardCode": 27001, "created_user": "SA", "created_date": 1634898537000, "last_edited_user": "SURESHBV1", "last_edited_date": 1692253949000, "_overlap_percent": 12.370337757542806, "_police_station": "Chowka PS", "_police_feature_index": "711", "_admin_layer": "Ward", "_geometry_clipped": true }, "geometry": { "type": "Polygon", "coordinates": [ [ [ 76.811873146082533, 17.355029397823149 ], [ 76.811945921359339, 17.355176377347838 ], [ 76.812342834779614, 17.355980500306099 ], [ 76.812569944442217, 17.356724340859166 ], [ 76.81374094947752, 17.357257010047082 ], [ 76.813968653601805, 17.357360586978562 ], [ 76.814186840708828, 17.357459835255142 ], [ 76.813885797897683, 17.358319788185497 ], [ 76.813647967579826, 17.358277313410984 ], [ 76.813633648506652, 17.358274756163922 ], [ 76.813466314066943, 17.358995100047647 ], [ 76.813843951500601, 17.359531354065457 ], [ 76.814266097147978, 17.359186985051235 ], [ 76.814426519725799, 17.359055644051484 ], [ 76.814903747881914, 17.358669563100239 ], [ 76.815259626343732, 17.358381714439332 ], [ 76.815611343194703, 17.358089385289247 ], [ 76.816106427105424, 17.357665868366979 ], [ 76.816274290712883, 17.35751412868126 ], [ 76.816369963984641, 17.357376597973641 ], [ 76.816468610478722, 17.357242428517676 ], [ 76.816570207939094, 17.357109361643886 ], [ 76.817256844402976, 17.356134067580978 ], [ 76.817338627094514, 17.356019251437989 ], [ 76.817445925108913, 17.355868061463283 ], [ 76.817667331598088, 17.355540771931363 ], [ 76.817836176657792, 17.355309961923368 ], [ 76.818121192170366, 17.354894380131892 ], [ 76.817409882292623, 17.355885439924197 ], [ 76.816601810665318, 17.35699281871182 ], [ 76.814360869640211, 17.355323689813932 ], [ 76.81238861521679, 17.352719760826318 ], [ 76.81009227621216, 17.349129842664667 ], [ 76.81007508103373, 17.349084737640933 ], [ 76.809997387744502, 17.349283437558533 ], [ 76.809994747346934, 17.350340493340529 ], [ 76.809950997718886, 17.351117562109103 ], [ 76.810034973256506, 17.351623285316691 ], [ 76.810049940655972, 17.351713435285458 ], [ 76.810425774001828, 17.353160259726547 ], [ 76.811158458131871, 17.354140620865284 ], [ 76.811873146082533, 17.355029397823149 ] ] ] } },
{ "type": "Feature", "properties": { "KGISWardID": 5898, "KGISWardCode": "0406016", "KGISWardName": " ", "SHAPE.STArea()": 752749.68165499996, "SHAPE.STLength()": 5203.6525399429111, "OBJECTID": 15506, "KGISWardNo": "16", "KGISTownCode": "0406", "LGD_WardCode": 26995, "created_user": "SA", "created_date": 1634898537000, "last_edited_user": "SURESHBV1", "last_edited_date": 1692253949000, "_overlap_percent": 96.747183380934771, "_police_station": "Chowka PS", "_police_feature_index": "711", "_admin_layer": "Ward", "_geometry_clipped": true }, "geometry": { "type": "Polygon", "coordinates": [ [ [ 76.844265093190771, 17.34703828880269 ], [ 76.844071391591925, 17.346984612010022 ], [ 76.843949545490446, 17.346947485896205 ], [ 76.84384154260961, 17.34690066906656 ], [ 76.843751460616105, 17.346853686986996 ], [ 76.843691093839041, 17.3467911313877 ], [ 76.843451651649914, 17.346743613913954 ], [ 76.84336582034868, 17.346723366972434 ], [ 76.842977290267029, 17.346503186234113 ], [ 76.842747174864485, 17.346392468973843 ], [ 76.842494793989744, 17.346245619866004 ], [ 76.842378444795628, 17.34616062961565 ], [ 76.842208046949722, 17.346047448846534 ], [ 76.842081817770918, 17.345970199638984 ], [ 76.841916166937565, 17.345933474670684 ], [ 76.841781770591325, 17.346234973883124 ], [ 76.841714121508588, 17.346440233511238 ], [ 76.84139719495019, 17.346410638374547 ], [ 76.841277722826092, 17.346411738152451 ], [ 76.841131885744929, 17.346410423227066 ], [ 76.841120475470362, 17.346412675055554 ], [ 76.841103839393838, 17.346348313781746 ], [ 76.841012396466581, 17.346364455919016 ], [ 76.840941368057685, 17.346231235153756 ], [ 76.840670717070296, 17.346249025444269 ], [ 76.840397559429789, 17.346215201240739 ], [ 76.840415185917635, 17.346300688139962 ], [ 76.840442927710413, 17.346576649859873 ], [ 76.839871983894398, 17.346619286139475 ], [ 76.839871283619701, 17.346595953286727 ], [ 76.839868402475645, 17.34654289692115 ], [ 76.839866395389663, 17.346468712311044 ], [ 76.839417624313214, 17.346450164395282 ], [ 76.839426624625645, 17.346229592069012 ], [ 76.83942311651748, 17.346144021296066 ], [ 76.837948771544234, 17.346211164067949 ], [ 76.837981127782797, 17.346271114746205 ], [ 76.83800090153683, 17.34630820403703 ], [ 76.838123266119652, 17.34649117569457 ], [ 76.838181130364404, 17.346574221301051 ], [ 76.838068990811024, 17.347004432759107 ], [ 76.837903394593582, 17.347380923047076 ], [ 76.837797319550461, 17.347711689411611 ], [ 76.837630370615202, 17.348338209341815 ], [ 76.83732105939383, 17.34899078136133 ], [ 76.837312185969324, 17.349008207211227 ], [ 76.837216020749068, 17.349212386885952 ], [ 76.83698508832461, 17.349818749883063 ], [ 76.836805110535991, 17.350315747477566 ], [ 76.836795090544356, 17.350343418230398 ], [ 76.836419848875551, 17.351457088099149 ], [ 76.836208120349298, 17.352102804024728 ], [ 76.835903080091612, 17.353003496965783 ], [ 76.835672735518273, 17.353669713097126 ], [ 76.835601329065639, 17.353880441519266 ], [ 76.835517335382562, 17.354126297624145 ], [ 76.835390501863429, 17.354499042463797 ], [ 76.835219764487533, 17.355009979997391 ], [ 76.835110902471527, 17.355297852952507 ], [ 76.835088129638862, 17.355668513133924 ], [ 76.835162235397817, 17.355906141464509 ], [ 76.835277059190716, 17.35620653801648 ], [ 76.836960293629872, 17.356683284098501 ], [ 76.8383930919248, 17.357136283737962 ], [ 76.838396658711133, 17.357136184981137 ], [ 76.838554857749131, 17.357131808148281 ], [ 76.838781009107208, 17.357031115238712 ], [ 76.839608288746888, 17.35656279997302 ], [ 76.839406043977263, 17.3554277981852 ], [ 76.839161114803176, 17.353982132029362 ], [ 76.839057201225103, 17.353409341214821 ], [ 76.838954070285212, 17.352797013275335 ], [ 76.838995736586114, 17.35267511236156 ], [ 76.839113744532796, 17.35252676573646 ], [ 76.839449876957332, 17.352284612378345 ], [ 76.83957752038468, 17.352503374660166 ], [ 76.839618910575993, 17.352659818234375 ], [ 76.8396949533835, 17.352896267491776 ], [ 76.839750701796106, 17.353094653957502 ], [ 76.839756719154224, 17.353208645829923 ], [ 76.839744265997595, 17.353316055502997 ], [ 76.839740299361765, 17.353566823696287 ], [ 76.839750243531498, 17.353738404353027 ], [ 76.839762156580647, 17.353871566541361 ], [ 76.839834202031994, 17.35431476647237 ], [ 76.839859467672937, 17.354489594385392 ], [ 76.839868228971241, 17.354542596595476 ], [ 76.839915833882657, 17.354834678800497 ], [ 76.839963085648606, 17.355209212012831 ], [ 76.83997909768614, 17.355517396797453 ], [ 76.839979253335017, 17.355725150231255 ], [ 76.839921515148262, 17.35606595736769 ], [ 76.83982932890288, 17.356407228779478 ], [ 76.83974214318566, 17.356650918194713 ], [ 76.83974733319755, 17.356747211012944 ], [ 76.839749380483084, 17.356888550595681 ], [ 76.839764069158065, 17.35692955438633 ], [ 76.839780726980266, 17.35695235094391 ], [ 76.839806244618671, 17.356965025860173 ], [ 76.839826190169873, 17.356965321184301 ], [ 76.843875775207991, 17.354659294742543 ], [ 76.843575306094991, 17.35420124850037 ], [ 76.843255115657655, 17.353700479043148 ], [ 76.842578354891529, 17.352647319947071 ], [ 76.842475555889166, 17.352479452209899 ], [ 76.842310165358114, 17.352244561111299 ], [ 76.841857630880341, 17.35157264200657 ], [ 76.841813448285549, 17.351441411736847 ], [ 76.841702010252391, 17.351305301918117 ], [ 76.841345557764299, 17.35055990075757 ], [ 76.841069330156714, 17.349997652611727 ], [ 76.84176184186758, 17.349656140040565 ], [ 76.842254460628851, 17.349387687938059 ], [ 76.842681592180341, 17.349129355956432 ], [ 76.843041761300753, 17.348861989551466 ], [ 76.843497557793825, 17.348533644192432 ], [ 76.843612573269084, 17.348426379624296 ], [ 76.843704651789281, 17.348307782846096 ], [ 76.843957052669452, 17.347919282091592 ], [ 76.844182935286796, 17.347574985172699 ], [ 76.844212447814698, 17.347524734858339 ], [ 76.844325178686773, 17.347332790961442 ], [ 76.844431409889168, 17.347130096988622 ], [ 76.844265093190771, 17.34703828880269 ] ] ] } },
{ "type": "Feature", "properties": { "KGISWardID": 5953, "KGISWardCode": "0406009", "KGISWardName": " ", "SHAPE.STArea()": 843990.13241036003, "SHAPE.STLength()": 5487.9131335366565, "OBJECTID": 15499, "KGISWardNo": "9", "KGISTownCode": "0406", "LGD_WardCode": 26988, "created_user": "SA", "created_date": 1634898537000, "last_edited_user": "SURESHBV1", "last_edited_date": 1692253949000, "_overlap_percent": 0.20327064061213534, "_police_station": "Chowka PS", "_police_feature_index": "711", "_admin_layer": "Ward", "_geometry_clipped": true }, "geometry": { "type": "MultiPolygon", "coordinates": [ [ [ [ 76.845713973161608, 17.357843093621664 ], [ 76.845729217807744, 17.35787006727621 ], [ 76.845735417837219, 17.357864185622169 ], [ 76.845680232197182, 17.357768812102606 ], [ 76.845713973161608, 17.357843093621664 ] ] ], [ [ [ 76.842578354891529, 17.352647319947071 ], [ 76.843255115657655, 17.353700479043148 ], [ 76.843575306094991, 17.35420124850037 ], [ 76.843875775207991, 17.354659294742543 ], [ 76.843916269597571, 17.354721025838849 ], [ 76.84420595297577, 17.355144768766909 ], [ 76.844260005590243, 17.355223835539821 ], [ 76.844360467381634, 17.355391275684809 ], [ 76.844260969311293, 17.35521182317985 ], [ 76.844000657258405, 17.354754680436521 ], [ 76.843628568945448, 17.354195825904121 ], [ 76.843395148450554, 17.353827237266739 ], [ 76.842830631639956, 17.35298373823316 ], [ 76.842475555889166, 17.352479452209899 ], [ 76.842578354891529, 17.352647319947071 ] ] ], [ [ [ 76.843497557793825, 17.348533644192432 ], [ 76.843569568979987, 17.348481768982481 ], [ 76.843612573269084, 17.348426379624296 ], [ 76.843497557793825, 17.348533644192432 ] ] ], [ [ [ 76.844212447814698, 17.347524734858339 ], [ 76.844182935286796, 17.347574985172699 ], [ 76.843957052669452, 17.347919282091592 ], [ 76.843704651789281, 17.348307782846096 ], [ 76.844041724441041, 17.347873634573112 ], [ 76.844217894736758, 17.347537493624657 ], [ 76.844212447814698, 17.347524734858339 ] ] ] ] } },
{ "type": "Feature", "properties": { "KGISWardID": 5892, "KGISWardCode": "0406018", "KGISWardName": " ", "SHAPE.STArea()": 1254492.0944335801, "SHAPE.STLength()": 6514.8692074645269, "OBJECTID": 15508, "KGISWardNo": "18", "KGISTownCode": "0406", "LGD_WardCode": 26997, "created_user": "SA", "created_date": 1634898537000, "last_edited_user": "SURESHBV1", "last_edited_date": 1692253949000, "_overlap_percent": 99.221049672409322, "_police_station": "Chowka PS", "_police_feature_index": "711", "_admin_layer": "Ward", "_geometry_clipped": true }, "geometry": { "type": "Polygon", "coordinates": [ [ [ 76.817836176657792, 17.355309961923368 ], [ 76.817667331598088, 17.355540771931363 ], [ 76.817445925108913, 17.355868061463283 ], [ 76.817338627094514, 17.356019251437989 ], [ 76.817256844402976, 17.356134067580978 ], [ 76.816570207939094, 17.357109361643886 ], [ 76.816468610478722, 17.357242428517676 ], [ 76.816369963984641, 17.357376597973641 ], [ 76.816274290712883, 17.35751412868126 ], [ 76.816106427105424, 17.357665868366979 ], [ 76.815611343194703, 17.358089385289247 ], [ 76.815259626343732, 17.358381714439332 ], [ 76.814903747881914, 17.358669563100239 ], [ 76.814426519725799, 17.359055644051484 ], [ 76.814266097147978, 17.359186985051235 ], [ 76.813843951500601, 17.359531354065457 ], [ 76.813917442747851, 17.360455437731424 ], [ 76.81414882242268, 17.360397820344339 ], [ 76.81415835396102, 17.360391920412784 ], [ 76.814561014538384, 17.360273001813511 ], [ 76.81454739060959, 17.360298258566381 ], [ 76.814324715156431, 17.360619881782874 ], [ 76.814134188764413, 17.36089506884834 ], [ 76.814120164105717, 17.360899503345266 ], [ 76.814074115981128, 17.361260067248889 ], [ 76.813903296836827, 17.36229794606346 ], [ 76.813593210642836, 17.363425642590368 ], [ 76.813548449097638, 17.364715083327823 ], [ 76.813550867348795, 17.364716048960592 ], [ 76.8138019421271, 17.364816277852164 ], [ 76.814178636182703, 17.364967436615768 ], [ 76.815245650475589, 17.365537593297883 ], [ 76.815466583093411, 17.365615784238138 ], [ 76.816839265049595, 17.366113831741426 ], [ 76.817322584750457, 17.365751040899585 ], [ 76.817847568762616, 17.365262009724699 ], [ 76.817847987170211, 17.365262074588166 ], [ 76.817858875191192, 17.365218168934259 ], [ 76.818004542812119, 17.364630768792946 ], [ 76.81802523823491, 17.364449643673989 ], [ 76.818027278822811, 17.364431781888296 ], [ 76.818029116712538, 17.364431906122249 ], [ 76.81810417682513, 17.364088705345246 ], [ 76.819668516836771, 17.364224274135037 ], [ 76.820035764229445, 17.362083023062823 ], [ 76.82024698667621, 17.361207184417594 ], [ 76.820407284534554, 17.359914980546375 ], [ 76.820409177846699, 17.35990395270273 ], [ 76.820458780895919, 17.359414731817417 ], [ 76.820992770852399, 17.359284024215452 ], [ 76.821173926796689, 17.359231310967907 ], [ 76.821406046470145, 17.357376161988292 ], [ 76.821473305288563, 17.357224000322045 ], [ 76.821633748396849, 17.356682931513408 ], [ 76.821638471054655, 17.356360707845614 ], [ 76.822910994892752, 17.355902060922443 ], [ 76.824086268906058, 17.355427560018924 ], [ 76.824600085661885, 17.355296428004337 ], [ 76.824616551288628, 17.355157846698933 ], [ 76.824650465476779, 17.3548412968678 ], [ 76.824700545738025, 17.354553964678797 ], [ 76.824735331419873, 17.354325502409836 ], [ 76.824871752046633, 17.353671446998884 ], [ 76.824995564803274, 17.353110119849042 ], [ 76.824982660963869, 17.352935175997096 ], [ 76.824996028307524, 17.352876104991893 ], [ 76.825540223238917, 17.352727699185895 ], [ 76.826368091155871, 17.352664630531947 ], [ 76.826397863647742, 17.352658668093095 ], [ 76.826303300780154, 17.351756829591654 ], [ 76.826184627884487, 17.351235799845856 ], [ 76.826056244610413, 17.350503338153267 ], [ 76.826042361026296, 17.350453388726208 ], [ 76.827047955906167, 17.350042578601411 ], [ 76.827596635126497, 17.349795155646341 ], [ 76.828229401108814, 17.349592862641956 ], [ 76.828455978146522, 17.349547760107885 ], [ 76.829001979923191, 17.349482523951306 ], [ 76.829140613436834, 17.349476727543458 ], [ 76.829198143145547, 17.349474322017368 ], [ 76.829226902475511, 17.348767207828068 ], [ 76.829225096273262, 17.348711723350139 ], [ 76.828034210054398, 17.348949946393518 ], [ 76.827968433335769, 17.348756125014038 ], [ 76.827893483863534, 17.34849139424767 ], [ 76.82788533676522, 17.348440644409774 ], [ 76.827851516554119, 17.348232009161936 ], [ 76.827821469885606, 17.348098556663381 ], [ 76.827840697206298, 17.347674170192196 ], [ 76.82761914602537, 17.347271859105021 ], [ 76.827608361354933, 17.347251627922649 ], [ 76.827525348308839, 17.34712250205305 ], [ 76.82746742123048, 17.347032676968308 ], [ 76.827281064637916, 17.346680868123105 ], [ 76.827235833193797, 17.346507349202255 ], [ 76.827197048557863, 17.346212922433459 ], [ 76.827186572352787, 17.346164452665665 ], [ 76.827123239145735, 17.345884932674824 ], [ 76.827117010085999, 17.34588047546718 ], [ 76.827037147383933, 17.345765070648454 ], [ 76.827004797952227, 17.345800177835955 ], [ 76.82679343848487, 17.346011052612802 ], [ 76.826789516481384, 17.346014349308259 ], [ 76.826732743420777, 17.346086765463756 ], [ 76.826651957747046, 17.346189809637192 ], [ 76.826682650967129, 17.346272195467961 ], [ 76.826684428365226, 17.34627696621131 ], [ 76.826484799937461, 17.346376739575902 ], [ 76.825821547421555, 17.346708225886182 ], [ 76.825635154812616, 17.346804807418927 ], [ 76.824053629045835, 17.347624284043629 ], [ 76.822892494332166, 17.34832785430148 ], [ 76.822333614208191, 17.349061757585755 ], [ 76.822110037737858, 17.349355349677293 ], [ 76.82195664891681, 17.349568266135559 ], [ 76.820877054678732, 17.351066820781483 ], [ 76.819978483848089, 17.352312103027021 ], [ 76.819245921968104, 17.353327307166072 ], [ 76.818121192170366, 17.354894380131892 ], [ 76.817836176657792, 17.355309961923368 ] ] ] } },
{ "type": "Feature", "properties": { "KGISWardID": 5895, "KGISWardCode": "0406008", "KGISWardName": " ", "SHAPE.STArea()": 219582.49009800999, "SHAPE.STLength()": 3026.8218864912064, "OBJECTID": 15498, "KGISWardNo": "8", "KGISTownCode": "0406", "LGD_WardCode": 26987, "created_user": "SA", "created_date": 1634898537000, "last_edited_user": "SURESHBV1", "last_edited_date": 1692253949000, "_overlap_percent": 100.00000000000004, "_police_station": "Chowka PS", "_police_feature_index": "711", "_admin_layer": "Ward", "_geometry_clipped": true }, "geometry": { "type": "Polygon", "coordinates": [ [ [ 76.83974214318566, 17.356650918194713 ], [ 76.83982932890288, 17.356407228779478 ], [ 76.839921515148262, 17.35606595736769 ], [ 76.839979253335017, 17.355725150231255 ], [ 76.83997909768614, 17.355517396797453 ], [ 76.839963085648606, 17.355209212012831 ], [ 76.839915833882657, 17.354834678800497 ], [ 76.839868228971241, 17.354542596595476 ], [ 76.839859467672937, 17.354489594385392 ], [ 76.839834202031994, 17.35431476647237 ], [ 76.839762156580647, 17.353871566541361 ], [ 76.839750243531498, 17.353738404353027 ], [ 76.839740299361765, 17.353566823696287 ], [ 76.839744265997595, 17.353316055502997 ], [ 76.839756719154224, 17.353208645829923 ], [ 76.839750701796106, 17.353094653957502 ], [ 76.8396949533835, 17.352896267491776 ], [ 76.839618910575993, 17.352659818234375 ], [ 76.83957752038468, 17.352503374660166 ], [ 76.839449876957332, 17.352284612378345 ], [ 76.839113744532796, 17.35252676573646 ], [ 76.838995736586114, 17.35267511236156 ], [ 76.838954070285212, 17.352797013275335 ], [ 76.839057201225103, 17.353409341214821 ], [ 76.839161114803176, 17.353982132029362 ], [ 76.839406043977263, 17.3554277981852 ], [ 76.839608288746888, 17.35656279997302 ], [ 76.838781009107208, 17.357031115238712 ], [ 76.838554857749131, 17.357131808148281 ], [ 76.838396658711133, 17.357136184981137 ], [ 76.838404137224387, 17.357207947475626 ], [ 76.838467474349073, 17.357662522238307 ], [ 76.838602938310743, 17.35850947250881 ], [ 76.838714100150668, 17.359160126623216 ], [ 76.838767211191026, 17.35947361740644 ], [ 76.83879281721633, 17.359623594986171 ], [ 76.838870191912306, 17.360028089073019 ], [ 76.840006303463454, 17.359882363211891 ], [ 76.840007682950173, 17.359677922551114 ], [ 76.840016417215338, 17.359593941511829 ], [ 76.840063377801485, 17.359560041328482 ], [ 76.840284222780426, 17.359488679934035 ], [ 76.840430822698792, 17.35946103372985 ], [ 76.840592738561412, 17.359471495822579 ], [ 76.842033159000223, 17.359625570803477 ], [ 76.842188042907651, 17.359430503962034 ], [ 76.843178277354184, 17.358130446450893 ], [ 76.843455886813004, 17.357515324718815 ], [ 76.84343319307375, 17.357455288019498 ], [ 76.843382492306915, 17.357324742829221 ], [ 76.843333623326217, 17.357200957247585 ], [ 76.843297509259941, 17.357108556727674 ], [ 76.843470114753487, 17.357048138712088 ], [ 76.843410182195584, 17.35668297707538 ], [ 76.843370372917832, 17.356406636268378 ], [ 76.843460273386839, 17.356208186895824 ], [ 76.843830635518714, 17.355654931291951 ], [ 76.84420595297577, 17.355144768766909 ], [ 76.843916269597571, 17.354721025838849 ], [ 76.843875775207991, 17.354659294742543 ], [ 76.839826190169873, 17.356965321184301 ], [ 76.839806244618671, 17.356965025860173 ], [ 76.839780726980266, 17.35695235094391 ], [ 76.839764069158065, 17.35692955438633 ], [ 76.839749380483084, 17.356888550595681 ], [ 76.83974733319755, 17.356747211012944 ], [ 76.83974214318566, 17.356650918194713 ] ] ] } },
{ "type": "Feature", "properties": { "KGISWardID": 5890, "KGISWardCode": "0406006", "KGISWardName": " ", "SHAPE.STArea()": 1404202.1922874099, "SHAPE.STLength()": 6244.0194392717885, "OBJECTID": 15496, "KGISWardNo": "6", "KGISTownCode": "0406", "LGD_WardCode": 26985, "created_user": "SA", "created_date": 1634898537000, "last_edited_user": "SURESHBV1", "last_edited_date": 1692253949000, "_overlap_percent": 91.781176234116913, "_police_station": "Chowka PS", "_police_feature_index": "711", "_admin_layer": "Ward", "_geometry_clipped": true }, "geometry": { "type": "Polygon", "coordinates": [ [ [ 76.826194658556787, 17.364754875500765 ], [ 76.826097132204893, 17.36470494240956 ], [ 76.826015100103916, 17.364657024450857 ], [ 76.826618340712244, 17.363668366465987 ], [ 76.827168799300679, 17.363801252297009 ], [ 76.827550470245725, 17.363066411297499 ], [ 76.828063035808526, 17.361976344160908 ], [ 76.828261955345894, 17.361576966351581 ], [ 76.82875115622501, 17.36068137316996 ], [ 76.828925234833605, 17.359734450041408 ], [ 76.828983087312636, 17.359460599372028 ], [ 76.829031414284998, 17.35923427178594 ], [ 76.829098259901144, 17.358918550013058 ], [ 76.829306199582788, 17.35812491896279 ], [ 76.829392196483255, 17.357842904702832 ], [ 76.829462513133223, 17.357521503966581 ], [ 76.829490910325646, 17.3564720063636 ], [ 76.829503742853916, 17.355987364698137 ], [ 76.82948243119931, 17.355084017940705 ], [ 76.829590356812773, 17.354997193925009 ], [ 76.829517757428661, 17.354317943008642 ], [ 76.829480018565704, 17.353892494195179 ], [ 76.829471213071898, 17.353123434685621 ], [ 76.829460112731908, 17.352597223030639 ], [ 76.829401140422533, 17.352165191783794 ], [ 76.829367003117682, 17.351569166281912 ], [ 76.829317383298999, 17.351249992144599 ], [ 76.829236595566258, 17.350871243388138 ], [ 76.829189344939209, 17.350375856744733 ], [ 76.829180049456468, 17.349912876319351 ], [ 76.829146114746266, 17.349537570566383 ], [ 76.829140613436834, 17.349476727543458 ], [ 76.829001979923191, 17.349482523951306 ], [ 76.828455978146522, 17.349547760107885 ], [ 76.828229401108814, 17.349592862641956 ], [ 76.827596635126497, 17.349795155646341 ], [ 76.827047955906167, 17.350042578601411 ], [ 76.826042361026296, 17.350453388726208 ], [ 76.826056244610413, 17.350503338153267 ], [ 76.826184627884487, 17.351235799845856 ], [ 76.826303300780154, 17.351756829591654 ], [ 76.826397863647742, 17.352658668093095 ], [ 76.826368091155871, 17.352664630531947 ], [ 76.825540223238917, 17.352727699185895 ], [ 76.824996028307524, 17.352876104991893 ], [ 76.824982660963869, 17.352935175997096 ], [ 76.824995564803274, 17.353110119849042 ], [ 76.824871752046633, 17.353671446998884 ], [ 76.824735331419873, 17.354325502409836 ], [ 76.824700545738025, 17.354553964678797 ], [ 76.824650465476779, 17.3548412968678 ], [ 76.824616551288628, 17.355157846698933 ], [ 76.824600085661885, 17.355296428004337 ], [ 76.824086268906058, 17.355427560018924 ], [ 76.822910994892752, 17.355902060922443 ], [ 76.821638471054655, 17.356360707845614 ], [ 76.821633748396849, 17.356682931513408 ], [ 76.821473305288563, 17.357224000322045 ], [ 76.821406046470145, 17.357376161988292 ], [ 76.821173926796689, 17.359231310967907 ], [ 76.820992770852399, 17.359284024215452 ], [ 76.820458780895919, 17.359414731817417 ], [ 76.820409177846699, 17.35990395270273 ], [ 76.820407284534554, 17.359914980546375 ], [ 76.82024698667621, 17.361207184417594 ], [ 76.820035764229445, 17.362083023062823 ], [ 76.819668516836771, 17.364224274135037 ], [ 76.81810417682513, 17.364088705345246 ], [ 76.818029116712538, 17.364431906122249 ], [ 76.81802523823491, 17.364449643673989 ], [ 76.818004542812119, 17.364630768792946 ], [ 76.817858875191192, 17.365218168934259 ], [ 76.817847987170211, 17.365262074588166 ], [ 76.817847568762616, 17.365262009724699 ], [ 76.817322584750457, 17.365751040899585 ], [ 76.817494672675963, 17.365874971154234 ], [ 76.817496316054971, 17.365876169669967 ], [ 76.817595732140461, 17.365948688502048 ], [ 76.817692733455203, 17.366019445642831 ], [ 76.818136144521745, 17.366852497189473 ], [ 76.818953726062702, 17.366829664781044 ], [ 76.819625126616543, 17.366763650693613 ], [ 76.820280773657117, 17.366627927561193 ], [ 76.820743000003759, 17.366532242557405 ], [ 76.821116755603683, 17.366592420956039 ], [ 76.821379391621178, 17.366902624665901 ], [ 76.821699989376128, 17.367235453760678 ], [ 76.821724701818368, 17.367261143915588 ], [ 76.822286186940744, 17.367866541514388 ], [ 76.822779932043332, 17.368160700731831 ], [ 76.822999228210136, 17.36829126798634 ], [ 76.823126822527385, 17.368328377018987 ], [ 76.823144111082811, 17.368427258468202 ], [ 76.823146113381611, 17.368438710271164 ], [ 76.823196810571474, 17.368466790123399 ], [ 76.823324490437216, 17.36850045302425 ], [ 76.823398595793705, 17.368183784203609 ], [ 76.823852255874058, 17.366245203950974 ], [ 76.82395017318953, 17.365826786533617 ], [ 76.82423132859175, 17.364641366502404 ], [ 76.825431424187371, 17.36481147193766 ], [ 76.826243811018344, 17.364913548282367 ], [ 76.826461205420031, 17.364890622734759 ], [ 76.826194658556787, 17.364754875500765 ] ] ] } },
{ "type": "Feature", "properties": { "KGISWardID": 5893, "KGISWardCode": "0406007", "KGISWardName": " ", "SHAPE.STArea()": 449059.73865196499, "SHAPE.STLength()": 2810.299173207216, "OBJECTID": 15497, "KGISWardNo": "7", "KGISTownCode": "0406", "LGD_WardCode": 26986, "created_user": "SA", "created_date": 1634898537000, "last_edited_user": "SURESHBV1", "last_edited_date": 1692253949000, "_overlap_percent": 100.00000000000003, "_police_station": "Chowka PS", "_police_feature_index": "711", "_admin_layer": "Ward", "_geometry_clipped": true }, "geometry": { "type": "Polygon", "coordinates": [ [ [ 76.837955972301316, 17.36342680199477 ], [ 76.837851048254507, 17.363140950596865 ], [ 76.837830643035758, 17.363082832044906 ], [ 76.838967558511285, 17.362907325189706 ], [ 76.838967130382883, 17.362890537793451 ], [ 76.838957351648901, 17.362499847916038 ], [ 76.838945076653658, 17.362035768583596 ], [ 76.838937621604359, 17.360875921115483 ], [ 76.838905465717147, 17.360482048749674 ], [ 76.838883396139948, 17.360097118940391 ], [ 76.838870191912306, 17.360028089073019 ], [ 76.83879281721633, 17.359623594986171 ], [ 76.838767211191026, 17.35947361740644 ], [ 76.838714100150668, 17.359160126623216 ], [ 76.838602938310743, 17.35850947250881 ], [ 76.838467474349073, 17.357662522238307 ], [ 76.838404137224387, 17.357207947475626 ], [ 76.838396658711133, 17.357136184981137 ], [ 76.8383930919248, 17.357136283737962 ], [ 76.836960293629872, 17.356683284098501 ], [ 76.835277059190716, 17.35620653801648 ], [ 76.835302911816882, 17.356274171860466 ], [ 76.835430712741399, 17.356589237373051 ], [ 76.835473000587541, 17.356820381059794 ], [ 76.835473706600183, 17.3571275778895 ], [ 76.835413785578737, 17.357369824734718 ], [ 76.835322333324456, 17.357516360005231 ], [ 76.835074841916551, 17.357583009082408 ], [ 76.834351017353654, 17.357707112002849 ], [ 76.83388558238569, 17.35779608894595 ], [ 76.833781874570946, 17.35789304136291 ], [ 76.833453539356668, 17.358700203350875 ], [ 76.833302613937335, 17.359075427147552 ], [ 76.833178219273165, 17.359398454026142 ], [ 76.832917170626445, 17.360053655445714 ], [ 76.832816141719476, 17.3603019258783 ], [ 76.832704014998683, 17.360616934105774 ], [ 76.832575955736743, 17.360926441241727 ], [ 76.832323554932501, 17.361564621497241 ], [ 76.832160647697606, 17.361977225601603 ], [ 76.832055070040283, 17.362241349432288 ], [ 76.831701896924642, 17.36309504364084 ], [ 76.831666183308528, 17.363181215400612 ], [ 76.832059314503823, 17.363233833978377 ], [ 76.832056000664934, 17.363281541454029 ], [ 76.831988467095726, 17.363485116384869 ], [ 76.833476571471053, 17.363584212113619 ], [ 76.833862167385831, 17.363556768477341 ], [ 76.834441901230349, 17.363525150595137 ], [ 76.834837477142827, 17.363500004257112 ], [ 76.835355598092633, 17.363531105620087 ], [ 76.836371615303264, 17.363562413804651 ], [ 76.837550897323126, 17.363489418448513 ], [ 76.837955972301316, 17.36342680199477 ] ] ] } },
{ "type": "Feature", "properties": { "KGISWardID": 5889, "KGISWardCode": "0406023", "KGISWardName": " ", "SHAPE.STArea()": 1528600.4042897299, "SHAPE.STLength()": 8776.5833900937832, "OBJECTID": 15513, "KGISWardNo": "23", "KGISTownCode": "0406", "LGD_WardCode": 27002, "created_user": "SA", "created_date": 1634898537000, "last_edited_user": "SURESHBV1", "last_edited_date": 1692253949000, "_overlap_percent": 74.712120990732771, "_police_station": "Chowka PS", "_police_feature_index": "711", "_admin_layer": "Ward", "_geometry_clipped": true }, "geometry": { "type": "Polygon", "coordinates": [ [ [ 76.830856962536785, 17.365237399930461 ], [ 76.831020317085006, 17.36481010988792 ], [ 76.831172292206702, 17.364421324491467 ], [ 76.831405632323964, 17.363817202610395 ], [ 76.831632985576405, 17.363261700709014 ], [ 76.83163987334926, 17.363244696206124 ], [ 76.831666183308528, 17.363181215400612 ], [ 76.831701896924642, 17.36309504364084 ], [ 76.832055070040283, 17.362241349432288 ], [ 76.832160647697606, 17.361977225601603 ], [ 76.832323554932501, 17.361564621497241 ], [ 76.832575955736743, 17.360926441241727 ], [ 76.832704014998683, 17.360616934105774 ], [ 76.832816141719476, 17.3603019258783 ], [ 76.832917170626445, 17.360053655445714 ], [ 76.833178219273165, 17.359398454026142 ], [ 76.833302613937335, 17.359075427147552 ], [ 76.833453539356668, 17.358700203350875 ], [ 76.833781874570946, 17.35789304136291 ], [ 76.83388558238569, 17.35779608894595 ], [ 76.834351017353654, 17.357707112002849 ], [ 76.835074841916551, 17.357583009082408 ], [ 76.835322333324456, 17.357516360005231 ], [ 76.835413785578737, 17.357369824734718 ], [ 76.835473706600183, 17.3571275778895 ], [ 76.835473000587541, 17.356820381059794 ], [ 76.835430712741399, 17.356589237373051 ], [ 76.835302911816882, 17.356274171860466 ], [ 76.835277059190716, 17.35620653801648 ], [ 76.835162235397817, 17.355906141464509 ], [ 76.835088129638862, 17.355668513133924 ], [ 76.835110902471527, 17.355297852952507 ], [ 76.835219764487533, 17.355009979997391 ], [ 76.835390501863429, 17.354499042463797 ], [ 76.835517335382562, 17.354126297624145 ], [ 76.835601329065639, 17.353880441519266 ], [ 76.835672735518273, 17.353669713097126 ], [ 76.835903080091612, 17.353003496965783 ], [ 76.836208120349298, 17.352102804024728 ], [ 76.836419848875551, 17.351457088099149 ], [ 76.836795090544356, 17.350343418230398 ], [ 76.836805110535991, 17.350315747477566 ], [ 76.835618338247713, 17.350252353864867 ], [ 76.835569204308555, 17.349959573683929 ], [ 76.835336556646695, 17.349994699758156 ], [ 76.835290297294577, 17.350043253126351 ], [ 76.835175550306417, 17.350271320477905 ], [ 76.835094140938011, 17.349713002197674 ], [ 76.835036295666939, 17.349336305030693 ], [ 76.834982933384396, 17.349055567809209 ], [ 76.83492729808944, 17.348782757381308 ], [ 76.834897933895718, 17.34860909531421 ], [ 76.834655173787638, 17.348361463598021 ], [ 76.834054004585965, 17.346999498362887 ], [ 76.834035253838294, 17.346949504814763 ], [ 76.832724581398452, 17.347317242242234 ], [ 76.83156268564673, 17.346824897755912 ], [ 76.831422442528492, 17.346680835433062 ], [ 76.831405320171967, 17.346628003096004 ], [ 76.830830523155655, 17.346892800139315 ], [ 76.830471345462158, 17.347020400288539 ], [ 76.830088058221449, 17.34704704086224 ], [ 76.830106798682607, 17.34683348435399 ], [ 76.830105809605925, 17.346825300082568 ], [ 76.830083419509634, 17.346458297237579 ], [ 76.829135481574028, 17.346575614190147 ], [ 76.829136723502202, 17.346610824732615 ], [ 76.829143672238175, 17.346777916576581 ], [ 76.829194649616923, 17.347649368981948 ], [ 76.829204655583169, 17.348124766718684 ], [ 76.829224365876712, 17.348689300492889 ], [ 76.829225096273262, 17.348711723350139 ], [ 76.829226902475511, 17.348767207828068 ], [ 76.829198143145547, 17.349474322017368 ], [ 76.829140613436834, 17.349476727543458 ], [ 76.829146114746266, 17.349537570566383 ], [ 76.829180049456468, 17.349912876319351 ], [ 76.829189344939209, 17.350375856744733 ], [ 76.829236595566258, 17.350871243388138 ], [ 76.829317383298999, 17.351249992144599 ], [ 76.829367003117682, 17.351569166281912 ], [ 76.829401140422533, 17.352165191783794 ], [ 76.829460112731908, 17.352597223030639 ], [ 76.829471213071898, 17.353123434685621 ], [ 76.829480018565704, 17.353892494195179 ], [ 76.829517757428661, 17.354317943008642 ], [ 76.829590356812773, 17.354997193925009 ], [ 76.82948243119931, 17.355084017940705 ], [ 76.829503742853916, 17.355987364698137 ], [ 76.829490910325646, 17.3564720063636 ], [ 76.829462513133223, 17.357521503966581 ], [ 76.829392196483255, 17.357842904702832 ], [ 76.829306199582788, 17.35812491896279 ], [ 76.829098259901144, 17.358918550013058 ], [ 76.829031414284998, 17.35923427178594 ], [ 76.828983087312636, 17.359460599372028 ], [ 76.828925234833605, 17.359734450041408 ], [ 76.82875115622501, 17.36068137316996 ], [ 76.828261955345894, 17.361576966351581 ], [ 76.828063035808526, 17.361976344160908 ], [ 76.827550470245725, 17.363066411297499 ], [ 76.827168799300679, 17.363801252297009 ], [ 76.826618340712244, 17.363668366465987 ], [ 76.826015100103916, 17.364657024450857 ], [ 76.826097132204893, 17.36470494240956 ], [ 76.826194658556787, 17.364754875500765 ], [ 76.826461205420031, 17.364890622734759 ], [ 76.826514769469952, 17.364884974083427 ], [ 76.826528368386263, 17.364883540560935 ], [ 76.826575323891021, 17.36481103402506 ], [ 76.827107783868499, 17.363988839713254 ], [ 76.827366527825035, 17.363518157402094 ], [ 76.827579702067681, 17.363178363005876 ], [ 76.828104019972145, 17.363524641694362 ], [ 76.828150638252808, 17.363350601544983 ], [ 76.828173591702409, 17.363267138351038 ], [ 76.828322816782901, 17.363355120918893 ], [ 76.82862341813285, 17.3659785815994 ], [ 76.828649429990151, 17.366205590522558 ], [ 76.828648152678895, 17.366473297988833 ], [ 76.828720283203509, 17.366463398292574 ], [ 76.829252574805238, 17.366390337929388 ], [ 76.829826309507581, 17.366311587490461 ], [ 76.830347846611332, 17.366035945057583 ], [ 76.830354161200333, 17.36602269281709 ], [ 76.830362514219459, 17.366021227566446 ], [ 76.83054711920677, 17.366000478223771 ], [ 76.830604402159025, 17.365871543171838 ], [ 76.830856962536785, 17.365237399930461 ] ] ] } },
{ "type": "Feature", "properties": { "KGISWardID": 5891, "KGISWardCode": "0406003", "KGISWardName": " ", "SHAPE.STArea()": 745338.85574012005, "SHAPE.STLength()": 3967.281703986097, "OBJECTID": 15493, "KGISWardNo": "3", "KGISTownCode": "0406", "LGD_WardCode": 26982, "created_user": "SA", "created_date": 1634898537000, "last_edited_user": "SURESHBV1", "last_edited_date": 1692253949000, "_overlap_percent": 61.334790288751698, "_police_station": "Chowka PS", "_police_feature_index": "711", "_admin_layer": "Ward", "_geometry_clipped": true }, "geometry": { "type": "Polygon", "coordinates": [ [ [ 76.843340690273365, 17.365434359362531 ], [ 76.843579899224025, 17.36536212875022 ], [ 76.844150872099462, 17.365181800650269 ], [ 76.845020191787867, 17.364903845662223 ], [ 76.845211992681598, 17.364859409196416 ], [ 76.845214319830404, 17.364789637368666 ], [ 76.845226277962951, 17.364405598002751 ], [ 76.8447591408368, 17.363863434746044 ], [ 76.8447673873914, 17.363407120577705 ], [ 76.844773453929491, 17.36301857807031 ], [ 76.84464483746649, 17.362855111324276 ], [ 76.844605844070557, 17.362784047683267 ], [ 76.844335503420695, 17.362419869979053 ], [ 76.843957330992481, 17.361678717100091 ], [ 76.843870266560231, 17.361204555294275 ], [ 76.843949436186037, 17.360886996694461 ], [ 76.843994028102514, 17.360791213563157 ], [ 76.844012601890199, 17.360751314671919 ], [ 76.844351535424195, 17.360486403659106 ], [ 76.844827322194149, 17.360159001104211 ], [ 76.844856674697297, 17.360137175473302 ], [ 76.844918856258204, 17.360077168850829 ], [ 76.845053099279866, 17.359936083380319 ], [ 76.845323686356096, 17.359711407328316 ], [ 76.845600523223268, 17.359426136433907 ], [ 76.845617275634595, 17.359205673799003 ], [ 76.845649452946617, 17.358782238754628 ], [ 76.845624396955458, 17.358642246913043 ], [ 76.84556188891257, 17.358286205143777 ], [ 76.845512212332821, 17.358003246552951 ], [ 76.845528634080196, 17.357993829203693 ], [ 76.845607804318206, 17.357948420325606 ], [ 76.84570598567484, 17.357892106424394 ], [ 76.845729217807744, 17.35787006727621 ], [ 76.845713973161608, 17.357843093621664 ], [ 76.845680232197182, 17.357768812102606 ], [ 76.845358818402744, 17.357213334902564 ], [ 76.844989144859696, 17.356539843562 ], [ 76.844737270438543, 17.356070869291095 ], [ 76.844360467381634, 17.355391275684809 ], [ 76.844260005590243, 17.355223835539821 ], [ 76.84420595297577, 17.355144768766909 ], [ 76.843830635518714, 17.355654931291951 ], [ 76.843460273386839, 17.356208186895824 ], [ 76.843370372917832, 17.356406636268378 ], [ 76.843410182195584, 17.35668297707538 ], [ 76.843470114753487, 17.357048138712088 ], [ 76.843297509259941, 17.357108556727674 ], [ 76.843333623326217, 17.357200957247585 ], [ 76.843382492306915, 17.357324742829221 ], [ 76.84343319307375, 17.357455288019498 ], [ 76.843455886813004, 17.357515324718815 ], [ 76.843178277354184, 17.358130446450893 ], [ 76.842188042907651, 17.359430503962034 ], [ 76.842033159000223, 17.359625570803477 ], [ 76.840592738561412, 17.359471495822579 ], [ 76.840430822698792, 17.35946103372985 ], [ 76.840284222780426, 17.359488679934035 ], [ 76.840063377801485, 17.359560041328482 ], [ 76.840016417215338, 17.359593941511829 ], [ 76.840007682950173, 17.359677922551114 ], [ 76.840006303463454, 17.359882363211891 ], [ 76.838870191912306, 17.360028089073019 ], [ 76.838883396139948, 17.360097118940391 ], [ 76.838905465717147, 17.360482048749674 ], [ 76.838937621604359, 17.360875921115483 ], [ 76.838945076653658, 17.362035768583596 ], [ 76.838957351648901, 17.362499847916038 ], [ 76.838967130382883, 17.362890537793451 ], [ 76.838967558511285, 17.362907325189706 ], [ 76.837830643035758, 17.363082832044906 ], [ 76.837851048254507, 17.363140950596865 ], [ 76.837955972301316, 17.36342680199477 ], [ 76.837970044728692, 17.363465139789565 ], [ 76.838214519231997, 17.364131172061377 ], [ 76.838373454897905, 17.364591098758254 ], [ 76.838609245451408, 17.36517726107796 ], [ 76.83883759499976, 17.364944585067263 ], [ 76.839063848944562, 17.364333473956414 ], [ 76.839096997391621, 17.36424394101687 ], [ 76.839269023916387, 17.364142416764786 ], [ 76.839650486820432, 17.363963233777419 ], [ 76.840296094052363, 17.363844386702453 ], [ 76.840320292830668, 17.363839931709126 ], [ 76.841638486773178, 17.364662481908798 ], [ 76.842628006882705, 17.365273458081102 ], [ 76.843039883916404, 17.365520653867083 ], [ 76.843340690273365, 17.365434359362531 ] ] ] } },
{ "type": "Feature", "properties": { "KGISWardID": 5887, "KGISWardCode": "0406001", "KGISWardName": " ", "SHAPE.STArea()": 2022801.8053339201, "SHAPE.STLength()": 7539.4408612243087, "OBJECTID": 15491, "KGISWardNo": "1", "KGISTownCode": "0406", "LGD_WardCode": 26980, "created_user": "SA", "created_date": 1634898537000, "last_edited_user": "SURESHBV1", "last_edited_date": 1692253949000, "_overlap_percent": 9.3532352410141204, "_police_station": "Chowka PS", "_police_feature_index": "711", "_admin_layer": "Ward", "_geometry_clipped": true }, "geometry": { "type": "MultiPolygon", "coordinates": [ [ [ [ 76.838373454897905, 17.364591098758254 ], [ 76.838214519231997, 17.364131172061377 ], [ 76.837970044728692, 17.363465139789565 ], [ 76.837955972301316, 17.36342680199477 ], [ 76.837550897323126, 17.363489418448513 ], [ 76.836371615303264, 17.363562413804651 ], [ 76.835355598092633, 17.363531105620087 ], [ 76.834837477142827, 17.363500004257112 ], [ 76.834441901230349, 17.363525150595137 ], [ 76.833862167385831, 17.363556768477341 ], [ 76.833476571471053, 17.363584212113619 ], [ 76.831988467095726, 17.363485116384869 ], [ 76.832056000664934, 17.363281541454029 ], [ 76.832059314503823, 17.363233833978377 ], [ 76.831666183308528, 17.363181215400612 ], [ 76.83163987334926, 17.363244696206124 ], [ 76.831632985576405, 17.363261700709014 ], [ 76.831405632323964, 17.363817202610395 ], [ 76.831172292206702, 17.364421324491467 ], [ 76.831020317085006, 17.36481010988792 ], [ 76.830856962536785, 17.365237399930461 ], [ 76.830604402159025, 17.365871543171838 ], [ 76.830960005924922, 17.365071134180603 ], [ 76.830976386156308, 17.365036084857369 ], [ 76.83102025718604, 17.364941111140975 ], [ 76.831261231522717, 17.364630582661842 ], [ 76.831509430847603, 17.364425010735662 ], [ 76.831838474427869, 17.364415405444699 ], [ 76.832268589650766, 17.364402902370148 ], [ 76.833695157138408, 17.364360103472293 ], [ 76.83467702705363, 17.364272011615061 ], [ 76.83475732856401, 17.364872691545902 ], [ 76.834875208132345, 17.365921672151689 ], [ 76.834884915313808, 17.366041372369736 ], [ 76.834958251788734, 17.36670237746209 ], [ 76.834988393510727, 17.36697405313102 ], [ 76.835615548072539, 17.367066962049773 ], [ 76.836169614279839, 17.36717422103737 ], [ 76.837128814041904, 17.367359902819139 ], [ 76.837100554475569, 17.367347544730919 ], [ 76.837271398497847, 17.367137502537151 ], [ 76.837311709158783, 17.36712568588079 ], [ 76.837359762524116, 17.367057807608305 ], [ 76.837538192966093, 17.366919602599761 ], [ 76.837681749271326, 17.366582169219264 ], [ 76.837696080329593, 17.366548483658764 ], [ 76.838448888226068, 17.365423992953136 ], [ 76.838483471636806, 17.36537233581037 ], [ 76.83848692063691, 17.365340703769771 ], [ 76.838470392154761, 17.36527822262769 ], [ 76.838523190563777, 17.365264946418705 ], [ 76.838609245451408, 17.36517726107796 ], [ 76.838373454897905, 17.364591098758254 ] ] ], [ [ [ 76.845020191787867, 17.364903845662223 ], [ 76.844150872099462, 17.365181800650269 ], [ 76.843579899224025, 17.36536212875022 ], [ 76.843340690273365, 17.365434359362531 ], [ 76.843039883916404, 17.365520653867083 ], [ 76.843366584071433, 17.365716729139535 ], [ 76.843377285679267, 17.365716417188843 ], [ 76.843788794973307, 17.365704444721619 ], [ 76.84391811973677, 17.365683811907889 ], [ 76.844754646872445, 17.365792532592 ], [ 76.844812770796679, 17.365736630132997 ], [ 76.84510897864547, 17.365451737886513 ], [ 76.845201209280134, 17.365182713674368 ], [ 76.845211992681598, 17.364859409196416 ], [ 76.845020191787867, 17.364903845662223 ] ] ] ] } }
]
}
