{
"type": "FeatureCollection",
"name": "hoblis_in_police_area.writing_20260805_172659",
"crs": { "type": "name", "properties": { "name": "urn:ogc:def:crs:OGC:1.3:CRS84" } },
"features": [
{ "type": "Feature", "properties": { "OBJECTID": 832, "KGISHobliID": 220, "KGISHobliCode": "180902", "KGISHobliName": "Dandinashivara", "BhuCodeHobli": null, "SHAPE.STArea()": 154933937.50083256, "SHAPE.STLength()": 75105.88776001129, "KGISTalukCode": "1809", "created_user": null, "created_date": null, "last_edited_user": "SURESHBV", "last_edited_date": 1645683082000.0, "_overlap_percent": 99.822678449136859, "_police_station": "Dandinashivara PS", "_police_feature_index": "158", "_admin_layer": "Hobli", "_geometry_clipped": true }, "geometry": { "type": "Polygon", "coordinates": [ [ [ 76.757639609497573, 13.295469590721824 ], [ 76.757645898002181, 13.295527810509791 ], [ 76.758372883270482, 13.295542763873431 ], [ 76.758523936543881, 13.295524409381315 ], [ 76.758674990705899, 13.29550605479583 ], [ 76.758762337269872, 13.295498326424772 ], [ 76.759065895268805, 13.295471468959251 ], [ 76.759212319818886, 13.295471488265253 ], [ 76.759309410449262, 13.295471500809454 ], [ 76.759905939310926, 13.295471577031146 ], [ 76.760478998074845, 13.295548189261263 ], [ 76.760827596569698, 13.295660460994464 ], [ 76.760994316765448, 13.295714156740715 ], [ 76.761491894705088, 13.295715639287346 ], [ 76.76169555338825, 13.295716244083033 ], [ 76.761820817251163, 13.295716623583834 ], [ 76.761712622040847, 13.295175230633303 ], [ 76.761776071312326, 13.294064966611959 ], [ 76.761779734153919, 13.29394173133444 ], [ 76.761783780720123, 13.29393006391091 ], [ 76.761785827323834, 13.293894251514324 ], [ 76.761820430817224, 13.293794294571727 ], [ 76.761976173949932, 13.293267819925486 ], [ 76.762116047656065, 13.292794965871488 ], [ 76.762225800751722, 13.292423952084947 ], [ 76.76236132316555, 13.29190482035583 ], [ 76.762498483271528, 13.291379437868407 ], [ 76.762680443364147, 13.290480576601263 ], [ 76.762765523142988, 13.290060317539909 ], [ 76.763068177611004, 13.288668818224998 ], [ 76.763647139517644, 13.285817330715119 ], [ 76.763703625163586, 13.285815166742749 ], [ 76.763769771917012, 13.28579933442156 ], [ 76.763882050408441, 13.285772437164253 ], [ 76.765973122871586, 13.285614737485096 ], [ 76.766068017609371, 13.285608254416511 ], [ 76.766809249438936, 13.285557567884812 ], [ 76.766923694486252, 13.285559153141413 ], [ 76.76735317753861, 13.285565058378912 ], [ 76.76747636571784, 13.28557114265846 ], [ 76.767600188837449, 13.285570476928562 ], [ 76.767607444619756, 13.285570436591424 ], [ 76.767610478894866, 13.285488852496051 ], [ 76.767613407543834, 13.285412580360282 ], [ 76.767698734706897, 13.285413582471724 ], [ 76.767700745493372, 13.285379650600161 ], [ 76.767843504943784, 13.285383272599656 ], [ 76.768287502108933, 13.2848879340421 ], [ 76.768298466662429, 13.284370588255852 ], [ 76.768296639713427, 13.284353038872766 ], [ 76.768309460961092, 13.284232060690487 ], [ 76.768292541240044, 13.284060722482391 ], [ 76.768282566369464, 13.283956612422383 ], [ 76.768370405769375, 13.283941241768462 ], [ 76.768368829075783, 13.283924000901607 ], [ 76.769138548066707, 13.283785125492226 ], [ 76.770045962689778, 13.283707984007977 ], [ 76.7700712761945, 13.28382109094372 ], [ 76.770097767455241, 13.284066094056838 ], [ 76.770105179075017, 13.284134633070842 ], [ 76.770319957097129, 13.284146267750986 ], [ 76.770455083485714, 13.284153587320075 ], [ 76.770726527013352, 13.284151022683707 ], [ 76.770870095707153, 13.284149714609992 ], [ 76.771401448411481, 13.284143255447109 ], [ 76.771748822010309, 13.284139887398586 ], [ 76.771770526234278, 13.283956314581156 ], [ 76.771914240277269, 13.282871563971232 ], [ 76.772081398886058, 13.282353604192785 ], [ 76.772168682386052, 13.282084167020374 ], [ 76.772164122280998, 13.281977671350379 ], [ 76.772142348212256, 13.281464032270561 ], [ 76.77215617733539, 13.281430062841693 ], [ 76.772165445276826, 13.281407244754361 ], [ 76.772165265960254, 13.28140346668326 ], [ 76.772179130459648, 13.281369667837495 ], [ 76.772211339483519, 13.281291146128973 ], [ 76.772152317055671, 13.28128647410275 ], [ 76.771859908117165, 13.281263610062071 ], [ 76.771869414774201, 13.280970810803309 ], [ 76.771869432743259, 13.280970234917731 ], [ 76.77184669164447, 13.280956456552046 ], [ 76.77187381958764, 13.280900498649636 ], [ 76.77186160578546, 13.280893075124693 ], [ 76.771978362843399, 13.280658651887885 ], [ 76.772017346449601, 13.280272440218834 ], [ 76.772052344835501, 13.279895094267438 ], [ 76.772041160156988, 13.279444179914032 ], [ 76.772036154434275, 13.27924328699002 ], [ 76.772060934596396, 13.27877218939787 ], [ 76.772082063422545, 13.27838569887772 ], [ 76.772157479613895, 13.27835599093614 ], [ 76.772374557421571, 13.278159803229039 ], [ 76.772385753964556, 13.278131983031859 ], [ 76.772410649327895, 13.278070190702055 ], [ 76.772663876189753, 13.278073364660239 ], [ 76.77303430664368, 13.278025554230345 ], [ 76.773440426034313, 13.278093527089995 ], [ 76.773617506381598, 13.278007495956786 ], [ 76.774014718297124, 13.278096090080064 ], [ 76.774398700731766, 13.278093538139821 ], [ 76.774679823624339, 13.278104087317281 ], [ 76.774739335861383, 13.278106262053651 ], [ 76.774852849882805, 13.278063435787967 ], [ 76.774933261876129, 13.278033008929183 ], [ 76.77510422351169, 13.277971121851017 ], [ 76.775151437914218, 13.277907818840401 ], [ 76.775234991790811, 13.277787728637032 ], [ 76.775273393087147, 13.277733393708626 ], [ 76.775425159978468, 13.277835882722693 ], [ 76.775539359719431, 13.277913584002668 ], [ 76.775584045993654, 13.277762495671228 ], [ 76.775693512820709, 13.277714792035134 ], [ 76.775934876645366, 13.277186295904482 ], [ 76.776126305448003, 13.276935626071795 ], [ 76.776191074715854, 13.276850764498283 ], [ 76.776229452432872, 13.276800468983909 ], [ 76.776497993458932, 13.276756991745307 ], [ 76.776804212521611, 13.27594028586611 ], [ 76.777017732056422, 13.275329698645175 ], [ 76.777074885485121, 13.275166134876915 ], [ 76.777121541832088, 13.274999479036081 ], [ 76.777219064001329, 13.274650674720636 ], [ 76.777293109503432, 13.274329404940149 ], [ 76.777373098369338, 13.273953188659979 ], [ 76.777426527069139, 13.273767687043843 ], [ 76.777456801341486, 13.273662232032175 ], [ 76.777513374752999, 13.273462520561836 ], [ 76.777569608642693, 13.273263334792061 ], [ 76.778091492657836, 13.272043301799158 ], [ 76.778209520733341, 13.271765809782458 ], [ 76.779048488034903, 13.270550893065396 ], [ 76.779163021923893, 13.270384463504785 ], [ 76.780070091932757, 13.269066393060402 ], [ 76.780152761952905, 13.268946260085544 ], [ 76.780200471777277, 13.268919264868812 ], [ 76.781155559799316, 13.268372507340484 ], [ 76.781175425220269, 13.268217548748073 ], [ 76.781394288614834, 13.267747156038304 ], [ 76.78140955542824, 13.267746573914208 ], [ 76.781417592780528, 13.267729046072581 ], [ 76.781897419771525, 13.267727971630807 ], [ 76.782007250202042, 13.267723783792892 ], [ 76.782214679109543, 13.267661524021401 ], [ 76.782453578276332, 13.267572161367728 ], [ 76.782470972498075, 13.267568786693802 ], [ 76.782868344044957, 13.267698289777554 ], [ 76.783055585125709, 13.267788926321348 ], [ 76.783300174011501, 13.267808390115409 ], [ 76.783609408009639, 13.267832996922735 ], [ 76.783730048060207, 13.267850203317961 ], [ 76.783744895278161, 13.267851481373064 ], [ 76.784889425911288, 13.267950029023718 ], [ 76.784922551484755, 13.268020927674511 ], [ 76.784927985797054, 13.268021534230391 ], [ 76.785146268550349, 13.268499748644865 ], [ 76.785165588538788, 13.268541098911468 ], [ 76.785169808759036, 13.268550132320707 ], [ 76.785211911549581, 13.268640244754597 ], [ 76.785286063500479, 13.268798951403047 ], [ 76.785313109236625, 13.268865263647282 ], [ 76.785815538084634, 13.26996598605316 ], [ 76.785846792100102, 13.270044172047278 ], [ 76.785841208444168, 13.270093422597606 ], [ 76.785835293592186, 13.270145584833553 ], [ 76.785836855172917, 13.270149413624008 ], [ 76.785865185629007, 13.270147998426051 ], [ 76.786008981613989, 13.270140815166728 ], [ 76.786203594906539, 13.270131092700776 ], [ 76.786286222065826, 13.270126964786479 ], [ 76.78655910398804, 13.270113331773027 ], [ 76.786587553415714, 13.270111910238123 ], [ 76.786646122782642, 13.270108984038144 ], [ 76.787576172627041, 13.269940344705182 ], [ 76.787598714382682, 13.269936257464519 ], [ 76.787621868961622, 13.269932059266612 ], [ 76.787635222055059, 13.269929638134842 ], [ 76.788007474908312, 13.269877441929321 ], [ 76.78801203328031, 13.26987680254415 ], [ 76.788054072639, 13.269870908089947 ], [ 76.788080013308175, 13.269869146977928 ], [ 76.788179817460204, 13.269862371619723 ], [ 76.788222864983254, 13.269859449171525 ], [ 76.788285081626867, 13.26985522527603 ], [ 76.788294480805405, 13.269854587154963 ], [ 76.788328054438395, 13.269852307854075 ], [ 76.788372405165518, 13.269849296693277 ], [ 76.788401542525691, 13.269847318778849 ], [ 76.788454400560042, 13.26984372997121 ], [ 76.788506802053746, 13.269840172377512 ], [ 76.788618208709792, 13.26983260857773 ], [ 76.788629059592694, 13.269831872577976 ], [ 76.788877726813936, 13.269814989665505 ], [ 76.78901281996599, 13.269805817716453 ], [ 76.789118810811459, 13.269798621641451 ], [ 76.789223151647633, 13.26979153743973 ], [ 76.789231436676943, 13.269790974898932 ], [ 76.789239215362301, 13.269790446645258 ], [ 76.789257800110008, 13.269746253150974 ], [ 76.789265074436287, 13.269732038641061 ], [ 76.789270511980988, 13.269721412684808 ], [ 76.789270819477537, 13.26972081217264 ], [ 76.789298259212714, 13.269667192538297 ], [ 76.789556760957552, 13.269645275938444 ], [ 76.789665072643274, 13.269636092937921 ], [ 76.789738517904652, 13.269624266121657 ], [ 76.79055996091995, 13.269491988499212 ], [ 76.790989929419581, 13.269410312639714 ], [ 76.791073652742114, 13.269394408215954 ], [ 76.791102892130439, 13.269381310061135 ], [ 76.791544385184523, 13.269183531688784 ], [ 76.791591369738612, 13.269165483014929 ], [ 76.791709311869269, 13.26912017578816 ], [ 76.791857404970656, 13.26906328595909 ], [ 76.792050489950796, 13.268983021345255 ], [ 76.792136892690479, 13.268947104489238 ], [ 76.793022669005524, 13.269059710736235 ], [ 76.793114432120845, 13.269071376288268 ], [ 76.793150762715513, 13.269048342554063 ], [ 76.79321439243931, 13.269008000383618 ], [ 76.793333753796901, 13.268932323813685 ], [ 76.793578816230095, 13.269057345182503 ], [ 76.793663895008635, 13.269006526277188 ], [ 76.793675821931544, 13.268998019292571 ], [ 76.793918322051042, 13.268825050564708 ], [ 76.794016062416276, 13.26875533501777 ], [ 76.794091763363625, 13.268713108078538 ], [ 76.794137637530952, 13.268687518705407 ], [ 76.794398259832931, 13.26867041985096 ], [ 76.794534497707886, 13.268661481047486 ], [ 76.794750148153, 13.26864733243251 ], [ 76.795231803935607, 13.268570220665667 ], [ 76.79544181247708, 13.268536598855265 ], [ 76.795494404689663, 13.268528178506157 ], [ 76.795593898726167, 13.268512249195656 ], [ 76.795735511095998, 13.268469100824502 ], [ 76.796051866673963, 13.268372708370972 ], [ 76.796234720021602, 13.268337939667257 ], [ 76.796480755018905, 13.268348884186429 ], [ 76.796581734181274, 13.268353376523768 ], [ 76.796652343994054, 13.268356517511183 ], [ 76.796999433583437, 13.268411464259803 ], [ 76.797128682624376, 13.268391421660528 ], [ 76.797175117332941, 13.268388166538804 ], [ 76.797369366900966, 13.268374549943703 ], [ 76.797545955789616, 13.268362171352384 ], [ 76.798219830304973, 13.268366982373344 ], [ 76.798719609256565, 13.268384432812642 ], [ 76.798844907297081, 13.268397684412285 ], [ 76.79906788152033, 13.268421265088744 ], [ 76.79922159166415, 13.268494777193522 ], [ 76.799501128332082, 13.268628465400239 ], [ 76.799582831404933, 13.268649919852017 ], [ 76.800039938016866, 13.268794306503098 ], [ 76.801048488677495, 13.269085174002067 ], [ 76.801069552355088, 13.269037268186592 ], [ 76.802344911664989, 13.26613657595772 ], [ 76.802334990176462, 13.265699821710303 ], [ 76.802726987217369, 13.26362352747636 ], [ 76.802737043947218, 13.263239748484871 ], [ 76.802795825343281, 13.260996830817655 ], [ 76.802895046151818, 13.260276628173635 ], [ 76.80304429283872, 13.259193306920238 ], [ 76.803221556953957, 13.258041644427342 ], [ 76.80324588629378, 13.257945291848126 ], [ 76.803282303189135, 13.257933051289863 ], [ 76.803294635880235, 13.257818878936437 ], [ 76.803326496182848, 13.257696846225693 ], [ 76.803355158980935, 13.257694693892132 ], [ 76.803566742970219, 13.256465137047121 ], [ 76.803696850014987, 13.255709051784905 ], [ 76.80376718161088, 13.255300337624023 ], [ 76.804126987589129, 13.255278803343115 ], [ 76.804910895689687, 13.255231886061978 ], [ 76.804947697826819, 13.255229683207228 ], [ 76.805052957855835, 13.255223383098373 ], [ 76.805075141696335, 13.255222055586509 ], [ 76.805127666746628, 13.254603225636378 ], [ 76.805142588993704, 13.254427416174721 ], [ 76.805147074656915, 13.254374566166323 ], [ 76.805154215718488, 13.254290429590014 ], [ 76.805159950996739, 13.254222858776828 ], [ 76.805168781130519, 13.254167190544687 ], [ 76.80519829568162, 13.253981115812344 ], [ 76.805203976406787, 13.253945302139988 ], [ 76.805200672065524, 13.253896369420787 ], [ 76.805199711831094, 13.253882148721393 ], [ 76.805196334901282, 13.253832130992178 ], [ 76.805190893568067, 13.253751545220121 ], [ 76.805188273885335, 13.253712746134234 ], [ 76.805181398337581, 13.253616224797499 ], [ 76.805157341411544, 13.253278528852661 ], [ 76.805157049082482, 13.253274422925109 ], [ 76.805151615635566, 13.253198152068355 ], [ 76.805149487110896, 13.25316827049882 ], [ 76.805146605218255, 13.253127819220348 ], [ 76.805142592152293, 13.253071486270748 ], [ 76.805138029483757, 13.253007440142119 ], [ 76.805133536752166, 13.252944368771614 ], [ 76.805126567661901, 13.252846537502958 ], [ 76.805101479685106, 13.252494359198549 ], [ 76.805098127403937, 13.252447297776349 ], [ 76.805052586680361, 13.251808018926912 ], [ 76.805034715038843, 13.251557135464699 ], [ 76.805029451743167, 13.251439606254392 ], [ 76.805027269088612, 13.251390865329274 ], [ 76.805020643027689, 13.251242933924818 ], [ 76.805008923904296, 13.250981280015523 ], [ 76.804995995259887, 13.250692605025888 ], [ 76.804986633345337, 13.250483581868462 ], [ 76.804968500773384, 13.250269842109013 ], [ 76.804963112801047, 13.250206336871393 ], [ 76.804948551454103, 13.250034696663539 ], [ 76.804943764749623, 13.249978278775645 ], [ 76.804874638134166, 13.249265113213015 ], [ 76.804857906059041, 13.249092487769444 ], [ 76.804788295923643, 13.248374320880654 ], [ 76.804700953213441, 13.247501992084892 ], [ 76.804687509395436, 13.24736772441697 ], [ 76.804679202891606, 13.247284765429516 ], [ 76.804677066541686, 13.24726343340506 ], [ 76.804668185351829, 13.247174732704508 ], [ 76.804727794433717, 13.247163992734945 ], [ 76.804728670724955, 13.247163834689999 ], [ 76.804733344284898, 13.247162992687345 ], [ 76.804744020122101, 13.247161068801738 ], [ 76.804754417644858, 13.247159815733443 ], [ 76.804775788417913, 13.247159310263074 ], [ 76.80478600516733, 13.24715906807285 ], [ 76.805090251014406, 13.247151868451343 ], [ 76.805855628437243, 13.247047844723772 ], [ 76.806777159587526, 13.247118484989819 ], [ 76.80730860136859, 13.247108824789029 ], [ 76.807441776576937, 13.247112135863135 ], [ 76.807439062650744, 13.24715583359102 ], [ 76.807438240481218, 13.247169160357867 ], [ 76.807445245355837, 13.247169697318778 ], [ 76.807445195021103, 13.247170668615357 ], [ 76.807637889717228, 13.247156712714284 ], [ 76.807759080528044, 13.247171158978492 ], [ 76.808263562751335, 13.24720691519102 ], [ 76.808760914589584, 13.247242165066965 ], [ 76.808859934303996, 13.247247063343888 ], [ 76.809263737701883, 13.247246053203117 ], [ 76.809784900884665, 13.247244748711008 ], [ 76.809881855472298, 13.247244505687599 ], [ 76.809883328970841, 13.247244506081696 ], [ 76.809984348654083, 13.247245614359683 ], [ 76.809997086153714, 13.247245754483604 ], [ 76.811126710085674, 13.247258143886512 ], [ 76.813232961666827, 13.247281230980381 ], [ 76.81331094152651, 13.247283354898729 ], [ 76.813379629213586, 13.247285225775961 ], [ 76.813538517083046, 13.247265630009958 ], [ 76.81357584991828, 13.247261026193776 ], [ 76.813655814132787, 13.247250656497899 ], [ 76.813719256399821, 13.247242429742517 ], [ 76.813785224913957, 13.247233705071261 ], [ 76.813825961170792, 13.247228317795001 ], [ 76.813924283448927, 13.24721519093573 ], [ 76.814338347831836, 13.247162661038331 ], [ 76.81452713436299, 13.247138710647917 ], [ 76.81584304543432, 13.246907737097978 ], [ 76.816154093817204, 13.246853140059644 ], [ 76.816166781410118, 13.246850913062053 ], [ 76.816226099522083, 13.246840501543442 ], [ 76.816328601178427, 13.246823784699796 ], [ 76.816715549634054, 13.246760676598131 ], [ 76.816958479818709, 13.246721056760208 ], [ 76.817066720715843, 13.246703403957019 ], [ 76.817349748030978, 13.246657244513798 ], [ 76.817825198895264, 13.246579700919847 ], [ 76.818552785943169, 13.246461034272214 ], [ 76.818759797313419, 13.246427270802961 ], [ 76.818775621033708, 13.246420706376304 ], [ 76.818901232969225, 13.246368593785183 ], [ 76.819071255395485, 13.246364664208864 ], [ 76.819078078956977, 13.246363289313821 ], [ 76.820018956370433, 13.246306034430473 ], [ 76.820151538461886, 13.246894508460128 ], [ 76.820815080578129, 13.246972952196014 ], [ 76.820750632330032, 13.247160734467206 ], [ 76.820872215144135, 13.247653070421263 ], [ 76.820951439309937, 13.247980315265933 ], [ 76.82137569863643, 13.248641832702454 ], [ 76.821431040137867, 13.249361867031231 ], [ 76.821451894426403, 13.249633341802205 ], [ 76.821470751812811, 13.250212791651329 ], [ 76.821472194718922, 13.250248979336428 ], [ 76.821479258394533, 13.25042662975398 ], [ 76.821481224941962, 13.250610933594848 ], [ 76.821480460817753, 13.250672290973473 ], [ 76.821478659907598, 13.250816516415817 ], [ 76.821432523241569, 13.252275229954694 ], [ 76.821394271618331, 13.252672457130656 ], [ 76.8213795189248, 13.25287901725302 ], [ 76.821699863247517, 13.253054632646222 ], [ 76.822177827829449, 13.253340905959204 ], [ 76.822223209680487, 13.253358533606958 ], [ 76.822227306316634, 13.253351145475927 ], [ 76.822365175543339, 13.253122310881391 ], [ 76.822436194931896, 13.253004433224612 ], [ 76.822531419616922, 13.252846379454114 ], [ 76.822634520331576, 13.252680788279832 ], [ 76.822673745742819, 13.252617787674364 ], [ 76.822684204103012, 13.252600290481968 ], [ 76.822690813930393, 13.252589230837971 ], [ 76.822768607251703, 13.252459076638916 ], [ 76.822847824889095, 13.252326538757364 ], [ 76.822849768832242, 13.252325281178235 ], [ 76.822850218779848, 13.252324990540892 ], [ 76.822851974964408, 13.252325654063444 ], [ 76.822867160687423, 13.252331391582249 ], [ 76.822879443797518, 13.252336031792529 ], [ 76.822922311952993, 13.252337043335531 ], [ 76.822926401072749, 13.252330379792694 ], [ 76.822929212584029, 13.252324696226507 ], [ 76.822966698269312, 13.252249012664207 ], [ 76.82342709430894, 13.252241111981867 ], [ 76.823430228824165, 13.252134015224691 ], [ 76.823432041792188, 13.252072078276052 ], [ 76.823434983607157, 13.251971555494711 ], [ 76.8234369474185, 13.251904476416838 ], [ 76.823438051265811, 13.25186674579691 ], [ 76.82344184842681, 13.25173699660799 ], [ 76.823444812470569, 13.251635740650796 ], [ 76.823446063417165, 13.251592984523867 ], [ 76.823449102478463, 13.251489164735203 ], [ 76.823451639202119, 13.251402506160694 ], [ 76.823452734306713, 13.251365087427743 ], [ 76.823453908802534, 13.251324949371872 ], [ 76.823454264781461, 13.251312788350928 ], [ 76.82345630640809, 13.251243024305486 ], [ 76.823458549306494, 13.251163740465831 ], [ 76.823459258318152, 13.251134440085631 ], [ 76.823469638608842, 13.251133106829961 ], [ 76.823533466644477, 13.251124911693202 ], [ 76.823535749882751, 13.251090983393805 ], [ 76.823537853189052, 13.251059720749167 ], [ 76.824341429469101, 13.250923339974566 ], [ 76.824342431548374, 13.250984132393976 ], [ 76.82434325580266, 13.251034123788797 ], [ 76.82441129316129, 13.251007009605178 ], [ 76.824416282047565, 13.251174746716794 ], [ 76.824416289700281, 13.251175004102249 ], [ 76.824458910356995, 13.251143414764373 ], [ 76.824453761107293, 13.251219817127247 ], [ 76.824867876957782, 13.251229955092569 ], [ 76.82495052847402, 13.251231978590122 ], [ 76.824938967687714, 13.251441534553033 ], [ 76.825114359469737, 13.25146093873601 ], [ 76.825104934625003, 13.251527918408488 ], [ 76.825092073064795, 13.251619326292676 ], [ 76.825125026810156, 13.251631245429122 ], [ 76.825113908298363, 13.251685652141793 ], [ 76.825083613372115, 13.25186485016879 ], [ 76.825081018853069, 13.251880199680208 ], [ 76.825062409053814, 13.251990279643403 ], [ 76.825059444227875, 13.252007814579864 ], [ 76.825027351834919, 13.252197648307849 ], [ 76.825016146512212, 13.252263927589418 ], [ 76.82500906367008, 13.252305825192094 ], [ 76.825008088187886, 13.252318418154456 ], [ 76.824924618430558, 13.252331192833651 ], [ 76.824620013796718, 13.252377810315327 ], [ 76.824460282799322, 13.252402256172704 ], [ 76.824459174986629, 13.252433201266497 ], [ 76.824436852158641, 13.25305671386282 ], [ 76.824420520184304, 13.253269653604919 ], [ 76.824305947684991, 13.25419221020039 ], [ 76.824297796065309, 13.254257848500618 ], [ 76.824304122369924, 13.254386619561759 ], [ 76.824298983821592, 13.254530670720829 ], [ 76.824318455950433, 13.254657252634313 ], [ 76.824847674367248, 13.25475931228558 ], [ 76.824943007548768, 13.254783975578869 ], [ 76.825580584351826, 13.254948928304534 ], [ 76.826253115081116, 13.255122909634672 ], [ 76.827632384155379, 13.255523676810389 ], [ 76.828795935459226, 13.255850678912187 ], [ 76.830041228878898, 13.25621314367395 ], [ 76.83006365757025, 13.256090885909735 ], [ 76.830121216170696, 13.255777145508295 ], [ 76.830151310281678, 13.255568093215441 ], [ 76.830198070067112, 13.255243267043451 ], [ 76.830258511279723, 13.254761269153034 ], [ 76.830281707890933, 13.25455234044373 ], [ 76.830300182051701, 13.254385952235292 ], [ 76.830335738536348, 13.254065704870415 ], [ 76.830494445176583, 13.25309969139842 ], [ 76.830517377115868, 13.25291942348931 ], [ 76.830527113743969, 13.252842888894492 ], [ 76.830537401659498, 13.252760493471303 ], [ 76.830545218978969, 13.252697510340482 ], [ 76.830682305870553, 13.251561061599123 ], [ 76.830708856459665, 13.251340956354202 ], [ 76.830717598212942, 13.251265014586183 ], [ 76.830759209950557, 13.250707074855494 ], [ 76.830817440511424, 13.24992630377165 ], [ 76.830834122771748, 13.249744892164564 ], [ 76.830839670175621, 13.249676098277879 ], [ 76.830924848738434, 13.248619822829744 ], [ 76.830972150972556, 13.247946233180699 ], [ 76.830972238546167, 13.247944988870699 ], [ 76.831056705141961, 13.247290252304316 ], [ 76.831132668152321, 13.247319883950645 ], [ 76.831146738708114, 13.247173290313533 ], [ 76.832380248140467, 13.247618949444957 ], [ 76.833007910246337, 13.247845718953235 ], [ 76.833031016970182, 13.247845027326514 ], [ 76.833094530931334, 13.247843198075838 ], [ 76.833322458788501, 13.247840416119924 ], [ 76.833519104051376, 13.247838016038731 ], [ 76.833596223749993, 13.247835607142166 ], [ 76.833703637609645, 13.247832169755297 ], [ 76.833863807695664, 13.247827336315211 ], [ 76.834201000169571, 13.247818045998015 ], [ 76.834279086956755, 13.247816031247416 ], [ 76.834377107918371, 13.247813181717383 ], [ 76.834553044983508, 13.24780819833285 ], [ 76.834552605502438, 13.247792274082375 ], [ 76.834558147835935, 13.246862432973826 ], [ 76.834560487527469, 13.246469821992532 ], [ 76.834561193533958, 13.24610987927484 ], [ 76.834562179019017, 13.245607548602171 ], [ 76.835418120304965, 13.245612818003288 ], [ 76.835493833653601, 13.245618730415798 ], [ 76.835591060222811, 13.245191599229564 ], [ 76.835629886276635, 13.245021028129662 ], [ 76.835736083192018, 13.244554486599524 ], [ 76.835700040902353, 13.24415564876402 ], [ 76.835742733049798, 13.243976841778091 ], [ 76.83565860729189, 13.243738519872531 ], [ 76.835578199140443, 13.243510760186826 ], [ 76.835430093552134, 13.243215535070709 ], [ 76.835418126587385, 13.243154005598413 ], [ 76.835393524089994, 13.243105245282463 ], [ 76.835317058965899, 13.242718903350902 ], [ 76.835259174217583, 13.242222726379316 ], [ 76.835259806014733, 13.241510069142647 ], [ 76.835262893241406, 13.240856624847114 ], [ 76.835223589822078, 13.240856852798819 ], [ 76.835225411949395, 13.240819158740416 ], [ 76.835213631459965, 13.240705220769257 ], [ 76.835196133999943, 13.240706200723588 ], [ 76.835199892148168, 13.240669167911998 ], [ 76.835198115475521, 13.240555154017107 ], [ 76.835159018894998, 13.240177021589819 ], [ 76.83516635360553, 13.238994563936169 ], [ 76.83516638620074, 13.238989307889751 ], [ 76.835157381347742, 13.23886008687178 ], [ 76.835171942978647, 13.238793064818408 ], [ 76.835289928540504, 13.237818370292622 ], [ 76.835309731589703, 13.237684351605044 ], [ 76.835428839454181, 13.236878161281908 ], [ 76.835456881543678, 13.236612121357817 ], [ 76.835537179516663, 13.235850305503751 ], [ 76.835537225676759, 13.235774061096032 ], [ 76.835537339532465, 13.234737386286918 ], [ 76.835594385828259, 13.234485433872525 ], [ 76.835866247981684, 13.234539884488242 ], [ 76.836906298351991, 13.234429962933783 ], [ 76.837769913152471, 13.234316706458099 ], [ 76.838115988935428, 13.23426356210426 ], [ 76.83876442894757, 13.234163191456423 ], [ 76.838776115648827, 13.234035553504523 ], [ 76.838952907041062, 13.232152144957245 ], [ 76.838979953372373, 13.231906364513032 ], [ 76.839109262214876, 13.230891650723743 ], [ 76.839136147278538, 13.230651815062561 ], [ 76.839162407401005, 13.230426447983328 ], [ 76.839276744105575, 13.229420009944675 ], [ 76.839287419418184, 13.229338727965485 ], [ 76.839310827635359, 13.229154058544122 ], [ 76.839327795536263, 13.229012836778342 ], [ 76.839385428748969, 13.228400664241853 ], [ 76.839413142125593, 13.228098725482687 ], [ 76.839441790123615, 13.227866654631605 ], [ 76.839457249173051, 13.227746291603118 ], [ 76.839462677190411, 13.227681787343171 ], [ 76.83948846356374, 13.227373372011096 ], [ 76.839550066830554, 13.226844894997914 ], [ 76.839564680522258, 13.226741228286063 ], [ 76.839603062073039, 13.226387343391449 ], [ 76.839610702008983, 13.225854420254963 ], [ 76.839627000623622, 13.225513411304048 ], [ 76.839610261481184, 13.22522951586258 ], [ 76.839566362069931, 13.224502165550966 ], [ 76.837749787344777, 13.224393016585468 ], [ 76.83746912950437, 13.224401132995414 ], [ 76.83722745514288, 13.224414896863744 ], [ 76.83715804720552, 13.224410129257413 ], [ 76.837101692343083, 13.224411758996903 ], [ 76.837026906601409, 13.2244058775415 ], [ 76.836321558409651, 13.224350403293275 ], [ 76.835146031311112, 13.224341985381853 ], [ 76.83505984419439, 13.224341367820514 ], [ 76.835010379970242, 13.224341013485246 ], [ 76.834991428508246, 13.224340877508331 ], [ 76.834757630859983, 13.224255180306393 ], [ 76.834461217279525, 13.223978446075174 ], [ 76.834296900519618, 13.223825037507687 ], [ 76.834169206284443, 13.223465479720755 ], [ 76.833535983223072, 13.221698370122073 ], [ 76.833407919587657, 13.221378413266017 ], [ 76.833395266341029, 13.221321695035495 ], [ 76.833345397691474, 13.221098246827918 ], [ 76.833252424807597, 13.220681587665334 ], [ 76.832998465059092, 13.220615762822634 ], [ 76.832910281338926, 13.220608039148342 ], [ 76.832721919169842, 13.22049876609155 ], [ 76.832657233887275, 13.220109012585116 ], [ 76.832667544774509, 13.219701336047441 ], [ 76.832682539033243, 13.219108804333533 ], [ 76.832682094162081, 13.218870000502472 ], [ 76.832541882758662, 13.218899539785221 ], [ 76.832315301472036, 13.219033231950501 ], [ 76.832222442931894, 13.219005997746425 ], [ 76.832054483197965, 13.218956731921169 ], [ 76.831626030225792, 13.218554228161773 ], [ 76.831356861700243, 13.218487121106266 ], [ 76.831076296850142, 13.218476363938082 ], [ 76.831127416365433, 13.218403101406889 ], [ 76.831096988628943, 13.218402672980771 ], [ 76.831297905770455, 13.218102743712439 ], [ 76.831206431123405, 13.217966976624524 ], [ 76.83069261303902, 13.217418191028489 ], [ 76.83038451308731, 13.217459729270717 ], [ 76.829917751050914, 13.217453363967811 ], [ 76.828894442105678, 13.217439408413895 ], [ 76.828354405557107, 13.217757942211685 ], [ 76.828007494108647, 13.217794682866483 ], [ 76.827163744203517, 13.217884041929114 ], [ 76.827052028028845, 13.217791414646744 ], [ 76.826972002944629, 13.217839776234438 ], [ 76.826528094509172, 13.21784727727314 ], [ 76.826527775318411, 13.217847278649575 ], [ 76.826513629255842, 13.217849792966453 ], [ 76.826499073433055, 13.217851791404396 ], [ 76.826484463144169, 13.217853537154769 ], [ 76.826480555213124, 13.217854029646995 ], [ 76.826481728514892, 13.217848055906193 ], [ 76.826490604434895, 13.217800036702286 ], [ 76.826480394361269, 13.217800188007681 ], [ 76.826480068713082, 13.217800189430179 ], [ 76.826465662985711, 13.217802769771916 ], [ 76.826450831681328, 13.217804816270712 ], [ 76.826435941244583, 13.217806602884499 ], [ 76.826431958685959, 13.217807108562811 ], [ 76.826433091508605, 13.217800901919938 ], [ 76.826463427469093, 13.217627217991502 ], [ 76.826466230604808, 13.217611410553678 ], [ 76.82647019696573, 13.217589143179939 ], [ 76.826470269881867, 13.217588736008691 ], [ 76.826388116555066, 13.217594761204394 ], [ 76.825969994328588, 13.217625427793052 ], [ 76.825811443932977, 13.217661906624894 ], [ 76.825716150276818, 13.217683830115497 ], [ 76.824903351341746, 13.217870832483975 ], [ 76.824594639719166, 13.217941855271464 ], [ 76.824052260426839, 13.218066638790544 ], [ 76.823644480810245, 13.218297631720823 ], [ 76.823610718993663, 13.217526124797878 ], [ 76.823602278069473, 13.217333111352845 ], [ 76.82349690156137, 13.216952339638601 ], [ 76.823495563997398, 13.216943151495141 ], [ 76.823346591778147, 13.21639307631137 ], [ 76.822853986267575, 13.216477646117635 ], [ 76.822360069102729, 13.216550625329779 ], [ 76.822088539107924, 13.216588574952711 ], [ 76.821616272783814, 13.216562277479293 ], [ 76.820561097415535, 13.216491255533558 ], [ 76.820032152361534, 13.216461671841255 ], [ 76.819986026659691, 13.216459292179426 ], [ 76.819849377260482, 13.216463697618693 ], [ 76.819820378447673, 13.216464627984575 ], [ 76.818847086746743, 13.216496002063939 ], [ 76.818631378659376, 13.216527557587854 ], [ 76.818601670782229, 13.216531903974452 ], [ 76.818410424103121, 13.216559876938833 ], [ 76.817417251781066, 13.216786429849398 ], [ 76.816025029523743, 13.217104000787721 ], [ 76.814850319139723, 13.217429839872093 ], [ 76.814760096156078, 13.217454246029073 ], [ 76.814776110132911, 13.217388883823281 ], [ 76.814735537217402, 13.217398138652229 ], [ 76.814642596830922, 13.217420233031527 ], [ 76.814683440656367, 13.217305912829431 ], [ 76.814660509684998, 13.216693887796975 ], [ 76.814680993653198, 13.216351338705014 ], [ 76.814591934957662, 13.216302219515637 ], [ 76.813839891237535, 13.21613869454025 ], [ 76.813845139150601, 13.21612300915133 ], [ 76.813790265716335, 13.216109988736736 ], [ 76.813809220872656, 13.216056878841266 ], [ 76.813872612938113, 13.215879273143074 ], [ 76.814083542846348, 13.215288249199832 ], [ 76.814098313885779, 13.215201771792037 ], [ 76.814166904374929, 13.214800136663406 ], [ 76.814250429968027, 13.214311033246124 ], [ 76.814307543968184, 13.213945122775428 ], [ 76.814432240296682, 13.213146230734468 ], [ 76.814190471564388, 13.213135965032158 ], [ 76.809796731872851, 13.212976844940803 ], [ 76.809720052946048, 13.212974019765648 ], [ 76.809259521316349, 13.212973028945122 ], [ 76.809189893571542, 13.212972867089151 ], [ 76.808607820600116, 13.212937583149108 ], [ 76.807193028307807, 13.212866307618235 ], [ 76.80718223019089, 13.212860941826499 ], [ 76.806942242040421, 13.212741427317903 ], [ 76.806847601778912, 13.2126941619549 ], [ 76.805771806812857, 13.21253566132061 ], [ 76.8057634430169, 13.212609152013606 ], [ 76.805515658615803, 13.212541354369936 ], [ 76.804848002836437, 13.212492190592652 ], [ 76.8044541876544, 13.212189529418454 ], [ 76.804045728349109, 13.211899571408967 ], [ 76.803052568748981, 13.211770985398623 ], [ 76.80265183476719, 13.211699508606683 ], [ 76.802316162519645, 13.211544687555465 ], [ 76.801882784759158, 13.21134166484303 ], [ 76.801671562255052, 13.211240799344894 ], [ 76.801687569023727, 13.211203822018982 ], [ 76.801537207807456, 13.211079415259549 ], [ 76.801431774278001, 13.211049004375305 ], [ 76.801346686612689, 13.211026792280792 ], [ 76.801047445044389, 13.211134441611831 ], [ 76.800838288175186, 13.211312900586504 ], [ 76.800617367062628, 13.211361563793703 ], [ 76.800440887870195, 13.211400270790456 ], [ 76.800266780294677, 13.211500863262575 ], [ 76.800208654414874, 13.211521533149137 ], [ 76.800049724823012, 13.21157804253332 ], [ 76.800030345712784, 13.211569491625658 ], [ 76.799998901987465, 13.211580506159908 ], [ 76.799851366663702, 13.211516089880433 ], [ 76.797691570512058, 13.208426715183622 ], [ 76.797159467617334, 13.207665579654618 ], [ 76.797172220688111, 13.207552001903853 ], [ 76.797324319381332, 13.206197447894718 ], [ 76.797420473142694, 13.20534111993692 ], [ 76.798006558765564, 13.202937261508035 ], [ 76.797902434764012, 13.197713848210133 ], [ 76.796255347762127, 13.196720251959389 ], [ 76.796346335855759, 13.196722586504059 ], [ 76.796206108521091, 13.196638318341313 ], [ 76.797663955567927, 13.19667945747549 ], [ 76.797750729017764, 13.196681906013186 ], [ 76.799611032382117, 13.196715920180223 ], [ 76.799688338179948, 13.196717333699965 ], [ 76.799737036866688, 13.196330898623609 ], [ 76.799907290102496, 13.194979926406589 ], [ 76.799970448890065, 13.194570779742619 ], [ 76.80000780454985, 13.194328756580255 ], [ 76.800083862952846, 13.193836071675365 ], [ 76.80010674095324, 13.193687875583807 ], [ 76.800221377109807, 13.192945270067559 ], [ 76.80024334485114, 13.192804424199904 ], [ 76.800319493723009, 13.192316190499008 ], [ 76.800479044791217, 13.190953357690077 ], [ 76.800741940301492, 13.18991433112674 ], [ 76.8008369777084, 13.189445105920358 ], [ 76.80085329100605, 13.189364563463283 ], [ 76.800853687432777, 13.189314262014879 ], [ 76.800414144740571, 13.187982468295461 ], [ 76.800247354294569, 13.187514042791479 ], [ 76.800233304881772, 13.18727282369422 ], [ 76.800046536634497, 13.185918389562264 ], [ 76.79983877660527, 13.183981925721767 ], [ 76.799547504131127, 13.181267011480802 ], [ 76.799547540944914, 13.181264224632088 ], [ 76.799566359652815, 13.179870294781541 ], [ 76.799569481819049, 13.179638993984829 ], [ 76.799571171176623, 13.179513887438677 ], [ 76.799565512243319, 13.179408542878294 ], [ 76.799621738009122, 13.179394070179066 ], [ 76.799620559986039, 13.179376987871311 ], [ 76.799731003750153, 13.179350089516541 ], [ 76.800056919175162, 13.178693822020671 ], [ 76.800104701691907, 13.178674576562999 ], [ 76.800106504665024, 13.178670911807865 ], [ 76.800318064953188, 13.178588639825191 ], [ 76.800362014709165, 13.178570938096067 ], [ 76.800604414149163, 13.178312169115458 ], [ 76.800626334883148, 13.178325787458983 ], [ 76.800653837923932, 13.178296677896908 ], [ 76.800965172222121, 13.178488819366686 ], [ 76.80156807201233, 13.179183135955007 ], [ 76.801936733484624, 13.179170731335539 ], [ 76.802531064529987, 13.179029918988904 ], [ 76.802707804734268, 13.178865128177293 ], [ 76.80304626296261, 13.178467031216984 ], [ 76.803277607288166, 13.17831686641415 ], [ 76.803430040889381, 13.178217909444196 ], [ 76.803588672518671, 13.178172782177999 ], [ 76.804012946270305, 13.178184037505471 ], [ 76.804032347589441, 13.178196824195492 ], [ 76.80409782240595, 13.178199000150578 ], [ 76.804162602082272, 13.17824104577444 ], [ 76.804079641409103, 13.178086173334767 ], [ 76.804001827106077, 13.177940906456449 ], [ 76.803988771853923, 13.177930399709817 ], [ 76.803995844275391, 13.177860204477808 ], [ 76.804016024495837, 13.177659906524266 ], [ 76.804037789405953, 13.177443874863688 ], [ 76.80412869704675, 13.177291195083296 ], [ 76.80411267903969, 13.176953402522182 ], [ 76.804076106943, 13.17685424211893 ], [ 76.803915388585878, 13.175670427866022 ], [ 76.803902996733228, 13.175578341698207 ], [ 76.803847206298116, 13.175163568158672 ], [ 76.803796609912723, 13.174787420446622 ], [ 76.80379147362558, 13.174631978106792 ], [ 76.803780789564868, 13.174308605033689 ], [ 76.803762101869296, 13.173743045979558 ], [ 76.803750168211081, 13.173381892375906 ], [ 76.803746926171215, 13.173283760686154 ], [ 76.803682806874292, 13.173181370359856 ], [ 76.803682695922035, 13.173161434801905 ], [ 76.803682624193513, 13.173149518775212 ], [ 76.803679657384549, 13.173144532381789 ], [ 76.803679897655286, 13.173124442506108 ], [ 76.803681610557007, 13.17298112661363 ], [ 76.80368069918346, 13.172829723066847 ], [ 76.80368275925764, 13.172790479447551 ], [ 76.803717515309359, 13.172116970308375 ], [ 76.803721551487413, 13.172026889904853 ], [ 76.803743727753044, 13.171552085120215 ], [ 76.803755660685454, 13.171331671075261 ], [ 76.803773622117745, 13.170776808897461 ], [ 76.803874493542523, 13.169664962025742 ], [ 76.803881373956642, 13.169588330588867 ], [ 76.80388319969255, 13.16955661168692 ], [ 76.803905862218556, 13.169212569656356 ], [ 76.804021929737758, 13.167450503331876 ], [ 76.804088094754505, 13.165899960092569 ], [ 76.804104222383572, 13.165522022385504 ], [ 76.80412033656863, 13.165203475317975 ], [ 76.804141855923731, 13.164778106927782 ], [ 76.804219588318873, 13.163807080261906 ], [ 76.8041865369661, 13.163250185327032 ], [ 76.804181599103529, 13.163167204498357 ], [ 76.804137698866541, 13.162864656307645 ], [ 76.804040969789412, 13.162780928719092 ], [ 76.804102336850491, 13.162697935575064 ], [ 76.804025811815194, 13.162304685120175 ], [ 76.803996764048733, 13.161663166011968 ], [ 76.803995506596664, 13.161636154978737 ], [ 76.803991310519848, 13.161545871178841 ], [ 76.803861213786533, 13.161551802749665 ], [ 76.802394420378292, 13.161462850088625 ], [ 76.802016306377197, 13.161349766796056 ], [ 76.801937204283931, 13.161334006562772 ], [ 76.801636548996456, 13.161272013554784 ], [ 76.801330383747185, 13.160915164581027 ], [ 76.801186679049039, 13.160904966012405 ], [ 76.799046241899433, 13.160715237304069 ], [ 76.79898580925969, 13.160702384043821 ], [ 76.798741783473474, 13.160700204735781 ], [ 76.798321265518609, 13.160692380563866 ], [ 76.796693539290061, 13.160380986477261 ], [ 76.796651821653981, 13.160373011750373 ], [ 76.796355446484554, 13.158980027449344 ], [ 76.796342484554586, 13.15897960655662 ], [ 76.795972607458125, 13.158967486624222 ], [ 76.794875987041536, 13.159073862438946 ], [ 76.79482442352456, 13.15906409335706 ], [ 76.794800890758239, 13.159059633721704 ], [ 76.793979171584951, 13.158903743090722 ], [ 76.793576967679712, 13.158767561078394 ], [ 76.793599899664386, 13.158569366781759 ], [ 76.79353196888863, 13.158559023921292 ], [ 76.793375639125557, 13.158535211850081 ], [ 76.793266226340094, 13.158518530280283 ], [ 76.79273139862191, 13.158442393211997 ], [ 76.792730752012162, 13.158436889434205 ], [ 76.792668277942155, 13.158427364353978 ], [ 76.792632506203446, 13.15813523126571 ], [ 76.792599333574501, 13.15800469072936 ], [ 76.791636386276764, 13.157908686812096 ], [ 76.79159520749441, 13.157884395850472 ], [ 76.791574096623989, 13.157882082430044 ], [ 76.791287658820323, 13.157710021734752 ], [ 76.790828064004842, 13.157757736331513 ], [ 76.790816433325233, 13.157719082752777 ], [ 76.79076925170429, 13.157723644295462 ], [ 76.790468804713015, 13.156765178889495 ], [ 76.789845750517998, 13.156070897299756 ], [ 76.789664866796386, 13.155660279582962 ], [ 76.789462963904114, 13.155708148663027 ], [ 76.789000196487507, 13.155685599309216 ], [ 76.78782349437158, 13.155606520680958 ], [ 76.787202729848502, 13.155589694829834 ], [ 76.786944157913922, 13.15435803801582 ], [ 76.785578418352287, 13.154279009788853 ], [ 76.785381511280988, 13.154260212181731 ], [ 76.785289410220912, 13.154253025357901 ], [ 76.785289409851359, 13.154253025333444 ], [ 76.785174278676493, 13.154245591443923 ], [ 76.784729047199136, 13.15421684175071 ], [ 76.784714675224834, 13.154215324774517 ], [ 76.784709449069993, 13.154214983110272 ], [ 76.784472312799835, 13.154189743179307 ], [ 76.784407342146977, 13.154182885462225 ], [ 76.784405183479095, 13.154182598176057 ], [ 76.784401121382473, 13.154182165821114 ], [ 76.78423445992189, 13.154159877442973 ], [ 76.783854216187734, 13.154109269367224 ], [ 76.783607483906565, 13.154128812627519 ], [ 76.783566451885321, 13.15413206316398 ], [ 76.783396701907222, 13.154128952204726 ], [ 76.783167936402393, 13.154124760411305 ], [ 76.783095272142575, 13.154143561865764 ], [ 76.783067130262253, 13.154150856208224 ], [ 76.782952386401249, 13.154180595496555 ], [ 76.781999502919163, 13.154427568578434 ], [ 76.781602487770385, 13.154539841791326 ], [ 76.780557335292485, 13.154907115559284 ], [ 76.779348096476298, 13.155217534782375 ], [ 76.778980606265506, 13.155195590451076 ], [ 76.778729888869762, 13.155186811511564 ], [ 76.778205717398038, 13.155168456744477 ], [ 76.778190048545667, 13.155167909030268 ], [ 76.775845278099965, 13.155085788071304 ], [ 76.775429989452846, 13.155085046101023 ], [ 76.775194223474728, 13.155009036770327 ], [ 76.772343258858228, 13.154145832168595 ], [ 76.769502090197179, 13.153365529883532 ], [ 76.769422657786862, 13.153339628015972 ], [ 76.768928655444157, 13.153178540513364 ], [ 76.767177634149235, 13.152803413720088 ], [ 76.76667689702407, 13.152698455942312 ], [ 76.766527237302952, 13.152671815001675 ], [ 76.766354226743815, 13.15264101584355 ], [ 76.766138204963426, 13.152663509115364 ], [ 76.765786918063355, 13.152476758051687 ], [ 76.765247405739316, 13.152382424086779 ], [ 76.765160053376803, 13.152369853140195 ], [ 76.764978020598107, 13.152343656070135 ], [ 76.764768133372073, 13.152263030040924 ], [ 76.764120193788884, 13.152127308936789 ], [ 76.764111998961127, 13.152099130423846 ], [ 76.764091530503521, 13.152094929758558 ], [ 76.763794832564159, 13.152805462330393 ], [ 76.763718231242365, 13.153031736383877 ], [ 76.763715262224196, 13.153040503563634 ], [ 76.763676313741939, 13.153044078285108 ], [ 76.763519524597513, 13.15309024280948 ], [ 76.763323754886997, 13.153128023875256 ], [ 76.763131634334059, 13.153165099131467 ], [ 76.763137886622545, 13.153283269454585 ], [ 76.763098000506986, 13.153316584390103 ], [ 76.76295119563251, 13.153402671998629 ], [ 76.762429908861989, 13.154101197364621 ], [ 76.761945311334529, 13.154658933979658 ], [ 76.761356094409706, 13.155509600410182 ], [ 76.761199358557135, 13.156068649345109 ], [ 76.76108409277812, 13.157135671952494 ], [ 76.760640256530522, 13.158662851108817 ], [ 76.760638175169333, 13.158831857534876 ], [ 76.760519175251815, 13.160112892795924 ], [ 76.760514562581619, 13.160189622768986 ], [ 76.760513697048765, 13.1601969347288 ], [ 76.760510712591341, 13.160222163374245 ], [ 76.760501261698224, 13.160484566246721 ], [ 76.76062210301653, 13.160814425696634 ], [ 76.760906805380472, 13.161591578909084 ], [ 76.761107683588307, 13.16229727569406 ], [ 76.76111327695466, 13.162316388914054 ], [ 76.761417118999859, 13.16335921129909 ], [ 76.76143702942899, 13.16342776190548 ], [ 76.76154000831373, 13.163409795668082 ], [ 76.762166187604279, 13.163204786541558 ], [ 76.762293675026029, 13.163173591671244 ], [ 76.762989491259674, 13.163003331936581 ], [ 76.76392929964284, 13.162843411660901 ], [ 76.764011552291905, 13.162983570467075 ], [ 76.764313576346652, 13.163498733453116 ], [ 76.764331635677564, 13.16352956245662 ], [ 76.76465399216741, 13.164015748817839 ], [ 76.764713427586074, 13.164105478910272 ], [ 76.764732612195431, 13.164196190775346 ], [ 76.764836302460964, 13.164687308601778 ], [ 76.764909010872017, 13.16490245283377 ], [ 76.765033345352393, 13.165270665370706 ], [ 76.765098534309089, 13.16543974742498 ], [ 76.765283661151159, 13.165920050277681 ], [ 76.765310329815989, 13.166289951231033 ], [ 76.765408794185845, 13.167662732887585 ], [ 76.765410319474071, 13.167684441550193 ], [ 76.765437262870421, 13.167940426339594 ], [ 76.765373671327183, 13.16811712183997 ], [ 76.764635338472445, 13.170221622876955 ], [ 76.764098478670718, 13.171115142072713 ], [ 76.764526675914766, 13.172485928252513 ], [ 76.764770587705087, 13.173160026971166 ], [ 76.764834990969334, 13.17332104620991 ], [ 76.764872391276214, 13.173414549369436 ], [ 76.764889996303182, 13.173458564324312 ], [ 76.765036794955932, 13.173601076431426 ], [ 76.764933215025394, 13.173703791245098 ], [ 76.764822344449627, 13.17381373655785 ], [ 76.764755614694721, 13.173879909068557 ], [ 76.764608222923115, 13.174050862114919 ], [ 76.764571154913696, 13.174004613101374 ], [ 76.764557970253648, 13.174019481936327 ], [ 76.764229225334191, 13.173606178067555 ], [ 76.764134701870006, 13.173487242248026 ], [ 76.763900630340174, 13.172999469083919 ], [ 76.763565938399111, 13.172095338509605 ], [ 76.763270366645983, 13.171808425267347 ], [ 76.763208114350363, 13.171748608634683 ], [ 76.762672282713538, 13.171338717553668 ], [ 76.762053137111877, 13.171251191006327 ], [ 76.761060498230179, 13.171474888613282 ], [ 76.760696642809265, 13.17178546291729 ], [ 76.760065966816043, 13.172505563208196 ], [ 76.760050940742786, 13.172522719720028 ], [ 76.760050635667071, 13.172625241094103 ], [ 76.759895190809445, 13.172723351308688 ], [ 76.759866495821583, 13.172790501815806 ], [ 76.759688203615895, 13.173207739800246 ], [ 76.759047174974455, 13.173919374033497 ], [ 76.758488599731677, 13.174087125883847 ], [ 76.758219244780747, 13.174058664731204 ], [ 76.757914724936683, 13.174026487151854 ], [ 76.757358587023134, 13.173839901531567 ], [ 76.757327445961124, 13.173804364754586 ], [ 76.757288676793223, 13.173791470918982 ], [ 76.756956106126282, 13.173407785272946 ], [ 76.756807583375078, 13.173119447493535 ], [ 76.756648964445546, 13.172950981279159 ], [ 76.756352934870094, 13.172845749075302 ], [ 76.755570039534618, 13.172890837817762 ], [ 76.755226632145536, 13.173061191642068 ], [ 76.754871381448922, 13.173301844677663 ], [ 76.754620877192835, 13.173641908616432 ], [ 76.75440910215454, 13.174061539692175 ], [ 76.754361976213247, 13.174350959922426 ], [ 76.754428507034078, 13.174860399032722 ], [ 76.75455915840304, 13.175120893776542 ], [ 76.754829756580577, 13.175378127739219 ], [ 76.75499956185709, 13.175465991263026 ], [ 76.755148797058212, 13.175543211292846 ], [ 76.755269467599348, 13.175643958509642 ], [ 76.755945763849525, 13.17622862971627 ], [ 76.756038687441958, 13.176410052148285 ], [ 76.756012375403031, 13.176787851944471 ], [ 76.755935238056153, 13.177151084030333 ], [ 76.755867165333115, 13.177291349112627 ], [ 76.75577881762031, 13.177473394600467 ], [ 76.755553648812622, 13.177787373887419 ], [ 76.754760130672977, 13.178121613506727 ], [ 76.754116599843712, 13.178155327890384 ], [ 76.75345050887266, 13.178014348040731 ], [ 76.753408473487156, 13.17800124527083 ], [ 76.75333455108688, 13.177985973803395 ], [ 76.752848562294531, 13.177837600711845 ], [ 76.751941018583423, 13.177354817136555 ], [ 76.75128882623261, 13.17712389440363 ], [ 76.750777864008782, 13.176751058411583 ], [ 76.750533303662891, 13.176670572443062 ], [ 76.750251482144165, 13.176800594203952 ], [ 76.749014460407395, 13.177910486619576 ], [ 76.748695037684072, 13.17866505357285 ], [ 76.74803143541223, 13.179057081932658 ], [ 76.747990039189474, 13.179059949582372 ], [ 76.74794167071029, 13.179088954617816 ], [ 76.747418677513039, 13.179124243200192 ], [ 76.747100863088164, 13.17917980635187 ], [ 76.74695385513688, 13.179246154510905 ], [ 76.746949367167161, 13.179241014080786 ], [ 76.746873601177725, 13.179275261245792 ], [ 76.746815775788932, 13.179309147947215 ], [ 76.746890204367801, 13.179454935279505 ], [ 76.746898613025152, 13.179471402718836 ], [ 76.74678907002378, 13.179575946176421 ], [ 76.746772763370245, 13.17974366557082 ], [ 76.746875006266691, 13.179899218135787 ], [ 76.746916627857175, 13.179962544173803 ], [ 76.746925756294019, 13.180008032098737 ], [ 76.746919523605442, 13.180047467387853 ], [ 76.746966797660789, 13.180112423537022 ], [ 76.746854912520703, 13.180325466077536 ], [ 76.74684703517903, 13.180356760263564 ], [ 76.746756626373752, 13.180512614526656 ], [ 76.746644113754584, 13.180726851861568 ], [ 76.746355420061278, 13.180628375024051 ], [ 76.746108382544662, 13.18020914966505 ], [ 76.745952019803042, 13.180186299759729 ], [ 76.745723527302076, 13.180316997737163 ], [ 76.745224375732576, 13.180827399268848 ], [ 76.745192226912081, 13.181112208581501 ], [ 76.745053252956339, 13.181230208799025 ], [ 76.74504105066022, 13.181256826429939 ], [ 76.74469642572808, 13.181568726113161 ], [ 76.744572133417805, 13.181893680240055 ], [ 76.74442037600457, 13.182105957257193 ], [ 76.744079687457372, 13.182444595260909 ], [ 76.743999966633979, 13.182497833080316 ], [ 76.743943134368251, 13.182562798428316 ], [ 76.743802370413505, 13.182847151792394 ], [ 76.743794883530327, 13.182867614872112 ], [ 76.743730107074015, 13.183254723480117 ], [ 76.743698298309894, 13.183378819509645 ], [ 76.743513436920622, 13.183636862136836 ], [ 76.743476737989965, 13.183737167313911 ], [ 76.743388211161175, 13.183711431311544 ], [ 76.743386568572433, 13.183710953484985 ], [ 76.743382302654894, 13.183709713453252 ], [ 76.743105456259883, 13.183629242021075 ], [ 76.743102759908368, 13.183628458616308 ], [ 76.742964929788798, 13.183682302863147 ], [ 76.742562354681667, 13.183839569687535 ], [ 76.742208864394797, 13.183896978565713 ], [ 76.741972874879167, 13.184003809857629 ], [ 76.741568589868606, 13.18413732923837 ], [ 76.741566232959968, 13.18413810722684 ], [ 76.741071744202429, 13.184394699058373 ], [ 76.740972544089956, 13.184454877776771 ], [ 76.740951884808979, 13.1844674112472 ], [ 76.740561420941603, 13.184422208240218 ], [ 76.740354639547377, 13.184505307051225 ], [ 76.740338982879038, 13.18454104550092 ], [ 76.740076867507113, 13.185095268441929 ], [ 76.740073981340188, 13.185411872925078 ], [ 76.73981584234906, 13.185761288696558 ], [ 76.739747775181186, 13.186029721305104 ], [ 76.739670169157677, 13.186011341653233 ], [ 76.739441333632527, 13.185957145381405 ], [ 76.739446019195171, 13.185935275766884 ], [ 76.739362532396271, 13.185914924793886 ], [ 76.739356412548133, 13.185913459559778 ], [ 76.739245325286703, 13.185886671325642 ], [ 76.737963557276743, 13.185577574788601 ], [ 76.73748687694281, 13.185534176695825 ], [ 76.73744976538066, 13.185530798313842 ], [ 76.736676486612538, 13.185459674343422 ], [ 76.735066368673699, 13.185472271057925 ], [ 76.734883548783273, 13.185473700408668 ], [ 76.734878715330822, 13.185473738553638 ], [ 76.734865839256344, 13.18547382752986 ], [ 76.734806730359324, 13.185472250880689 ], [ 76.73415608494922, 13.185454895399278 ], [ 76.73387257345972, 13.185447332006367 ], [ 76.733767450653659, 13.185444527119511 ], [ 76.733448516225849, 13.185436018814356 ], [ 76.733487365836183, 13.18521198200626 ], [ 76.733089268060638, 13.185223064403189 ], [ 76.732987760457021, 13.185225890347773 ], [ 76.732871910266852, 13.185215999751465 ], [ 76.730795929146637, 13.185037089731352 ], [ 76.729523310710817, 13.184934265578221 ], [ 76.727677721007311, 13.184784812483231 ], [ 76.727610910512595, 13.184791128198814 ], [ 76.726918747624779, 13.184856300406437 ], [ 76.726834591892313, 13.184864189871366 ], [ 76.726536743083784, 13.184894978257798 ], [ 76.725912428332251, 13.184959187241832 ], [ 76.725598911009087, 13.185011805956615 ], [ 76.725410246817489, 13.185036135344092 ], [ 76.725323812654381, 13.185047478962341 ], [ 76.724978227683906, 13.185091742155853 ], [ 76.724757427399126, 13.185120565489838 ], [ 76.724556715075863, 13.185147200728203 ], [ 76.724376099859015, 13.185149783675172 ], [ 76.724024246489478, 13.185171306163102 ], [ 76.723767741690722, 13.185187088006913 ], [ 76.723567415260163, 13.185203267311692 ], [ 76.72349629127531, 13.18520910300288 ], [ 76.723308293808557, 13.185222810212313 ], [ 76.72258682043217, 13.185282997822748 ], [ 76.721968266409476, 13.185340527755439 ], [ 76.720735434162975, 13.185417133041506 ], [ 76.720632499274529, 13.185424820997541 ], [ 76.719400732905171, 13.185393235757775 ], [ 76.718823193622327, 13.185232545153657 ], [ 76.718037644090046, 13.185026118032908 ], [ 76.717960660586286, 13.184905950045751 ], [ 76.717952213272753, 13.184920844965518 ], [ 76.717599302576431, 13.185282152400429 ], [ 76.71755819969411, 13.185641294805004 ], [ 76.717455374909818, 13.186024762444363 ], [ 76.717335547673557, 13.18647774034789 ], [ 76.717178165167581, 13.186859499140047 ], [ 76.716925572986071, 13.187139604158778 ], [ 76.716840063103263, 13.1872439466713 ], [ 76.716761509582952, 13.187433949641322 ], [ 76.716760323022214, 13.187436822026573 ], [ 76.716816362290899, 13.18746556093326 ], [ 76.716898828439966, 13.187507860109264 ], [ 76.716702892979484, 13.187757648443615 ], [ 76.71667686992734, 13.187978303867656 ], [ 76.716344397389634, 13.188771276330945 ], [ 76.716252619366244, 13.1889727948274 ], [ 76.716144027506516, 13.189200166082761 ], [ 76.715756460387993, 13.189940970207626 ], [ 76.715367089743253, 13.190664876929795 ], [ 76.714506275316097, 13.192163846716856 ], [ 76.714258432553038, 13.192791475980679 ], [ 76.714135705669619, 13.193110688306465 ], [ 76.71404017118202, 13.193365845913933 ], [ 76.713925936957054, 13.19364596310883 ], [ 76.713924961013106, 13.193648355014103 ], [ 76.713921001943376, 13.193658063108703 ], [ 76.713775672692478, 13.193943496248671 ], [ 76.713740323501099, 13.194039242673286 ], [ 76.712113966784571, 13.196196633150501 ], [ 76.711595782342798, 13.19698028253986 ], [ 76.711496446066747, 13.197136457882241 ], [ 76.711606040837438, 13.198362941332876 ], [ 76.711634509532558, 13.198683875616309 ], [ 76.711699981796457, 13.198888100279445 ], [ 76.711984462040945, 13.199639695783487 ], [ 76.712214374893463, 13.200247122211001 ], [ 76.712572364835424, 13.200861101594063 ], [ 76.712959289995169, 13.201147757718733 ], [ 76.712929496770698, 13.201148153996597 ], [ 76.712950993732292, 13.201164181836415 ], [ 76.712754665273238, 13.201166138177616 ], [ 76.712518147518196, 13.201168495202097 ], [ 76.711441218101413, 13.201179223570696 ], [ 76.71143971078061, 13.201179238167629 ], [ 76.711273587276139, 13.201196750822342 ], [ 76.711178448699229, 13.201206780076319 ], [ 76.711110123399209, 13.201211082868644 ], [ 76.710246938975317, 13.201318700302236 ], [ 76.710125068712742, 13.20143639522686 ], [ 76.710110046027111, 13.201450921794141 ], [ 76.710109930480442, 13.201451014815524 ], [ 76.710102449123696, 13.201458239857139 ], [ 76.709490689356855, 13.201949537773979 ], [ 76.709407504404709, 13.202016506208182 ], [ 76.70940277030715, 13.202020144649927 ], [ 76.709399672228599, 13.202022632684645 ], [ 76.709353820026323, 13.202057765916301 ], [ 76.709258673422312, 13.202130891865195 ], [ 76.708397196829296, 13.202793333637841 ], [ 76.70831605939, 13.202855725106161 ], [ 76.707281166727199, 13.203744807758582 ], [ 76.706980376463562, 13.203790299555854 ], [ 76.70588112388505, 13.20395654802325 ], [ 76.705070207300992, 13.204079186163499 ], [ 76.704981089046726, 13.204092607964617 ], [ 76.704921656905029, 13.204101559262702 ], [ 76.702455903744891, 13.204294511591524 ], [ 76.701480908228064, 13.204411163405615 ], [ 76.701485969782055, 13.204483426219017 ], [ 76.70142341756376, 13.204488292871755 ], [ 76.701238608196419, 13.204502672243626 ], [ 76.701137479930651, 13.204510540391892 ], [ 76.701061155866213, 13.204516478323736 ], [ 76.700550367403579, 13.204556218607681 ], [ 76.700491617680882, 13.204560789504539 ], [ 76.699739437134156, 13.204623965672502 ], [ 76.699730509121508, 13.204624165072529 ], [ 76.699227466895479, 13.204635405619674 ], [ 76.699223665805178, 13.204635647792934 ], [ 76.699223655492318, 13.204635490583007 ], [ 76.697904482391408, 13.204676649781858 ], [ 76.697899574798939, 13.204676840523151 ], [ 76.696812728531171, 13.204886196028916 ], [ 76.695447466449266, 13.205225671510801 ], [ 76.695111389797887, 13.205244779966705 ], [ 76.693970201531997, 13.205309667193765 ], [ 76.692777633740775, 13.205376951961354 ], [ 76.691668060238882, 13.20543355982983 ], [ 76.691614205832678, 13.205436107784285 ], [ 76.691705800527501, 13.20876598644692 ], [ 76.691706538441366, 13.208792887106377 ], [ 76.691676900308323, 13.209455936795994 ], [ 76.69166618377723, 13.209695691650765 ], [ 76.691659087850525, 13.209854477264152 ], [ 76.691640913738254, 13.210261049476191 ], [ 76.691634434497885, 13.210405963349308 ], [ 76.691617836816391, 13.210665576936465 ], [ 76.691597889042541, 13.210977659758806 ], [ 76.691593584191367, 13.211045010818278 ], [ 76.691568612815729, 13.211435685849874 ], [ 76.691560878487437, 13.211556705243165 ], [ 76.691546867059813, 13.211775911780725 ], [ 76.691530934206043, 13.212025137112537 ], [ 76.691525817660477, 13.212113565119019 ], [ 76.691523817622169, 13.212148134502545 ], [ 76.69152627956133, 13.212232840916617 ], [ 76.691540301207553, 13.212798521864633 ], [ 76.691540535938998, 13.212809425884243 ], [ 76.691541510870252, 13.212854786254441 ], [ 76.691550047506595, 13.213197715227537 ], [ 76.691545200285674, 13.213427640167692 ], [ 76.691545095263422, 13.21343261683996 ], [ 76.691542902199643, 13.213536650519179 ], [ 76.691536213999186, 13.213847120732197 ], [ 76.691536603978363, 13.214159066295776 ], [ 76.691536892555618, 13.214389340509532 ], [ 76.691537026137993, 13.214496428443617 ], [ 76.691476859830303, 13.214701654966888 ], [ 76.691456166186967, 13.214772241910703 ], [ 76.69133864747576, 13.21517309497068 ], [ 76.691137502354408, 13.215859189345405 ], [ 76.69111907071084, 13.216606816975553 ], [ 76.691178035562501, 13.216880171749763 ], [ 76.691213672640785, 13.217131314645961 ], [ 76.691309397810144, 13.217839345562281 ], [ 76.691359998386361, 13.21848236747182 ], [ 76.691412297690874, 13.218726441424119 ], [ 76.691909531399887, 13.219782883146703 ], [ 76.692379811583621, 13.221334466921528 ], [ 76.692425732314135, 13.22148188375748 ], [ 76.692477456696167, 13.22164793583288 ], [ 76.692517229550702, 13.22174752005712 ], [ 76.692850844329058, 13.222920813425951 ], [ 76.693246309854672, 13.223727236951589 ], [ 76.69366998018873, 13.224759737727764 ], [ 76.693775618309729, 13.225006862546214 ], [ 76.694277758826374, 13.226150024842543 ], [ 76.694496855650613, 13.226548007954209 ], [ 76.694548196395431, 13.226664131314783 ], [ 76.694604780011801, 13.226908765221728 ], [ 76.694610364249073, 13.226971718220481 ], [ 76.694656029125952, 13.227486541251087 ], [ 76.694668689328623, 13.22822817079286 ], [ 76.694712119293555, 13.229092893453059 ], [ 76.694728962787366, 13.229427514554871 ], [ 76.694817739694969, 13.229742756108763 ], [ 76.694803070327225, 13.229904115345029 ], [ 76.694842925121179, 13.230209645410449 ], [ 76.694888143141497, 13.230346023983557 ], [ 76.694890997381123, 13.230373054224266 ], [ 76.694874637579915, 13.230633286815225 ], [ 76.69486241505814, 13.231038746710485 ], [ 76.694827629931169, 13.231541100602104 ], [ 76.694808652484213, 13.231620744312512 ], [ 76.694803183867435, 13.231643696241905 ], [ 76.694796010727828, 13.231673801186028 ], [ 76.694790065055869, 13.231698749377674 ], [ 76.694773877977681, 13.23176668716032 ], [ 76.695011405093652, 13.232045595443505 ], [ 76.695034307008697, 13.232073439927611 ], [ 76.695046071347832, 13.232133019181772 ], [ 76.695146356522571, 13.232284000765416 ], [ 76.695317702196121, 13.232541965231308 ], [ 76.695466977210458, 13.232823932636807 ], [ 76.695662239493572, 13.233192770097441 ], [ 76.695993480757124, 13.233815020020808 ], [ 76.696112231096293, 13.234038055620296 ], [ 76.696121179177453, 13.234054866552045 ], [ 76.69641621123229, 13.234579490356523 ], [ 76.696597349283422, 13.234790009456939 ], [ 76.697318864333695, 13.235620541419202 ], [ 76.697384458916972, 13.235694378279685 ], [ 76.697882437684967, 13.235887510450535 ], [ 76.697938803140772, 13.235909370688683 ], [ 76.69825702267633, 13.236023147761472 ], [ 76.698554403296086, 13.236202167145795 ], [ 76.698570624566827, 13.23624872654875 ], [ 76.69863629920772, 13.236437180668398 ], [ 76.698643675014779, 13.236458339739668 ], [ 76.69886376235182, 13.236499216131936 ], [ 76.698891145673699, 13.236492338592759 ], [ 76.698928205825737, 13.236488352603923 ], [ 76.699061351649874, 13.236474030291838 ], [ 76.699060825196369, 13.236475922552422 ], [ 76.699134253440192, 13.236467307419051 ], [ 76.699045960594958, 13.236801688643316 ], [ 76.699067487144958, 13.236839429531457 ], [ 76.699060880515333, 13.237061098142787 ], [ 76.699194109922473, 13.237534094824429 ], [ 76.699342605637099, 13.238002030075426 ], [ 76.699364424071774, 13.238090082572363 ], [ 76.699458442431705, 13.238468712811379 ], [ 76.69957347140479, 13.238939238750733 ], [ 76.699577954230747, 13.239045183537829 ], [ 76.69944547637769, 13.239066263101833 ], [ 76.699445554793712, 13.239072058235374 ], [ 76.698973250273298, 13.23914238579658 ], [ 76.698396651793516, 13.239259154904994 ], [ 76.697329388030838, 13.239475287898077 ], [ 76.697072810950274, 13.239525185785133 ], [ 76.697097475411354, 13.239654017941467 ], [ 76.697148664167358, 13.239850884576379 ], [ 76.697201428505693, 13.2400538103852 ], [ 76.69720606687855, 13.240073126568426 ], [ 76.697275295958704, 13.240361448862824 ], [ 76.697285095901563, 13.240435242062397 ], [ 76.697309013589447, 13.240616064074111 ], [ 76.69738450727192, 13.241193512221349 ], [ 76.697431625117872, 13.241726510015312 ], [ 76.697402883885843, 13.241729893243965 ], [ 76.697404584686424, 13.241746622568733 ], [ 76.697141652096349, 13.241777141968756 ], [ 76.697168743730998, 13.241944740489707 ], [ 76.697177565651629, 13.241999614383097 ], [ 76.697154483776117, 13.242005662501491 ], [ 76.697157147290454, 13.24202091670557 ], [ 76.696941680022832, 13.242077331498779 ], [ 76.696562523068167, 13.242288069206754 ], [ 76.696489894155746, 13.242448632637258 ], [ 76.696466224834523, 13.242503225252177 ], [ 76.696496924296866, 13.242654086551104 ], [ 76.696797898253863, 13.242803551108322 ], [ 76.696982538230998, 13.242895280385497 ], [ 76.696975496476753, 13.243003918770347 ], [ 76.69695884496258, 13.243352065133184 ], [ 76.696902982154782, 13.243575980288252 ], [ 76.696626147432397, 13.243631337755534 ], [ 76.69639804427301, 13.24362623473737 ], [ 76.696417658359664, 13.243695540870197 ], [ 76.696694730173945, 13.244674533463392 ], [ 76.697005930388528, 13.246119194166431 ], [ 76.696254119325616, 13.246348291505715 ], [ 76.696249506281291, 13.24634969790201 ], [ 76.695479102276337, 13.246584458503925 ], [ 76.6954699866493, 13.246587236188285 ], [ 76.695052353676871, 13.246713325027459 ], [ 76.693965321439322, 13.247041511619374 ], [ 76.693764168262135, 13.247114705048533 ], [ 76.693405725321043, 13.247219157764942 ], [ 76.692856890682464, 13.24738637179124 ], [ 76.692492352010419, 13.247565542071259 ], [ 76.692253019295521, 13.2476831720435 ], [ 76.692175645029863, 13.248644885052814 ], [ 76.691704383231837, 13.249721084907543 ], [ 76.691792308297281, 13.251319187330321 ], [ 76.692341270448878, 13.251582117414703 ], [ 76.692341935237621, 13.252108811148128 ], [ 76.693205745674845, 13.252198625149395 ], [ 76.693884857272351, 13.252197795996841 ], [ 76.694102428024266, 13.252197531556636 ], [ 76.694637409581716, 13.252219272403527 ], [ 76.695310756445636, 13.252020759339919 ], [ 76.695394435294631, 13.251996088998316 ], [ 76.695447769898976, 13.251969267480183 ], [ 76.695531673337882, 13.251927071746607 ], [ 76.69563025612257, 13.251877494804029 ], [ 76.695703449624972, 13.251990190159935 ], [ 76.695756539687281, 13.251976880335951 ], [ 76.695819633054541, 13.251944197175648 ], [ 76.696112642267892, 13.252267501006759 ], [ 76.696356570866172, 13.252672523131773 ], [ 76.69672205608299, 13.252966124661505 ], [ 76.697152665891366, 13.25342654562788 ], [ 76.697413158329582, 13.254085868648486 ], [ 76.697462475872584, 13.254570613683308 ], [ 76.697576470610926, 13.254880426453138 ], [ 76.698055473542084, 13.255118248751419 ], [ 76.698234301388567, 13.255372345306236 ], [ 76.698437943180281, 13.255984052866026 ], [ 76.698724469719906, 13.256396522121481 ], [ 76.698752029387364, 13.256392445984355 ], [ 76.698786929501168, 13.256529328129346 ], [ 76.698782615194858, 13.256571247299027 ], [ 76.698834143871196, 13.256776534555112 ], [ 76.699059749063011, 13.257150887428844 ], [ 76.699365353641824, 13.257858514497352 ], [ 76.699812615584094, 13.258628864231088 ], [ 76.700128338464552, 13.259284550227408 ], [ 76.700187921401707, 13.259381080590833 ], [ 76.700277572834608, 13.259543688148989 ], [ 76.700569216415317, 13.259836075453128 ], [ 76.700711765695175, 13.259868231479164 ], [ 76.700745588724018, 13.259971395445795 ], [ 76.700787725010898, 13.259978178845808 ], [ 76.700949252615715, 13.260564035348676 ], [ 76.700969908563593, 13.260614870620406 ], [ 76.701156792681317, 13.261074807703862 ], [ 76.70115735752006, 13.261076147980463 ], [ 76.701153972793918, 13.261149780110154 ], [ 76.701138343760775, 13.261490080684323 ], [ 76.701314474888093, 13.261500131303498 ], [ 76.701314490749752, 13.26150031192188 ], [ 76.701314634916912, 13.261500320053221 ], [ 76.701360935000551, 13.262024074448901 ], [ 76.701401889565545, 13.262487308085571 ], [ 76.701467109402543, 13.263225060465823 ], [ 76.70148869667814, 13.263469217233226 ], [ 76.701520972245888, 13.264032550776546 ], [ 76.701532722323122, 13.264078754415346 ], [ 76.701787294292117, 13.264890904469267 ], [ 76.701859895575765, 13.26507277480499 ], [ 76.701987053537678, 13.265391311942128 ], [ 76.702015282945666, 13.265585078208135 ], [ 76.702114099565719, 13.265980962678666 ], [ 76.702333105278825, 13.26633080881242 ], [ 76.702571762248994, 13.266712040331528 ], [ 76.702625491440514, 13.266849445525835 ], [ 76.702791307634925, 13.267273513544342 ], [ 76.702891931993179, 13.267626548959271 ], [ 76.703025603114696, 13.268349864682349 ], [ 76.703154999690696, 13.268453692249627 ], [ 76.703229324623919, 13.268482234767751 ], [ 76.703577483747054, 13.268698293917408 ], [ 76.704048275662217, 13.268867266422419 ], [ 76.704692281012044, 13.268858778780455 ], [ 76.704695273521921, 13.268867282793627 ], [ 76.704722050861733, 13.268866927939818 ], [ 76.704802359116314, 13.269087544105014 ], [ 76.704839301175696, 13.269191650366345 ], [ 76.704940709764045, 13.269727852100988 ], [ 76.704984434839233, 13.269890205835104 ], [ 76.704982045107329, 13.270118584764333 ], [ 76.705155025366011, 13.270469503818383 ], [ 76.705553920423355, 13.271278727257288 ], [ 76.705500014247946, 13.271451197326387 ], [ 76.705544671295996, 13.27158446732998 ], [ 76.705722927403599, 13.271850894395307 ], [ 76.705805361724998, 13.272018435493639 ], [ 76.705794730879788, 13.272129338271061 ], [ 76.705840717200388, 13.272249403367177 ], [ 76.705931874649849, 13.272305446984328 ], [ 76.705937083280219, 13.272318447120965 ], [ 76.705955544589145, 13.27236453312748 ], [ 76.706201522366484, 13.272872490544447 ], [ 76.706362438139706, 13.273419772732982 ], [ 76.706521043756723, 13.273844392263303 ], [ 76.706711073516004, 13.274435591552104 ], [ 76.706968535596872, 13.275236570083599 ], [ 76.706989907723582, 13.275302701019179 ], [ 76.707744208579072, 13.277636688517987 ], [ 76.707627299155547, 13.277702768759196 ], [ 76.707614654729667, 13.277709915657296 ], [ 76.707641834939096, 13.27785304612056 ], [ 76.707679456632803, 13.27805117336365 ], [ 76.707675302395302, 13.278057556480309 ], [ 76.707688043009156, 13.278373707968571 ], [ 76.707861395915032, 13.278745990235199 ], [ 76.707941874171766, 13.278986867735005 ], [ 76.708045576389395, 13.279456672235467 ], [ 76.708070306302943, 13.279584784616759 ], [ 76.708137902138688, 13.279792506950912 ], [ 76.708145097986218, 13.279814616634063 ], [ 76.708127725008467, 13.280022873806013 ], [ 76.708471543236001, 13.280131424260547 ], [ 76.70910517290902, 13.280487313358016 ], [ 76.709156093441649, 13.280849456574188 ], [ 76.708725351459535, 13.281354920971847 ], [ 76.708484982232832, 13.281766839849498 ], [ 76.708235220774242, 13.283797224843751 ], [ 76.707720819874424, 13.284990247795641 ], [ 76.707284360738271, 13.285385289240333 ], [ 76.707198247184564, 13.285682484173735 ], [ 76.70727987070758, 13.285718572834659 ], [ 76.707319922851894, 13.28573628340081 ], [ 76.707412461378723, 13.285738668865482 ], [ 76.707976194442196, 13.285753199565356 ], [ 76.707934627684367, 13.286805725681063 ], [ 76.70794591051326, 13.287793325823836 ], [ 76.708012896166792, 13.288254717722641 ], [ 76.708101228555449, 13.288389407181381 ], [ 76.708529022481017, 13.28935646697583 ], [ 76.708694845669555, 13.289856065528605 ], [ 76.708757949139923, 13.290178630535133 ], [ 76.708852158605936, 13.290572151894715 ], [ 76.708884699011804, 13.291231584394824 ], [ 76.70899007928243, 13.29150090065411 ], [ 76.709041080528962, 13.29202865698902 ], [ 76.709035006932496, 13.29223655702317 ], [ 76.709108672935287, 13.292954582380489 ], [ 76.709082039778409, 13.293170298183727 ], [ 76.70914562758341, 13.294026758467075 ], [ 76.709125216405397, 13.294694420263742 ], [ 76.709433781413637, 13.296379458148982 ], [ 76.709508808873977, 13.297237047691597 ], [ 76.709540908003305, 13.297606880209441 ], [ 76.709656491467754, 13.297305325528463 ], [ 76.709752455356735, 13.297038033714145 ], [ 76.709759270842298, 13.297037176432514 ], [ 76.709778832548778, 13.296986140376569 ], [ 76.710287008280034, 13.29692807285352 ], [ 76.71063610873928, 13.297725213488642 ], [ 76.710593400360978, 13.297746370263182 ], [ 76.710607402587172, 13.297778071651877 ], [ 76.709672039230583, 13.298278594524293 ], [ 76.70955266377986, 13.298342473754293 ], [ 76.709604089984026, 13.299103665753407 ], [ 76.709614195403816, 13.299225434134021 ], [ 76.709913553293234, 13.303500706455255 ], [ 76.71011020189151, 13.303493087377937 ], [ 76.712602749140942, 13.303466467137886 ], [ 76.712761248643702, 13.303464476208177 ], [ 76.714194568760348, 13.303465624562813 ], [ 76.715304276229304, 13.303573136339908 ], [ 76.715967940751014, 13.30364514773097 ], [ 76.716117866310341, 13.303653801806851 ], [ 76.716114051124109, 13.303220511978157 ], [ 76.716377273741003, 13.303230847534968 ], [ 76.716569764642387, 13.303238405642119 ], [ 76.716641004066645, 13.303241199272595 ], [ 76.716641003531677, 13.303244049491056 ], [ 76.71671145272677, 13.303246115122784 ], [ 76.71671137012008, 13.303252864086577 ], [ 76.716690576753336, 13.303670688910049 ], [ 76.716952489825374, 13.303648474721532 ], [ 76.717336944994273, 13.303615869182408 ], [ 76.717531260064135, 13.303628437987014 ], [ 76.720435428718261, 13.303814427438276 ], [ 76.720568395886758, 13.30391033683811 ], [ 76.721117500981975, 13.304332910059999 ], [ 76.721783956750485, 13.304841884409164 ], [ 76.723123258516097, 13.30587537728413 ], [ 76.723219150180839, 13.305974157689286 ], [ 76.723302541810909, 13.30686486325642 ], [ 76.723344568779495, 13.307388708653656 ], [ 76.723354708853293, 13.307481482114287 ], [ 76.723544195821091, 13.307477297196725 ], [ 76.723547505852409, 13.307477223222714 ], [ 76.723632085010479, 13.307475120119063 ], [ 76.724215236775521, 13.307460322436775 ], [ 76.724426631060268, 13.307455459432006 ], [ 76.726055460763448, 13.307371742277514 ], [ 76.726103092898569, 13.307369488918859 ], [ 76.726384211306524, 13.307355851677048 ], [ 76.728409526491475, 13.307243155471195 ], [ 76.72854572397695, 13.30723210100798 ], [ 76.728883256027629, 13.307208382668607 ], [ 76.72974638970075, 13.307159181777987 ], [ 76.730241476274713, 13.307127822374797 ], [ 76.730298444873924, 13.307127303381398 ], [ 76.730371768528912, 13.3071266359395 ], [ 76.730615100924055, 13.307124419238711 ], [ 76.731471116539495, 13.307087816811897 ], [ 76.731937019809649, 13.307087291766116 ], [ 76.732401779982013, 13.3070206215318 ], [ 76.733326895407288, 13.30687032930185 ], [ 76.734252008342679, 13.306720032942568 ], [ 76.734451617537488, 13.306688285784992 ], [ 76.734745668246703, 13.306649504238246 ], [ 76.735167304819242, 13.306577565580474 ], [ 76.736001397330227, 13.30642432243987 ], [ 76.736063803464901, 13.306484670762558 ], [ 76.736134558345412, 13.306472133429676 ], [ 76.736566772358657, 13.306882939365284 ], [ 76.73694583434839, 13.307273616860348 ], [ 76.737071738408986, 13.30739670287837 ], [ 76.737317889354188, 13.307613483159749 ], [ 76.737771611709931, 13.30804734286755 ], [ 76.737945162866936, 13.308203060476936 ], [ 76.738021556078394, 13.308271347252019 ], [ 76.738108374400326, 13.308348599095371 ], [ 76.73814272233254, 13.308319953131766 ], [ 76.738472387893736, 13.308009240203583 ], [ 76.738829053478796, 13.307684394463941 ], [ 76.738938259555653, 13.307584931253587 ], [ 76.739404128663139, 13.307160622545203 ], [ 76.739811080396706, 13.306781157386871 ], [ 76.740313032214686, 13.306313108547272 ], [ 76.740548823557731, 13.306098472006873 ], [ 76.740605838150856, 13.306046572372605 ], [ 76.740698449906148, 13.305958650818711 ], [ 76.740859052440953, 13.305806180568537 ], [ 76.741090989638508, 13.305580950411454 ], [ 76.741154846824742, 13.305279095168951 ], [ 76.741257477372116, 13.304757347232833 ], [ 76.741360108540945, 13.304235599282698 ], [ 76.74144609311476, 13.30382770171104 ], [ 76.741453760335901, 13.303610354148709 ], [ 76.741458398420193, 13.303478899026643 ], [ 76.741502107938672, 13.303137649961844 ], [ 76.741550557793857, 13.302612475159274 ], [ 76.741658345952473, 13.301575727460316 ], [ 76.741713239681246, 13.301056295097714 ], [ 76.741772358376522, 13.300538676783127 ], [ 76.741820953841781, 13.300017532242297 ], [ 76.741831844488402, 13.299831291111191 ], [ 76.741894966469715, 13.299509284476819 ], [ 76.742010265021975, 13.29899297688709 ], [ 76.742123122909987, 13.298466694578199 ], [ 76.742258326275305, 13.29784041445409 ], [ 76.742261177237509, 13.297747420584194 ], [ 76.74227871324014, 13.297429644589114 ], [ 76.742313073151891, 13.296917264830606 ], [ 76.742344922144653, 13.296543935342603 ], [ 76.742357515276623, 13.296396322273381 ], [ 76.742401957340647, 13.29587537790383 ], [ 76.742415892490655, 13.29571202641293 ], [ 76.742423486883922, 13.295623012334509 ], [ 76.742446399363374, 13.295354434433463 ], [ 76.742490841338338, 13.294833490958457 ], [ 76.742526687380007, 13.294304889998275 ], [ 76.742647582372868, 13.293254751819584 ], [ 76.742647584499949, 13.293254729253558 ], [ 76.74264758495697, 13.29325472937324 ], [ 76.742655413816749, 13.29318672503029 ], [ 76.74452961494741, 13.293747589963544 ], [ 76.744897386484553, 13.293843900913856 ], [ 76.744923683092836, 13.293849110294509 ], [ 76.745048822283906, 13.293897083460262 ], [ 76.745425989324929, 13.293986238812712 ], [ 76.745426178871909, 13.293986283215258 ], [ 76.745997546359945, 13.294120127829583 ], [ 76.74801137180296, 13.294591861773155 ], [ 76.748216099233559, 13.294639817679323 ], [ 76.749688713707584, 13.29472301050653 ], [ 76.752265148330792, 13.294868543798961 ], [ 76.752558543707949, 13.2948851137565 ], [ 76.754317925493226, 13.294990664063274 ], [ 76.754606870671225, 13.295009270717321 ], [ 76.754648124548439, 13.295011927270513 ], [ 76.754911984643073, 13.29502891789377 ], [ 76.755559765119457, 13.295134126844927 ], [ 76.755930498390157, 13.295194337327416 ], [ 76.755977802341732, 13.295078877711106 ], [ 76.756261822206639, 13.295153634950937 ], [ 76.756624422200289, 13.295249074604509 ], [ 76.756682833873626, 13.295259259929731 ], [ 76.757604662997011, 13.295420001116188 ], [ 76.757610562481489, 13.295464047411352 ], [ 76.757639609497573, 13.295469590721824 ] ], [ [ 76.764534682293089, 13.274778870056636 ], [ 76.764542705746692, 13.274767981626246 ], [ 76.764709397872011, 13.274541768422873 ], [ 76.765102180966053, 13.274008732792826 ], [ 76.765145216754632, 13.273950330396648 ], [ 76.765170319584485, 13.273916264147156 ], [ 76.765202113923408, 13.273893365782541 ], [ 76.765299125458085, 13.273823498817032 ], [ 76.766111726842411, 13.273209913293552 ], [ 76.7663934716238, 13.272976082664774 ], [ 76.768278941811559, 13.271424598978316 ], [ 76.768353118057334, 13.271365029130571 ], [ 76.770039851847855, 13.270009986562121 ], [ 76.770121658219452, 13.26994426038878 ], [ 76.770375737499577, 13.269735651852539 ], [ 76.770522887984114, 13.269614817523191 ], [ 76.770719772202753, 13.269676321897078 ], [ 76.770737360738565, 13.269680734329206 ], [ 76.772503671314226, 13.2701243188831 ], [ 76.773034684397658, 13.270250345079965 ], [ 76.773803153491755, 13.271013811697586 ], [ 76.773800350461386, 13.271019023630737 ], [ 76.773810814902319, 13.271029528035328 ], [ 76.773569109195421, 13.271492420436278 ], [ 76.77345886478227, 13.271967894809086 ], [ 76.773328120740928, 13.272193643611734 ], [ 76.77298622243076, 13.272783946636682 ], [ 76.772922807198725, 13.272865844173918 ], [ 76.772742875554101, 13.273216783017391 ], [ 76.772255815934429, 13.273831707340143 ], [ 76.772235483000983, 13.27407148096912 ], [ 76.771620682768869, 13.274697188809435 ], [ 76.771346319263486, 13.275043793701149 ], [ 76.771423866585053, 13.275292990789035 ], [ 76.771370372035562, 13.275418794710449 ], [ 76.771434803842283, 13.275549236747779 ], [ 76.771407591627735, 13.27584041756235 ], [ 76.771297209690147, 13.276607160641856 ], [ 76.771268235916168, 13.276939982029008 ], [ 76.771242733121269, 13.27715716794085 ], [ 76.771227808471565, 13.277284269958502 ], [ 76.77140244946419, 13.277604955016578 ], [ 76.771536706461134, 13.277981359319215 ], [ 76.771335269399955, 13.278179572483277 ], [ 76.771337791770776, 13.278213725477048 ], [ 76.771344698722061, 13.278307226344287 ], [ 76.771570797235356, 13.278768015242916 ], [ 76.771446191638418, 13.279344426040566 ], [ 76.77142433157222, 13.279364576133602 ], [ 76.771421682819366, 13.279378259144556 ], [ 76.770859542961944, 13.279937953838349 ], [ 76.770924850119798, 13.280748404618532 ], [ 76.771014168105964, 13.280852525588914 ], [ 76.770954350454517, 13.280861744952041 ], [ 76.771014836541582, 13.28093311840354 ], [ 76.77083884301156, 13.280964697216824 ], [ 76.769874693879743, 13.281146539727018 ], [ 76.76961992175913, 13.281064064594494 ], [ 76.769579802278187, 13.281064917450605 ], [ 76.767797710111211, 13.281021108383424 ], [ 76.766997793664132, 13.280888285818724 ], [ 76.766810446239305, 13.281321710656899 ], [ 76.76675549840003, 13.281308975155033 ], [ 76.766716550285309, 13.281299948303289 ], [ 76.76671269475996, 13.281308226468688 ], [ 76.766656809363511, 13.281293324560469 ], [ 76.766469820073979, 13.2812427646102 ], [ 76.766249611357637, 13.281191727699953 ], [ 76.766197521910641, 13.281183130016405 ], [ 76.764716713310122, 13.280938725253073 ], [ 76.764615776604046, 13.280922068949987 ], [ 76.764603019142953, 13.280835634358278 ], [ 76.764503312449264, 13.280817457781906 ], [ 76.764275987921664, 13.279611078854222 ], [ 76.764258829669487, 13.279400862706476 ], [ 76.763935806681175, 13.278166408851765 ], [ 76.76380108340966, 13.278141876393818 ], [ 76.762990040877085, 13.278027258682286 ], [ 76.763000108459096, 13.277996022718563 ], [ 76.76296563608021, 13.277989745464632 ], [ 76.763525029800348, 13.276053986888584 ], [ 76.763699775770448, 13.275829790942362 ], [ 76.764195078022894, 13.275194306104689 ], [ 76.764476935515702, 13.274856111456106 ], [ 76.764523406833547, 13.274800353373868 ], [ 76.764534682293089, 13.274778870056636 ] ] ] } },
{ "type": "Feature", "properties": { "OBJECTID": 828, "KGISHobliID": 422, "KGISHobliCode": "180704", "KGISHobliName": "Kadaba", "BhuCodeHobli": null, "SHAPE.STArea()": 882344.94388607005, "SHAPE.STLength()": 4063.9382877690732, "KGISTalukCode": "1807", "created_user": null, "created_date": null, "last_edited_user": "SURESHBV", "last_edited_date": 1643872256000.0, "_overlap_percent": 0.92294611789939185, "_police_station": "Dandinashivara PS", "_police_feature_index": "158", "_admin_layer": "Hobli", "_geometry_clipped": true }, "geometry": { "type": "MultiPolygon", "coordinates": [ [ [ [ 76.765299125458085, 13.273823498817032 ], [ 76.765202113923408, 13.273893365782541 ], [ 76.765170319584485, 13.273916264147156 ], [ 76.765145216754632, 13.273950330396648 ], [ 76.765102180966053, 13.274008732792826 ], [ 76.764709397872011, 13.274541768422873 ], [ 76.764542705746692, 13.274767981626246 ], [ 76.764534682293089, 13.274778870056636 ], [ 76.764523406833547, 13.274800353373868 ], [ 76.765218629199964, 13.273966198723551 ], [ 76.765323907354244, 13.273866738821118 ], [ 76.765469088458957, 13.273743263144937 ], [ 76.766111726842411, 13.273209913293552 ], [ 76.765299125458085, 13.273823498817032 ] ] ], [ [ [ 76.773803153491755, 13.271013811697586 ], [ 76.773034684397658, 13.270250345079965 ], [ 76.772503671314226, 13.2701243188831 ], [ 76.773037708828397, 13.270253469472328 ], [ 76.773800350461386, 13.271019023630737 ], [ 76.773803153491755, 13.271013811697586 ] ] ], [ [ [ 76.771421682819366, 13.279378259144556 ], [ 76.77142433157222, 13.279364576133602 ], [ 76.770866885675133, 13.279878416603475 ], [ 76.770855584863355, 13.279888834504588 ], [ 76.770859542961944, 13.279937953838349 ], [ 76.771421682819366, 13.279378259144556 ] ] ], [ [ [ 76.767797710111211, 13.281021108383424 ], [ 76.769579802278187, 13.281064917450605 ], [ 76.76961992175913, 13.281064064594494 ], [ 76.769874693879743, 13.281146539727018 ], [ 76.77083884301156, 13.280964697216824 ], [ 76.771014836541582, 13.28093311840354 ], [ 76.770954350454517, 13.280861744952041 ], [ 76.770835087595117, 13.280880126275648 ], [ 76.769856441549905, 13.281042885928883 ], [ 76.769596447667865, 13.280955104326351 ], [ 76.769555986406928, 13.280955653142783 ], [ 76.7678459399296, 13.280978786224431 ], [ 76.767002563026566, 13.280877251986015 ], [ 76.766997793664132, 13.280888285818724 ], [ 76.767797710111211, 13.281021108383424 ] ] ], [ [ [ 76.766656809363511, 13.281293324560469 ], [ 76.76671269475996, 13.281308226468688 ], [ 76.766716550285309, 13.281299948303289 ], [ 76.766469820073979, 13.2812427646102 ], [ 76.766656809363511, 13.281293324560469 ] ] ], [ [ [ 76.764258829669487, 13.279400862706476 ], [ 76.764275987921664, 13.279611078854222 ], [ 76.764503312449264, 13.280817457781906 ], [ 76.764603019142953, 13.280835634358278 ], [ 76.764445506813473, 13.279768453844675 ], [ 76.764411008237531, 13.27953477875778 ], [ 76.7639932585449, 13.278176870559051 ], [ 76.763935806681175, 13.278166408851765 ], [ 76.764258829669487, 13.279400862706476 ] ] ], [ [ [ 76.762990040877085, 13.278027258682286 ], [ 76.76380108340966, 13.278141876393818 ], [ 76.763000108459096, 13.277996022718563 ], [ 76.762990040877085, 13.278027258682286 ] ] ] ] } }
]
}
