{
"type": "FeatureCollection",
"name": "police_station_boundary.writing_20260805_172659",
"crs": { "type": "name", "properties": { "name": "urn:ogc:def:crs:OGC:1.3:CRS84" } },
"features": [
{ "type": "Feature", "properties": { "Shape.STArea()": 154818031.52452752, "Shape.STLength()": 74917.953059234525, "OBJECTID": 160, "KGISPS_BOUNDID": 252, "PS_BOUNDName": "Dandinashivara PS", "PS_BOUNDCode": "PSB - 252", "KGISPS_SUB_DIVID": 101, "_source_layer": "Police Station Boundary", "_source_layer_url": "https://kgis.ksrsac.in/kgismaps/rest/services/Home/Home_Department/MapServer/82", "_police_station": "Dandinashivara PS" }, "geometry": { "type": "Polygon", "coordinates": [ [ [ 76.739811080396706, 13.306781157386871 ], [ 76.739404128663139, 13.307160622545203 ], [ 76.738938259555653, 13.307584931253587 ], [ 76.738829053478796, 13.307684394463941 ], [ 76.738472387893736, 13.308009240203583 ], [ 76.73814272233254, 13.308319953131766 ], [ 76.738060730725167, 13.308388333626594 ], [ 76.738006510902267, 13.308433548510253 ], [ 76.737820259734505, 13.308252680722051 ], [ 76.737747208987642, 13.308181744355352 ], [ 76.737580846591086, 13.308020195338075 ], [ 76.737145555737257, 13.307570972591968 ], [ 76.736908677549167, 13.307346285800014 ], [ 76.736788063182956, 13.307218840291716 ], [ 76.736421494721498, 13.30683056732367 ], [ 76.736001397330227, 13.30642432243987 ], [ 76.735167304819242, 13.306577565580474 ], [ 76.734745668246703, 13.306649504238246 ], [ 76.734451617537488, 13.306688285784992 ], [ 76.734252008342679, 13.306720032942568 ], [ 76.733326895407288, 13.30687032930185 ], [ 76.732401779982013, 13.3070206215318 ], [ 76.731937019809649, 13.307087291766116 ], [ 76.731471116539495, 13.307087816811897 ], [ 76.730615100924055, 13.307124419238711 ], [ 76.730371768528912, 13.3071266359395 ], [ 76.730298444873924, 13.307127303381398 ], [ 76.730241476274713, 13.307127822374797 ], [ 76.72974638970075, 13.307159181777987 ], [ 76.728883256027629, 13.307208382668607 ], [ 76.72854572397695, 13.30723210100798 ], [ 76.728409526491475, 13.307243155471195 ], [ 76.726012641176155, 13.307376527246072 ], [ 76.725965046903568, 13.307379175326723 ], [ 76.724335977978441, 13.307478410467782 ], [ 76.724124253333216, 13.307485632964442 ], [ 76.723539704558732, 13.307507273268399 ], [ 76.723454859535167, 13.30751041399464 ], [ 76.723451538716233, 13.307510528715353 ], [ 76.723261397511422, 13.307517085270907 ], [ 76.723251784003196, 13.307424899370497 ], [ 76.723213103922305, 13.306903948970813 ], [ 76.723136772313609, 13.30601719785729 ], [ 76.723041419980817, 13.305919900648655 ], [ 76.721708936363669, 13.30490437914203 ], [ 76.721047407097274, 13.304403379642356 ], [ 76.720501090522788, 13.303989631897066 ], [ 76.720366773595487, 13.303887907879895 ], [ 76.717461249159072, 13.30364794419369 ], [ 76.717267873663701, 13.303631977612689 ], [ 76.716886559874013, 13.30366010025428 ], [ 76.716626974001258, 13.303679246238611 ], [ 76.716641002772704, 13.303248093212902 ], [ 76.716641004066645, 13.303241199272595 ], [ 76.716569764642387, 13.303238405642119 ], [ 76.716377273741003, 13.303230847534968 ], [ 76.716114051124109, 13.303220511978157 ], [ 76.71611789409917, 13.303656957778465 ], [ 76.715909473657362, 13.303640543080643 ], [ 76.715264486008209, 13.303589742612269 ], [ 76.714179750992898, 13.303504304168625 ], [ 76.712757971654966, 13.303492105703608 ], [ 76.712600572676607, 13.303492448663169 ], [ 76.710124097309929, 13.303497941764732 ], [ 76.709913870770961, 13.303504042850891 ], [ 76.709913554971152, 13.30350073041847 ], [ 76.709614195403816, 13.299225434134021 ], [ 76.709541418890211, 13.298348491029099 ], [ 76.709672039230583, 13.298278594524293 ], [ 76.710607402587172, 13.297778071651877 ], [ 76.710252739579573, 13.296975105772937 ], [ 76.709752455356735, 13.297038033714145 ], [ 76.709525316202786, 13.297670692907188 ], [ 76.709488846589124, 13.297293406477664 ], [ 76.709404675981006, 13.29642264094192 ], [ 76.709083381715999, 13.294714557135331 ], [ 76.709098558507705, 13.294035319148536 ], [ 76.709033765912864, 13.293166522519099 ], [ 76.709060196409368, 13.292948482371459 ], [ 76.708990020362961, 13.292223267502649 ], [ 76.708996960640562, 13.292013399298908 ], [ 76.708950616536214, 13.291481191637567 ], [ 76.708850365572331, 13.291210412753323 ], [ 76.708830250847782, 13.290548214026094 ], [ 76.708694845669555, 13.289856065528605 ], [ 76.708529022481017, 13.28935646697583 ], [ 76.708101228555449, 13.288389407181381 ], [ 76.708012896166792, 13.288254717722641 ], [ 76.70794591051326, 13.287793325823836 ], [ 76.707934627684367, 13.286805725681063 ], [ 76.707976194442196, 13.285753199565356 ], [ 76.707412461378723, 13.285738668865482 ], [ 76.707319922851894, 13.28573628340081 ], [ 76.70727987070758, 13.285718572834659 ], [ 76.707195993237349, 13.285681487623551 ], [ 76.707285223392589, 13.285374041770313 ], [ 76.707721734128526, 13.284978332005281 ], [ 76.708235603070349, 13.283792246363864 ], [ 76.708484982232832, 13.281766839849498 ], [ 76.708725351459535, 13.281354920971847 ], [ 76.709156093441649, 13.280849456574188 ], [ 76.70910517290902, 13.280487313358016 ], [ 76.708471543236001, 13.280131424260547 ], [ 76.708127725008467, 13.280022873806013 ], [ 76.708145097986218, 13.279814616634063 ], [ 76.708137902138688, 13.279792506950912 ], [ 76.708070306302943, 13.279584784616759 ], [ 76.708045576389395, 13.279456672235467 ], [ 76.707941874171766, 13.278986867735005 ], [ 76.707861395915032, 13.278745990235199 ], [ 76.707688043009156, 13.278373707968571 ], [ 76.707675302395302, 13.278057556480309 ], [ 76.707679456632803, 13.27805117336365 ], [ 76.707641834939096, 13.27785304612056 ], [ 76.707614654729667, 13.277709915657296 ], [ 76.707627299155547, 13.277702768759196 ], [ 76.707744208579072, 13.277636688517987 ], [ 76.706989907723582, 13.275302701019179 ], [ 76.706968535596872, 13.275236570083599 ], [ 76.706711073516004, 13.274435591552104 ], [ 76.706521043756723, 13.273844392263303 ], [ 76.706362438139706, 13.273419772732982 ], [ 76.706201522366484, 13.272872490544447 ], [ 76.705955544589145, 13.27236453312748 ], [ 76.705937083280219, 13.272318447120965 ], [ 76.705931874649849, 13.272305446984328 ], [ 76.705840717200388, 13.272249403367177 ], [ 76.705794730879788, 13.272129338271061 ], [ 76.705805361724998, 13.272018435493639 ], [ 76.705722927403599, 13.271850894395307 ], [ 76.705544671295996, 13.27158446732998 ], [ 76.705500014247946, 13.271451197326387 ], [ 76.705553920423355, 13.271278727257288 ], [ 76.705155025366011, 13.270469503818383 ], [ 76.704982045107329, 13.270118584764333 ], [ 76.704984434839233, 13.269890205835104 ], [ 76.704940709764045, 13.269727852100988 ], [ 76.704839301175696, 13.269191650366345 ], [ 76.704802359116314, 13.269087544105014 ], [ 76.704722050861733, 13.268866927939818 ], [ 76.704071358003119, 13.268875550933769 ], [ 76.703577483747054, 13.268698293917408 ], [ 76.703229324623919, 13.268482234767751 ], [ 76.703154999690696, 13.268453692249627 ], [ 76.703025603114696, 13.268349864682349 ], [ 76.702891931993179, 13.267626548959271 ], [ 76.702791307634925, 13.267273513544342 ], [ 76.702625491440514, 13.266849445525835 ], [ 76.702571762248994, 13.266712040331528 ], [ 76.702333105278825, 13.26633080881242 ], [ 76.702114099565719, 13.265980962678666 ], [ 76.702015282945666, 13.265585078208135 ], [ 76.701987053537678, 13.265391311942128 ], [ 76.701859895575765, 13.26507277480499 ], [ 76.701787294292117, 13.264890904469267 ], [ 76.701532722323122, 13.264078754415346 ], [ 76.701520972245888, 13.264032550776546 ], [ 76.70148869667814, 13.263469217233226 ], [ 76.701467109402543, 13.263225060465823 ], [ 76.701401889565545, 13.262487308085571 ], [ 76.701360935000551, 13.262024074448901 ], [ 76.701314634916912, 13.261500320053221 ], [ 76.701138330193942, 13.261490376083364 ], [ 76.701153972793918, 13.261149780110154 ], [ 76.70115735752006, 13.261076147980463 ], [ 76.701154889924155, 13.261070292749977 ], [ 76.700963756818382, 13.260616641721837 ], [ 76.700787725010898, 13.259978178845808 ], [ 76.700626719497166, 13.259952259029788 ], [ 76.700328019742784, 13.259662184943354 ], [ 76.700242990374932, 13.25949785811247 ], [ 76.700178462178457, 13.259388646000394 ], [ 76.699812615584094, 13.258628864231088 ], [ 76.699365353641824, 13.257858514497352 ], [ 76.699059749063011, 13.257150887428844 ], [ 76.698834143871196, 13.256776534555112 ], [ 76.698746841673227, 13.25642872766495 ], [ 76.698437943180281, 13.255984052866026 ], [ 76.698234301388567, 13.255372345306236 ], [ 76.698055473542084, 13.255118248751419 ], [ 76.697576470610926, 13.254880426453138 ], [ 76.697462475872584, 13.254570613683308 ], [ 76.697413158329582, 13.254085868648486 ], [ 76.697152665891366, 13.25342654562788 ], [ 76.69672205608299, 13.252966124661505 ], [ 76.696356570866172, 13.252672523131773 ], [ 76.696112642267892, 13.252267501006759 ], [ 76.695819633054541, 13.251944197175648 ], [ 76.695756539687281, 13.251976880335951 ], [ 76.695462176658324, 13.252050677953299 ], [ 76.695027221518728, 13.252159723312772 ], [ 76.694652801290374, 13.252219897899447 ], [ 76.694102428024266, 13.252197531556636 ], [ 76.693884857272351, 13.252197795996841 ], [ 76.693205745674845, 13.252198625149395 ], [ 76.692341935237621, 13.252108811148128 ], [ 76.692341270448878, 13.251582117414703 ], [ 76.691792308297281, 13.251319187330321 ], [ 76.691704383231837, 13.249721084907543 ], [ 76.692175645029863, 13.248644885052814 ], [ 76.692253019295521, 13.2476831720435 ], [ 76.692492352010419, 13.247565542071259 ], [ 76.692856890682464, 13.24738637179124 ], [ 76.693405725321043, 13.247219157764942 ], [ 76.693764168262135, 13.247114705048533 ], [ 76.693965321439322, 13.247041511619374 ], [ 76.695052353676871, 13.246713325027459 ], [ 76.6954699866493, 13.246587236188285 ], [ 76.695479102276337, 13.246584458503925 ], [ 76.696249506281291, 13.24634969790201 ], [ 76.696254119325616, 13.246348291505715 ], [ 76.697005930388528, 13.246119194166431 ], [ 76.696694730173945, 13.244674533463392 ], [ 76.696417658359664, 13.243695540870197 ], [ 76.69639804427301, 13.24362623473737 ], [ 76.696626147432397, 13.243631337755534 ], [ 76.696902982154782, 13.243575980288252 ], [ 76.69695884496258, 13.243352065133184 ], [ 76.696979370224696, 13.242922927261581 ], [ 76.696793560585704, 13.242828716426828 ], [ 76.696491281367528, 13.24267544428815 ], [ 76.696458159245367, 13.242521828303721 ], [ 76.696558551386346, 13.242290276691312 ], [ 76.696941680022832, 13.242077331498779 ], [ 76.697157147290454, 13.24202091670557 ], [ 76.697147480488567, 13.241965553996776 ], [ 76.69711512013231, 13.241780221631526 ], [ 76.69713663851131, 13.241777723911097 ], [ 76.697404584686424, 13.241746622568733 ], [ 76.697349989286209, 13.241209614178041 ], [ 76.697268130930908, 13.240628432750031 ], [ 76.697242505036741, 13.240446496736096 ], [ 76.697232047774705, 13.240372249627697 ], [ 76.697156276566503, 13.24006257013311 ], [ 76.697050966543088, 13.239659886980112 ], [ 76.697025994712149, 13.239530102343997 ], [ 76.697276959412591, 13.239481046283146 ], [ 76.698892818230121, 13.239154362369309 ], [ 76.699445554793712, 13.239072058235374 ], [ 76.699444104737722, 13.238964895589419 ], [ 76.699340902397637, 13.238489905143943 ], [ 76.699256246260688, 13.238107895233572 ], [ 76.69923656507126, 13.238019085496452 ], [ 76.699099722514063, 13.237546961695296 ], [ 76.698977937069046, 13.237069817648882 ], [ 76.698988600384595, 13.236847161197181 ], [ 76.698968170458116, 13.236808956536748 ], [ 76.699061351649874, 13.236474030291838 ], [ 76.698928205825737, 13.236488352603923 ], [ 76.698891145673699, 13.236492338592759 ], [ 76.698846162462388, 13.236503636484205 ], [ 76.698825448519045, 13.236508838826193 ], [ 76.698579825929798, 13.236457929261872 ], [ 76.698572970902546, 13.236436559731578 ], [ 76.698511924472157, 13.236246247125646 ], [ 76.698496843237663, 13.23619923089794 ], [ 76.698208242207883, 13.236013867354041 ], [ 76.697882437684967, 13.235887510450535 ], [ 76.697371011926805, 13.235689163104723 ], [ 76.697289841705981, 13.235594825899089 ], [ 76.696406216507953, 13.234567874462654 ], [ 76.696112730644117, 13.234043711609649 ], [ 76.69610392402231, 13.234027075998201 ], [ 76.695987021477833, 13.233806261655708 ], [ 76.695466977210458, 13.232823932636807 ], [ 76.695317702196121, 13.232541965231308 ], [ 76.695146356522571, 13.232284000765416 ], [ 76.695046071347832, 13.232133019181772 ], [ 76.695034307008697, 13.232073439927611 ], [ 76.695011405093652, 13.232045595443505 ], [ 76.694773877977681, 13.23176668716032 ], [ 76.694790065055869, 13.231698749377674 ], [ 76.694796010727828, 13.231673801186028 ], [ 76.694803183867435, 13.231643696241905 ], [ 76.694808652484213, 13.231620744312512 ], [ 76.694827629931169, 13.231541100602104 ], [ 76.69486241505814, 13.231038746710485 ], [ 76.694874637579915, 13.230633286815225 ], [ 76.694890997381123, 13.230373054224266 ], [ 76.694888143141497, 13.230346023983557 ], [ 76.694842925121179, 13.230209645410449 ], [ 76.694803070327225, 13.229904115345029 ], [ 76.694817739694969, 13.229742756108763 ], [ 76.694728962787366, 13.229427514554871 ], [ 76.694712119293555, 13.229092893453059 ], [ 76.694668689328623, 13.22822817079286 ], [ 76.694656029125952, 13.227486541251087 ], [ 76.694610364249073, 13.226971718220481 ], [ 76.694604780011801, 13.226908765221728 ], [ 76.694548196395431, 13.226664131314783 ], [ 76.694496855650613, 13.226548007954209 ], [ 76.694277758826374, 13.226150024842543 ], [ 76.693775618309729, 13.225006862546214 ], [ 76.69366998018873, 13.224759737727764 ], [ 76.693246309854672, 13.223727236951589 ], [ 76.692850844329058, 13.222920813425951 ], [ 76.692517229550702, 13.22174752005712 ], [ 76.692477456696167, 13.22164793583288 ], [ 76.692425732314135, 13.22148188375748 ], [ 76.692379811583621, 13.221334466921528 ], [ 76.691909531399887, 13.219782883146703 ], [ 76.691412297690874, 13.218726441424119 ], [ 76.691356206296348, 13.218464670288155 ], [ 76.691305016745886, 13.217819053032635 ], [ 76.691208799629337, 13.217108980740116 ], [ 76.691173008673005, 13.216857195281795 ], [ 76.691113924441922, 13.216583383920055 ], [ 76.691131733958173, 13.21583276396815 ], [ 76.691277715425713, 13.215150853404019 ], [ 76.691393450640021, 13.214560226291701 ], [ 76.69140311922915, 13.214525918040513 ], [ 76.691460410370595, 13.214322641278915 ], [ 76.691422782450942, 13.214252882965567 ], [ 76.691423485927359, 13.214244379831333 ], [ 76.691433447205014, 13.214124138441697 ], [ 76.691447140457356, 13.213698064414151 ], [ 76.691456566569215, 13.213404667051424 ], [ 76.691466840028582, 13.213084945179933 ], [ 76.691474663142259, 13.212841558628277 ], [ 76.691478625856192, 13.212784673399117 ], [ 76.691518452987879, 13.212212712166838 ], [ 76.691524420427228, 13.212127027126034 ], [ 76.691546867059813, 13.211775911780725 ], [ 76.691560878487437, 13.211556705243165 ], [ 76.691568612815729, 13.211435685849874 ], [ 76.691593584191367, 13.211045010818278 ], [ 76.691597889042541, 13.210977659758806 ], [ 76.691617836816391, 13.210665576936465 ], [ 76.691634434497885, 13.210405963349308 ], [ 76.691640913738254, 13.210261049476191 ], [ 76.691659087850525, 13.209854477264152 ], [ 76.69166618377723, 13.209695691650765 ], [ 76.691676900308323, 13.209455936795994 ], [ 76.691706538441366, 13.208792887106377 ], [ 76.691705800527501, 13.20876598644692 ], [ 76.691614205832678, 13.205436107784285 ], [ 76.691668060238882, 13.20543355982983 ], [ 76.692777633740775, 13.205376951961354 ], [ 76.693970201531997, 13.205309667193765 ], [ 76.695111389797887, 13.205244779966705 ], [ 76.695447466449266, 13.205225671510801 ], [ 76.696812728531171, 13.204886196028916 ], [ 76.697899574798939, 13.204676840523151 ], [ 76.697904482391408, 13.204676649781858 ], [ 76.699201482161456, 13.204626455094662 ], [ 76.699400324689279, 13.204612315719521 ], [ 76.699700485760246, 13.204611793953445 ], [ 76.699709331099783, 13.20461177949889 ], [ 76.700459185688842, 13.204549909644102 ], [ 76.701391115073022, 13.204485324994597 ], [ 76.70140357713835, 13.204407560256559 ], [ 76.702371227756274, 13.204290831949217 ], [ 76.704814322910096, 13.204101687624622 ], [ 76.704962183822289, 13.204079396011023 ], [ 76.70717246704416, 13.203746178212333 ], [ 76.70718843845863, 13.203737323778457 ], [ 76.707214068634173, 13.20372311532001 ], [ 76.70830723697533, 13.202859686104214 ], [ 76.709250747071394, 13.202136743278857 ], [ 76.709399672228599, 13.202022632684645 ], [ 76.710102449123696, 13.201458239857139 ], [ 76.710246938975317, 13.201318700302236 ], [ 76.711110123399209, 13.201211082868644 ], [ 76.711178448699229, 13.201206780076319 ], [ 76.711273587276139, 13.201196750822342 ], [ 76.71143971078061, 13.201179238167629 ], [ 76.711441218101413, 13.201179223570696 ], [ 76.712518147518196, 13.201168495202097 ], [ 76.712754665273238, 13.201166138177616 ], [ 76.712950993732292, 13.201164181836415 ], [ 76.712564022348516, 13.200875661278523 ], [ 76.712205762570079, 13.200259101265175 ], [ 76.711691776815314, 13.198894454371402 ], [ 76.711626503912171, 13.198689315439982 ], [ 76.711598328827478, 13.198367223111472 ], [ 76.711490575444174, 13.197135970151187 ], [ 76.711590028668283, 13.196979631328032 ], [ 76.71210873114795, 13.196195257177417 ], [ 76.713735058114651, 13.194037960029098 ], [ 76.713770538036044, 13.193942042798273 ], [ 76.713916060464371, 13.193656397760758 ], [ 76.713920031431797, 13.193646676028203 ], [ 76.713921010117971, 13.193644280489012 ], [ 76.714035583960623, 13.193363785003349 ], [ 76.714131482004376, 13.193108242617184 ], [ 76.714254653368215, 13.192788608815533 ], [ 76.714503336692616, 13.192160340299139 ], [ 76.715363655437486, 13.190663838755938 ], [ 76.715752578856055, 13.189941675930584 ], [ 76.7161395152784, 13.189203026395399 ], [ 76.716247988494459, 13.188976234427411 ], [ 76.716339708775891, 13.188775165553496 ], [ 76.716672131761186, 13.187983285328272 ], [ 76.716699039070988, 13.187761513999806 ], [ 76.716893508840386, 13.187513461923146 ], [ 76.716812555631336, 13.187469190258005 ], [ 76.716757547543594, 13.187439107584639 ], [ 76.716758734085445, 13.187436232487851 ], [ 76.716837316188204, 13.187245962678576 ], [ 76.716922210345871, 13.187142219053657 ], [ 76.717172870759072, 13.18686381726169 ], [ 76.717330959466082, 13.186479750621245 ], [ 76.717453285132578, 13.186020877058844 ], [ 76.717556857787031, 13.185632350745967 ], [ 76.717599316270253, 13.185267859964132 ], [ 76.717949481620337, 13.184904959294848 ], [ 76.717957903043597, 13.184889923541581 ], [ 76.718033280735682, 13.185012765161666 ], [ 76.719400732905171, 13.185393235757775 ], [ 76.720632499274529, 13.185424820997541 ], [ 76.721935125160471, 13.185327531043734 ], [ 76.722555686683606, 13.185255538112434 ], [ 76.72328211872447, 13.185172101747337 ], [ 76.723471926123324, 13.185151031053955 ], [ 76.723543782380929, 13.185142276306069 ], [ 76.723746211615207, 13.185117615243245 ], [ 76.72400546867776, 13.185090465677165 ], [ 76.724361135290266, 13.185053128430738 ], [ 76.724543650610585, 13.185042500755825 ], [ 76.724752708321944, 13.185030326737234 ], [ 76.724982599746866, 13.185016940307527 ], [ 76.725342285693401, 13.184995995623998 ], [ 76.725432206538358, 13.184990276024948 ], [ 76.725628374143014, 13.184977798510124 ], [ 76.725954165153738, 13.184943634959032 ], [ 76.726577853414994, 13.184878232447534 ], [ 76.726875503644422, 13.18484701871898 ], [ 76.726959618923573, 13.184839018335769 ], [ 76.727651627685816, 13.184773189033008 ], [ 76.727718438810143, 13.184766832628281 ], [ 76.72956564866891, 13.184913200388294 ], [ 76.730838707980709, 13.185014065353485 ], [ 76.732912799268675, 13.185188856163458 ], [ 76.733028380867012, 13.185198595802257 ], [ 76.733526504968765, 13.185184987555367 ], [ 76.733488069965489, 13.185406459949251 ], [ 76.734899806195912, 13.185446732313999 ], [ 76.734912623507796, 13.185446682601119 ], [ 76.736701085377689, 13.185439853585418 ], [ 76.737469821498649, 13.185514714210354 ], [ 76.737980433219562, 13.185564437183301 ], [ 76.739366061176597, 13.185910929180736 ], [ 76.739372158379496, 13.185912453320714 ], [ 76.73967303685852, 13.185988998089034 ], [ 76.739739272237784, 13.185721238665483 ], [ 76.739991935909089, 13.185374870971579 ], [ 76.740038073779104, 13.1850353242232 ], [ 76.740303825673138, 13.184525727517716 ], [ 76.740561420941603, 13.184422208240218 ], [ 76.740951884808979, 13.1844674112472 ], [ 76.740972544089956, 13.184454877776771 ], [ 76.741466892993643, 13.184154986146391 ], [ 76.741929394242348, 13.184005808297552 ], [ 76.742152989603824, 13.183882682954247 ], [ 76.742470711705579, 13.183851206553943 ], [ 76.743038804236818, 13.183601761765113 ], [ 76.743447332614323, 13.183718902857951 ], [ 76.743451723198575, 13.183720161925885 ], [ 76.743453413804062, 13.183720646656411 ], [ 76.743698298309894, 13.183378819509645 ], [ 76.743730107074015, 13.183254723480117 ], [ 76.743798023847091, 13.182848848120686 ], [ 76.743911966027227, 13.18255660016538 ], [ 76.744079687457372, 13.182444595260909 ], [ 76.74442037600457, 13.182105957257193 ], [ 76.744572133417805, 13.181893680240055 ], [ 76.74469642572808, 13.181568726113161 ], [ 76.74504105066022, 13.181256826429939 ], [ 76.745130441354604, 13.181061832923245 ], [ 76.745213875108675, 13.180792340530505 ], [ 76.745396594361949, 13.180554381040691 ], [ 76.745796266679221, 13.18017513639389 ], [ 76.746039161018714, 13.180166669643112 ], [ 76.746170237751386, 13.180244646747857 ], [ 76.746349581905264, 13.180554004665945 ], [ 76.746495525553144, 13.180609175722795 ], [ 76.746707009482463, 13.180598148275326 ], [ 76.74684703517903, 13.180356760263564 ], [ 76.746910468857621, 13.180104758329533 ], [ 76.746925756294019, 13.180008032098737 ], [ 76.746916627857175, 13.179962544173803 ], [ 76.746875006266691, 13.179899218135787 ], [ 76.746772763370245, 13.17974366557082 ], [ 76.74678907002378, 13.179575946176421 ], [ 76.746898613025152, 13.179471402718836 ], [ 76.746890204367801, 13.179454935279505 ], [ 76.746773569033223, 13.179226475264031 ], [ 76.746754251933424, 13.17920029763766 ], [ 76.746845465024066, 13.179122006659012 ], [ 76.74695385513688, 13.179246154510905 ], [ 76.747156395276477, 13.179154743364261 ], [ 76.74750347397287, 13.179093655522465 ], [ 76.74803143541223, 13.179057081932658 ], [ 76.748695037684072, 13.17866505357285 ], [ 76.749014460407395, 13.177910486619576 ], [ 76.750251482144165, 13.176800594203952 ], [ 76.750578006217594, 13.17664994837963 ], [ 76.750893757156916, 13.176756829258039 ], [ 76.751415333318292, 13.177138269730298 ], [ 76.752070424512155, 13.177377552166371 ], [ 76.752971074519536, 13.177864904472232 ], [ 76.75345050887266, 13.178014348040731 ], [ 76.754116599843712, 13.178155327890384 ], [ 76.754760130672977, 13.178121613506727 ], [ 76.755553648812622, 13.177787373887419 ], [ 76.75577881762031, 13.177473394600467 ], [ 76.755867165333115, 13.177291349112627 ], [ 76.755935238056153, 13.177151084030333 ], [ 76.756012375403031, 13.176787851944471 ], [ 76.756038687441958, 13.176410052148285 ], [ 76.755945763849525, 13.17622862971627 ], [ 76.755269467599348, 13.175643958509642 ], [ 76.755148797058212, 13.175543211292846 ], [ 76.75499956185709, 13.175465991263026 ], [ 76.754829756580577, 13.175378127739219 ], [ 76.75455915840304, 13.175120893776542 ], [ 76.754428507034078, 13.174860399032722 ], [ 76.754361976213247, 13.174350959922426 ], [ 76.75440910215454, 13.174061539692175 ], [ 76.754620877192835, 13.173641908616432 ], [ 76.754871381448922, 13.173301844677663 ], [ 76.755226632145536, 13.173061191642068 ], [ 76.755570039534618, 13.172890837817762 ], [ 76.756352934870094, 13.172845749075302 ], [ 76.756672872817461, 13.172959480195738 ], [ 76.75686743664329, 13.173164178902081 ], [ 76.757020295172097, 13.173453858112126 ], [ 76.757358587023134, 13.173839901531567 ], [ 76.757914724936683, 13.174026487151854 ], [ 76.758219244780747, 13.174058664731204 ], [ 76.758488599731677, 13.174087125883847 ], [ 76.759047174974455, 13.173919374033497 ], [ 76.759688203615895, 13.173207739800246 ], [ 76.759866495821583, 13.172790501815806 ], [ 76.759895190809445, 13.172723351308688 ], [ 76.760050635667071, 13.172625241094103 ], [ 76.760050940742786, 13.172522719720028 ], [ 76.760065966816043, 13.172505563208196 ], [ 76.760696642809265, 13.17178546291729 ], [ 76.761060498230179, 13.171474888613282 ], [ 76.762053137111877, 13.171251191006327 ], [ 76.762672282713538, 13.171338717553668 ], [ 76.763208114350363, 13.171748608634683 ], [ 76.763602039144843, 13.172127120856507 ], [ 76.763945211684643, 13.173032512691819 ], [ 76.764182948774163, 13.17352025606702 ], [ 76.764278014169662, 13.173638867261424 ], [ 76.764608222923115, 13.174050862114919 ], [ 76.764755614694721, 13.173879909068557 ], [ 76.764822344449627, 13.17381373655785 ], [ 76.764933215025394, 13.173703791245098 ], [ 76.765036794955932, 13.173601076431426 ], [ 76.764889996303182, 13.173458564324312 ], [ 76.764872391276214, 13.173414549369436 ], [ 76.764834990969334, 13.17332104620991 ], [ 76.764770587705087, 13.173160026971166 ], [ 76.764526675914766, 13.172485928252513 ], [ 76.764098478670718, 13.171115142072713 ], [ 76.764635338472445, 13.170221622876955 ], [ 76.765433684737488, 13.16794606310488 ], [ 76.765405951464047, 13.167690034036507 ], [ 76.765404389301935, 13.167668328339175 ], [ 76.765305480880969, 13.166296005285473 ], [ 76.765278819541905, 13.165926096145746 ], [ 76.765093301427527, 13.165446282264028 ], [ 76.765027987219497, 13.165277355632032 ], [ 76.764903464418566, 13.164909378490339 ], [ 76.764830709025517, 13.164694371064476 ], [ 76.764727338739135, 13.164203369442243 ], [ 76.764708246557618, 13.164112684057304 ], [ 76.764648858762783, 13.164023164238738 ], [ 76.764327171901016, 13.163538264903266 ], [ 76.764309177689, 13.163507513184943 ], [ 76.76400856018266, 13.162993759609066 ], [ 76.763926793861756, 13.162854021376784 ], [ 76.762988093642321, 13.163019677252329 ], [ 76.762293011264447, 13.16319428048944 ], [ 76.762165654980734, 13.163226273485304 ], [ 76.761539802170233, 13.163435156190634 ], [ 76.761436957051501, 13.163453772300963 ], [ 76.761417495381423, 13.163385419275395 ], [ 76.761121297317288, 13.162345101512877 ], [ 76.760906805380472, 13.161591578909084 ], [ 76.76062210301653, 13.160814425696634 ], [ 76.760501261698224, 13.160484566246721 ], [ 76.760510712591341, 13.160222163374245 ], [ 76.760513697048765, 13.1601969347288 ], [ 76.760514562581619, 13.160189622768986 ], [ 76.760519175251815, 13.160112892795924 ], [ 76.760638175169333, 13.158831857534876 ], [ 76.760640256530522, 13.158662851108817 ], [ 76.76108409277812, 13.157135671952494 ], [ 76.761199358557135, 13.156068649345109 ], [ 76.761356094409706, 13.155509600410182 ], [ 76.761945311334529, 13.154658933979658 ], [ 76.762429908861989, 13.154101197364621 ], [ 76.76295119563251, 13.153402671998629 ], [ 76.763098000506986, 13.153316584390103 ], [ 76.763137886622545, 13.153283269454585 ], [ 76.763131634334059, 13.153165099131467 ], [ 76.763323754886997, 13.153128023875256 ], [ 76.763519524597513, 13.15309024280948 ], [ 76.763676313741939, 13.153044078285108 ], [ 76.763715262224196, 13.153040503563634 ], [ 76.763718231242365, 13.153031736383877 ], [ 76.763794832564159, 13.152805462330393 ], [ 76.764096628585165, 13.152082720866696 ], [ 76.764101763496868, 13.152063933825843 ], [ 76.764107940972963, 13.15208517673555 ], [ 76.764120193788884, 13.152127308936789 ], [ 76.764768133372073, 13.152263030040924 ], [ 76.764978020598107, 13.152343656070135 ], [ 76.765160053376803, 13.152369853140195 ], [ 76.765247405739316, 13.152382424086779 ], [ 76.765786918063355, 13.152476758051687 ], [ 76.766138204963426, 13.152663509115364 ], [ 76.766354226743815, 13.15264101584355 ], [ 76.766527237302952, 13.152671815001675 ], [ 76.76667689702407, 13.152698455942312 ], [ 76.767177634149235, 13.152803413720088 ], [ 76.768928655444157, 13.153178540513364 ], [ 76.769422657786862, 13.153339628015972 ], [ 76.769502090197179, 13.153365529883532 ], [ 76.772343258858228, 13.154145832168595 ], [ 76.775395712669152, 13.155070042929019 ], [ 76.778190048545667, 13.155167909030268 ], [ 76.778205717398038, 13.155168456744477 ], [ 76.778729888869762, 13.155186811511564 ], [ 76.778980606265506, 13.155195590451076 ], [ 76.779348096476298, 13.155217534782375 ], [ 76.780557335292485, 13.154907115559284 ], [ 76.781602487770385, 13.154539841791326 ], [ 76.781999502919163, 13.154427568578434 ], [ 76.782952386401249, 13.154180595496555 ], [ 76.783067130262253, 13.154150856208224 ], [ 76.783095272142575, 13.154143561865764 ], [ 76.783167936402393, 13.154124760411305 ], [ 76.783396701907222, 13.154128952204726 ], [ 76.783566451885321, 13.15413206316398 ], [ 76.783607483906565, 13.154128812627519 ], [ 76.783854216187734, 13.154109269367224 ], [ 76.78423445992189, 13.154159877442973 ], [ 76.784407342146977, 13.154182885462225 ], [ 76.784729047199136, 13.15421684175071 ], [ 76.785174278676493, 13.154245591443923 ], [ 76.785341377161458, 13.15425638080378 ], [ 76.785578418352287, 13.154279009788853 ], [ 76.786944157913922, 13.15435803801582 ], [ 76.787202729848502, 13.155589694829834 ], [ 76.78782349437158, 13.155606520680958 ], [ 76.789000196487507, 13.155685599309216 ], [ 76.789462963904114, 13.155708148663027 ], [ 76.789702711344148, 13.155651307033503 ], [ 76.789951714883941, 13.156128024893214 ], [ 76.790542075258742, 13.15680727695243 ], [ 76.790828064004842, 13.157757736331513 ], [ 76.791297815591292, 13.157708967270658 ], [ 76.791636386276764, 13.157908686812096 ], [ 76.792662096025907, 13.158010948020081 ], [ 76.792697206451308, 13.158151358151191 ], [ 76.79273139862191, 13.158442393211997 ], [ 76.793440648567582, 13.158543360700609 ], [ 76.793597304922542, 13.158565661905545 ], [ 76.793665362834631, 13.158575350368579 ], [ 76.793641542048917, 13.158773202887552 ], [ 76.794044267501832, 13.158905255928827 ], [ 76.794866832653298, 13.15905318826902 ], [ 76.794890378537715, 13.159057422745366 ], [ 76.79494196705916, 13.159066699035222 ], [ 76.796038879913809, 13.158951734232561 ], [ 76.796408880479845, 13.158961056666504 ], [ 76.796421851862249, 13.158961382584591 ], [ 76.796715496857743, 13.160342294045982 ], [ 76.796757254523754, 13.160349813841508 ], [ 76.79838984454527, 13.160643822093345 ], [ 76.798813252330675, 13.160648390100071 ], [ 76.799059208317544, 13.160648898143052 ], [ 76.799120093194844, 13.160661160709868 ], [ 76.801289680490711, 13.160847603059356 ], [ 76.801437359281593, 13.160860291831577 ], [ 76.801762880392488, 13.161219466013083 ], [ 76.802088629929543, 13.161293831857867 ], [ 76.802175351507188, 13.161313629407219 ], [ 76.802521846554669, 13.161418511455052 ], [ 76.803873818697753, 13.161535688802921 ], [ 76.803991310519848, 13.161545871178841 ], [ 76.803999928303554, 13.161599351426943 ], [ 76.804002507170566, 13.161615355957757 ], [ 76.804063147985801, 13.161991707541175 ], [ 76.804134662635988, 13.162435352448531 ], [ 76.804072402141529, 13.162525563738212 ], [ 76.804166595684947, 13.162618000627489 ], [ 76.804203604675493, 13.162943564236432 ], [ 76.804206946933974, 13.163031468738023 ], [ 76.804231009551515, 13.163664407166214 ], [ 76.804141855923731, 13.164778106927782 ], [ 76.80412033656863, 13.165203475317975 ], [ 76.804104222383572, 13.165522022385504 ], [ 76.804088094754505, 13.165899960092569 ], [ 76.804021929737758, 13.167450503331876 ], [ 76.803905862218556, 13.169212569656356 ], [ 76.80388319969255, 13.16955661168692 ], [ 76.803820195601446, 13.170651195289338 ], [ 76.803784287221845, 13.171275047505414 ], [ 76.803770069418647, 13.171499219577678 ], [ 76.803739608014865, 13.171979522023022 ], [ 76.803733834532878, 13.172070547421827 ], [ 76.803686641842859, 13.172750462869548 ], [ 76.803683894320798, 13.17279004755736 ], [ 76.803679897655286, 13.173124442506108 ], [ 76.803679657384549, 13.173144532381789 ], [ 76.8037460108186, 13.173256054333619 ], [ 76.803750168211081, 13.173381892375906 ], [ 76.803762101869296, 13.173743045979558 ], [ 76.803780789564868, 13.174308605033689 ], [ 76.80379147362558, 13.174631978106792 ], [ 76.803796609912723, 13.174787420446622 ], [ 76.803847206298116, 13.175163568158672 ], [ 76.803902996733228, 13.175578341698207 ], [ 76.803915388585878, 13.175670427866022 ], [ 76.804076106943, 13.17685424211893 ], [ 76.80411267903969, 13.176953402522182 ], [ 76.80412869704675, 13.177291195083296 ], [ 76.804037789405953, 13.177443874863688 ], [ 76.804016024495837, 13.177659906524266 ], [ 76.803995844275391, 13.177860204477808 ], [ 76.803988771853923, 13.177930399709817 ], [ 76.804001827106077, 13.177940906456449 ], [ 76.804079641409103, 13.178086173334767 ], [ 76.80419706630758, 13.17830538419471 ], [ 76.804012946270305, 13.178184037505471 ], [ 76.803588672518671, 13.178172782177999 ], [ 76.803430040889381, 13.178217909444196 ], [ 76.803277607288166, 13.17831686641415 ], [ 76.80304626296261, 13.178467031216984 ], [ 76.802707804734268, 13.178865128177293 ], [ 76.802531064529987, 13.179029918988904 ], [ 76.801920871100876, 13.179174489543186 ], [ 76.801496657352985, 13.17919314183 ], [ 76.80091003870848, 13.17850203959342 ], [ 76.800604414149163, 13.178312169115458 ], [ 76.800362014709165, 13.178570938096067 ], [ 76.800056919175162, 13.178693822020671 ], [ 76.799721975614986, 13.179368268685739 ], [ 76.799565512243319, 13.179408542878294 ], [ 76.799571171176623, 13.179513887438677 ], [ 76.799569481819049, 13.179638993984829 ], [ 76.799566359652815, 13.179870294781541 ], [ 76.799547540944914, 13.181264224632088 ], [ 76.799547504131127, 13.181267011480802 ], [ 76.79983877660527, 13.183981925721767 ], [ 76.800046536634497, 13.185918389562264 ], [ 76.800233304881772, 13.18727282369422 ], [ 76.800247354294569, 13.187514042791479 ], [ 76.800414144740571, 13.187982468295461 ], [ 76.800853687432777, 13.189314262014879 ], [ 76.80085329100605, 13.189364563463283 ], [ 76.8008369777084, 13.189445105920358 ], [ 76.800533918998696, 13.190941388176377 ], [ 76.80024334485114, 13.192804424199904 ], [ 76.800221377109807, 13.192945270067559 ], [ 76.80010674095324, 13.193687875583807 ], [ 76.800083862952846, 13.193836071675365 ], [ 76.80000780454985, 13.194328756580255 ], [ 76.799970448890065, 13.194570779742619 ], [ 76.799907290102496, 13.194979926406589 ], [ 76.799737036866688, 13.196330898623609 ], [ 76.799688338179948, 13.196717333699965 ], [ 76.799611032382117, 13.196715920180223 ], [ 76.797750729017764, 13.196681906013186 ], [ 76.797663955567927, 13.19667945747549 ], [ 76.796206108521091, 13.196638318341313 ], [ 76.79790130209156, 13.197657027340014 ], [ 76.798006558765564, 13.202937261508035 ], [ 76.797420473142694, 13.20534111993692 ], [ 76.797324319381332, 13.206197447894718 ], [ 76.797172220688111, 13.207552001903853 ], [ 76.797159467617334, 13.207665579654618 ], [ 76.797691570512058, 13.208426715183622 ], [ 76.799851366663702, 13.211516089880433 ], [ 76.799998901987465, 13.211580506159908 ], [ 76.80015778527023, 13.211524850370328 ], [ 76.800215965911846, 13.211504476573609 ], [ 76.800389558690881, 13.211404883804258 ], [ 76.800568082766702, 13.211366752664315 ], [ 76.800794692296407, 13.211318348627476 ], [ 76.801016573759966, 13.211139017355888 ], [ 76.801339762052592, 13.211024984627675 ], [ 76.80153774948181, 13.211076669151796 ], [ 76.801698019348009, 13.211199530126756 ], [ 76.801683222132993, 13.211236271162559 ], [ 76.801903132310571, 13.211335904057785 ], [ 76.802347964484355, 13.21153745047561 ], [ 76.802687761511621, 13.211691409061366 ], [ 76.80308696610588, 13.211761905955118 ], [ 76.804069264052586, 13.211885761753427 ], [ 76.804473032310696, 13.212170956073885 ], [ 76.804860216844688, 13.212467794391964 ], [ 76.805517395559022, 13.212510844332321 ], [ 76.805762500866564, 13.21257613101106 ], [ 76.80577098768201, 13.212503436646923 ], [ 76.806840748634926, 13.212656606531487 ], [ 76.806934744311874, 13.212703409161708 ], [ 76.807172938767678, 13.212822013524125 ], [ 76.807183651767531, 13.212827346475429 ], [ 76.808589654361597, 13.212902940473342 ], [ 76.809168198340032, 13.212941074864114 ], [ 76.809237461623979, 13.212941605364632 ], [ 76.809695752468841, 13.212945113944334 ], [ 76.809772062676203, 13.2129483557003 ], [ 76.814432240296682, 13.213146230734468 ], [ 76.814307543968184, 13.213945122775428 ], [ 76.814250429968027, 13.214311033246124 ], [ 76.814166904374929, 13.214800136663406 ], [ 76.814098313885779, 13.215201771792037 ], [ 76.814083542846348, 13.215288249199832 ], [ 76.813872612938113, 13.215879273143074 ], [ 76.813809220872656, 13.216056878841266 ], [ 76.813790265716335, 13.216109988736736 ], [ 76.814585538818946, 13.216298691806783 ], [ 76.814680993653198, 13.216351338705014 ], [ 76.814660509684998, 13.216693887796975 ], [ 76.814683440656367, 13.217305912829431 ], [ 76.814642596830922, 13.217420233031527 ], [ 76.814735537217402, 13.217398138652229 ], [ 76.817417251781066, 13.216786429849398 ], [ 76.818410424103121, 13.216559876938833 ], [ 76.818601670782229, 13.216531903974452 ], [ 76.818631378659376, 13.216527557587854 ], [ 76.818847086746743, 13.216496002063939 ], [ 76.819820378447673, 13.216464627984575 ], [ 76.819849377260482, 13.216463697618693 ], [ 76.819999408878459, 13.216458860750146 ], [ 76.820509696371019, 13.216442420692241 ], [ 76.821528362278201, 13.216409575545002 ], [ 76.821985014084191, 13.216383402427311 ], [ 76.822288858006189, 13.216365984860687 ], [ 76.822841664493282, 13.216325315125525 ], [ 76.823397496586978, 13.216269495911062 ], [ 76.82349690156137, 13.216952339638601 ], [ 76.823602278069473, 13.217333111352845 ], [ 76.823610718993663, 13.217526124797878 ], [ 76.823644480810245, 13.218297631720823 ], [ 76.824052260426839, 13.218066638790544 ], [ 76.824594639719166, 13.217941855271464 ], [ 76.824903351341746, 13.217870832483975 ], [ 76.825716150276818, 13.217683830115497 ], [ 76.825811443932977, 13.217661906624894 ], [ 76.825969994328588, 13.217625427793052 ], [ 76.826388116555066, 13.217594761204394 ], [ 76.82653047063053, 13.217584320833964 ], [ 76.826519661938164, 13.217642807952076 ], [ 76.826515651683309, 13.217664507122841 ], [ 76.826512811303985, 13.217679896347924 ], [ 76.826481728514892, 13.217848055906193 ], [ 76.826480555213124, 13.217854029646995 ], [ 76.826484463144169, 13.217853537154769 ], [ 76.826499073433055, 13.217851791404396 ], [ 76.826513629255842, 13.217849792966453 ], [ 76.826527775318411, 13.217847278649575 ], [ 76.826528094509172, 13.21784727727314 ], [ 76.826972002944629, 13.217839776234438 ], [ 76.827052028028845, 13.217791414646744 ], [ 76.827163744203517, 13.217884041929114 ], [ 76.828007494108647, 13.217794682866483 ], [ 76.828354405557107, 13.217757942211685 ], [ 76.828894442105678, 13.217439408413895 ], [ 76.829917751050914, 13.217453363967811 ], [ 76.83038451308731, 13.217459729270717 ], [ 76.83069261303902, 13.217418191028489 ], [ 76.831206431123405, 13.217966976624524 ], [ 76.831317107613813, 13.218131243175831 ], [ 76.831076296850142, 13.218476363938082 ], [ 76.831356861700243, 13.218487121106266 ], [ 76.831626030225792, 13.218554228161773 ], [ 76.832054483197965, 13.218956731921169 ], [ 76.832222442931894, 13.219005997746425 ], [ 76.832315301472036, 13.219033231950501 ], [ 76.832541882758662, 13.218899539785221 ], [ 76.832682094162081, 13.218870000502472 ], [ 76.832682539033243, 13.219108804333533 ], [ 76.832667544774509, 13.219701336047441 ], [ 76.832657233887275, 13.220109012585116 ], [ 76.832721919169842, 13.22049876609155 ], [ 76.832910281338926, 13.220608039148342 ], [ 76.832998465059092, 13.220615762822634 ], [ 76.833252424807597, 13.220681587665334 ], [ 76.833345397691474, 13.221098246827918 ], [ 76.833395266341029, 13.221321695035495 ], [ 76.833407919587657, 13.221378413266017 ], [ 76.833535983223072, 13.221698370122073 ], [ 76.834169206284443, 13.223465479720755 ], [ 76.834296900519618, 13.223825037507687 ], [ 76.834461217279525, 13.223978446075174 ], [ 76.834757630859983, 13.224255180306393 ], [ 76.834991428508246, 13.224340877508331 ], [ 76.835010379970242, 13.224341013485246 ], [ 76.83505984419439, 13.224341367820514 ], [ 76.835146031311112, 13.224341985381853 ], [ 76.836321558409651, 13.224350403293275 ], [ 76.837026906601409, 13.2244058775415 ], [ 76.837101692343083, 13.224411758996903 ], [ 76.837749787344777, 13.224393016585468 ], [ 76.839614665347355, 13.224505067855334 ], [ 76.839622742360802, 13.224505553821952 ], [ 76.839680394349713, 13.225316498666629 ], [ 76.839692799262068, 13.225579348748282 ], [ 76.839657909678976, 13.225893498480087 ], [ 76.839603062073039, 13.226387343391449 ], [ 76.839563712248278, 13.226751493792992 ], [ 76.83954893117378, 13.22685793648567 ], [ 76.839487509837767, 13.227399475327177 ], [ 76.83946235743565, 13.227714922456052 ], [ 76.83945709511498, 13.22778085358348 ], [ 76.839442030856219, 13.227903789701516 ], [ 76.839414298618408, 13.228140731960952 ], [ 76.839387939032918, 13.228448991438471 ], [ 76.839334497145472, 13.229073957418965 ], [ 76.839319655378915, 13.229217951306392 ], [ 76.839300275875715, 13.229405912414396 ], [ 76.839291759211321, 13.229488520144033 ], [ 76.839210812634576, 13.230508822131702 ], [ 76.83919278832326, 13.230736008986872 ], [ 76.839173705745296, 13.230976470864665 ], [ 76.839056554547554, 13.231989632903387 ], [ 76.839028200285867, 13.232234828943138 ], [ 76.838811191409874, 13.234111468992575 ], [ 76.838796457511648, 13.234238879425435 ], [ 76.838131610273791, 13.234319021116985 ], [ 76.837777781466912, 13.234361664488656 ], [ 76.836900305326765, 13.23445091810583 ], [ 76.835874564853484, 13.234558551296834 ], [ 76.83561097687388, 13.234511898274972 ], [ 76.835552093945651, 13.234761421724766 ], [ 76.835538190779886, 13.235776408654099 ], [ 76.835537179516663, 13.235850305503751 ], [ 76.835456881543678, 13.236612121357817 ], [ 76.835428839454181, 13.236878161281908 ], [ 76.835309731589703, 13.237684351605044 ], [ 76.835289928540504, 13.237818370292622 ], [ 76.835171942978647, 13.238793064818408 ], [ 76.835157381347742, 13.23886008687178 ], [ 76.83516638620074, 13.238989307889751 ], [ 76.83516635360553, 13.238994563936169 ], [ 76.835159018894998, 13.240177021589819 ], [ 76.835225411949395, 13.240819158740416 ], [ 76.835223589822078, 13.240856852798819 ], [ 76.835292521048729, 13.240856453011958 ], [ 76.835304130876423, 13.241658799451415 ], [ 76.835302069087817, 13.24235555942122 ], [ 76.83535690313937, 13.242839218471834 ], [ 76.835430093552134, 13.243215535070709 ], [ 76.835578199140443, 13.243510760186826 ], [ 76.83565860729189, 13.243738519872531 ], [ 76.835770436517734, 13.244055323606146 ], [ 76.835723593465445, 13.244241975587848 ], [ 76.835755637297012, 13.244632840511048 ], [ 76.835508711773571, 13.245677380898343 ], [ 76.835434254745522, 13.245670319718348 ], [ 76.834591867710444, 13.245649633818088 ], [ 76.834584294118756, 13.246505459936881 ], [ 76.834570521944329, 13.247832704927287 ], [ 76.834570939513114, 13.24784878298734 ], [ 76.834397346188794, 13.247850594242466 ], [ 76.834300639057702, 13.247851594124624 ], [ 76.834223605579496, 13.247852083768731 ], [ 76.833891062087929, 13.247854197681491 ], [ 76.833733193932488, 13.24785520130769 ], [ 76.83362737677669, 13.24785587414511 ], [ 76.8335514417562, 13.247856187578133 ], [ 76.833134164553016, 13.247847634059092 ], [ 76.833071801364383, 13.247847151170388 ], [ 76.833010562960141, 13.247846677358403 ], [ 76.832380248140467, 13.247618949444957 ], [ 76.831146738708114, 13.247173290313533 ], [ 76.831087777476071, 13.247787576030715 ], [ 76.831017686266946, 13.248517725113519 ], [ 76.830905924769098, 13.249617735549316 ], [ 76.83088791264872, 13.249794905948278 ], [ 76.830770227558233, 13.2511347769948 ], [ 76.83076141017159, 13.251209486470255 ], [ 76.830603532854241, 13.252547115222129 ], [ 76.830595396928729, 13.252609441741642 ], [ 76.830584755689529, 13.25269097924682 ], [ 76.830551594780871, 13.252945109019695 ], [ 76.830398518046096, 13.253894273411699 ], [ 76.830310084359056, 13.254595800302994 ], [ 76.830248857295956, 13.255081399302325 ], [ 76.83006365757025, 13.256090885909735 ], [ 76.830041228878898, 13.25621314367395 ], [ 76.828795935459226, 13.255850678912187 ], [ 76.827632384155379, 13.255523676810389 ], [ 76.826253115081116, 13.255122909634672 ], [ 76.825580584351826, 13.254948928304534 ], [ 76.824943007548768, 13.254783975578869 ], [ 76.824847674367248, 13.25475931228558 ], [ 76.824318455950433, 13.254657252634313 ], [ 76.824298983821592, 13.254530670720829 ], [ 76.824304122369924, 13.254386619561759 ], [ 76.824297796065309, 13.254257848500618 ], [ 76.824305947684991, 13.25419221020039 ], [ 76.824420520184304, 13.253269653604919 ], [ 76.824436852158641, 13.25305671386282 ], [ 76.824459174986629, 13.252433201266497 ], [ 76.824462195271266, 13.252348834123655 ], [ 76.824999489087276, 13.252284175310583 ], [ 76.825000638408909, 13.252269157907254 ], [ 76.825104934625003, 13.251527918408488 ], [ 76.825114359469737, 13.25146093873601 ], [ 76.824938967687714, 13.251441534553033 ], [ 76.82495052847402, 13.251231978590122 ], [ 76.824867876957782, 13.251229955092569 ], [ 76.824453761107293, 13.251219817127247 ], [ 76.824458910356995, 13.251143414764373 ], [ 76.824346432313504, 13.251226780606048 ], [ 76.824342431548374, 13.250984132393976 ], [ 76.824341429469101, 13.250923339974566 ], [ 76.823537853189052, 13.251059720749167 ], [ 76.823535749882751, 13.251090983393805 ], [ 76.823530113507829, 13.251174738391089 ], [ 76.823458407761862, 13.252240574623542 ], [ 76.822966698269312, 13.252249012664207 ], [ 76.822929212584029, 13.252324696226507 ], [ 76.822926401072749, 13.252330379792694 ], [ 76.82275081500633, 13.252616511123298 ], [ 76.822611002496814, 13.252843141714836 ], [ 76.822303070036043, 13.253342283376178 ], [ 76.822297702077506, 13.2533509850557 ], [ 76.822279544164928, 13.253380416446891 ], [ 76.822269600255012, 13.253376553072629 ], [ 76.822177827829449, 13.253340905959204 ], [ 76.821699863247517, 13.253054632646222 ], [ 76.8213795189248, 13.25287901725302 ], [ 76.821394271618331, 13.252672457130656 ], [ 76.821432523241569, 13.252275229954694 ], [ 76.821478659907598, 13.250816516415817 ], [ 76.821480460817753, 13.250672290973473 ], [ 76.821481224941962, 13.250610933594848 ], [ 76.821479258394533, 13.25042662975398 ], [ 76.821472194718922, 13.250248979336428 ], [ 76.821470751812811, 13.250212791651329 ], [ 76.821451894426403, 13.249633341802205 ], [ 76.821431040137867, 13.249361867031231 ], [ 76.82137569863643, 13.248641832702454 ], [ 76.820951439309937, 13.247980315265933 ], [ 76.820872215144135, 13.247653070421263 ], [ 76.820750632330032, 13.247160734467206 ], [ 76.820815080578129, 13.246972952196014 ], [ 76.820151538461886, 13.246894508460128 ], [ 76.820018956370433, 13.246306034430473 ], [ 76.819078078956977, 13.246363289313821 ], [ 76.818898238971158, 13.246399525684726 ], [ 76.816340836815669, 13.246914740101914 ], [ 76.814611392117996, 13.24727183089527 ], [ 76.814002550148615, 13.24736687652946 ], [ 76.813903047575963, 13.247383220470267 ], [ 76.813794934100144, 13.247400979548644 ], [ 76.813649299991425, 13.247424900176144 ], [ 76.813448820239856, 13.247457831428992 ], [ 76.81330352500909, 13.247457505587775 ], [ 76.809980830415469, 13.247450045412503 ], [ 76.809979371650925, 13.247450041299199 ], [ 76.808969367664332, 13.247451837977184 ], [ 76.808871554540431, 13.247446915833637 ], [ 76.807882310020474, 13.247392358804257 ], [ 76.807754889592303, 13.247385331253348 ], [ 76.807472087085841, 13.247369743168299 ], [ 76.807434985418155, 13.247367698466736 ], [ 76.807441755613098, 13.247237038001256 ], [ 76.807445245355837, 13.247169697318778 ], [ 76.805855628437243, 13.247047844723772 ], [ 76.804816086102207, 13.247189130663795 ], [ 76.804903912743242, 13.248535473820302 ], [ 76.805013721882375, 13.250218874909704 ], [ 76.805047468584604, 13.250736118190614 ], [ 76.80508462363737, 13.251813208076994 ], [ 76.805217926358822, 13.253961781805781 ], [ 76.805232126017842, 13.254190602885883 ], [ 76.805185389685448, 13.254465272837338 ], [ 76.805091385511858, 13.255441033731952 ], [ 76.804980609397106, 13.255380898390719 ], [ 76.803844914341113, 13.255359296365622 ], [ 76.803439766994416, 13.257880124073974 ], [ 76.80324588629378, 13.257945291848126 ], [ 76.803221556953957, 13.258041644427342 ], [ 76.80304429283872, 13.259193306920238 ], [ 76.802895046151818, 13.260276628173635 ], [ 76.802795825343281, 13.260996830817655 ], [ 76.802737043947218, 13.263239748484871 ], [ 76.802726987217369, 13.26362352747636 ], [ 76.802334990176462, 13.265699821710303 ], [ 76.802344911664989, 13.26613657595772 ], [ 76.801069552355088, 13.269037268186592 ], [ 76.801037792897773, 13.269109499766026 ], [ 76.799582831404933, 13.268649919852017 ], [ 76.798983949505512, 13.2684926591471 ], [ 76.798705228703113, 13.268443440152859 ], [ 76.798667855632075, 13.268569742489339 ], [ 76.798350304102939, 13.26856186013385 ], [ 76.797129077196345, 13.268531569304207 ], [ 76.796239408792403, 13.268549068282534 ], [ 76.795389199976924, 13.268688242982755 ], [ 76.794490052412968, 13.268901181487392 ], [ 76.793858872567327, 13.268969500960385 ], [ 76.79369547039515, 13.269056275331822 ], [ 76.793528878833584, 13.269187914964325 ], [ 76.793247641832451, 13.269226824390161 ], [ 76.792805875292132, 13.26911861309434 ], [ 76.792380728192924, 13.269167367614504 ], [ 76.79226504360166, 13.269009602948785 ], [ 76.791809659762563, 13.26918992098193 ], [ 76.791406285041745, 13.269341983224781 ], [ 76.790814116071502, 13.269619198415782 ], [ 76.790337226777311, 13.269670525126633 ], [ 76.789460770876147, 13.269764872304627 ], [ 76.789406999721479, 13.269891904579612 ], [ 76.788202251621939, 13.269979797693528 ], [ 76.787677309341646, 13.270018102393134 ], [ 76.786386635556937, 13.270176255701017 ], [ 76.785830503930924, 13.270187824173135 ], [ 76.785841208444168, 13.270093422597606 ], [ 76.785846792100102, 13.270044172047278 ], [ 76.785815538084634, 13.26996598605316 ], [ 76.784927985797054, 13.268021534230391 ], [ 76.783825855883109, 13.267898518963079 ], [ 76.783695353852039, 13.267881753144374 ], [ 76.78310218584835, 13.267838232874849 ], [ 76.782895144127181, 13.267755677134858 ], [ 76.782462968965802, 13.267638198483773 ], [ 76.782444462962204, 13.267641972306336 ], [ 76.782222954760769, 13.267687144766381 ], [ 76.782024131855067, 13.267727687893631 ], [ 76.781417592780528, 13.267729046072581 ], [ 76.781204017264855, 13.268194811125895 ], [ 76.781184886296742, 13.268355718853059 ], [ 76.780178304049585, 13.268931955188153 ], [ 76.780095414051189, 13.269053556670803 ], [ 76.779181389022497, 13.270394400610854 ], [ 76.779065392003375, 13.27056455706991 ], [ 76.778217438382754, 13.271808457394258 ], [ 76.778098472766757, 13.272092417658435 ], [ 76.777577854136254, 13.273335069988612 ], [ 76.777522530944509, 13.273537035102789 ], [ 76.777467153849599, 13.273739211188687 ], [ 76.777437642880002, 13.273845830470121 ], [ 76.777385795152256, 13.274033142334259 ], [ 76.777309755114374, 13.274412308375775 ], [ 76.777240177072613, 13.27473500852504 ], [ 76.777147912467854, 13.275085142794106 ], [ 76.777103827184433, 13.275252456784301 ], [ 76.77704937586978, 13.275416553960817 ], [ 76.77684608215219, 13.276029221038954 ], [ 76.776553262756394, 13.276848554994807 ], [ 76.776289318420027, 13.276889033763888 ], [ 76.776252076857062, 13.27693922916761 ], [ 76.776189238646396, 13.277023915494748 ], [ 76.776003668184373, 13.277274010329297 ], [ 76.775772313761621, 13.277803105561629 ], [ 76.775666647839287, 13.277849656515425 ], [ 76.77562629445292, 13.278001295821479 ], [ 76.775507790593949, 13.277919641287541 ], [ 76.775351977726174, 13.277812278905834 ], [ 76.775312223985452, 13.277865521468454 ], [ 76.77522477642944, 13.277982633504571 ], [ 76.775174938530455, 13.278043905765887 ], [ 76.77499984913058, 13.278099942053657 ], [ 76.774917789607358, 13.278127657085776 ], [ 76.774802188443886, 13.278166706232506 ], [ 76.774742081552475, 13.278162830974908 ], [ 76.774458140305811, 13.278144523787452 ], [ 76.774070348719476, 13.278137069502421 ], [ 76.773670517569073, 13.278040306540861 ], [ 76.773491379704126, 13.278121425091056 ], [ 76.773083077833277, 13.278046331526236 ], [ 76.772710216784617, 13.278086903649086 ], [ 76.772455829357057, 13.278079704783437 ], [ 76.772430314058084, 13.278140122137774 ], [ 76.772418831509697, 13.278167314335157 ], [ 76.772199047374144, 13.278356789849294 ], [ 76.772123034962135, 13.278384830710477 ], [ 76.77209758522433, 13.278763249980928 ], [ 76.772066662250921, 13.27922305769621 ], [ 76.772068930527695, 13.27941893063732 ], [ 76.772074012153709, 13.27985780915132 ], [ 76.77203467459681, 13.280224321782255 ], [ 76.771990721232484, 13.280633838881954 ], [ 76.77186160578546, 13.280893075124693 ], [ 76.771884819913822, 13.280907184626248 ], [ 76.771884804673732, 13.280907755069645 ], [ 76.771876888672693, 13.281198989515701 ], [ 76.772174343905093, 13.281226365745868 ], [ 76.772235599438218, 13.281232003290619 ], [ 76.772179130459648, 13.281369667837495 ], [ 76.772165265960254, 13.28140346668326 ], [ 76.772189969905554, 13.281923961040818 ], [ 76.772195228427279, 13.282034757847411 ], [ 76.772108233464778, 13.282318007649039 ], [ 76.771940422023761, 13.282864386706626 ], [ 76.771784661324787, 13.284027305863779 ], [ 76.771757812170407, 13.284227762495636 ], [ 76.771421720732192, 13.284205928276508 ], [ 76.770905769543859, 13.284178001328774 ], [ 76.77076625970011, 13.284170443211984 ], [ 76.770319957097129, 13.284146267750986 ], [ 76.770105179075017, 13.284134633070842 ], [ 76.770097767455241, 13.284066094056838 ], [ 76.7700712761945, 13.28382109094372 ], [ 76.770045962689778, 13.283707984007977 ], [ 76.769138548066707, 13.283785125492226 ], [ 76.768368829075783, 13.283924000901607 ], [ 76.768378369987261, 13.28402832908924 ], [ 76.768394088399987, 13.284200198065912 ], [ 76.768380708823372, 13.284321549807515 ], [ 76.76838233884682, 13.284339175578404 ], [ 76.76836492115406, 13.284859070796712 ], [ 76.76789582010619, 13.285384599905774 ], [ 76.767700745493372, 13.285379650600161 ], [ 76.767696200392621, 13.285456348836085 ], [ 76.767689468004434, 13.285569980598055 ], [ 76.767600188837449, 13.285570476928562 ], [ 76.76747636571784, 13.28557114265846 ], [ 76.76735317753861, 13.285565058378912 ], [ 76.766923694486252, 13.285559153141413 ], [ 76.766809249438936, 13.285557567884812 ], [ 76.766068017609371, 13.285608254416511 ], [ 76.765973122871586, 13.285614737485096 ], [ 76.763882050408441, 13.285772437164253 ], [ 76.763769771917012, 13.28579933442156 ], [ 76.763703625163586, 13.285815166742749 ], [ 76.763647139517644, 13.285817330715119 ], [ 76.763068177611004, 13.288668818224998 ], [ 76.762765523142988, 13.290060317539909 ], [ 76.762680443364147, 13.290480576601263 ], [ 76.762498483271528, 13.291379437868407 ], [ 76.76236132316555, 13.29190482035583 ], [ 76.762225800751722, 13.292423952084947 ], [ 76.762116047656065, 13.292794965871488 ], [ 76.761976173949932, 13.293267819925486 ], [ 76.761820430817224, 13.293794294571727 ], [ 76.761785827323834, 13.293894251514324 ], [ 76.761712622040847, 13.295175230633303 ], [ 76.761820817251163, 13.295716623583834 ], [ 76.76169555338825, 13.295716244083033 ], [ 76.761491894705088, 13.295715639287346 ], [ 76.760994316765448, 13.295714156740715 ], [ 76.760827596569698, 13.295660460994464 ], [ 76.760478998074845, 13.295548189261263 ], [ 76.759905939310926, 13.295471577031146 ], [ 76.759309410449262, 13.295471500809454 ], [ 76.759212319818886, 13.295471488265253 ], [ 76.759065895268805, 13.295471468959251 ], [ 76.758762337269872, 13.295498326424772 ], [ 76.758674990705899, 13.29550605479583 ], [ 76.758523936543881, 13.295524409381315 ], [ 76.758372883270482, 13.295542763873431 ], [ 76.757619028776347, 13.29552725783655 ], [ 76.757604662997011, 13.295420001116188 ], [ 76.756682833873626, 13.295259259929731 ], [ 76.756624422200289, 13.295249074604509 ], [ 76.756261822206639, 13.295153634950937 ], [ 76.755977802341732, 13.295078877711106 ], [ 76.755930498390157, 13.295194337327416 ], [ 76.755559765119457, 13.295134126844927 ], [ 76.754911984643073, 13.29502891789377 ], [ 76.754648124548439, 13.295011927270513 ], [ 76.754606870671225, 13.295009270717321 ], [ 76.754317925493226, 13.294990664063274 ], [ 76.752558543707949, 13.2948851137565 ], [ 76.752265148330792, 13.294868543798961 ], [ 76.749688713707584, 13.29472301050653 ], [ 76.748216099233559, 13.294639817679323 ], [ 76.74801137180296, 13.294591861773155 ], [ 76.745997546359945, 13.294120127829583 ], [ 76.745426178871909, 13.293986283215258 ], [ 76.744855210277905, 13.293852530314853 ], [ 76.74473177960121, 13.293805621839303 ], [ 76.744706033751214, 13.293800384254938 ], [ 76.742655413816749, 13.29318672503029 ], [ 76.742526687380007, 13.294304889998275 ], [ 76.742490841338338, 13.294833490958457 ], [ 76.742446399363374, 13.295354434433463 ], [ 76.742423486883922, 13.295623012334509 ], [ 76.742415892490655, 13.29571202641293 ], [ 76.742401957340647, 13.29587537790383 ], [ 76.742357515276623, 13.296396322273381 ], [ 76.742344922144653, 13.296543935342603 ], [ 76.742313073151891, 13.296917264830606 ], [ 76.74227871324014, 13.297429644589114 ], [ 76.742261177237509, 13.297747420584194 ], [ 76.742258326275305, 13.29784041445409 ], [ 76.742123122909987, 13.298466694578199 ], [ 76.742010265021975, 13.29899297688709 ], [ 76.741894966469715, 13.299509284476819 ], [ 76.741831844488402, 13.299831291111191 ], [ 76.741820953841781, 13.300017532242297 ], [ 76.741772358376522, 13.300538676783127 ], [ 76.741713239681246, 13.301056295097714 ], [ 76.741658345952473, 13.301575727460316 ], [ 76.741550557793857, 13.302612475159274 ], [ 76.741502107938672, 13.303137649961844 ], [ 76.741458398420193, 13.303478899026643 ], [ 76.741453760335901, 13.303610354148709 ], [ 76.74144609311476, 13.30382770171104 ], [ 76.741360108540945, 13.304235599282698 ], [ 76.741257477372116, 13.304757347232833 ], [ 76.741154846824742, 13.305279095168951 ], [ 76.741090989638508, 13.305580950411454 ], [ 76.740859052440953, 13.305806180568537 ], [ 76.740698449906148, 13.305958650818711 ], [ 76.740605838150856, 13.306046572372605 ], [ 76.740548823557731, 13.306098472006873 ], [ 76.740313032214686, 13.306313108547272 ], [ 76.739811080396706, 13.306781157386871 ] ], [ [ 76.770375737499577, 13.269735651852539 ], [ 76.770121658219452, 13.26994426038878 ], [ 76.770039851847855, 13.270009986562121 ], [ 76.768353118057334, 13.271365029130571 ], [ 76.768278941811559, 13.271424598978316 ], [ 76.7663934716238, 13.272976082664774 ], [ 76.765469088458957, 13.273743263144937 ], [ 76.765323907354244, 13.273866738821118 ], [ 76.765218629199964, 13.273966198723551 ], [ 76.764476935515702, 13.274856111456106 ], [ 76.764195078022894, 13.275194306104689 ], [ 76.763699775770448, 13.275829790942362 ], [ 76.763525029800348, 13.276053986888584 ], [ 76.76296563608021, 13.277989745464632 ], [ 76.7639932585449, 13.278176870559051 ], [ 76.764411008237531, 13.27953477875778 ], [ 76.764445506813473, 13.279768453844675 ], [ 76.764615776604046, 13.280922068949987 ], [ 76.764716713310122, 13.280938725253073 ], [ 76.766197521910641, 13.281183130016405 ], [ 76.766249611357637, 13.281191727699953 ], [ 76.76675549840003, 13.281308975155033 ], [ 76.766810446239305, 13.281321710656899 ], [ 76.767002563026566, 13.280877251986015 ], [ 76.7678459399296, 13.280978786224431 ], [ 76.769555986406928, 13.280955653142783 ], [ 76.769596447667865, 13.280955104326351 ], [ 76.769856441549905, 13.281042885928883 ], [ 76.770835087595117, 13.280880126275648 ], [ 76.771014168105964, 13.280852525588914 ], [ 76.770924850119798, 13.280748404618532 ], [ 76.770855584863355, 13.279888834504588 ], [ 76.770866885675133, 13.279878416603475 ], [ 76.771446191638418, 13.279344426040566 ], [ 76.771570797235356, 13.278768015242916 ], [ 76.771344698722061, 13.278307226344287 ], [ 76.771337791770776, 13.278213725477048 ], [ 76.771335269399955, 13.278179572483277 ], [ 76.771536706461134, 13.277981359319215 ], [ 76.77140244946419, 13.277604955016578 ], [ 76.771227808471565, 13.277284269958502 ], [ 76.771242733121269, 13.27715716794085 ], [ 76.771268235916168, 13.276939982029008 ], [ 76.771297209690147, 13.276607160641856 ], [ 76.771407591627735, 13.27584041756235 ], [ 76.771434803842283, 13.275549236747779 ], [ 76.771370372035562, 13.275418794710449 ], [ 76.771423866585053, 13.275292990789035 ], [ 76.771346319263486, 13.275043793701149 ], [ 76.771620682768869, 13.274697188809435 ], [ 76.772235483000983, 13.27407148096912 ], [ 76.772255815934429, 13.273831707340143 ], [ 76.772742875554101, 13.273216783017391 ], [ 76.772922807198725, 13.272865844173918 ], [ 76.77298622243076, 13.272783946636682 ], [ 76.773328120740928, 13.272193643611734 ], [ 76.77345886478227, 13.271967894809086 ], [ 76.773569109195421, 13.271492420436278 ], [ 76.773810814902319, 13.271029528035328 ], [ 76.773037708828397, 13.270253469472328 ], [ 76.772503671314226, 13.2701243188831 ], [ 76.770737360738565, 13.269680734329206 ], [ 76.770719772202753, 13.269676321897078 ], [ 76.770522887984114, 13.269614817523191 ], [ 76.770375737499577, 13.269735651852539 ] ] ] } }
]
}
