{
"type": "FeatureCollection",
"name": "wards_in_police_area.writing_20260805_172659",
"crs": { "type": "name", "properties": { "name": "urn:ogc:def:crs:OGC:1.3:CRS84" } },
"features": [
{ "type": "Feature", "properties": { "KGISWardID": 413, "KGISWardCode": "1504009", "KGISWardName": "L B Nagara", "SHAPE.STArea()": 1176061.2372123851, "SHAPE.STLength()": 7871.2628885692166, "OBJECTID": 21207, "KGISWardNo": "9", "KGISTownCode": "1504", "LGD_WardCode": 31257, "created_user": "SURESHBV1", "created_date": 1668675682000, "last_edited_user": "SURESHBV1", "last_edited_date": 1692253993000, "_overlap_percent": 6.1926379386701447, "_police_station": "Sagara Rural PS", "_police_feature_index": "629", "_admin_layer": "Ward", "_geometry_clipped": true }, "geometry": { "type": "MultiPolygon", "coordinates": [ [ [ [ 75.005495277274861, 14.176057007741367 ], [ 75.005608516459816, 14.176102492935456 ], [ 75.005786516383722, 14.176037559975297 ], [ 75.006078523827824, 14.175953712054039 ], [ 75.006302766588334, 14.175890577768646 ], [ 75.006503924256734, 14.175841564581852 ], [ 75.006665267564301, 14.175701769293493 ], [ 75.006821581645823, 14.175601088244846 ], [ 75.007062735362709, 14.175445762806609 ], [ 75.007548754715074, 14.175430434695201 ], [ 75.007855835296112, 14.175446695669013 ], [ 75.008073207315803, 14.175382610554793 ], [ 75.00867545614436, 14.175283648905632 ], [ 75.009119858553007, 14.175275272306781 ], [ 75.009419596394224, 14.175351520720355 ], [ 75.009571713944894, 14.175298570051362 ], [ 75.009790232747207, 14.175021604355068 ], [ 75.01005269054842, 14.174567140259253 ], [ 75.01057077067486, 14.174184080103766 ], [ 75.010889016003006, 14.174051500344499 ], [ 75.011024171744509, 14.174228435362433 ], [ 75.011365527208341, 14.174731185174865 ], [ 75.011570252551564, 14.174940161844596 ], [ 75.01184077824503, 14.175216304404421 ], [ 75.012003396932812, 14.175310023395996 ], [ 75.012163452897894, 14.175237885654774 ], [ 75.012465350243815, 14.174927973759877 ], [ 75.012838818884006, 14.174545010227103 ], [ 75.013167199613164, 14.174651422420633 ], [ 75.013703754547194, 14.175046456804061 ], [ 75.014254974552117, 14.175409331706062 ], [ 75.01521357445813, 14.175583260901099 ], [ 75.016118318980404, 14.175705355585075 ], [ 75.016419178150315, 14.175651235884271 ], [ 75.016798664255631, 14.175296489983671 ], [ 75.01708709143746, 14.175026834840539 ], [ 75.017431787218214, 14.174944512776985 ], [ 75.017972132091543, 14.17524498019959 ], [ 75.017996608072792, 14.175135084433279 ], [ 75.017999817386467, 14.175115242895965 ], [ 75.017930538127388, 14.175110471999185 ], [ 75.017356951094996, 14.17477869852244 ], [ 75.017010318562427, 14.174858991621992 ], [ 75.01671915978487, 14.17513175184358 ], [ 75.01633593855864, 14.175490791859467 ], [ 75.016033358557394, 14.175543240634708 ], [ 75.015125659633, 14.175410110217308 ], [ 75.014165552038989, 14.175224541162873 ], [ 75.013616882194412, 14.174849361733136 ], [ 75.013084392631256, 14.174441899785414 ], [ 75.01275697858793, 14.17433172239174 ], [ 75.012378399659681, 14.174720273036661 ], [ 75.012071779276255, 14.175034921194539 ], [ 75.011910412154037, 14.17510755081833 ], [ 75.011749049181873, 14.17501072943624 ], [ 75.011281090489362, 14.174514499027822 ], [ 75.010946248163691, 14.174006209740993 ], [ 75.010813117439781, 14.173828713084518 ], [ 75.010494428510469, 14.173961833468367 ], [ 75.009974020876911, 14.174345059028774 ], [ 75.009703729757277, 14.174800949266237 ], [ 75.0094778113328, 14.175079313053793 ], [ 75.00932452066921, 14.175131751035911 ], [ 75.009030022754771, 14.175055091803943 ], [ 75.008590282115435, 14.175063168783513 ], [ 75.007997261019298, 14.175159969810963 ], [ 75.007791541538822, 14.175220500121579 ], [ 75.00751718874433, 14.175196298378783 ], [ 75.0070573028719, 14.175232602787565 ], [ 75.006640777916658, 14.175531519780534 ], [ 75.006475883033048, 14.175685791177123 ], [ 75.006276189152317, 14.175748471082454 ], [ 75.006054638984949, 14.175825071326019 ], [ 75.005766890344233, 14.175924580531753 ], [ 75.005591613425594, 14.175999121300588 ], [ 75.005492129145381, 14.175962010226025 ], [ 75.005495277274861, 14.176057007741367 ] ] ], [ [ [ 75.005979494148193, 14.173333665579156 ], [ 75.006267570275057, 14.173673401864319 ], [ 75.006309273927357, 14.173722460056307 ], [ 75.006332379836977, 14.173689114926828 ], [ 75.006217898592979, 14.173560859941 ], [ 75.005979787293569, 14.173294229199193 ], [ 75.005979494148193, 14.173333665579156 ] ] ], [ [ [ 75.005170469288956, 14.165334262982284 ], [ 75.003750000133664, 14.165353397577411 ], [ 75.003345535002012, 14.165357966991158 ], [ 75.003560985558678, 14.16573873073631 ], [ 75.003618479152252, 14.165844521073858 ], [ 75.004560258221829, 14.165806155348287 ], [ 75.00544001425861, 14.165316863416015 ], [ 75.005170469288956, 14.165334262982284 ] ] ], [ [ [ 75.010096814341594, 14.167303804054189 ], [ 75.009985393081507, 14.167131493243676 ], [ 75.009839511391462, 14.166932414428031 ], [ 75.009738737559331, 14.166683934328463 ], [ 75.009416011210618, 14.166300973277835 ], [ 75.009287177334613, 14.166094124665289 ], [ 75.009019271165329, 14.165414383147006 ], [ 75.008914694712701, 14.165018288801559 ], [ 75.008881586593077, 14.164897766374807 ], [ 75.008865619962791, 14.16427396898872 ], [ 75.00875487287891, 14.164124157336978 ], [ 75.008520910443579, 14.163788345118876 ], [ 75.00812625114753, 14.164004908441612 ], [ 75.008516017662117, 14.164434988493738 ], [ 75.008869438724219, 14.166134820760627 ], [ 75.009590234384419, 14.167203230397019 ], [ 75.010620221431424, 14.168176745819819 ], [ 75.010096814341594, 14.167303804054189 ] ] ], [ [ [ 75.010839660889189, 14.168241548436255 ], [ 75.010724689884043, 14.16827548652741 ], [ 75.010804016541755, 14.168350463902069 ], [ 75.010896501625183, 14.168292552836313 ], [ 75.010839660889189, 14.168241548436255 ] ] ], [ [ [ 75.013339064137313, 14.165208698085037 ], [ 75.014369221307959, 14.166709036020103 ], [ 75.014450567832299, 14.166571989901481 ], [ 75.014971495425399, 14.164905701424502 ], [ 75.013339064137313, 14.165208698085037 ] ] ] ] } },
{ "type": "Feature", "properties": { "KGISWardID": 431, "KGISWardCode": "1504027", "KGISWardName": "S N Nagara A K Colony", "SHAPE.STArea()": 1083265.639128515, "SHAPE.STLength()": 7317.1092300512191, "OBJECTID": 21211, "KGISWardNo": "27", "KGISTownCode": "1504", "LGD_WardCode": 31275, "created_user": "SURESHBV1", "created_date": 1668675682000, "last_edited_user": "SURESHBV1", "last_edited_date": 1692253993000, "_overlap_percent": 2.765139037208888, "_police_station": "Sagara Rural PS", "_police_feature_index": "629", "_admin_layer": "Ward", "_geometry_clipped": true }, "geometry": { "type": "MultiPolygon", "coordinates": [ [ [ [ 75.032142178596033, 14.13705190339464 ], [ 75.032134698919606, 14.13692284673637 ], [ 75.032114482565717, 14.136574020413905 ], [ 75.031798488951281, 14.136530535646974 ], [ 75.030803480705018, 14.136393609077595 ], [ 75.030535132719308, 14.136356212583649 ], [ 75.030322533785466, 14.136326448260855 ], [ 75.030259999622444, 14.136395578708177 ], [ 75.03012475075613, 14.136545092561867 ], [ 75.029975613746842, 14.139582725157458 ], [ 75.029412058446468, 14.141300853550181 ], [ 75.029367691239955, 14.141407218052658 ], [ 75.029553647988877, 14.141320793440501 ], [ 75.029597618594025, 14.14121363891468 ], [ 75.03014173005964, 14.139515993305517 ], [ 75.030261996160036, 14.137102106613664 ], [ 75.032143307896902, 14.137067629916354 ], [ 75.032142178596033, 14.13705190339464 ] ] ], [ [ [ 75.033801283251904, 14.138735976993566 ], [ 75.033318102562731, 14.138601575244435 ], [ 75.032842412339889, 14.138420279197973 ], [ 75.032843486538454, 14.138485736164512 ], [ 75.033721918901108, 14.13889410471517 ], [ 75.033801283251904, 14.138735976993566 ] ] ], [ [ [ 75.034260968313021, 14.145328962984125 ], [ 75.033995624071537, 14.145214435444922 ], [ 75.033763138143044, 14.144675705381804 ], [ 75.033762937624985, 14.144709897486186 ], [ 75.034045707252005, 14.145395568998085 ], [ 75.034187921067229, 14.145482067465554 ], [ 75.034260968313021, 14.145328962984125 ] ] ], [ [ [ 75.034370802769189, 14.146088997858794 ], [ 75.034359978213359, 14.146143606564044 ], [ 75.034431786413705, 14.146244628861929 ], [ 75.034370802769189, 14.146088997858794 ] ] ], [ [ [ 75.035690066460859, 14.148451033831028 ], [ 75.035674205302016, 14.148424065149587 ], [ 75.035650550042888, 14.14831692232848 ], [ 75.035626049259619, 14.148230458419903 ], [ 75.035268149918281, 14.147885934041003 ], [ 75.035232557723887, 14.147767257221398 ], [ 75.034821411272389, 14.148144542873046 ], [ 75.03498039987673, 14.148341471916661 ], [ 75.035097391201319, 14.148631695875741 ], [ 75.035690066460859, 14.148451033831028 ] ] ] ] } },
{ "type": "Feature", "properties": { "KGISWardID": 435, "KGISWardCode": "1504031", "KGISWardName": "S N Nagara Hikeri Road", "SHAPE.STArea()": 291266.47286037501, "SHAPE.STLength()": 2542.9183176321494, "OBJECTID": 21216, "KGISWardNo": "31", "KGISTownCode": "1504", "LGD_WardCode": 1921878, "created_user": "SURESHBV1", "created_date": 1668675682000, "last_edited_user": "SURESHBV1", "last_edited_date": 1692253993000, "_overlap_percent": 4.7088572328570457, "_police_station": "Sagara Rural PS", "_police_feature_index": "629", "_admin_layer": "Ward", "_geometry_clipped": true }, "geometry": { "type": "Polygon", "coordinates": [ [ [ 75.036391161960267, 14.15005300037503 ], [ 75.036331156870403, 14.149943873926894 ], [ 75.036161353615157, 14.149818636010615 ], [ 75.036156119421662, 14.149714502329935 ], [ 75.035940966708196, 14.148877631407688 ], [ 75.035690066460859, 14.148451033831028 ], [ 75.035097391201319, 14.148631695875741 ], [ 75.035338299124845, 14.14922932353387 ], [ 75.035346938423487, 14.149250881730946 ], [ 75.035349741263744, 14.149255952911203 ], [ 75.035543810090232, 14.149610733219463 ], [ 75.035983741599026, 14.150415092433093 ], [ 75.035995779473481, 14.150410952159408 ], [ 75.036165588416992, 14.150353143592156 ], [ 75.036479845998315, 14.150214281667765 ], [ 75.036391161960267, 14.15005300037503 ] ] ] } },
{ "type": "Feature", "properties": { "KGISWardID": 423, "KGISWardCode": "1504019", "KGISWardName": "Ram Nagara", "SHAPE.STArea()": 469542.31236202997, "SHAPE.STLength()": 3750.5645145878225, "OBJECTID": 21204, "KGISWardNo": "19", "KGISTownCode": "1504", "LGD_WardCode": 31267, "created_user": "SURESHBV1", "created_date": 1668675682000, "last_edited_user": "SURESHBV1", "last_edited_date": 1692253993000, "_overlap_percent": 0.31691942725673389, "_police_station": "Sagara Rural PS", "_police_feature_index": "629", "_admin_layer": "Ward", "_geometry_clipped": true }, "geometry": { "type": "MultiPolygon", "coordinates": [ [ [ [ 75.042885030359116, 14.149511073092622 ], [ 75.042743208843135, 14.149557369304452 ], [ 75.042464981215275, 14.149652560965036 ], [ 75.042342076761784, 14.149696764015555 ], [ 75.041635660742557, 14.149962385112367 ], [ 75.041644011882966, 14.149980000073548 ], [ 75.042395648874574, 14.149703313547596 ], [ 75.042515600234026, 14.149659170668849 ], [ 75.042787360155614, 14.149559159874102 ], [ 75.042925997872686, 14.149508089186773 ], [ 75.043091836943262, 14.149447046061484 ], [ 75.042885030359116, 14.149511073092622 ] ] ], [ [ [ 75.044529515671101, 14.151361350569216 ], [ 75.044593924626952, 14.151213974032546 ], [ 75.044299254708974, 14.151131472568814 ], [ 75.044193344382379, 14.151101381710202 ], [ 75.044149060483363, 14.151088750341472 ], [ 75.044174539424404, 14.151383023507833 ], [ 75.044217592165083, 14.151384969535734 ], [ 75.044320589060447, 14.151389662275076 ], [ 75.044512300849235, 14.151398352180445 ], [ 75.044529515671101, 14.151361350569216 ] ] ] ] } },
{ "type": "Feature", "properties": { "KGISWardID": 427, "KGISWardCode": "1504023", "KGISWardName": "Nehru Nagara Nircode", "SHAPE.STArea()": 1081494.2197170351, "SHAPE.STLength()": 6016.0006821796642, "OBJECTID": 21187, "KGISWardNo": "23", "KGISTownCode": "1504", "LGD_WardCode": 31271, "created_user": "SURESHBV1", "created_date": 1668675682000, "last_edited_user": "SURESHBV1", "last_edited_date": 1692253993000, "_overlap_percent": 8.238680897105322, "_police_station": "Sagara Rural PS", "_police_feature_index": "629", "_admin_layer": "Ward", "_geometry_clipped": true }, "geometry": { "type": "MultiPolygon", "coordinates": [ [ [ [ 75.013632384127973, 14.160113531565139 ], [ 75.013459034861711, 14.160776103865238 ], [ 75.011498124196137, 14.161526766549322 ], [ 75.011386146459117, 14.162592508847576 ], [ 75.014748376542343, 14.162023979532719 ], [ 75.014737883173595, 14.161936279584308 ], [ 75.015368842857526, 14.16064748059957 ], [ 75.015562925006407, 14.159802542261271 ], [ 75.013632384127973, 14.160113531565139 ] ] ], [ [ [ 75.017801726199153, 14.154286604712135 ], [ 75.016046803431365, 14.154304768764987 ], [ 75.016043281272388, 14.154330447943542 ], [ 75.016050671458288, 14.154361661832597 ], [ 75.016160884169381, 14.154888541145265 ], [ 75.018390373200631, 14.154760196689976 ], [ 75.018501721949733, 14.15428092520682 ], [ 75.017801726199153, 14.154286604712135 ] ] ], [ [ [ 75.018649249089322, 14.152692590421154 ], [ 75.018618428173497, 14.153817584656592 ], [ 75.018767509342837, 14.153239007473383 ], [ 75.018616085046261, 14.152073396497125 ], [ 75.018649249089322, 14.152692590421154 ] ] ] ] } },
{ "type": "Feature", "properties": { "KGISWardID": 422, "KGISWardCode": "1504018", "KGISWardName": "Vijaya Nagara", "SHAPE.STArea()": 851999.03952282004, "SHAPE.STLength()": 5405.0656122352157, "OBJECTID": 21189, "KGISWardNo": "18", "KGISTownCode": "1504", "LGD_WardCode": 31266, "created_user": "SURESHBV1", "created_date": 1668675682000, "last_edited_user": "SURESHBV1", "last_edited_date": 1692253993000, "_overlap_percent": 0.52408235491086708, "_police_station": "Sagara Rural PS", "_police_feature_index": "629", "_admin_layer": "Ward", "_geometry_clipped": true }, "geometry": { "type": "MultiPolygon", "coordinates": [ [ [ [ 75.044593924626952, 14.151213974032546 ], [ 75.044529515671101, 14.151361350569216 ], [ 75.044512300849235, 14.151398352180445 ], [ 75.044607382507792, 14.151402662038594 ], [ 75.045570549635912, 14.154696231993119 ], [ 75.045573679515655, 14.154697263719999 ], [ 75.044593924626952, 14.151213974032546 ] ] ], [ [ [ 75.046170938895202, 14.154912601574367 ], [ 75.046154811575718, 14.154907502754622 ], [ 75.046144859540576, 14.155021231196756 ], [ 75.046150952449892, 14.155028117561073 ], [ 75.046170938895202, 14.154912601574367 ] ] ], [ [ [ 75.046318127298889, 14.155217036699582 ], [ 75.046333679403702, 14.15523461029267 ], [ 75.046334183576377, 14.155234357303401 ], [ 75.046318127298889, 14.155217036699582 ] ] ], [ [ [ 75.047273984778286, 14.155382759011674 ], [ 75.04740914445, 14.155469539817384 ], [ 75.047525649907371, 14.155430071591368 ], [ 75.047485959210974, 14.155299181078135 ], [ 75.047339660067365, 14.155267982917074 ], [ 75.047212716415217, 14.155372667839083 ], [ 75.047273984778286, 14.155382759011674 ] ] ], [ [ [ 75.046825296245999, 14.156463757316846 ], [ 75.046880460560274, 14.15602936932698 ], [ 75.046838521652433, 14.155606784242798 ], [ 75.046745669900417, 14.156429142442903 ], [ 75.046742133217705, 14.156460534361383 ], [ 75.046825296245999, 14.156463757316846 ] ] ], [ [ [ 75.046657744238246, 14.157681871821309 ], [ 75.046522796324098, 14.157133568766014 ], [ 75.046426989568729, 14.157057560331632 ], [ 75.046514649588488, 14.157285138423003 ], [ 75.04659404205141, 14.157703042184616 ], [ 75.046586153396944, 14.157721067625788 ], [ 75.046657744238246, 14.157681871821309 ] ] ], [ [ [ 75.046424963178737, 14.158089384530513 ], [ 75.046381669355441, 14.158188310179755 ], [ 75.046413016097034, 14.158262483741098 ], [ 75.046424963178737, 14.158089384530513 ] ] ], [ [ [ 75.046609444185066, 14.158682228269107 ], [ 75.046576433024114, 14.158649165573113 ], [ 75.046609201207389, 14.158726702590652 ], [ 75.046634243041808, 14.158815261510322 ], [ 75.046609444185066, 14.158682228269107 ] ] ], [ [ [ 75.047792002129952, 14.160537902065965 ], [ 75.047723573474585, 14.1605085037541 ], [ 75.048444221836547, 14.16106971922717 ], [ 75.048518220053154, 14.161093841241698 ], [ 75.047792002129952, 14.160537902065965 ] ] ], [ [ [ 75.050771734863957, 14.162937103722575 ], [ 75.050469773252658, 14.162753592092988 ], [ 75.050269010399091, 14.162050211807653 ], [ 75.049971696880462, 14.16166448972665 ], [ 75.049256583676069, 14.161330640699202 ], [ 75.049135817903064, 14.161296089798405 ], [ 75.049854611504131, 14.161653614098347 ], [ 75.050165521691113, 14.162047923262975 ], [ 75.050400549002916, 14.162745523207052 ], [ 75.050749360429862, 14.16296542036496 ], [ 75.050771734975612, 14.162937103790432 ], [ 75.050771734863957, 14.162937103722575 ] ] ] ] } },
{ "type": "Feature", "properties": { "KGISWardID": 421, "KGISWardCode": "1504017", "KGISWardName": "Jambugara", "SHAPE.STArea()": 2420811.6251318152, "SHAPE.STLength()": 10938.056319597801, "OBJECTID": 21195, "KGISWardNo": "17", "KGISTownCode": "1504", "LGD_WardCode": 31265, "created_user": "SURESHBV1", "created_date": 1668675682000, "last_edited_user": "SURESHBV1", "last_edited_date": 1692253993000, "_overlap_percent": 32.761986759910961, "_police_station": "Sagara Rural PS", "_police_feature_index": "629", "_admin_layer": "Ward", "_geometry_clipped": true }, "geometry": { "type": "MultiPolygon", "coordinates": [ [ [ [ 75.05133992002726, 14.162306169392266 ], [ 75.051315069344213, 14.162337059935103 ], [ 75.051315068988245, 14.162337060377594 ], [ 75.05187912900108, 14.162237503387171 ], [ 75.051885626310593, 14.162187231006852 ], [ 75.05133992002726, 14.162306169392266 ] ] ], [ [ [ 75.053503591117902, 14.161435117267857 ], [ 75.052035185768872, 14.161867525905741 ], [ 75.05202963098526, 14.161906248598605 ], [ 75.053493859426666, 14.161494670115902 ], [ 75.05350359132396, 14.161435117207175 ], [ 75.053503591117902, 14.161435117267857 ] ] ], [ [ [ 75.056309887351773, 14.159260949981672 ], [ 75.055141865562192, 14.158769922749531 ], [ 75.055084722618332, 14.15881493940671 ], [ 75.056231692476715, 14.159318150932393 ], [ 75.057134021531212, 14.159075509844254 ], [ 75.057190271506073, 14.159018644635056 ], [ 75.056309887351773, 14.159260949981672 ] ] ], [ [ [ 75.054351538764493, 14.171318842451269 ], [ 75.054843662190109, 14.172063744842406 ], [ 75.05605884113146, 14.171616371717139 ], [ 75.056875275254058, 14.171436754550754 ], [ 75.057654889548516, 14.171099248988925 ], [ 75.05811765844966, 14.171332290835108 ], [ 75.059435415897482, 14.171925286923175 ], [ 75.058964991859952, 14.171114719406988 ], [ 75.059293768148862, 14.170693433929273 ], [ 75.059649553036536, 14.17023849559051 ], [ 75.060068529206092, 14.170149675870823 ], [ 75.060570781619958, 14.17028284384649 ], [ 75.060734636243652, 14.171596050984631 ], [ 75.062071244024764, 14.171723605069934 ], [ 75.062920074412744, 14.172033861604104 ], [ 75.063587339815186, 14.171195985882843 ], [ 75.064450863460351, 14.171996919680176 ], [ 75.063894312731691, 14.168879977086355 ], [ 75.063465174893452, 14.168652819179458 ], [ 75.063697510238725, 14.166535543913815 ], [ 75.06299856595605, 14.16591372208395 ], [ 75.063366177696508, 14.165327504252042 ], [ 75.063328411328271, 14.1641310923082 ], [ 75.063599492871859, 14.163725850823901 ], [ 75.064077181064135, 14.162837577028565 ], [ 75.064133151804668, 14.162730177208882 ], [ 75.064172077391831, 14.162655344421768 ], [ 75.065110713356248, 14.161497135385444 ], [ 75.064657686424411, 14.16116633531208 ], [ 75.064096866701334, 14.160722088591944 ], [ 75.063829957414725, 14.160406496213152 ], [ 75.063505724168053, 14.160023121835549 ], [ 75.06348797517019, 14.160029946815209 ], [ 75.063240446214749, 14.160125125423987 ], [ 75.063020719166644, 14.160209611698958 ], [ 75.062442608095964, 14.160457025449297 ], [ 75.061915992221714, 14.160679082873372 ], [ 75.061330067068354, 14.160905758425361 ], [ 75.060836206949844, 14.161098992278239 ], [ 75.060727023166933, 14.160798907092902 ], [ 75.060357556689581, 14.161736501802311 ], [ 75.057437462284113, 14.166744851167774 ], [ 75.056504575788082, 14.168515930632038 ], [ 75.054887757764774, 14.170319336498542 ], [ 75.054203700872165, 14.171012277968787 ], [ 75.054351538764493, 14.171318842451269 ] ] ], [ [ [ 75.047188277425505, 14.171667184776618 ], [ 75.0472596566037, 14.171512216648349 ], [ 75.047187466232799, 14.170884881374235 ], [ 75.04704490968146, 14.170887370058306 ], [ 75.047138826295807, 14.171683053711792 ], [ 75.047188277425505, 14.171667184776618 ] ] ] ] } },
{ "type": "Feature", "properties": { "KGISWardID": 412, "KGISWardCode": "1504008", "KGISWardName": "Sanmane  Badavane", "SHAPE.STArea()": 525516.34772248997, "SHAPE.STLength()": 3460.7522343521332, "OBJECTID": 21196, "KGISWardNo": "8", "KGISTownCode": "1504", "LGD_WardCode": 31256, "created_user": "SURESHBV1", "created_date": 1668675682000, "last_edited_user": "SURESHBV1", "last_edited_date": 1692253993000, "_overlap_percent": 0.42157920412960892, "_police_station": "Sagara Rural PS", "_police_feature_index": "629", "_admin_layer": "Ward", "_geometry_clipped": true }, "geometry": { "type": "Polygon", "coordinates": [ [ [ 75.017996608072792, 14.175135084433279 ], [ 75.017972132091543, 14.17524498019959 ], [ 75.018004089286137, 14.175262749589121 ], [ 75.018166761263387, 14.175271950981362 ], [ 75.018345444120982, 14.175282023578863 ], [ 75.019141692167338, 14.175202029440401 ], [ 75.019298208081352, 14.174992917423303 ], [ 75.019305316939963, 14.174971235742536 ], [ 75.019136418029547, 14.175055648386259 ], [ 75.018273588029118, 14.175134070689309 ], [ 75.018094010834488, 14.17512172950139 ], [ 75.017999817386467, 14.175115242895965 ], [ 75.017996608072792, 14.175135084433279 ] ] ] } },
{ "type": "Feature", "properties": { "KGISWardID": 405, "KGISWardCode": "1504001", "KGISWardName": "Chandramavina Koppa", "SHAPE.STArea()": 1553703.3887649151, "SHAPE.STLength()": 8314.8544126023935, "OBJECTID": 21193, "KGISWardNo": "1", "KGISTownCode": "1504", "LGD_WardCode": 31249, "created_user": "SURESHBV1", "created_date": 1668675682000, "last_edited_user": "SURESHBV1", "last_edited_date": 1692253993000, "_overlap_percent": 0.93853846907002136, "_police_station": "Sagara Rural PS", "_police_feature_index": "629", "_admin_layer": "Ward", "_geometry_clipped": true }, "geometry": { "type": "MultiPolygon", "coordinates": [ [ [ [ 75.050992287539913, 14.181538845280018 ], [ 75.050802524839298, 14.181150084765788 ], [ 75.050611121559783, 14.180753048419831 ], [ 75.050420169927037, 14.180354474694813 ], [ 75.050229330823157, 14.179954653906412 ], [ 75.050164343797206, 14.179832126810586 ], [ 75.050107354146135, 14.179724799198475 ], [ 75.050017109944775, 14.17955468279696 ], [ 75.049820938987821, 14.17915524071466 ], [ 75.049611860332433, 14.178759935066447 ], [ 75.049414755754484, 14.178369271556789 ], [ 75.049216949762894, 14.17797600486255 ], [ 75.049018715608156, 14.177579471253214 ], [ 75.04881600240968, 14.177183058633531 ], [ 75.048592538885217, 14.176778065689733 ], [ 75.048389751157458, 14.176377309887524 ], [ 75.048178543953114, 14.17597624635845 ], [ 75.047958957214632, 14.175570695923071 ], [ 75.047747696831365, 14.175165155367244 ], [ 75.047544516121263, 14.174767885408604 ], [ 75.047482631298195, 14.17465601636224 ], [ 75.047389450977576, 14.174487614710921 ], [ 75.047324484774265, 14.174370169207929 ], [ 75.047281759766875, 14.174289268324481 ], [ 75.047121001252961, 14.173984920078192 ], [ 75.047009551012152, 14.17377376197657 ], [ 75.046950126034091, 14.173661102945015 ], [ 75.046917494251133, 14.173599308187272 ], [ 75.046726692058826, 14.173213444983018 ], [ 75.046519561186827, 14.172814331214534 ], [ 75.046334011081896, 14.172456233314742 ], [ 75.046312454108545, 14.172414726273924 ], [ 75.046196966206367, 14.172191317718566 ], [ 75.046174189760009, 14.172147269332031 ], [ 75.045965980603555, 14.172217232684428 ], [ 75.046003587912182, 14.172286273681035 ], [ 75.046059799152346, 14.172389529135247 ], [ 75.046178338469446, 14.172607480399819 ], [ 75.046200459595894, 14.17264799092982 ], [ 75.046390800855789, 14.172997739646647 ], [ 75.046603159257089, 14.173388021315381 ], [ 75.046798771211826, 14.173765933162581 ], [ 75.046832198766452, 14.173826459206657 ], [ 75.046893067994603, 14.173936831296059 ], [ 75.047007212206708, 14.174143789879283 ], [ 75.047171830135497, 14.174442272885885 ], [ 75.047215577903856, 14.174521650936695 ], [ 75.04728207084942, 14.174636869155687 ], [ 75.047377439387873, 14.174802128366785 ], [ 75.047440782411897, 14.174911933797263 ], [ 75.047648920446619, 14.175302220727435 ], [ 75.047865389289541, 14.175700731181996 ], [ 75.048090442123524, 14.176099249650276 ], [ 75.048307020978996, 14.176493649222586 ], [ 75.048515089612408, 14.17688807381502 ], [ 75.048744308501028, 14.177286562750556 ], [ 75.04895250098717, 14.177676870148346 ], [ 75.049156369164947, 14.178067143878113 ], [ 75.049360321476684, 14.178453270805145 ], [ 75.049564388502858, 14.178835293420047 ], [ 75.049781101383886, 14.179221449872356 ], [ 75.049985058557283, 14.179611752658376 ], [ 75.050078929076406, 14.179777763309438 ], [ 75.050138259998974, 14.179882471915663 ], [ 75.050205971876011, 14.180001981178933 ], [ 75.050405550742184, 14.180392289015307 ], [ 75.050605168289934, 14.180782601183486 ], [ 75.050804821730807, 14.181172879708122 ], [ 75.05100024900959, 14.181559012354796 ], [ 75.051166905183194, 14.18188826664197 ], [ 75.050992287539913, 14.181538845280018 ] ] ], [ [ [ 75.051968980436172, 14.183420187231679 ], [ 75.051751043853528, 14.183029476989027 ], [ 75.051565299168786, 14.182670976650696 ], [ 75.05146745928306, 14.182482813638131 ], [ 75.051582551696654, 14.182705142116431 ], [ 75.051769862372723, 14.183074751831407 ], [ 75.05196883346656, 14.183449072506431 ], [ 75.051968980436172, 14.183420187231679 ] ] ] ] } },
{ "type": "Feature", "properties": { "KGISWardID": 411, "KGISWardCode": "1504007", "KGISWardName": "Andlekoppa", "SHAPE.STArea()": 551925.10470462497, "SHAPE.STLength()": 3475.8179225961812, "OBJECTID": 21190, "KGISWardNo": "7", "KGISTownCode": "1504", "LGD_WardCode": 31255, "created_user": "SURESHBV1", "created_date": 1668675682000, "last_edited_user": "SURESHBV1", "last_edited_date": 1692253993000, "_overlap_percent": 0.15527272958410318, "_police_station": "Sagara Rural PS", "_police_feature_index": "629", "_admin_layer": "Ward", "_geometry_clipped": true }, "geometry": { "type": "MultiPolygon", "coordinates": [ [ [ [ 75.020330538754948, 14.18521013326531 ], [ 75.020348878046605, 14.185189457105249 ], [ 75.020348628957592, 14.185189401462111 ], [ 75.020362000577293, 14.183738501810357 ], [ 75.020330538754948, 14.18521013326531 ] ] ], [ [ [ 75.019298208081352, 14.174992917423303 ], [ 75.019141692167338, 14.175202029440401 ], [ 75.019204168664089, 14.175195753007118 ], [ 75.01949504156471, 14.175049241367132 ], [ 75.019632995536583, 14.175108441437592 ], [ 75.019605320476316, 14.174988419500345 ], [ 75.019428641051519, 14.174909600565222 ], [ 75.019305316939963, 14.174971235742536 ], [ 75.019298208081352, 14.174992917423303 ] ] ] ] } },
{ "type": "Feature", "properties": { "KGISWardID": 408, "KGISWardCode": "1504004", "KGISWardName": "Subash Nagara", "SHAPE.STArea()": 892042.96725753997, "SHAPE.STLength()": 5582.5117936285533, "OBJECTID": 21198, "KGISWardNo": "4", "KGISTownCode": "1504", "LGD_WardCode": 31252, "created_user": "SURESHBV1", "created_date": 1668675682000, "last_edited_user": "SURESHBV1", "last_edited_date": 1692253993000, "_overlap_percent": 0.029249553516313791, "_police_station": "Sagara Rural PS", "_police_feature_index": "629", "_admin_layer": "Ward", "_geometry_clipped": true }, "geometry": { "type": "Polygon", "coordinates": [ [ [ 75.036539750445229, 14.189045088714137 ], [ 75.037021088935035, 14.189556279204572 ], [ 75.037077124308794, 14.189568347742673 ], [ 75.037117986251999, 14.189576612302504 ], [ 75.03651155124534, 14.189012331792712 ], [ 75.036539750445229, 14.189045088714137 ] ] ] } },
{ "type": "Feature", "properties": { "KGISWardID": 406, "KGISWardCode": "1504002", "KGISWardName": "J P Nagara", "SHAPE.STArea()": 1389272.8018783201, "SHAPE.STLength()": 5161.8921484882221, "OBJECTID": 21206, "KGISWardNo": "2", "KGISTownCode": "1504", "LGD_WardCode": 31250, "created_user": "SURESHBV1", "created_date": 1668675682000, "last_edited_user": "SURESHBV1", "last_edited_date": 1692253993000, "_overlap_percent": 4.779498037594851, "_police_station": "Sagara Rural PS", "_police_feature_index": "629", "_admin_layer": "Ward", "_geometry_clipped": true }, "geometry": { "type": "MultiPolygon", "coordinates": [ [ [ [ 75.041517865173375, 14.188710385614305 ], [ 75.041598132943989, 14.188759208551557 ], [ 75.041686566556862, 14.188793198688412 ], [ 75.041735990087105, 14.188808427415657 ], [ 75.041777664126201, 14.188834448936399 ], [ 75.041885122354543, 14.188872905069651 ], [ 75.041991024432178, 14.188920638368948 ], [ 75.042089331235346, 14.188965865649614 ], [ 75.042320868451156, 14.188887148982051 ], [ 75.042369220753102, 14.188693146563146 ], [ 75.04255292805108, 14.188608946102136 ], [ 75.0445039857171, 14.188016044600165 ], [ 75.044578224294725, 14.18799342887692 ], [ 75.044997985919281, 14.188406982669278 ], [ 75.045291012162835, 14.18846252129296 ], [ 75.045872782343395, 14.18855903728249 ], [ 75.046458331133948, 14.188654069164782 ], [ 75.047047846620714, 14.18874742066699 ], [ 75.047642113710424, 14.188838823060792 ], [ 75.048240885879565, 14.188928305294395 ], [ 75.048843885571458, 14.189005143753391 ], [ 75.049456194108799, 14.18909048986739 ], [ 75.050074098356632, 14.189173253604498 ], [ 75.050225546231118, 14.189190594917996 ], [ 75.050430863459894, 14.189233160612259 ], [ 75.050437484871978, 14.189214836808775 ], [ 75.05055440509166, 14.188893374310533 ], [ 75.050563333666958, 14.188860409448534 ], [ 75.050596295570813, 14.188737460419329 ], [ 75.050627377703762, 14.188621711809031 ], [ 75.050751890842264, 14.188158720655759 ], [ 75.046103818535244, 14.188032191942975 ], [ 75.045295463091108, 14.18832557072894 ], [ 75.044862778652558, 14.187899679553723 ], [ 75.044268673154093, 14.187357257101745 ], [ 75.043787599075728, 14.18789730333882 ], [ 75.042647055523872, 14.188289610873161 ], [ 75.04174965754585, 14.188501992993926 ], [ 75.041452340855201, 14.188688422249339 ], [ 75.041517865173375, 14.188710385614305 ] ] ], [ [ [ 75.03991678935968, 14.189560748374197 ], [ 75.039928101459338, 14.189571055106029 ], [ 75.040063165458747, 14.189694165418622 ], [ 75.040086101212736, 14.189673355373756 ], [ 75.040149541149418, 14.18960878501451 ], [ 75.040209141884588, 14.189541454804806 ], [ 75.040271696303591, 14.189474723558364 ], [ 75.040332589842194, 14.189407573937119 ], [ 75.040389258892745, 14.189339064213407 ], [ 75.040425374502078, 14.189299532728963 ], [ 75.039885350203207, 14.18953133951881 ], [ 75.03991678935968, 14.189560748374197 ] ] ] ] } },
{ "type": "Feature", "properties": { "KGISWardID": 410, "KGISWardCode": "1504006", "KGISWardName": "Eli Kelladhi Road", "SHAPE.STArea()": 876551.1870715, "SHAPE.STLength()": 5343.830524430783, "OBJECTID": 21209, "KGISWardNo": "6", "KGISTownCode": "1504", "LGD_WardCode": 31254, "created_user": "SURESHBV1", "created_date": 1668675682000, "last_edited_user": "SURESHBV1", "last_edited_date": 1692253993000, "_overlap_percent": 1.965174306120784, "_police_station": "Sagara Rural PS", "_police_feature_index": "629", "_admin_layer": "Ward", "_geometry_clipped": true }, "geometry": { "type": "MultiPolygon", "coordinates": [ [ [ [ 75.020330538754948, 14.18521013326531 ], [ 75.020498142452197, 14.185247783751093 ], [ 75.020586354357988, 14.185267563391349 ], [ 75.02061189060602, 14.185273293734202 ], [ 75.020797120656511, 14.185314861235035 ], [ 75.020875550544858, 14.185332490559412 ], [ 75.021047526927291, 14.185371083345157 ], [ 75.021906265736803, 14.186120003115098 ], [ 75.022772894427845, 14.186871995947364 ], [ 75.023289926121052, 14.187429761878334 ], [ 75.023555125407313, 14.187718324872536 ], [ 75.02378296514766, 14.187966215584584 ], [ 75.023802719136128, 14.188916629260168 ], [ 75.023776689613186, 14.189117768811618 ], [ 75.023754392710941, 14.189279885150345 ], [ 75.023754233432598, 14.189281093157931 ], [ 75.023731784819745, 14.189740077099076 ], [ 75.023682536360269, 14.190392629872724 ], [ 75.023569206026593, 14.191191616304552 ], [ 75.023656461754555, 14.191180205926559 ], [ 75.023814398412156, 14.191225425765289 ], [ 75.024299906943682, 14.191147482345389 ], [ 75.024741084969122, 14.191166184564478 ], [ 75.024826789278791, 14.191206523159069 ], [ 75.024879565413656, 14.191231370121226 ], [ 75.02492702741587, 14.191247670360914 ], [ 75.024944966296317, 14.191257922859215 ], [ 75.025052139714546, 14.191292157693653 ], [ 75.025086481612036, 14.191302292729565 ], [ 75.02509363563297, 14.191304396923671 ], [ 75.025155440669067, 14.191322564566072 ], [ 75.025221736098544, 14.191342085285129 ], [ 75.025389658662945, 14.191390806750444 ], [ 75.025552991354161, 14.191434675824901 ], [ 75.025711320924515, 14.191482870043052 ], [ 75.025866506630393, 14.191503898248682 ], [ 75.026011928139454, 14.1915194634225 ], [ 75.026195932962693, 14.191540377068598 ], [ 75.026385703876628, 14.191566240352609 ], [ 75.026572793585515, 14.191583469718362 ], [ 75.026775136544018, 14.191611238225425 ], [ 75.026995401662887, 14.191639659172473 ], [ 75.027293534359103, 14.191664910025484 ], [ 75.027356255905033, 14.191672469997238 ], [ 75.027825374649566, 14.191690169640895 ], [ 75.028822374900386, 14.191646219564348 ], [ 75.029442589560659, 14.19154531843683 ], [ 75.029455956207045, 14.1915432453051 ], [ 75.030083392447125, 14.191644289599926 ], [ 75.030700265088711, 14.191774322686447 ], [ 75.029898165371094, 14.191203904037396 ], [ 75.029562191388806, 14.190718643622587 ], [ 75.029261776388893, 14.190853785322373 ], [ 75.029343182284123, 14.191003823108803 ], [ 75.029439301214822, 14.191163812329529 ], [ 75.029579981645909, 14.191310170842842 ], [ 75.029528329339271, 14.191472753344735 ], [ 75.029515069271469, 14.19147478306647 ], [ 75.028903178115115, 14.191574803605405 ], [ 75.027934990849516, 14.19162677892057 ], [ 75.027479438999265, 14.191614029253889 ], [ 75.027418267114172, 14.191607102066637 ], [ 75.027127347944059, 14.191584811758652 ], [ 75.026911691049733, 14.191558499879317 ], [ 75.026713191689879, 14.19153262171027 ], [ 75.026529619332877, 14.191517109112379 ], [ 75.026342900517974, 14.1914929427624 ], [ 75.026161721649231, 14.191473643795383 ], [ 75.026018389258326, 14.191459330782155 ], [ 75.02586512863401, 14.19143961353562 ], [ 75.025707751934064, 14.191392713205875 ], [ 75.025545388799642, 14.191350162435585 ], [ 75.02537814941455, 14.191302771063491 ], [ 75.025312059785335, 14.191283770272445 ], [ 75.025250418839875, 14.191266081871328 ], [ 75.02524328243355, 14.191264032835353 ], [ 75.025209017486731, 14.191254163644262 ], [ 75.025101950732719, 14.191220750773205 ], [ 75.025083879333962, 14.191210633024115 ], [ 75.025036397905509, 14.19119469268324 ], [ 75.024983370649167, 14.191170241814936 ], [ 75.024897220616182, 14.19113054348581 ], [ 75.024458957706372, 14.191115091802772 ], [ 75.023978497803824, 14.191196409459383 ], [ 75.023819599249293, 14.191152232350101 ], [ 75.023732941369985, 14.191164210556668 ], [ 75.023821370511456, 14.190364548384766 ], [ 75.023852539108233, 14.189711752348154 ], [ 75.02386328979901, 14.189252712596744 ], [ 75.023863418493306, 14.189251503687945 ], [ 75.023881728350403, 14.189089290084256 ], [ 75.023902938579027, 14.188888049733132 ], [ 75.023862519273806, 14.187938213185204 ], [ 75.023630099566176, 14.187691760655152 ], [ 75.023359510334174, 14.187404752563976 ], [ 75.022831901697657, 14.18684964247932 ], [ 75.021949752786554, 14.186100400005955 ], [ 75.021074103436405, 14.185351282053391 ], [ 75.020900219791884, 14.185312513136761 ], [ 75.020820891877108, 14.185294791671502 ], [ 75.02060763260431, 14.18524722009472 ], [ 75.020518341953718, 14.185227313064422 ], [ 75.020348878046605, 14.185189457105249 ], [ 75.020330538754948, 14.18521013326531 ] ] ], [ [ [ 75.031174991458514, 14.190132441712343 ], [ 75.03118050105904, 14.190138791993265 ], [ 75.031256997682434, 14.190226259245062 ], [ 75.031350173455778, 14.190333687797734 ], [ 75.031182750953107, 14.190013439767526 ], [ 75.031167533677092, 14.189996480329651 ], [ 75.031087668268256, 14.190032407787028 ], [ 75.031174991458514, 14.190132441712343 ] ] ] ] } },
{ "type": "Feature", "properties": { "KGISWardID": 407, "KGISWardCode": "1504003", "KGISWardName": "Sridhar Nagara  A P M C", "SHAPE.STArea()": 284066.04070299002, "SHAPE.STLength()": 2467.1744291168857, "OBJECTID": 21214, "KGISWardNo": "3", "KGISTownCode": "1504", "LGD_WardCode": 31251, "created_user": "SURESHBV1", "created_date": 1668675682000, "last_edited_user": "SURESHBV1", "last_edited_date": 1692253993000, "_overlap_percent": 1.2459310153294114, "_police_station": "Sagara Rural PS", "_police_feature_index": "629", "_admin_layer": "Ward", "_geometry_clipped": true }, "geometry": { "type": "MultiPolygon", "coordinates": [ [ [ [ 75.036233825617757, 14.189390346827752 ], [ 75.036352412371073, 14.189414806969539 ], [ 75.036485270774534, 14.18944119441108 ], [ 75.036625957983688, 14.189469798548767 ], [ 75.036771716110309, 14.189501674976418 ], [ 75.036922621801267, 14.189535073170099 ], [ 75.037021088935035, 14.189556279204572 ], [ 75.036539750445229, 14.189045088714137 ], [ 75.03651155124534, 14.189012331792712 ], [ 75.0365078610713, 14.189008898129972 ], [ 75.036063060733923, 14.189359274690673 ], [ 75.036233825617757, 14.189390346827752 ] ] ], [ [ [ 75.031350173455778, 14.190333687797734 ], [ 75.031682996567653, 14.190717424568597 ], [ 75.031758416860569, 14.19092606166951 ], [ 75.031851988753246, 14.190871360088357 ], [ 75.031761530565944, 14.190651412257996 ], [ 75.03130798962215, 14.190152021681561 ], [ 75.031227611529545, 14.190063422007208 ], [ 75.031221829447787, 14.190056992194544 ], [ 75.031182750953107, 14.190013439767526 ], [ 75.031350173455778, 14.190333687797734 ] ] ] ] } }
]
}
