{
"type": "FeatureCollection",
"name": "wards_in_police_area.writing_20260805_172659",
"crs": { "type": "name", "properties": { "name": "urn:ogc:def:crs:OGC:1.3:CRS84" } },
"features": [
{ "type": "Feature", "properties": { "KGISWardID": 4426, "KGISWardCode": "1405018", "KGISWardName": null, "SHAPE.STArea()": 912722.18137846002, "SHAPE.STLength()": 5021.3590014713927, "OBJECTID": 17860, "KGISWardNo": "18", "KGISTownCode": "1405", "LGD_WardCode": 1886861, "created_user": "SA", "created_date": 1634898537000, "last_edited_user": "SURESHBV1", "last_edited_date": 1692253993000, "_overlap_percent": 99.999999999999986, "_police_station": "Jagalur PS", "_police_feature_index": "209", "_admin_layer": "Ward", "_geometry_clipped": true }, "geometry": { "type": "Polygon", "coordinates": [ [ [ 76.333744391549502, 14.510596117208777 ], [ 76.333859434148991, 14.510129083580036 ], [ 76.333989334612951, 14.509683490213286 ], [ 76.33427803506423, 14.508698862735153 ], [ 76.334676042440236, 14.507519886275823 ], [ 76.335046392585667, 14.506642420331479 ], [ 76.335643493191412, 14.505505361629828 ], [ 76.336123015965853, 14.504610536742051 ], [ 76.334757081166032, 14.503750026218295 ], [ 76.329374799397115, 14.501112868023341 ], [ 76.329175102147985, 14.501012807863944 ], [ 76.32894358635177, 14.500773678067276 ], [ 76.328440932614711, 14.500334369640004 ], [ 76.327025090761907, 14.502806139047969 ], [ 76.326854887182535, 14.50311332696071 ], [ 76.326686701137547, 14.503368757766824 ], [ 76.32671119954351, 14.503539516169694 ], [ 76.327731026377052, 14.508123087408016 ], [ 76.328080957547655, 14.509499588581418 ], [ 76.328160565209927, 14.509756579571999 ], [ 76.326154244444012, 14.509244142326859 ], [ 76.325158769932074, 14.509041686989239 ], [ 76.324606161882727, 14.509001755861849 ], [ 76.324186330613784, 14.508996949348841 ], [ 76.323236284207042, 14.509002308416537 ], [ 76.322740156352907, 14.509001752250965 ], [ 76.322476604277526, 14.509010510593884 ], [ 76.321563130149997, 14.510199483444126 ], [ 76.321809598160272, 14.510252526719583 ], [ 76.323479969385758, 14.510612002585582 ], [ 76.324525975625889, 14.509855620737868 ], [ 76.325356460236478, 14.510262921128268 ], [ 76.327437114844685, 14.511155295376186 ], [ 76.329922762599224, 14.511779522236637 ], [ 76.330607258227474, 14.51170389121174 ], [ 76.331085625846555, 14.511643777674498 ], [ 76.331786265683746, 14.51180483040396 ], [ 76.332086869458251, 14.511577107888597 ], [ 76.332376017978177, 14.511281288037404 ], [ 76.332540823389891, 14.511129675360058 ], [ 76.333169371617714, 14.510935965908896 ], [ 76.33344522642173, 14.510880584959256 ], [ 76.333677495136357, 14.510925903240755 ], [ 76.333686267332254, 14.510931189377501 ], [ 76.333744391549502, 14.510596117208777 ] ] ] } },
{ "type": "Feature", "properties": { "KGISWardID": 4424, "KGISWardCode": "1405016", "KGISWardName": null, "SHAPE.STArea()": 308937.78406048502, "SHAPE.STLength()": 3080.165148411817, "OBJECTID": 17858, "KGISWardNo": "16", "KGISTownCode": "1405", "LGD_WardCode": 1886859, "created_user": "SA", "created_date": 1634898537000, "last_edited_user": "SURESHBV1", "last_edited_date": 1692253993000, "_overlap_percent": 100.0, "_police_station": "Jagalur PS", "_police_feature_index": "209", "_admin_layer": "Ward", "_geometry_clipped": true }, "geometry": { "type": "Polygon", "coordinates": [ [ [ 76.337554653594069, 14.514881895885466 ], [ 76.337532004264105, 14.51417647598986 ], [ 76.337504222154834, 14.513638504766737 ], [ 76.337423500286491, 14.512461057084975 ], [ 76.33736989505249, 14.511794935209085 ], [ 76.337180890560404, 14.511829172581299 ], [ 76.337120477850178, 14.511840333421391 ], [ 76.337065374418657, 14.511023516105892 ], [ 76.33706460956067, 14.51101218409792 ], [ 76.337031725282856, 14.510524728730042 ], [ 76.336818743413232, 14.509794859775198 ], [ 76.3368306188828, 14.509018680735949 ], [ 76.336903758661364, 14.507153292660758 ], [ 76.337011280187951, 14.50533757829883 ], [ 76.337225388599776, 14.504908771257147 ], [ 76.3367756625494, 14.504798845581114 ], [ 76.3365454475463, 14.504744835803169 ], [ 76.336218808412355, 14.504670883093192 ], [ 76.336123015965853, 14.504610536742051 ], [ 76.335643493191412, 14.505505361629828 ], [ 76.335046392585667, 14.506642420331479 ], [ 76.334676042440236, 14.507519886275823 ], [ 76.33427803506423, 14.508698862735153 ], [ 76.333989334612951, 14.509683490213286 ], [ 76.333859434148991, 14.510129083580036 ], [ 76.333744391549502, 14.510596117208777 ], [ 76.333686267332254, 14.510931189377501 ], [ 76.333954682792111, 14.511092943436761 ], [ 76.334173232327785, 14.511306952091051 ], [ 76.3342514004256, 14.511446422115373 ], [ 76.334360682580126, 14.511861955399047 ], [ 76.334388076556777, 14.51223430456195 ], [ 76.334376858920805, 14.512410756966709 ], [ 76.334165633563941, 14.513009881572934 ], [ 76.334074546822507, 14.513209753717751 ], [ 76.335105977376671, 14.513409257107794 ], [ 76.335081099377661, 14.514173543851012 ], [ 76.336134659178782, 14.514232121587362 ], [ 76.336126151302054, 14.514655499845373 ], [ 76.33612604300572, 14.515251031650218 ], [ 76.336134159279197, 14.515743673940818 ], [ 76.336137626857507, 14.515954122249108 ], [ 76.336634778621061, 14.515954878023424 ], [ 76.337479049896274, 14.516012847905074 ], [ 76.337497121118972, 14.515955942856731 ], [ 76.337554653594069, 14.514881895885466 ] ] ] } },
{ "type": "Feature", "properties": { "KGISWardID": 4422, "KGISWardCode": "1405014", "KGISWardName": null, "SHAPE.STArea()": 288195.54378917499, "SHAPE.STLength()": 2961.3750044538579, "OBJECTID": 17856, "KGISWardNo": "14", "KGISTownCode": "1405", "LGD_WardCode": 1886857, "created_user": "SA", "created_date": 1634898537000, "last_edited_user": "SURESHBV1", "last_edited_date": 1692253993000, "_overlap_percent": 99.999999999999972, "_police_station": "Jagalur PS", "_police_feature_index": "209", "_admin_layer": "Ward", "_geometry_clipped": true }, "geometry": { "type": "Polygon", "coordinates": [ [ [ 76.338789159854642, 14.515737854946689 ], [ 76.338919693950942, 14.515500931294548 ], [ 76.339190165302796, 14.515059914706809 ], [ 76.33930793761705, 14.514742343404 ], [ 76.339297310958472, 14.514506225365739 ], [ 76.33928185259937, 14.514432668437196 ], [ 76.339284166758048, 14.514295059680855 ], [ 76.339630337265007, 14.5133089522297 ], [ 76.339642944272157, 14.512888467053646 ], [ 76.339357262252335, 14.51271909800808 ], [ 76.339445563030282, 14.51186924960739 ], [ 76.339522551950495, 14.510670290427294 ], [ 76.339570889596615, 14.509803899178753 ], [ 76.339779035954848, 14.508211272241041 ], [ 76.339777908366614, 14.50764964130124 ], [ 76.339765971251026, 14.506650861559436 ], [ 76.338416423426992, 14.506626091429556 ], [ 76.338509037247803, 14.506117867616263 ], [ 76.338617132325481, 14.505239209552487 ], [ 76.338603496226469, 14.505057653267956 ], [ 76.337910952799064, 14.504953954870484 ], [ 76.337299789248519, 14.504955081397412 ], [ 76.337225388599776, 14.504908771257147 ], [ 76.337011280187951, 14.50533757829883 ], [ 76.336903758661364, 14.507153292660758 ], [ 76.3368306188828, 14.509018680735949 ], [ 76.336818743413232, 14.509794859775198 ], [ 76.337031725282856, 14.510524728730042 ], [ 76.33706460956067, 14.51101218409792 ], [ 76.337065374418657, 14.511023516105892 ], [ 76.337120477850178, 14.511840333421391 ], [ 76.337180890560404, 14.511829172581299 ], [ 76.33736989505249, 14.511794935209085 ], [ 76.337423500286491, 14.512461057084975 ], [ 76.337504222154834, 14.513638504766737 ], [ 76.337532004264105, 14.51417647598986 ], [ 76.337554653594069, 14.514881895885466 ], [ 76.337497121118972, 14.515955942856731 ], [ 76.338188280413988, 14.516068595698693 ], [ 76.338235816663641, 14.515808228332661 ], [ 76.338481619439094, 14.515857650308959 ], [ 76.338695350792577, 14.515932702843683 ], [ 76.338789159854642, 14.515737854946689 ] ] ] } },
{ "type": "Feature", "properties": { "KGISWardID": 4420, "KGISWardCode": "1405012", "KGISWardName": null, "SHAPE.STArea()": 541960.66368074995, "SHAPE.STLength()": 4048.0935804609671, "OBJECTID": 17854, "KGISWardNo": "12", "KGISTownCode": "1405", "LGD_WardCode": 61512, "created_user": "SA", "created_date": 1634898537000, "last_edited_user": "SURESHBV1", "last_edited_date": 1692253993000, "_overlap_percent": 100.00000000000004, "_police_station": "Jagalur PS", "_police_feature_index": "209", "_admin_layer": "Ward", "_geometry_clipped": true }, "geometry": { "type": "Polygon", "coordinates": [ [ [ 76.338617132325481, 14.505239209552487 ], [ 76.338509037247803, 14.506117867616263 ], [ 76.338416423426992, 14.506626091429556 ], [ 76.339765971251026, 14.506650861559436 ], [ 76.339777908366614, 14.50764964130124 ], [ 76.339779035954848, 14.508211272241041 ], [ 76.339570889596615, 14.509803899178753 ], [ 76.339522551950495, 14.510670290427294 ], [ 76.339445563030282, 14.51186924960739 ], [ 76.339357262252335, 14.51271909800808 ], [ 76.339642944272157, 14.512888467053646 ], [ 76.339630337265007, 14.5133089522297 ], [ 76.339284166758048, 14.514295059680855 ], [ 76.33928185259937, 14.514432668437196 ], [ 76.339297310958472, 14.514506225365739 ], [ 76.33930793761705, 14.514742343404 ], [ 76.339190165302796, 14.515059914706809 ], [ 76.338919693950942, 14.515500931294548 ], [ 76.338789159854642, 14.515737854946689 ], [ 76.338695350792577, 14.515932702843683 ], [ 76.338724567711168, 14.515942962206374 ], [ 76.338988745305656, 14.515986299189912 ], [ 76.339354928618818, 14.516151626420902 ], [ 76.339810392204868, 14.516364278017081 ], [ 76.340185727978366, 14.51652058355713 ], [ 76.340100812106229, 14.516688486113164 ], [ 76.340343869777186, 14.516791734325112 ], [ 76.340113311425256, 14.517235512593283 ], [ 76.340185097270236, 14.517523780251571 ], [ 76.340526865137605, 14.517201340853253 ], [ 76.34073661020598, 14.516970540724744 ], [ 76.340813757936616, 14.51673571468141 ], [ 76.341117292221938, 14.515772520923672 ], [ 76.341309742158515, 14.515116099359911 ], [ 76.341380653121206, 14.514661272938373 ], [ 76.341468022444872, 14.514493356002767 ], [ 76.34179312241217, 14.513850524890719 ], [ 76.342187276256141, 14.513259916045007 ], [ 76.342798755737519, 14.512475532434342 ], [ 76.343069283104569, 14.512147518198994 ], [ 76.343292587877158, 14.511927401009935 ], [ 76.343421297264882, 14.511897964024589 ], [ 76.343834545400256, 14.512031924049642 ], [ 76.344148175444715, 14.512134166050746 ], [ 76.344368857539138, 14.5120898516191 ], [ 76.344489661136762, 14.511970771138769 ], [ 76.344637780428982, 14.511293075211167 ], [ 76.344748041874922, 14.510825278126326 ], [ 76.344805832897677, 14.509245830104367 ], [ 76.344145000614191, 14.509045615815584 ], [ 76.344692162933569, 14.506907073922417 ], [ 76.344735528765625, 14.506729207192128 ], [ 76.344745200713604, 14.506611306654984 ], [ 76.343397297377862, 14.50650407102817 ], [ 76.343520054859184, 14.505578108200034 ], [ 76.343514642231185, 14.505507393915188 ], [ 76.343531319549641, 14.505201983709172 ], [ 76.343421072967317, 14.505190101346809 ], [ 76.343422994703118, 14.505281849570896 ], [ 76.341450106110429, 14.50514034407267 ], [ 76.341210772325482, 14.505128457913761 ], [ 76.339075056594467, 14.505081899703709 ], [ 76.338603496226469, 14.505057653267956 ], [ 76.338617132325481, 14.505239209552487 ] ] ] } },
{ "type": "Feature", "properties": { "KGISWardID": 4418, "KGISWardCode": "1405010", "KGISWardName": null, "SHAPE.STArea()": 373394.59980585502, "SHAPE.STLength()": 3011.3603846209126, "OBJECTID": 17852, "KGISWardNo": "10", "KGISTownCode": "1405", "LGD_WardCode": 61510, "created_user": "SA", "created_date": 1634898537000, "last_edited_user": "SURESHBV1", "last_edited_date": 1692253993000, "_overlap_percent": 99.999999999999957, "_police_station": "Jagalur PS", "_police_feature_index": "209", "_admin_layer": "Ward", "_geometry_clipped": true }, "geometry": { "type": "Polygon", "coordinates": [ [ [ 76.347517347407504, 14.517419125864102 ], [ 76.347600361542078, 14.517100002745263 ], [ 76.347627812465305, 14.516774748286226 ], [ 76.347722846569496, 14.516102827670071 ], [ 76.3477997568273, 14.515895203571535 ], [ 76.348012758923389, 14.515705182770757 ], [ 76.3480223029662, 14.5153414645607 ], [ 76.347115561067994, 14.515152808215861 ], [ 76.346726102675945, 14.515062225655006 ], [ 76.346711513010362, 14.515366045289209 ], [ 76.345951741542123, 14.515130786797334 ], [ 76.34607268312979, 14.514576114431055 ], [ 76.346606722764861, 14.512558056881169 ], [ 76.347017802868265, 14.511542597404548 ], [ 76.346164697333194, 14.511252841379978 ], [ 76.345566809316566, 14.511083365314521 ], [ 76.34490624543507, 14.510874984136684 ], [ 76.34487214566785, 14.510864271691267 ], [ 76.344818149968887, 14.510847310409183 ], [ 76.344748041874922, 14.510825278126326 ], [ 76.344637780428982, 14.511293075211167 ], [ 76.344489661136762, 14.511970771138769 ], [ 76.344368857539138, 14.5120898516191 ], [ 76.344148175444715, 14.512134166050746 ], [ 76.343834545400256, 14.512031924049642 ], [ 76.343421297264882, 14.511897964024589 ], [ 76.343292587877158, 14.511927401009935 ], [ 76.343069283104569, 14.512147518198994 ], [ 76.342798755737519, 14.512475532434342 ], [ 76.342187276256141, 14.513259916045007 ], [ 76.34179312241217, 14.513850524890719 ], [ 76.341468022444872, 14.514493356002767 ], [ 76.341380653121206, 14.514661272938373 ], [ 76.341309742158515, 14.515116099359911 ], [ 76.341117292221938, 14.515772520923672 ], [ 76.340813757936616, 14.51673571468141 ], [ 76.34073661020598, 14.516970540724744 ], [ 76.340526865137605, 14.517201340853253 ], [ 76.340185097270236, 14.517523780251571 ], [ 76.341009802050351, 14.517708488286139 ], [ 76.341832160422669, 14.517897512205776 ], [ 76.341959836383154, 14.517695880659035 ], [ 76.342342076872526, 14.517571716578315 ], [ 76.343199355771546, 14.517444834126932 ], [ 76.344476563348664, 14.517337066868263 ], [ 76.345054535945806, 14.517305053425414 ], [ 76.345658501993256, 14.517308764171986 ], [ 76.346399045111866, 14.517365502908671 ], [ 76.34735007256694, 14.5175178939656 ], [ 76.347534174747636, 14.517513248721365 ], [ 76.347661805550231, 14.517442733118871 ], [ 76.347517347407504, 14.517419125864102 ] ] ] } },
{ "type": "Feature", "properties": { "KGISWardID": 4423, "KGISWardCode": "1405015", "KGISWardName": null, "SHAPE.STArea()": 210805.28663874001, "SHAPE.STLength()": 2531.0002064545452, "OBJECTID": 17857, "KGISWardNo": "15", "KGISTownCode": "1405", "LGD_WardCode": 1886858, "created_user": "SA", "created_date": 1634898537000, "last_edited_user": "SURESHBV1", "last_edited_date": 1692253993000, "_overlap_percent": 99.999999999999972, "_police_station": "Jagalur PS", "_police_feature_index": "209", "_admin_layer": "Ward", "_geometry_clipped": true }, "geometry": { "type": "Polygon", "coordinates": [ [ [ 76.337020592151291, 14.518469335262271 ], [ 76.337145206005502, 14.517757097331117 ], [ 76.337176717228672, 14.517383215582734 ], [ 76.336974073319141, 14.517366433666098 ], [ 76.336789321391649, 14.517262849636007 ], [ 76.336463660273424, 14.517201923594182 ], [ 76.336450936905578, 14.517127256177094 ], [ 76.335827842121674, 14.517106887724678 ], [ 76.335671427093246, 14.51712272689613 ], [ 76.335763795073191, 14.51666180041874 ], [ 76.335754167811842, 14.515977830592904 ], [ 76.335965208707961, 14.515962279677426 ], [ 76.335963902835502, 14.515744644437628 ], [ 76.336134159279197, 14.515743673940818 ], [ 76.33612604300572, 14.515251031650218 ], [ 76.336126151302054, 14.514655499845373 ], [ 76.336134659178782, 14.514232121587362 ], [ 76.335081099377661, 14.514173543851012 ], [ 76.335105977376671, 14.513409257107794 ], [ 76.334074546822507, 14.513209753717751 ], [ 76.333747637197575, 14.513927080274517 ], [ 76.333529367834572, 14.514580057288837 ], [ 76.33340560543833, 14.515231301142213 ], [ 76.333409157425024, 14.515824420855472 ], [ 76.333532096084411, 14.516675164229726 ], [ 76.3336927670547, 14.517267390612856 ], [ 76.334180365453847, 14.518336096189582 ], [ 76.334666476627618, 14.519156073053555 ], [ 76.335142025871704, 14.519851740421613 ], [ 76.335566755554169, 14.52026069278498 ], [ 76.335783026596289, 14.520297727803545 ], [ 76.3362244696837, 14.520218678976629 ], [ 76.336684863345894, 14.520024719575563 ], [ 76.337262464072452, 14.519724859407187 ], [ 76.338045190313721, 14.519242056569876 ], [ 76.33831940267504, 14.519116124886365 ], [ 76.33859430503172, 14.519104989759851 ], [ 76.339213081783441, 14.519233906962041 ], [ 76.339237250597989, 14.519069759350375 ], [ 76.338993731154815, 14.518992223657825 ], [ 76.338794128403464, 14.518868994909138 ], [ 76.338555936647268, 14.518860787889022 ], [ 76.338567334185754, 14.518714830018002 ], [ 76.338053751893753, 14.518636441563347 ], [ 76.337975148833294, 14.518629716244476 ], [ 76.337020592151291, 14.518469335262271 ] ] ] } },
{ "type": "Feature", "properties": { "KGISWardID": 4421, "KGISWardCode": "1405013", "KGISWardName": null, "SHAPE.STArea()": 50104.522459129999, "SHAPE.STLength()": 1126.2994914160361, "OBJECTID": 17855, "KGISWardNo": "13", "KGISTownCode": "1405", "LGD_WardCode": 61513, "created_user": "SA", "created_date": 1634898537000, "last_edited_user": "SURESHBV1", "last_edited_date": 1692253993000, "_overlap_percent": 99.999999999999957, "_police_station": "Jagalur PS", "_police_feature_index": "209", "_admin_layer": "Ward", "_geometry_clipped": true }, "geometry": { "type": "Polygon", "coordinates": [ [ [ 76.335963902835502, 14.515744644437628 ], [ 76.335965208707961, 14.515962279677426 ], [ 76.335754167811842, 14.515977830592904 ], [ 76.335763795073191, 14.51666180041874 ], [ 76.335671427093246, 14.51712272689613 ], [ 76.335827842121674, 14.517106887724678 ], [ 76.336450936905578, 14.517127256177094 ], [ 76.336463660273424, 14.517201923594182 ], [ 76.336789321391649, 14.517262849636007 ], [ 76.336974073319141, 14.517366433666098 ], [ 76.337176717228672, 14.517383215582734 ], [ 76.337145206005502, 14.517757097331117 ], [ 76.337020592151291, 14.518469335262271 ], [ 76.337975148833294, 14.518629716244476 ], [ 76.338020152055421, 14.517947828294394 ], [ 76.338112313450836, 14.516942792633548 ], [ 76.338188280413988, 14.516068595698693 ], [ 76.337497121118972, 14.515955942856731 ], [ 76.337479049896274, 14.516012847905074 ], [ 76.336634778621061, 14.515954878023424 ], [ 76.336137626857507, 14.515954122249108 ], [ 76.336134159279197, 14.515743673940818 ], [ 76.335963902835502, 14.515744644437628 ] ] ] } },
{ "type": "Feature", "properties": { "KGISWardID": 4419, "KGISWardCode": "1405011", "KGISWardName": null, "SHAPE.STArea()": 69418.171946439994, "SHAPE.STLength()": 1123.4657717311852, "OBJECTID": 17853, "KGISWardNo": "11", "KGISTownCode": "1405", "LGD_WardCode": 61511, "created_user": "SA", "created_date": 1634898537000, "last_edited_user": "SURESHBV1", "last_edited_date": 1692253993000, "_overlap_percent": 99.999999999999972, "_police_station": "Jagalur PS", "_police_feature_index": "209", "_admin_layer": "Ward", "_geometry_clipped": true }, "geometry": { "type": "Polygon", "coordinates": [ [ [ 76.340113311425256, 14.517235512593283 ], [ 76.340343869777186, 14.516791734325112 ], [ 76.340100812106229, 14.516688486113164 ], [ 76.340185727978366, 14.51652058355713 ], [ 76.339810392204868, 14.516364278017081 ], [ 76.339354928618818, 14.516151626420902 ], [ 76.338988745305656, 14.515986299189912 ], [ 76.338724567711168, 14.515942962206374 ], [ 76.338695350792577, 14.515932702843683 ], [ 76.338481619439094, 14.515857650308959 ], [ 76.338235816663641, 14.515808228332661 ], [ 76.338188280413988, 14.516068595698693 ], [ 76.338112313450836, 14.516942792633548 ], [ 76.338020152055421, 14.517947828294394 ], [ 76.337975148833294, 14.518629716244476 ], [ 76.338053751893753, 14.518636441563347 ], [ 76.338567334185754, 14.518714830018002 ], [ 76.338555936647268, 14.518860787889022 ], [ 76.338794128403464, 14.518868994909138 ], [ 76.338993731154815, 14.518992223657825 ], [ 76.339237250597989, 14.519069759350375 ], [ 76.339213081783441, 14.519233906962041 ], [ 76.339778890101044, 14.519351786883741 ], [ 76.34012744480988, 14.517734577348515 ], [ 76.340185097270236, 14.517523780251571 ], [ 76.340113311425256, 14.517235512593283 ] ] ] } },
{ "type": "Feature", "properties": { "KGISWardID": 4413, "KGISWardCode": "1405005", "KGISWardName": null, "SHAPE.STArea()": 73526.626170599993, "SHAPE.STLength()": 1263.4554233180395, "OBJECTID": 17847, "KGISWardNo": "5", "KGISTownCode": "1405", "LGD_WardCode": 61505, "created_user": "SA", "created_date": 1634898537000, "last_edited_user": "SURESHBV1", "last_edited_date": 1692253993000, "_overlap_percent": 100.0, "_police_station": "Jagalur PS", "_police_feature_index": "209", "_admin_layer": "Ward", "_geometry_clipped": true }, "geometry": { "type": "Polygon", "coordinates": [ [ [ 76.3387788585637, 14.521284537374843 ], [ 76.33882632490311, 14.521012570966663 ], [ 76.339433233052958, 14.521136927603557 ], [ 76.339509361556338, 14.520720930404503 ], [ 76.339778890101044, 14.519351786883741 ], [ 76.339213081783441, 14.519233906962041 ], [ 76.33859430503172, 14.519104989759851 ], [ 76.33831940267504, 14.519116124886365 ], [ 76.338045190313721, 14.519242056569876 ], [ 76.337262464072452, 14.519724859407187 ], [ 76.336684863345894, 14.520024719575563 ], [ 76.3362244696837, 14.520218678976629 ], [ 76.335783026596289, 14.520297727803545 ], [ 76.335566755554169, 14.52026069278498 ], [ 76.335709311354435, 14.520488486614713 ], [ 76.335945021245379, 14.521309884968387 ], [ 76.336062085625812, 14.521588846803436 ], [ 76.336291957879212, 14.521539703104009 ], [ 76.336389655838246, 14.521455437590111 ], [ 76.33650291445386, 14.521406958179243 ], [ 76.336622470683466, 14.521385349613771 ], [ 76.337093446645099, 14.521113599747128 ], [ 76.337504141782972, 14.521024558878157 ], [ 76.337940123179422, 14.521057947776312 ], [ 76.338192158689282, 14.521122281625569 ], [ 76.338242067207332, 14.521128893026837 ], [ 76.338230276335935, 14.521198973420711 ], [ 76.3387788585637, 14.521284537374843 ] ] ] } },
{ "type": "Feature", "properties": { "KGISWardID": 4415, "KGISWardCode": "1405007", "KGISWardName": null, "SHAPE.STArea()": 42854.308497769998, "SHAPE.STLength()": 1086.0625321496252, "OBJECTID": 17849, "KGISWardNo": "7", "KGISTownCode": "1405", "LGD_WardCode": 61507, "created_user": "SA", "created_date": 1634898537000, "last_edited_user": "SURESHBV1", "last_edited_date": 1692253993000, "_overlap_percent": 100.00000000000003, "_police_station": "Jagalur PS", "_police_feature_index": "209", "_admin_layer": "Ward", "_geometry_clipped": true }, "geometry": { "type": "Polygon", "coordinates": [ [ [ 76.340298704175183, 14.520596517332743 ], [ 76.34136850843457, 14.520901321185102 ], [ 76.341757153562526, 14.520982952220731 ], [ 76.341757660988179, 14.520884265960813 ], [ 76.341811099989201, 14.520636421112009 ], [ 76.341903925905186, 14.520151574124714 ], [ 76.341888049642691, 14.519961526162025 ], [ 76.34175463536414, 14.51982237454977 ], [ 76.341200175306682, 14.519683241761449 ], [ 76.340069203768579, 14.51941226994844 ], [ 76.339778890101044, 14.519351786883741 ], [ 76.339509361556338, 14.520720930404503 ], [ 76.339433233052958, 14.521136927603557 ], [ 76.339390514693378, 14.521370353570683 ], [ 76.339322117444226, 14.522243710684176 ], [ 76.339756230074684, 14.522296594759439 ], [ 76.339834716598517, 14.522028200582286 ], [ 76.340009501949481, 14.521495052723449 ], [ 76.340090655235556, 14.521242915123791 ], [ 76.340298704175183, 14.520596517332743 ] ] ] } },
{ "type": "Feature", "properties": { "KGISWardID": 4417, "KGISWardCode": "1405009", "KGISWardName": null, "SHAPE.STArea()": 540620.89741431002, "SHAPE.STLength()": 3343.6238307387216, "OBJECTID": 17851, "KGISWardNo": "9", "KGISTownCode": "1405", "LGD_WardCode": 61509, "created_user": "SA", "created_date": 1634898537000, "last_edited_user": "SURESHBV1", "last_edited_date": 1692253993000, "_overlap_percent": 100.00000000000004, "_police_station": "Jagalur PS", "_police_feature_index": "209", "_admin_layer": "Ward", "_geometry_clipped": true }, "geometry": { "type": "Polygon", "coordinates": [ [ [ 76.343583576545939, 14.524388263431188 ], [ 76.343686870449432, 14.52435541709046 ], [ 76.343885013437756, 14.524293156131804 ], [ 76.3447887449788, 14.524072127237826 ], [ 76.345467757603856, 14.523780588147268 ], [ 76.346132428655864, 14.523413952442404 ], [ 76.346648581537508, 14.523181645600189 ], [ 76.347004611854445, 14.523025657901361 ], [ 76.347310005552316, 14.522829563552662 ], [ 76.348054271363736, 14.522380178972774 ], [ 76.348542398876162, 14.522350072586853 ], [ 76.348515356941931, 14.522082586888565 ], [ 76.348403428977491, 14.521210773042302 ], [ 76.348059659334893, 14.518658929611249 ], [ 76.34813546575694, 14.518460961304683 ], [ 76.348607445067728, 14.517708400968298 ], [ 76.348637921246407, 14.517659763718816 ], [ 76.348670612201857, 14.517607588366396 ], [ 76.347661805550231, 14.517442733118871 ], [ 76.347534174747636, 14.517513248721365 ], [ 76.34735007256694, 14.5175178939656 ], [ 76.346399045111866, 14.517365502908671 ], [ 76.345658501993256, 14.517308764171986 ], [ 76.345054535945806, 14.517305053425414 ], [ 76.344476563348664, 14.517337066868263 ], [ 76.343199355771546, 14.517444834126932 ], [ 76.342342076872526, 14.517571716578315 ], [ 76.341959836383154, 14.517695880659035 ], [ 76.341832160422669, 14.517897512205776 ], [ 76.341009802050351, 14.517708488286139 ], [ 76.340185097270236, 14.517523780251571 ], [ 76.34012744480988, 14.517734577348515 ], [ 76.339778890101044, 14.519351786883741 ], [ 76.340069203768579, 14.51941226994844 ], [ 76.341200175306682, 14.519683241761449 ], [ 76.34175463536414, 14.51982237454977 ], [ 76.341888049642691, 14.519961526162025 ], [ 76.341903925905186, 14.520151574124714 ], [ 76.341811099989201, 14.520636421112009 ], [ 76.341757660988179, 14.520884265960813 ], [ 76.341757153562526, 14.520982952220731 ], [ 76.341756250555179, 14.521159318292746 ], [ 76.341801357974802, 14.521514822880155 ], [ 76.341859493117468, 14.521738834193235 ], [ 76.341914465887214, 14.521950658549772 ], [ 76.341981614106516, 14.522398715374013 ], [ 76.3419615387741, 14.522632019243574 ], [ 76.341864996329889, 14.522907615005252 ], [ 76.341788330540666, 14.52303838132956 ], [ 76.341664510210222, 14.523249577198278 ], [ 76.341608408711679, 14.523322463926952 ], [ 76.341280832063632, 14.523748047145499 ], [ 76.341128959100161, 14.524009011593453 ], [ 76.341121662459486, 14.524325951003505 ], [ 76.341185633587642, 14.524756088388065 ], [ 76.342531565550416, 14.524536123996619 ], [ 76.343187766082607, 14.524514013149913 ], [ 76.343583576545939, 14.524388263431188 ] ] ] } },
{ "type": "Feature", "properties": { "KGISWardID": 4416, "KGISWardCode": "1405008", "KGISWardName": null, "SHAPE.STArea()": 13721.786961895001, "SHAPE.STLength()": 521.24849539522086, "OBJECTID": 17850, "KGISWardNo": "8", "KGISTownCode": "1405", "LGD_WardCode": 61508, "created_user": "SA", "created_date": 1634898537000, "last_edited_user": "SURESHBV1", "last_edited_date": 1692253993000, "_overlap_percent": 99.999999999999972, "_police_station": "Jagalur PS", "_police_feature_index": "209", "_admin_layer": "Ward", "_geometry_clipped": true }, "geometry": { "type": "Polygon", "coordinates": [ [ [ 76.340839982794549, 14.521467784288191 ], [ 76.341679290329239, 14.521717100336712 ], [ 76.341859493117468, 14.521738834193235 ], [ 76.341801357974802, 14.521514822880155 ], [ 76.341756250555179, 14.521159318292746 ], [ 76.341757153562526, 14.520982952220731 ], [ 76.34136850843457, 14.520901321185102 ], [ 76.340298704175183, 14.520596517332743 ], [ 76.340090655235556, 14.521242915123791 ], [ 76.340839982794549, 14.521467784288191 ] ] ] } },
{ "type": "Feature", "properties": { "KGISWardID": 4414, "KGISWardCode": "1405006", "KGISWardName": null, "SHAPE.STArea()": 27033.779235009999, "SHAPE.STLength()": 737.07324995799218, "OBJECTID": 17848, "KGISWardNo": "6", "KGISTownCode": "1405", "LGD_WardCode": 61506, "created_user": "SA", "created_date": 1634898537000, "last_edited_user": "SURESHBV1", "last_edited_date": 1692253993000, "_overlap_percent": 100.0, "_police_station": "Jagalur PS", "_police_feature_index": "209", "_admin_layer": "Ward", "_geometry_clipped": true }, "geometry": { "type": "Polygon", "coordinates": [ [ [ 76.340433063132807, 14.522387321859117 ], [ 76.341143446237439, 14.522529152901216 ], [ 76.341202611951303, 14.522569473839264 ], [ 76.341086067680607, 14.522785391594272 ], [ 76.341285487842029, 14.522877527021684 ], [ 76.341553591092747, 14.522959702019881 ], [ 76.341788330540666, 14.52303838132956 ], [ 76.341864996329889, 14.522907615005252 ], [ 76.3419615387741, 14.522632019243574 ], [ 76.341981614106516, 14.522398715374013 ], [ 76.341914465887214, 14.521950658549772 ], [ 76.341859493117468, 14.521738834193235 ], [ 76.341679290329239, 14.521717100336712 ], [ 76.340839982794549, 14.521467784288191 ], [ 76.340090655235556, 14.521242915123791 ], [ 76.340009501949481, 14.521495052723449 ], [ 76.339834716598517, 14.522028200582286 ], [ 76.339756230074684, 14.522296594759439 ], [ 76.340433063132807, 14.522387321859117 ] ] ] } },
{ "type": "Feature", "properties": { "KGISWardID": 4412, "KGISWardCode": "1405004", "KGISWardName": null, "SHAPE.STArea()": 19945.310769160002, "SHAPE.STLength()": 658.53902272811888, "OBJECTID": 17846, "KGISWardNo": "4", "KGISTownCode": "1405", "LGD_WardCode": 61504, "created_user": "SA", "created_date": 1634898537000, "last_edited_user": "SURESHBV1", "last_edited_date": 1692253993000, "_overlap_percent": 99.999999999999972, "_police_station": "Jagalur PS", "_police_feature_index": "209", "_admin_layer": "Ward", "_geometry_clipped": true }, "geometry": { "type": "Polygon", "coordinates": [ [ [ 76.341664510210222, 14.523249577198278 ], [ 76.341788330540666, 14.52303838132956 ], [ 76.341553591092747, 14.522959702019881 ], [ 76.341285487842029, 14.522877527021684 ], [ 76.341086067680607, 14.522785391594272 ], [ 76.341202611951303, 14.522569473839264 ], [ 76.341143446237439, 14.522529152901216 ], [ 76.340433063132807, 14.522387321859117 ], [ 76.339756230074684, 14.522296594759439 ], [ 76.339585135677552, 14.52288166556942 ], [ 76.339488226443322, 14.523178391441267 ], [ 76.340201200924781, 14.523349386923886 ], [ 76.340358943427589, 14.523451328649763 ], [ 76.340477332762333, 14.523541535165325 ], [ 76.340580416564563, 14.523536163097457 ], [ 76.340945151810786, 14.523357092972761 ], [ 76.341351535383239, 14.523163434012513 ], [ 76.341608408711679, 14.523322463926952 ], [ 76.341664510210222, 14.523249577198278 ] ] ] } },
{ "type": "Feature", "properties": { "KGISWardID": 4411, "KGISWardCode": "1405003", "KGISWardName": null, "SHAPE.STArea()": 56019.619541735003, "SHAPE.STLength()": 1307.7642028179794, "OBJECTID": 17845, "KGISWardNo": "3", "KGISTownCode": "1405", "LGD_WardCode": 61503, "created_user": "SA", "created_date": 1634898537000, "last_edited_user": "SURESHBV1", "last_edited_date": 1692253993000, "_overlap_percent": 99.999999999999972, "_police_station": "Jagalur PS", "_police_feature_index": "209", "_admin_layer": "Ward", "_geometry_clipped": true }, "geometry": { "type": "Polygon", "coordinates": [ [ [ 76.33882632490311, 14.521012570966663 ], [ 76.3387788585637, 14.521284537374843 ], [ 76.338230276335935, 14.521198973420711 ], [ 76.338157676451544, 14.521630472770667 ], [ 76.338023608377583, 14.521615146630806 ], [ 76.337844637694744, 14.521591958255987 ], [ 76.337764649619317, 14.521885875224692 ], [ 76.337438864338409, 14.522809389561935 ], [ 76.337581122894719, 14.523358240765901 ], [ 76.337620549699267, 14.523510354708531 ], [ 76.337671393399333, 14.524395154315414 ], [ 76.337687457764787, 14.524882920777431 ], [ 76.337705182548163, 14.525228415178569 ], [ 76.338002364142184, 14.524774474970716 ], [ 76.338343914568185, 14.524413772426229 ], [ 76.338432227393568, 14.524299664409268 ], [ 76.338469460792084, 14.523856988989349 ], [ 76.338604943792134, 14.522911499420777 ], [ 76.339084431593804, 14.52303432491793 ], [ 76.339488226443322, 14.523178391441267 ], [ 76.339585135677552, 14.52288166556942 ], [ 76.339756230074684, 14.522296594759439 ], [ 76.339322117444226, 14.522243710684176 ], [ 76.339390514693378, 14.521370353570683 ], [ 76.339433233052958, 14.521136927603557 ], [ 76.33882632490311, 14.521012570966663 ] ] ] } },
{ "type": "Feature", "properties": { "KGISWardID": 4425, "KGISWardCode": "1405017", "KGISWardName": null, "SHAPE.STArea()": 2957486.4107612502, "SHAPE.STLength()": 11743.708832840135, "OBJECTID": 17859, "KGISWardNo": "17", "KGISTownCode": "1405", "LGD_WardCode": 1886860, "created_user": "SA", "created_date": 1634898537000, "last_edited_user": "SURESHBV1", "last_edited_date": 1692253993000, "_overlap_percent": 100.0, "_police_station": "Jagalur PS", "_police_feature_index": "209", "_admin_layer": "Ward", "_geometry_clipped": true }, "geometry": { "type": "Polygon", "coordinates": [ [ [ 76.326464216967253, 14.533221090901366 ], [ 76.327262668380456, 14.533044419953677 ], [ 76.328210555343432, 14.532726287139598 ], [ 76.329010168995595, 14.532534146423918 ], [ 76.330245535778786, 14.532353769068774 ], [ 76.330246428381713, 14.532579470925285 ], [ 76.330540571252229, 14.532599974004853 ], [ 76.331340864198566, 14.53255979916343 ], [ 76.33141930559826, 14.532452363561807 ], [ 76.332169658049196, 14.532390123245234 ], [ 76.332225344911691, 14.532244347590678 ], [ 76.332305435755515, 14.532033144913889 ], [ 76.33265792976313, 14.531611984579365 ], [ 76.333115870766406, 14.531532192446527 ], [ 76.333911428386912, 14.531681614812923 ], [ 76.334179387786293, 14.53174699045273 ], [ 76.334638867006319, 14.532039573402445 ], [ 76.334679117447649, 14.532065125558955 ], [ 76.334772021054334, 14.532150795616163 ], [ 76.33486357856016, 14.532235123709647 ], [ 76.334989100663776, 14.532350569084144 ], [ 76.335240059667782, 14.532234916220625 ], [ 76.335256306539776, 14.532165549052005 ], [ 76.33531314396474, 14.531920890233355 ], [ 76.335100307350672, 14.531729495032616 ], [ 76.335094473795493, 14.531469425763159 ], [ 76.335124540401196, 14.530943379038801 ], [ 76.335085677713749, 14.53074257422031 ], [ 76.335102856019688, 14.530653693747942 ], [ 76.335113129218598, 14.530600334199336 ], [ 76.33513265541697, 14.530498654974144 ], [ 76.335219333197685, 14.529920319839174 ], [ 76.335385544975495, 14.529078130581393 ], [ 76.335516969002157, 14.52874845577778 ], [ 76.335849853134022, 14.528145012663664 ], [ 76.335985074425835, 14.527932979639969 ], [ 76.336151845128185, 14.527814210982802 ], [ 76.336357428090849, 14.527641911819629 ], [ 76.336686912082442, 14.5273561301107 ], [ 76.336877384613288, 14.527249616202671 ], [ 76.337035056178522, 14.527161313852201 ], [ 76.337091740310726, 14.526447871607957 ], [ 76.337272529253468, 14.525890774411524 ], [ 76.337286844350871, 14.525868833607596 ], [ 76.337558377439123, 14.525452660442996 ], [ 76.337705182548163, 14.525228415178569 ], [ 76.337687457764787, 14.524882920777431 ], [ 76.337671393399333, 14.524395154315414 ], [ 76.337620549699267, 14.523510354708531 ], [ 76.337581122894719, 14.523358240765901 ], [ 76.337438864338409, 14.522809389561935 ], [ 76.337764649619317, 14.521885875224692 ], [ 76.337844637694744, 14.521591958255987 ], [ 76.338023608377583, 14.521615146630806 ], [ 76.338157676451544, 14.521630472770667 ], [ 76.338230276335935, 14.521198973420711 ], [ 76.338242067207332, 14.521128893026837 ], [ 76.338192158689282, 14.521122281625569 ], [ 76.337940123179422, 14.521057947776312 ], [ 76.337504141782972, 14.521024558878157 ], [ 76.337093446645099, 14.521113599747128 ], [ 76.336622470683466, 14.521385349613771 ], [ 76.33650291445386, 14.521406958179243 ], [ 76.336389655838246, 14.521455437590111 ], [ 76.336291957879212, 14.521539703104009 ], [ 76.336062085625812, 14.521588846803436 ], [ 76.335945021245379, 14.521309884968387 ], [ 76.335709311354435, 14.520488486614713 ], [ 76.335566755554169, 14.52026069278498 ], [ 76.335142025871704, 14.519851740421613 ], [ 76.334666476627618, 14.519156073053555 ], [ 76.334180365453847, 14.518336096189582 ], [ 76.3336927670547, 14.517267390612856 ], [ 76.333532096084411, 14.516675164229726 ], [ 76.333409157425024, 14.515824420855472 ], [ 76.33340560543833, 14.515231301142213 ], [ 76.333529367834572, 14.514580057288837 ], [ 76.333747637197575, 14.513927080274517 ], [ 76.334074546822507, 14.513209753717751 ], [ 76.334165633563941, 14.513009881572934 ], [ 76.334376858920805, 14.512410756966709 ], [ 76.334388076556777, 14.51223430456195 ], [ 76.334360682580126, 14.511861955399047 ], [ 76.3342514004256, 14.511446422115373 ], [ 76.334173232327785, 14.511306952091051 ], [ 76.333954682792111, 14.511092943436761 ], [ 76.333686267332254, 14.510931189377501 ], [ 76.333677495136357, 14.510925903240755 ], [ 76.33344522642173, 14.510880584959256 ], [ 76.333169371617714, 14.510935965908896 ], [ 76.332540823389891, 14.511129675360058 ], [ 76.332376017978177, 14.511281288037404 ], [ 76.332086869458251, 14.511577107888597 ], [ 76.331786265683746, 14.51180483040396 ], [ 76.331085625846555, 14.511643777674498 ], [ 76.330607258227474, 14.51170389121174 ], [ 76.329922762599224, 14.511779522236637 ], [ 76.327437114844685, 14.511155295376186 ], [ 76.326093895026517, 14.513879076253343 ], [ 76.325357183632605, 14.515495243583326 ], [ 76.327278810405247, 14.515793149389237 ], [ 76.326420368353965, 14.517179210730095 ], [ 76.326340568369417, 14.517308063132548 ], [ 76.326160243290033, 14.51759922804426 ], [ 76.326046597771494, 14.517834627445184 ], [ 76.325846352586936, 14.519975310569599 ], [ 76.324047487562595, 14.519582807976663 ], [ 76.323517525206483, 14.52071099740799 ], [ 76.324767780735783, 14.520828678852503 ], [ 76.325681462042041, 14.520882218392037 ], [ 76.326744163068525, 14.52096551629854 ], [ 76.328537125079734, 14.520823088437123 ], [ 76.329012520377759, 14.520863967011898 ], [ 76.329561503425452, 14.520762622719134 ], [ 76.329942252219951, 14.520754712129483 ], [ 76.329934238715467, 14.521980680833494 ], [ 76.329389940557604, 14.522025129702181 ], [ 76.32907002414531, 14.522018640261416 ], [ 76.329073008436637, 14.522054084250074 ], [ 76.329155380160387, 14.52304179584819 ], [ 76.32915724542633, 14.524026293621677 ], [ 76.328972746685906, 14.524665324551037 ], [ 76.328716169445897, 14.525636649439349 ], [ 76.327982848212329, 14.525602274330842 ], [ 76.325604702849262, 14.525428447853422 ], [ 76.324867466743598, 14.525268888344005 ], [ 76.32343476154864, 14.525022781381278 ], [ 76.322677521673739, 14.524721185452263 ], [ 76.32172650368625, 14.524244908354799 ], [ 76.321355710850384, 14.524113610625282 ], [ 76.320370925444294, 14.523752493809432 ], [ 76.320021926996716, 14.523600010009249 ], [ 76.319701979973203, 14.523392195048219 ], [ 76.319756332969149, 14.522344270069192 ], [ 76.318837564829764, 14.522324095748843 ], [ 76.318316328133946, 14.522305159977199 ], [ 76.318233800306018, 14.522873775171757 ], [ 76.318203384563162, 14.523199575885918 ], [ 76.317860670972635, 14.525772756767475 ], [ 76.317885984450129, 14.526932191706933 ], [ 76.319471635720433, 14.528201763693275 ], [ 76.321146253542693, 14.529726274995316 ], [ 76.322630918941528, 14.529746366684439 ], [ 76.322559112176236, 14.531436143206145 ], [ 76.321193888153729, 14.533298400653932 ], [ 76.320633604790373, 14.533149615014462 ], [ 76.319194733247514, 14.535446013807562 ], [ 76.32022516739444, 14.535750014868967 ], [ 76.320431078672655, 14.535814268760502 ], [ 76.320932046838522, 14.535987894759163 ], [ 76.321483481082083, 14.535779006209298 ], [ 76.321665334187927, 14.535709840947819 ], [ 76.32274510556735, 14.535296849614996 ], [ 76.32393172530584, 14.53486472625619 ], [ 76.324835425658691, 14.534304755414711 ], [ 76.325735479538324, 14.533951570729643 ], [ 76.325768965021311, 14.533634164831369 ], [ 76.326464216967253, 14.533221090901366 ] ] ] } },
{ "type": "Feature", "properties": { "KGISWardID": 4410, "KGISWardCode": "1405002", "KGISWardName": null, "SHAPE.STArea()": 111387.74522296, "SHAPE.STLength()": 1771.0046322376036, "OBJECTID": 17844, "KGISWardNo": "2", "KGISTownCode": "1405", "LGD_WardCode": 61502, "created_user": "SA", "created_date": 1634898537000, "last_edited_user": "SURESHBV1", "last_edited_date": 1692253993000, "_overlap_percent": 100.00000000000003, "_police_station": "Jagalur PS", "_police_feature_index": "209", "_admin_layer": "Ward", "_geometry_clipped": true }, "geometry": { "type": "Polygon", "coordinates": [ [ [ 76.341351535383239, 14.523163434012513 ], [ 76.340945151810786, 14.523357092972761 ], [ 76.340580416564563, 14.523536163097457 ], [ 76.340477332762333, 14.523541535165325 ], [ 76.340358943427589, 14.523451328649763 ], [ 76.340201200924781, 14.523349386923886 ], [ 76.339488226443322, 14.523178391441267 ], [ 76.339322972161497, 14.523684378077158 ], [ 76.339157498378185, 14.524235411161495 ], [ 76.338831948266488, 14.525214871650096 ], [ 76.338600126673214, 14.525960608413268 ], [ 76.338562258044306, 14.526335595662403 ], [ 76.338578511306295, 14.526331207329505 ], [ 76.338984819988696, 14.526171020824524 ], [ 76.339307475788914, 14.52617544489884 ], [ 76.339511739190257, 14.526105384880145 ], [ 76.339582484346366, 14.526104086676551 ], [ 76.33956651889703, 14.52624134302283 ], [ 76.339526947867355, 14.526571269452607 ], [ 76.339714244693468, 14.526561223993191 ], [ 76.339886234735019, 14.526601018849183 ], [ 76.339928327965978, 14.526450383073403 ], [ 76.340019784375585, 14.526444872403266 ], [ 76.340508541619343, 14.526356609691113 ], [ 76.340819121453308, 14.526183815985856 ], [ 76.341462710131196, 14.52593836344186 ], [ 76.341732319080776, 14.525893671926266 ], [ 76.342154629733358, 14.525821408996993 ], [ 76.342690272106324, 14.525783484282567 ], [ 76.342827414441487, 14.52576609164122 ], [ 76.34350566116629, 14.525741166836527 ], [ 76.343377844742363, 14.525172722691918 ], [ 76.343199045729321, 14.524553177780954 ], [ 76.343187766082607, 14.524514013149913 ], [ 76.342531565550416, 14.524536123996619 ], [ 76.341185633587642, 14.524756088388065 ], [ 76.341121662459486, 14.524325951003505 ], [ 76.341128959100161, 14.524009011593453 ], [ 76.341280832063632, 14.523748047145499 ], [ 76.341608408711679, 14.523322463926952 ], [ 76.341351535383239, 14.523163434012513 ] ] ] } },
{ "type": "Feature", "properties": { "KGISWardID": 4409, "KGISWardCode": "1405001", "KGISWardName": null, "SHAPE.STArea()": 48074.287996140003, "SHAPE.STLength()": 1170.6671685583126, "OBJECTID": 17843, "KGISWardNo": "1", "KGISTownCode": "1405", "LGD_WardCode": 61501, "created_user": "SA", "created_date": 1634898537000, "last_edited_user": "SURESHBV1", "last_edited_date": 1692253993000, "_overlap_percent": 100.0, "_police_station": "Jagalur PS", "_police_feature_index": "209", "_admin_layer": "Ward", "_geometry_clipped": true }, "geometry": { "type": "Polygon", "coordinates": [ [ [ 76.338600126673214, 14.525960608413268 ], [ 76.338831948266488, 14.525214871650096 ], [ 76.339157498378185, 14.524235411161495 ], [ 76.339322972161497, 14.523684378077158 ], [ 76.339488226443322, 14.523178391441267 ], [ 76.339084431593804, 14.52303432491793 ], [ 76.338604943792134, 14.522911499420777 ], [ 76.338469460792084, 14.523856988989349 ], [ 76.338432227393568, 14.524299664409268 ], [ 76.338343914568185, 14.524413772426229 ], [ 76.338002364142184, 14.524774474970716 ], [ 76.337705182548163, 14.525228415178569 ], [ 76.337558377439123, 14.525452660442996 ], [ 76.337286844350871, 14.525868833607596 ], [ 76.337272529253468, 14.525890774411524 ], [ 76.337091740310726, 14.526447871607957 ], [ 76.337035056178522, 14.527161313852201 ], [ 76.337455919104158, 14.527041645588449 ], [ 76.337765452134519, 14.526876876005769 ], [ 76.338193157159679, 14.526550110304036 ], [ 76.338352012442172, 14.526392362213803 ], [ 76.338562258044306, 14.526335595662403 ], [ 76.338600126673214, 14.525960608413268 ] ] ] } }
]
}
