{
"type": "FeatureCollection",
"name": "villages_in_police_area.writing_20260805_172659",
"crs": { "type": "name", "properties": { "name": "urn:ogc:def:crs:OGC:1.3:CRS84" } },
"features": [
{ "type": "Feature", "properties": { "OBJECTID": 29770, "KGISVillageID": 15721, "KGISVillageCode": "2957205542803162", "KGISVillageName": "Yadiyuru Nagasandra", "KGISHobliID": 1159, "UniqueVillageCode": "2957205542803162_98", "Bhucode": "200201004060", "CensusVillageCode": "2957205542803162", "BhoomiVillageCode": null, "created_user": null, "created_date": null, "last_edited_user": "SURESHBV2", "last_edited_date": 1724225878000.0, "LGDGPCode": " ", "LGDGPCode_Secondary": null, "Category": "Cadastral data available and has no bhoomi data", "SHAPE.STArea()": 1469363.7434858249, "SHAPE.STLength()": 7326.4755087709655, "LGD_VillageCode": 939497.0, "_overlap_percent": 20.538054115145801, "_police_station": "Basavanagudi PS", "_police_feature_index": "770", "_admin_layer": "Village", "_geometry_clipped": true }, "geometry": { "type": "Polygon", "coordinates": [ [ [ 77.566134117162136, 12.936136567843798 ], [ 77.566367637035256, 12.936943651089093 ], [ 77.566409624123722, 12.937097176533387 ], [ 77.566532955301909, 12.93753174922715 ], [ 77.566592451799295, 12.937669534819845 ], [ 77.566671437526651, 12.937697029972741 ], [ 77.566799138024834, 12.937637946327877 ], [ 77.567139199005254, 12.937614201911956 ], [ 77.567046836958852, 12.937736088312587 ], [ 77.567197083389004, 12.937987007812101 ], [ 77.567333667449091, 12.938215235039431 ], [ 77.567612191494106, 12.938278918635483 ], [ 77.568288507570173, 12.938316884150485 ], [ 77.568487823149496, 12.938145590926529 ], [ 77.568306105173548, 12.93760254365821 ], [ 77.567897126898444, 12.93761837289469 ], [ 77.567860030644951, 12.937377115019697 ], [ 77.568427547940942, 12.937434682829219 ], [ 77.568684695965814, 12.93736070631364 ], [ 77.568883800516645, 12.937303274498131 ], [ 77.56900063888223, 12.93755620587455 ], [ 77.569408080708087, 12.937358773521733 ], [ 77.569614699995512, 12.9373072624321 ], [ 77.570841485052838, 12.936999909424504 ], [ 77.57080271526435, 12.936795398777569 ], [ 77.571614237520933, 12.936629930163489 ], [ 77.571716498829915, 12.936701439803013 ], [ 77.571903447500318, 12.936661471136912 ], [ 77.571953329561182, 12.936437041621083 ], [ 77.572218820007478, 12.936594027292529 ], [ 77.572125385034866, 12.937081956889156 ], [ 77.572194924804222, 12.937336680034834 ], [ 77.572560323914914, 12.937293213878757 ], [ 77.573050663338762, 12.937179261214723 ], [ 77.573351259943919, 12.937153215087527 ], [ 77.573482946390541, 12.937141814794515 ], [ 77.57368507071773, 12.937052837390944 ], [ 77.574144774243379, 12.936965787303915 ], [ 77.574550404340258, 12.936843384476527 ], [ 77.574842400915614, 12.936832061129135 ], [ 77.575389768051508, 12.936688344573124 ], [ 77.575399781940177, 12.935230119868816 ], [ 77.57521960147433, 12.934640673240063 ], [ 77.573817395647822, 12.935167452582158 ], [ 77.573821978079266, 12.934774920723887 ], [ 77.573545652370655, 12.934830725518362 ], [ 77.573324446440282, 12.93487243437939 ], [ 77.573073157919495, 12.934899758821111 ], [ 77.572956377739615, 12.934907686932329 ], [ 77.572860872108194, 12.934913146470162 ], [ 77.572603031658517, 12.934919078162649 ], [ 77.571957999344448, 12.934948026960038 ], [ 77.571669720524199, 12.934961033823004 ], [ 77.571403987407095, 12.934822846809309 ], [ 77.571297244092733, 12.934863314202211 ], [ 77.571056299251211, 12.934878828719237 ], [ 77.570668699344992, 12.934961479627491 ], [ 77.570452386713171, 12.934766536473305 ], [ 77.568419419370557, 12.935062473518641 ], [ 77.568150781311971, 12.933738782590135 ], [ 77.568074278405319, 12.933351050854888 ], [ 77.567968688976578, 12.933036818611473 ], [ 77.566112352846517, 12.933442881224533 ], [ 77.566250989223803, 12.933901362062057 ], [ 77.566132598713793, 12.934112741969408 ], [ 77.566061374546351, 12.935006856652352 ], [ 77.566040920131599, 12.935952750824649 ], [ 77.566134117162136, 12.936136567843798 ] ] ] } },
{ "type": "Feature", "properties": { "OBJECTID": 29731, "KGISVillageID": 15682, "KGISVillageCode": "2957205542803162", "KGISVillageName": "Dasarahalli", "KGISHobliID": 1159, "UniqueVillageCode": "2957205542803162_94", "Bhucode": "200201004008", "CensusVillageCode": "2957205542803162", "BhoomiVillageCode": null, "created_user": null, "created_date": null, "last_edited_user": "SURESHBV2", "last_edited_date": 1724225878000.0, "LGDGPCode": " ", "LGDGPCode_Secondary": null, "Category": "Cadastral data available and has no bhoomi data", "SHAPE.STArea()": 259155.30922645499, "SHAPE.STLength()": 2238.0518258757884, "LGD_VillageCode": 939480.0, "_overlap_percent": 4.1732974775756579, "_police_station": "Basavanagudi PS", "_police_feature_index": "770", "_admin_layer": "Village", "_geometry_clipped": true }, "geometry": { "type": "Polygon", "coordinates": [ [ [ 77.575701939100242, 12.936866576765587 ], [ 77.575721833157289, 12.936992575742446 ], [ 77.575728570810043, 12.936990955252547 ], [ 77.575743812071238, 12.936987289371736 ], [ 77.575910642637609, 12.936947161583458 ], [ 77.575918348709465, 12.936947460384173 ], [ 77.577324040543488, 12.937001952208952 ], [ 77.577341396013978, 12.93700262537774 ], [ 77.577526864065447, 12.937009814727732 ], [ 77.5775309802154, 12.937023604009848 ], [ 77.577559289642252, 12.937118444512391 ], [ 77.577644193466156, 12.937144122245465 ], [ 77.578470596612732, 12.9370834002815 ], [ 77.579095297240144, 12.936888122296882 ], [ 77.579586458785684, 12.936768676420332 ], [ 77.577719225104545, 12.936744386538805 ], [ 77.575689426911381, 12.9367873336563 ], [ 77.575701939100242, 12.936866576765587 ] ] ] } },
{ "type": "Feature", "properties": { "OBJECTID": 29526, "KGISVillageID": 15158, "KGISVillageCode": "2957205542803162", "KGISVillageName": "Sunkenahalli", "KGISHobliID": 574, "UniqueVillageCode": "2957205542803162_72", "Bhucode": "200101004074", "CensusVillageCode": "2957205542803162", "BhoomiVillageCode": null, "created_user": null, "created_date": null, "last_edited_user": "SURESHBV2", "last_edited_date": 1724225919000.0, "LGDGPCode": " ", "LGDGPCode_Secondary": null, "Category": "Cadastral data available and has no bhoomi data", "SHAPE.STArea()": 1099474.6410761999, "SHAPE.STLength()": 7132.5413585797187, "LGD_VillageCode": 939473.0, "_overlap_percent": 17.111372622505034, "_police_station": "Basavanagudi PS", "_police_feature_index": "770", "_admin_layer": "Village", "_geometry_clipped": true }, "geometry": { "type": "MultiPolygon", "coordinates": [ [ [ [ 77.567918339775844, 12.943044043740626 ], [ 77.568580354137097, 12.942575638039745 ], [ 77.56872738350414, 12.942879848744127 ], [ 77.569669976030852, 12.942162801615217 ], [ 77.570374479886013, 12.942196665688844 ], [ 77.570679638579165, 12.942098606700753 ], [ 77.571106895870571, 12.942339411067646 ], [ 77.571214523729793, 12.941989673208241 ], [ 77.571025291177847, 12.941694811244259 ], [ 77.570524981884901, 12.941805179452322 ], [ 77.570036037973509, 12.940878274589936 ], [ 77.570329580954677, 12.940603238880618 ], [ 77.570259650335629, 12.940470328667443 ], [ 77.57027167415022, 12.940359047589705 ], [ 77.56990300936684, 12.940475987007073 ], [ 77.569799661959465, 12.940145267259815 ], [ 77.569669665187277, 12.94017021106051 ], [ 77.569693551430916, 12.939382569982252 ], [ 77.569135039406518, 12.939526452921958 ], [ 77.569131643188982, 12.939319715898538 ], [ 77.569440416482735, 12.938911016310289 ], [ 77.56950349949976, 12.93858195708639 ], [ 77.569242080618622, 12.938664038182656 ], [ 77.569178397406944, 12.938474947032271 ], [ 77.569135715684055, 12.93846953313775 ], [ 77.568624681703113, 12.939200892330232 ], [ 77.567990054638116, 12.939377462583371 ], [ 77.567358715163778, 12.939112354724866 ], [ 77.567150406754322, 12.939073297995103 ], [ 77.566854485242033, 12.939017909197524 ], [ 77.566793822834157, 12.938069953666577 ], [ 77.56683402900542, 12.938016900005344 ], [ 77.567046836958852, 12.937736088312587 ], [ 77.567139199005254, 12.937614201911956 ], [ 77.566799138024834, 12.937637946327877 ], [ 77.566671437526651, 12.937697029972741 ], [ 77.566592451799295, 12.937669534819845 ], [ 77.566532955301909, 12.93753174922715 ], [ 77.566409624123722, 12.937097176533387 ], [ 77.566367637035256, 12.936943651089093 ], [ 77.566134117162136, 12.936136567843798 ], [ 77.566040920131599, 12.935952750824649 ], [ 77.566015907101075, 12.937109453672887 ], [ 77.565907026706356, 12.939331796102934 ], [ 77.565922894655344, 12.939757392939278 ], [ 77.565949781985765, 12.939909586260407 ], [ 77.56598755805777, 12.940000689203815 ], [ 77.56602895918526, 12.940052230315059 ], [ 77.566075748965247, 12.940124046099555 ], [ 77.566169601727282, 12.940181846762647 ], [ 77.566324526887911, 12.940188226838091 ], [ 77.566494913135003, 12.940186549374799 ], [ 77.566647938032077, 12.940176008198401 ], [ 77.566671755271059, 12.940703165053797 ], [ 77.566721240558934, 12.94109455100846 ], [ 77.566725066665768, 12.941126753091938 ], [ 77.566727540090312, 12.941147566904545 ], [ 77.566771997669761, 12.941328949254579 ], [ 77.566848887232183, 12.941529210602614 ], [ 77.566998445355125, 12.941742308051619 ], [ 77.567492603017101, 12.942269349179474 ], [ 77.567648045715643, 12.942494810585556 ], [ 77.567685441334348, 12.942548649384854 ], [ 77.567781267686186, 12.942686611268881 ], [ 77.567844638888801, 12.942803435847052 ], [ 77.567841234069505, 12.943083910248504 ], [ 77.567918339775844, 12.943044043740626 ] ] ], [ [ [ 77.568201029706316, 12.945055616899317 ], [ 77.568798311033277, 12.944764919070007 ], [ 77.568777178832264, 12.944321911614901 ], [ 77.568993873217138, 12.94405500073821 ], [ 77.56863908790659, 12.943190220187757 ], [ 77.56825461141932, 12.943409457448695 ], [ 77.568292655752458, 12.943207375827189 ], [ 77.567838664004071, 12.943295621207735 ], [ 77.567834958937226, 12.943600828713766 ], [ 77.56780148719227, 12.945186733661012 ], [ 77.568201029706316, 12.945055616899317 ] ] ] ] } },
{ "type": "Feature", "properties": { "OBJECTID": 29509, "KGISVillageID": 15137, "KGISVillageCode": "2957205542803162", "KGISVillageName": "Lalbagh (Upparahalli)", "KGISHobliID": 574, "UniqueVillageCode": "2957205542803162_55", "Bhucode": "200101004059", "CensusVillageCode": "2957205542803162", "BhoomiVillageCode": null, "created_user": null, "created_date": null, "last_edited_user": "SURESHBV2", "last_edited_date": 1724225919000.0, "LGDGPCode": " ", "LGDGPCode_Secondary": null, "Category": "Cadastral data available and has no bhoomi data", "SHAPE.STArea()": 640351.81226163497, "SHAPE.STLength()": 5009.2570423327443, "LGD_VillageCode": 939456.0, "_overlap_percent": 0.49661640479412722, "_police_station": "Basavanagudi PS", "_police_feature_index": "770", "_admin_layer": "Village", "_geometry_clipped": true }, "geometry": { "type": "Polygon", "coordinates": [ [ [ 77.579905267871098, 12.946596334068889 ], [ 77.579880991701089, 12.947673422516282 ], [ 77.579872172148313, 12.948059748059956 ], [ 77.579868798641115, 12.948206824408846 ], [ 77.579865725533239, 12.948340410224496 ], [ 77.579909034862666, 12.948340853196351 ], [ 77.580040776359425, 12.948342200175334 ], [ 77.580068419171397, 12.948342287798845 ], [ 77.58007543741347, 12.948342309542726 ], [ 77.580102902438682, 12.948342396212919 ], [ 77.580105380335368, 12.948342404197156 ], [ 77.580118433262356, 12.948372619840969 ], [ 77.580103380604527, 12.948336501015394 ], [ 77.58010080793116, 12.948330328860388 ], [ 77.580089042488325, 12.9482941838024 ], [ 77.580079903328823, 12.948266107602507 ], [ 77.580078526950899, 12.948261880461851 ], [ 77.580073017855085, 12.94823880772849 ], [ 77.580068053608144, 12.948218017122084 ], [ 77.580062337557507, 12.948194078226853 ], [ 77.580061822554654, 12.948191921382842 ], [ 77.580050798700967, 12.9481208869597 ], [ 77.58004818312736, 12.948090235478706 ], [ 77.580046458002485, 12.948070026232813 ], [ 77.580045032856688, 12.948019006536558 ], [ 77.580045326435283, 12.947996701182248 ], [ 77.580046090945388, 12.947938627384483 ], [ 77.580014628129703, 12.946720370254592 ], [ 77.58002101165124, 12.946577874783568 ], [ 77.579905267871098, 12.946596334068889 ] ] ] } },
{ "type": "Feature", "properties": { "OBJECTID": 29525, "KGISVillageID": 15157, "KGISVillageCode": "2957205542803162", "KGISVillageName": "Sunkenahalli", "KGISHobliID": 574, "UniqueVillageCode": "2957205542803162_71", "Bhucode": "200101004074", "CensusVillageCode": "2957205542803162", "BhoomiVillageCode": null, "created_user": null, "created_date": null, "last_edited_user": "SURESHBV2", "last_edited_date": 1724225919000.0, "LGDGPCode": " ", "LGDGPCode_Secondary": null, "Category": "Cadastral data available and has no bhoomi data", "SHAPE.STArea()": 5839.3610050999996, "SHAPE.STLength()": 358.65731639632446, "LGD_VillageCode": 939473.0, "_overlap_percent": 32.760732588264027, "_police_station": "Basavanagudi PS", "_police_feature_index": "770", "_admin_layer": "Village", "_geometry_clipped": true }, "geometry": { "type": "Polygon", "coordinates": [ [ [ 77.567902542248902, 12.946742864173732 ], [ 77.567904042786282, 12.946005928042377 ], [ 77.568044584594446, 12.945952798610538 ], [ 77.568042391269429, 12.945795886831506 ], [ 77.567878418724888, 12.945709881382271 ], [ 77.567790485911175, 12.945707978853394 ], [ 77.567768458931909, 12.946751626127645 ], [ 77.567902542248902, 12.946742864173732 ] ] ] } },
{ "type": "Feature", "properties": { "OBJECTID": 29503, "KGISVillageID": 15130, "KGISVillageCode": "2957205542803162", "KGISVillageName": "Karanji Basavanahalli", "KGISHobliID": 574, "UniqueVillageCode": "2957205542803162_49", "Bhucode": "200101004053", "CensusVillageCode": "2957205542803162", "BhoomiVillageCode": null, "created_user": "SA", "created_date": 1556019584000.0, "last_edited_user": "SURESHBV2", "last_edited_date": 1724225919000.0, "LGDGPCode": " ", "LGDGPCode_Secondary": null, "Category": "Cadastral data available and has no bhoomi data", "SHAPE.STArea()": 109070.353731335, "SHAPE.STLength()": 2140.3760967797843, "LGD_VillageCode": 939446.0, "_overlap_percent": 96.762200855054786, "_police_station": "Basavanagudi PS", "_police_feature_index": "770", "_admin_layer": "Village", "_geometry_clipped": true }, "geometry": { "type": "Polygon", "coordinates": [ [ [ 77.579868798641115, 12.948206824408846 ], [ 77.579872172148313, 12.948059748059956 ], [ 77.579880991701089, 12.947673422516282 ], [ 77.579905267871098, 12.946596334068889 ], [ 77.58002101165124, 12.946577874783568 ], [ 77.580081924616294, 12.945218151690153 ], [ 77.580086626738009, 12.944861197255317 ], [ 77.580037392051437, 12.944532965240588 ], [ 77.577547301500061, 12.94459021280505 ], [ 77.57786819610881, 12.946318486099806 ], [ 77.578054839944031, 12.947602642256722 ], [ 77.578522906933031, 12.947936723081881 ], [ 77.577676293634497, 12.947814696330388 ], [ 77.577499042862271, 12.946283019686753 ], [ 77.576928260239825, 12.945377146567711 ], [ 77.577236643353416, 12.946857031004127 ], [ 77.577319419913977, 12.948100760958077 ], [ 77.577507975157928, 12.948166396614832 ], [ 77.577682767584633, 12.948227245406837 ], [ 77.577755849790876, 12.948234986706513 ], [ 77.578184674327517, 12.948208038895721 ], [ 77.578547347785076, 12.948294650589718 ], [ 77.578684193820777, 12.948307774752264 ], [ 77.579057349984737, 12.948249303265559 ], [ 77.57927148396621, 12.948069585846564 ], [ 77.579444689177947, 12.948283093451503 ], [ 77.579488053247758, 12.94833654735719 ], [ 77.579865725533239, 12.948340410224496 ], [ 77.579868798641115, 12.948206824408846 ] ] ] } },
{ "type": "Feature", "properties": { "OBJECTID": 29515, "KGISVillageID": 15144, "KGISVillageCode": "2957205542803162", "KGISVillageName": "Mavalli", "KGISHobliID": 574, "UniqueVillageCode": "2957205542803162_61", "Bhucode": "200101004064", "CensusVillageCode": "2957205542803162", "BhoomiVillageCode": null, "created_user": null, "created_date": null, "last_edited_user": "SURESHBV2", "last_edited_date": 1724225919000.0, "LGDGPCode": " ", "LGDGPCode_Secondary": null, "Category": "Cadastral data available and has no bhoomi data", "SHAPE.STArea()": 448967.17576998501, "SHAPE.STLength()": 3907.6996632351475, "LGD_VillageCode": 939461.0, "_overlap_percent": 0.49674284445165523, "_police_station": "Basavanagudi PS", "_police_feature_index": "770", "_admin_layer": "Village", "_geometry_clipped": true }, "geometry": { "type": "Polygon", "coordinates": [ [ [ 77.579444689177947, 12.948283093451503 ], [ 77.57927148396621, 12.948069585846564 ], [ 77.579057349984737, 12.948249303265559 ], [ 77.578684193820777, 12.948307774752264 ], [ 77.578547347785076, 12.948294650589718 ], [ 77.578184674327517, 12.948208038895721 ], [ 77.577755849790876, 12.948234986706513 ], [ 77.577682767584633, 12.948227245406837 ], [ 77.577507975157928, 12.948166396614832 ], [ 77.577506418313234, 12.948208567747164 ], [ 77.57751082309305, 12.948316311852228 ], [ 77.578317928839851, 12.94832457473823 ], [ 77.579376431813031, 12.948335405682762 ], [ 77.579488053247758, 12.94833654735719 ], [ 77.579444689177947, 12.948283093451503 ] ] ] } },
{ "type": "Feature", "properties": { "OBJECTID": 29486, "KGISVillageID": 15104, "KGISVillageCode": "2957205542803162", "KGISVillageName": "Guttahalli", "KGISHobliID": 574, "UniqueVillageCode": "2957205542803162_33", "Bhucode": "200101004034", "CensusVillageCode": "2957205542803162", "BhoomiVillageCode": null, "created_user": null, "created_date": null, "last_edited_user": "SURESHBV2", "last_edited_date": 1724225862000.0, "LGDGPCode": " ", "LGDGPCode_Secondary": null, "Category": "Cadastral data available and has no bhoomi data", "SHAPE.STArea()": 370126.93081563001, "SHAPE.STLength()": 3399.7305566598311, "LGD_VillageCode": 939439.0, "_overlap_percent": 2.7314503072053649, "_police_station": "Basavanagudi PS", "_police_feature_index": "770", "_admin_layer": "Village", "_geometry_clipped": true }, "geometry": { "type": "Polygon", "coordinates": [ [ [ 77.572424212923551, 12.94796792276837 ], [ 77.572335584170119, 12.947681711213654 ], [ 77.572311379308502, 12.947605463198363 ], [ 77.572205109790616, 12.947609366374433 ], [ 77.571916929670735, 12.947622175453722 ], [ 77.571689523952571, 12.947557030005452 ], [ 77.571612216467813, 12.94769524855279 ], [ 77.571663974085666, 12.947858423947325 ], [ 77.571324387540741, 12.94787690125122 ], [ 77.571146189561318, 12.947866130839817 ], [ 77.570914017983611, 12.947852100222418 ], [ 77.57083195625458, 12.947739344370671 ], [ 77.570610958287688, 12.948225724168239 ], [ 77.571744810877689, 12.948244412142996 ], [ 77.572075022998987, 12.94824985164289 ], [ 77.572399254764846, 12.948255191812891 ], [ 77.572424212923551, 12.94796792276837 ] ] ] } },
{ "type": "Feature", "properties": { "OBJECTID": 31730, "KGISVillageID": 30092, "KGISVillageCode": "2957205542803162", "KGISVillageName": "Bbmp", "KGISHobliID": 574, "UniqueVillageCode": "2957205542803162_111", "Bhucode": null, "CensusVillageCode": "2957205542803162", "BhoomiVillageCode": null, "created_user": "SURESHBV1", "created_date": 1692267586000.0, "last_edited_user": "SURESHBV2", "last_edited_date": 1739169963000.0, "LGDGPCode": " ", "LGDGPCode_Secondary": null, "Category": "No cadastral data and has no bhoomi data", "SHAPE.STArea()": 29741477.92150493, "SHAPE.STLength()": 79377.51443618242, "LGD_VillageCode": null, "_overlap_percent": 4.7840361307637567, "_police_station": "Basavanagudi PS", "_police_feature_index": "770", "_admin_layer": "Village", "_geometry_clipped": true }, "geometry": { "type": "Polygon", "coordinates": [ [ [ 77.568292655752458, 12.943207375827189 ], [ 77.56825461141932, 12.943409457448695 ], [ 77.56863908790659, 12.943190220187757 ], [ 77.568993873217138, 12.94405500073821 ], [ 77.568777178832264, 12.944321911614901 ], [ 77.568798311033277, 12.944764919070007 ], [ 77.568201029706316, 12.945055616899317 ], [ 77.56780148719227, 12.945186733661012 ], [ 77.567790485911175, 12.945707978853394 ], [ 77.567878418724888, 12.945709881382271 ], [ 77.568042391269429, 12.945795886831506 ], [ 77.568044584594446, 12.945952798610538 ], [ 77.567904042786282, 12.946005928042377 ], [ 77.567902542248902, 12.946742864173732 ], [ 77.567768458931909, 12.946751626127645 ], [ 77.567757780700134, 12.947257565110604 ], [ 77.56777387553835, 12.948178963829838 ], [ 77.570610958287688, 12.948225724168239 ], [ 77.57083195625458, 12.947739344370671 ], [ 77.570914017983611, 12.947852100222418 ], [ 77.571146189561318, 12.947866130839817 ], [ 77.571324387540741, 12.94787690125122 ], [ 77.571663974085666, 12.947858423947325 ], [ 77.571612216467813, 12.94769524855279 ], [ 77.571689523952571, 12.947557030005452 ], [ 77.571916929670735, 12.947622175453722 ], [ 77.572205109790616, 12.947609366374433 ], [ 77.572311379308502, 12.947605463198363 ], [ 77.572335584170119, 12.947681711213654 ], [ 77.572424212923551, 12.94796792276837 ], [ 77.572399254764846, 12.948255191812891 ], [ 77.57371646905645, 12.948276886628094 ], [ 77.573724564374174, 12.948277022579715 ], [ 77.573736641483023, 12.948277225802187 ], [ 77.573751492567894, 12.948277474799372 ], [ 77.573772825808632, 12.948277833220232 ], [ 77.573785992793788, 12.948278054583783 ], [ 77.573791193442929, 12.948278142336955 ], [ 77.573801111981737, 12.948278309060528 ], [ 77.576301195447101, 12.948303927503625 ], [ 77.576562941651318, 12.948306607914402 ], [ 77.57667339221652, 12.948307738936986 ], [ 77.576680101455267, 12.948307807194418 ], [ 77.57751082309305, 12.948316311852228 ], [ 77.577506418313234, 12.948208567747164 ], [ 77.577507975157928, 12.948166396614832 ], [ 77.577319419913977, 12.948100760958077 ], [ 77.577236643353416, 12.946857031004127 ], [ 77.576928260239825, 12.945377146567711 ], [ 77.577499042862271, 12.946283019686753 ], [ 77.577676293634497, 12.947814696330388 ], [ 77.578522906933031, 12.947936723081881 ], [ 77.578054839944031, 12.947602642256722 ], [ 77.57786819610881, 12.946318486099806 ], [ 77.577547301500061, 12.94459021280505 ], [ 77.580037392051437, 12.944532965240588 ], [ 77.580086626738009, 12.944861197255317 ], [ 77.580102572223865, 12.943650719894414 ], [ 77.58007285573504, 12.940625926358607 ], [ 77.580044437808667, 12.937732615808216 ], [ 77.580035029135715, 12.936774511641049 ], [ 77.579586458785684, 12.936768676420332 ], [ 77.579095297240144, 12.936888122296882 ], [ 77.578470596612732, 12.9370834002815 ], [ 77.577644193466156, 12.937144122245465 ], [ 77.577559289642252, 12.937118444512391 ], [ 77.5775309802154, 12.937023604009848 ], [ 77.577526864065447, 12.937009814727732 ], [ 77.577341396013978, 12.93700262537774 ], [ 77.577324040543488, 12.937001952208952 ], [ 77.575918348709465, 12.936947460384173 ], [ 77.575910642637609, 12.936947161583458 ], [ 77.575743812071238, 12.936987289371736 ], [ 77.575728570810043, 12.936990955252547 ], [ 77.575721833157289, 12.936992575742446 ], [ 77.575701939100242, 12.936866576765587 ], [ 77.575689426911381, 12.9367873336563 ], [ 77.575389044630924, 12.936793689240385 ], [ 77.575389768051508, 12.936688344573124 ], [ 77.574842400915614, 12.936832061129135 ], [ 77.574550404340258, 12.936843384476527 ], [ 77.574144774243379, 12.936965787303915 ], [ 77.57368507071773, 12.937052837390944 ], [ 77.573482946390541, 12.937141814794515 ], [ 77.573351259943919, 12.937153215087527 ], [ 77.573050663338762, 12.937179261214723 ], [ 77.572560323914914, 12.937293213878757 ], [ 77.572194924804222, 12.937336680034834 ], [ 77.572125385034866, 12.937081956889156 ], [ 77.572218820007478, 12.936594027292529 ], [ 77.571953329561182, 12.936437041621083 ], [ 77.571903447500318, 12.936661471136912 ], [ 77.571716498829915, 12.936701439803013 ], [ 77.571614237520933, 12.936629930163489 ], [ 77.57080271526435, 12.936795398777569 ], [ 77.570841485052838, 12.936999909424504 ], [ 77.569614699995512, 12.9373072624321 ], [ 77.569408080708087, 12.937358773521733 ], [ 77.56900063888223, 12.93755620587455 ], [ 77.568883800516645, 12.937303274498131 ], [ 77.568684695965814, 12.93736070631364 ], [ 77.568427547940942, 12.937434682829219 ], [ 77.567860030644951, 12.937377115019697 ], [ 77.567897126898444, 12.93761837289469 ], [ 77.568306105173548, 12.93760254365821 ], [ 77.568487823149496, 12.938145590926529 ], [ 77.568288507570173, 12.938316884150485 ], [ 77.567612191494106, 12.938278918635483 ], [ 77.567333667449091, 12.938215235039431 ], [ 77.567197083389004, 12.937987007812101 ], [ 77.567046836958852, 12.937736088312587 ], [ 77.56683402900542, 12.938016900005344 ], [ 77.566793822834157, 12.938069953666577 ], [ 77.566854485242033, 12.939017909197524 ], [ 77.567150406754322, 12.939073297995103 ], [ 77.567358715163778, 12.939112354724866 ], [ 77.567990054638116, 12.939377462583371 ], [ 77.568624681703113, 12.939200892330232 ], [ 77.569135715684055, 12.93846953313775 ], [ 77.569178397406944, 12.938474947032271 ], [ 77.569242080618622, 12.938664038182656 ], [ 77.56950349949976, 12.93858195708639 ], [ 77.569440416482735, 12.938911016310289 ], [ 77.569131643188982, 12.939319715898538 ], [ 77.569135039406518, 12.939526452921958 ], [ 77.569693551430916, 12.939382569982252 ], [ 77.569669665187277, 12.94017021106051 ], [ 77.569799661959465, 12.940145267259815 ], [ 77.56990300936684, 12.940475987007073 ], [ 77.57027167415022, 12.940359047589705 ], [ 77.570259650335629, 12.940470328667443 ], [ 77.570329580954677, 12.940603238880618 ], [ 77.570036037973509, 12.940878274589936 ], [ 77.570524981884901, 12.941805179452322 ], [ 77.571025291177847, 12.941694811244259 ], [ 77.571214523729793, 12.941989673208241 ], [ 77.571106895870571, 12.942339411067646 ], [ 77.570679638579165, 12.942098606700753 ], [ 77.570374479886013, 12.942196665688844 ], [ 77.569669976030852, 12.942162801615217 ], [ 77.56872738350414, 12.942879848744127 ], [ 77.568580354137097, 12.942575638039745 ], [ 77.567918339775844, 12.943044043740626 ], [ 77.567841234069505, 12.943083910248504 ], [ 77.567838664004071, 12.943295621207735 ], [ 77.568292655752458, 12.943207375827189 ] ] ] } }
]
}
