{
"type": "FeatureCollection",
"name": "hoblis_in_police_area.writing_20260805_172659",
"crs": { "type": "name", "properties": { "name": "urn:ogc:def:crs:OGC:1.3:CRS84" } },
"features": [
{ "type": "Feature", "properties": { "OBJECTID": 1016, "KGISHobliID": 919, "KGISHobliCode": "230815", "KGISHobliName": "Shravanabelagola", "BhuCodeHobli": null, "SHAPE.STArea()": 153899851.46362644, "SHAPE.STLength()": 88405.130075403213, "KGISTalukCode": "2308", "created_user": null, "created_date": null, "last_edited_user": "USER", "last_edited_date": 1688709899000.0, "_overlap_percent": 0.027853460373547485, "_police_station": "Channarayapatna Town PS", "_police_feature_index": "449", "_admin_layer": "Hobli", "_geometry_clipped": true }, "geometry": { "type": "MultiPolygon", "coordinates": [ [ [ [ 76.490826143136147, 12.923288845145184 ], [ 76.490652814187882, 12.923216121537539 ], [ 76.490558055455537, 12.923172520167107 ], [ 76.490220067049449, 12.923019310277564 ], [ 76.49000752959806, 12.922921097613509 ], [ 76.489362945409042, 12.922612157179572 ], [ 76.488779762853483, 12.922332646317594 ], [ 76.48834178416611, 12.922225352991999 ], [ 76.487842524613441, 12.922193526904497 ], [ 76.486542044369358, 12.922141935421845 ], [ 76.486300458139283, 12.922112371577892 ], [ 76.486342319972749, 12.922217768120744 ], [ 76.486604110123466, 12.922245738419058 ], [ 76.487897393305218, 12.922283951554729 ], [ 76.488393630403152, 12.92231238575858 ], [ 76.48882805381416, 12.92241719878348 ], [ 76.489404872765306, 12.922694021149923 ], [ 76.490042584950118, 12.923000793097582 ], [ 76.490252964726764, 12.923098487390471 ], [ 76.490587624368843, 12.923251059018002 ], [ 76.490681449658226, 12.923294521062839 ], [ 76.490849997874832, 12.923365674083502 ], [ 76.49083677482075, 12.923316524976787 ], [ 76.490826143136147, 12.923288845145184 ] ] ], [ [ [ 76.479884906576729, 12.910541525739347 ], [ 76.47991246356078, 12.910563118241999 ], [ 76.480086091567202, 12.910698995875912 ], [ 76.483022094334927, 12.913036422089222 ], [ 76.48319920785265, 12.913161455676608 ], [ 76.483740253076604, 12.914309041489213 ], [ 76.483805342491621, 12.914443870911979 ], [ 76.484176064820289, 12.915198634352667 ], [ 76.48447285121145, 12.9166083700598 ], [ 76.485235580651292, 12.91924476505257 ], [ 76.485237260948878, 12.919249798924934 ], [ 76.485423269712825, 12.919762921159313 ], [ 76.485736159533445, 12.920515679195566 ], [ 76.485884732727925, 12.92089816319857 ], [ 76.485870149488719, 12.920839078357742 ], [ 76.485726420346182, 12.920438382786608 ], [ 76.485443170619575, 12.919695456218321 ], [ 76.485280458397852, 12.919189492295253 ], [ 76.485278856741431, 12.919184510408108 ], [ 76.484614573462665, 12.916587064638151 ], [ 76.484237902836568, 12.915114198162287 ], [ 76.483865171963487, 12.914370447028409 ], [ 76.483799162759041, 12.914238729902383 ], [ 76.483239688758587, 12.913122335684815 ], [ 76.483050811900952, 12.912995170350623 ], [ 76.480110042006601, 12.910675554100441 ], [ 76.479941301640622, 12.910542450315457 ], [ 76.479914472461473, 12.910521290328875 ], [ 76.477441617487671, 12.90798821652564 ], [ 76.47742258733129, 12.907987557253861 ], [ 76.479884906576729, 12.910541525739347 ] ] ], [ [ [ 76.466031729538244, 12.902758975525662 ], [ 76.466338839471831, 12.903319822682743 ], [ 76.467020029776208, 12.904453709040919 ], [ 76.46704516563797, 12.904497991046355 ], [ 76.467284076130881, 12.904918274200964 ], [ 76.467324917510624, 12.904990003257256 ], [ 76.46756915189944, 12.905418204213078 ], [ 76.467645400418121, 12.905551655478096 ], [ 76.468166821518338, 12.906460236787948 ], [ 76.468660600840622, 12.907313965680672 ], [ 76.468742200788185, 12.907454313844552 ], [ 76.470566488522721, 12.907684640626121 ], [ 76.470772527052674, 12.907736186048227 ], [ 76.4717183540603, 12.907786101299928 ], [ 76.472312099796113, 12.907817992457367 ], [ 76.473719541618649, 12.907890478456418 ], [ 76.474762278434227, 12.907937476741616 ], [ 76.475171793988309, 12.907948916910632 ], [ 76.475264574643774, 12.907951085441425 ], [ 76.476007209301088, 12.907938523563706 ], [ 76.475322269652608, 12.907914794836975 ], [ 76.475228298470157, 12.90790949885373 ], [ 76.474813196533731, 12.90788610134922 ], [ 76.473753691670083, 12.907826379866318 ], [ 76.472330887250351, 12.90774918116653 ], [ 76.471732261124899, 12.907719956310427 ], [ 76.470780563351042, 12.907677313411364 ], [ 76.470573774557664, 12.90762826004171 ], [ 76.468761558284598, 12.907414939460995 ], [ 76.46868236125745, 12.90727719490836 ], [ 76.468199625997201, 12.906437575278945 ], [ 76.467683965360919, 12.905540683992841 ], [ 76.467608074561667, 12.905408685283852 ], [ 76.467364238128596, 12.904984576395645 ], [ 76.467323357066192, 12.904913471335803 ], [ 76.467083638425336, 12.904496523129165 ], [ 76.467058362496047, 12.904452559221365 ], [ 76.466370271151007, 12.903324125795097 ], [ 76.466057503422221, 12.902764304813129 ], [ 76.465004097523149, 12.900934924965057 ], [ 76.466031729538244, 12.902758975525662 ] ] ], [ [ [ 76.460976792129841, 12.899676587918629 ], [ 76.462646121559715, 12.899176587136962 ], [ 76.463523829919708, 12.898652210230782 ], [ 76.463496571057377, 12.898611279941719 ], [ 76.462612335024488, 12.899161339158718 ], [ 76.460951797364785, 12.89967412668469 ], [ 76.460714910520764, 12.899658064513844 ], [ 76.460976792129841, 12.899676587918629 ] ] ], [ [ [ 76.456829682538654, 12.896806725783451 ], [ 76.456874021378795, 12.896805695095845 ], [ 76.456991092788456, 12.896802949175681 ], [ 76.456990089134479, 12.896800466273259 ], [ 76.456867694764739, 12.896804022644822 ], [ 76.456829110234949, 12.896805138801835 ], [ 76.456829682538654, 12.896806725783451 ] ] ], [ [ [ 76.454945558181819, 12.889733698982445 ], [ 76.455136188336994, 12.890539995135292 ], [ 76.455150741061601, 12.890611249139253 ], [ 76.455172305274786, 12.890716939670481 ], [ 76.455346270000433, 12.891570877494267 ], [ 76.455763953963626, 12.892928698659967 ], [ 76.455953217601959, 12.893271379141053 ], [ 76.456174436703861, 12.894065739595295 ], [ 76.456277414716652, 12.894535730353127 ], [ 76.456180671900199, 12.894065001573475 ], [ 76.455976047280544, 12.893269721623978 ], [ 76.45579744761848, 12.892926485534293 ], [ 76.455398615543515, 12.891567906906641 ], [ 76.455202117489947, 12.890715076179355 ], [ 76.455177777105106, 12.890609433631239 ], [ 76.455161362121061, 12.890538191791117 ], [ 76.454949828529124, 12.88973086104682 ], [ 76.454905609643816, 12.889530640357041 ], [ 76.454945558181819, 12.889733698982445 ] ] ], [ [ [ 76.444426668616529, 12.887854590422807 ], [ 76.445178407557478, 12.88744789289478 ], [ 76.445313362696481, 12.887373690025385 ], [ 76.44560512535493, 12.887214328773874 ], [ 76.44622302126254, 12.886882407617396 ], [ 76.448001533551377, 12.886504410344278 ], [ 76.452143362970517, 12.885261243980063 ], [ 76.452123475863999, 12.88524072341651 ], [ 76.452104801264809, 12.885208874526263 ], [ 76.447958618391496, 12.886498104410723 ], [ 76.446205791702809, 12.886879711184982 ], [ 76.445592468034391, 12.887210649699959 ], [ 76.445299181330569, 12.887368901080503 ], [ 76.445162753956907, 12.88744251180141 ], [ 76.444412054443674, 12.887847568686563 ], [ 76.444426668616529, 12.887854590422807 ] ] ], [ [ [ 76.432811750023546, 12.875704256654121 ], [ 76.432812178015752, 12.875790783865918 ], [ 76.432779071287953, 12.87607100077455 ], [ 76.432931597683137, 12.876729144875371 ], [ 76.432969176690477, 12.87687554036061 ], [ 76.433125197360965, 12.877479670477644 ], [ 76.433209435207473, 12.877801683028983 ], [ 76.433268917842753, 12.878025483140656 ], [ 76.433328900286583, 12.878247707489043 ], [ 76.433446346461253, 12.878682296140166 ], [ 76.433569825874599, 12.879241352867611 ], [ 76.433603564199132, 12.87926538610941 ], [ 76.434248230164172, 12.879823677734285 ], [ 76.435850997600795, 12.8812309270096 ], [ 76.437579145232931, 12.882800416288692 ], [ 76.437653693701776, 12.882867984964694 ], [ 76.438755002559205, 12.883880026569514 ], [ 76.442369083781216, 12.886930285640947 ], [ 76.444070584757327, 12.887683501236694 ], [ 76.444157738079795, 12.887725376178853 ], [ 76.444058119667162, 12.887675259348031 ], [ 76.442419591765031, 12.886850921915718 ], [ 76.438858282295655, 12.883779924553441 ], [ 76.437748644491805, 12.882823787695934 ], [ 76.437673544688678, 12.88275907607124 ], [ 76.435921523827844, 12.881216463829691 ], [ 76.434262832897687, 12.879755401888158 ], [ 76.433587360049728, 12.879161431641467 ], [ 76.43355195067204, 12.879135531692221 ], [ 76.433440850814648, 12.878601394412863 ], [ 76.43333177960217, 12.878183963498342 ], [ 76.433275884938325, 12.877970045553344 ], [ 76.433219292459896, 12.877753464531516 ], [ 76.433137219830343, 12.877439363001058 ], [ 76.432982115854699, 12.87684574709664 ], [ 76.43294439733279, 12.876701393662016 ], [ 76.432790155794876, 12.876050813875839 ], [ 76.432822575663607, 12.875772477476582 ], [ 76.432821809348241, 12.875686572275521 ], [ 76.432808989112914, 12.874249569742467 ], [ 76.432811750023546, 12.875704256654121 ] ] ], [ [ [ 76.42536310506415, 12.857424584443471 ], [ 76.425366061692898, 12.857459512669307 ], [ 76.425368902011797, 12.857493066166059 ], [ 76.425367540917307, 12.857380074043135 ], [ 76.425362370920126, 12.857382012967976 ], [ 76.42536310506415, 12.857424584443471 ] ] ] ] } },
{ "type": "Feature", "properties": { "OBJECTID": 473, "KGISHobliID": 489, "KGISHobliCode": "230811", "KGISHobliName": "Kasaba", "BhuCodeHobli": null, "SHAPE.STArea()": 151498051.22572803, "SHAPE.STLength()": 99521.17112868902, "KGISTalukCode": "2308", "created_user": null, "created_date": null, "last_edited_user": "SA", "last_edited_date": 1604987928000.0, "_overlap_percent": 91.05645322219587, "_police_station": "Channarayapatna Town PS", "_police_feature_index": "449", "_admin_layer": "Hobli", "_geometry_clipped": true }, "geometry": { "type": "Polygon", "coordinates": [ [ [ 76.483556546827032, 12.93965669883157 ], [ 76.485574839348487, 12.939479902101048 ], [ 76.487282559887078, 12.939302311049399 ], [ 76.490967120770449, 12.938928300504072 ], [ 76.492066003262934, 12.938820693669818 ], [ 76.493844616771227, 12.93854689542292 ], [ 76.493846157026496, 12.938433444850819 ], [ 76.493849373216904, 12.938207658460227 ], [ 76.493887879243587, 12.938103718668529 ], [ 76.49390702164861, 12.937933855465177 ], [ 76.49408185106482, 12.93737096268778 ], [ 76.49424427588005, 12.936559844424421 ], [ 76.494119813322186, 12.935971130087845 ], [ 76.494017415698508, 12.935700796563859 ], [ 76.493833960608768, 12.934722163018696 ], [ 76.493637517087421, 12.933704355506169 ], [ 76.493483309701162, 12.932813682815404 ], [ 76.493473126195084, 12.9327824663839 ], [ 76.493217516726972, 12.931980090433484 ], [ 76.492997006980886, 12.931198596262906 ], [ 76.492769053028965, 12.930456773785673 ], [ 76.492678002512889, 12.930233800818295 ], [ 76.492400596559122, 12.929384154105607 ], [ 76.492213002801634, 12.928802826390321 ], [ 76.492177592074, 12.928707964317329 ], [ 76.492119396301646, 12.928551819328616 ], [ 76.491822662231229, 12.927455339293804 ], [ 76.491574109731488, 12.926550184102126 ], [ 76.491372808308597, 12.925757930184883 ], [ 76.491169743661587, 12.924795687104206 ], [ 76.490986489800605, 12.923943375659437 ], [ 76.490873675226311, 12.923453681034617 ], [ 76.490849997874832, 12.923365674083502 ], [ 76.490681449658226, 12.923294521062839 ], [ 76.490587624368843, 12.923251059018002 ], [ 76.490252964726764, 12.923098487390471 ], [ 76.490042584950118, 12.923000793097582 ], [ 76.489404872765306, 12.922694021149923 ], [ 76.48882805381416, 12.92241719878348 ], [ 76.488393630403152, 12.92231238575858 ], [ 76.487897393305218, 12.922283951554729 ], [ 76.486604110123466, 12.922245738419058 ], [ 76.486342319972749, 12.922217768120744 ], [ 76.486300458139283, 12.922112371577892 ], [ 76.486278854252205, 12.922109727826442 ], [ 76.486027788357234, 12.921439348814184 ], [ 76.485957207806848, 12.921196255790251 ], [ 76.485946153403248, 12.921147012632744 ], [ 76.485884732727925, 12.92089816319857 ], [ 76.485736159533445, 12.920515679195566 ], [ 76.485423269712825, 12.919762921159313 ], [ 76.485237260948878, 12.919249798924934 ], [ 76.485235580651292, 12.91924476505257 ], [ 76.48447285121145, 12.9166083700598 ], [ 76.484176064820289, 12.915198634352667 ], [ 76.483805342491621, 12.914443870911979 ], [ 76.483740253076604, 12.914309041489213 ], [ 76.48319920785265, 12.913161455676608 ], [ 76.483022094334927, 12.913036422089222 ], [ 76.480086091567202, 12.910698995875912 ], [ 76.47991246356078, 12.910563118241999 ], [ 76.479884906576729, 12.910541525739347 ], [ 76.47742258733129, 12.907987557253861 ], [ 76.476007209301088, 12.907938523563706 ], [ 76.475264574643774, 12.907951085441425 ], [ 76.475171793988309, 12.907948916910632 ], [ 76.474762278434227, 12.907937476741616 ], [ 76.473719541618649, 12.907890478456418 ], [ 76.472312099796113, 12.907817992457367 ], [ 76.4717183540603, 12.907786101299928 ], [ 76.470772527052674, 12.907736186048227 ], [ 76.470566488522721, 12.907684640626121 ], [ 76.468742200788185, 12.907454313844552 ], [ 76.468660600840622, 12.907313965680672 ], [ 76.468166821518338, 12.906460236787948 ], [ 76.467645400418121, 12.905551655478096 ], [ 76.46756915189944, 12.905418204213078 ], [ 76.467324917510624, 12.904990003257256 ], [ 76.467284076130881, 12.904918274200964 ], [ 76.46704516563797, 12.904497991046355 ], [ 76.467020029776208, 12.904453709040919 ], [ 76.466338839471831, 12.903319822682743 ], [ 76.466031729538244, 12.902758975525662 ], [ 76.465004097523149, 12.900934924965057 ], [ 76.464810781691639, 12.900584620593621 ], [ 76.463523829919708, 12.898652210230782 ], [ 76.462646121559715, 12.899176587136962 ], [ 76.460976792129841, 12.899676587918629 ], [ 76.460714910520764, 12.899658064513844 ], [ 76.459652582287873, 12.899586033086171 ], [ 76.458067426007673, 12.899490276269486 ], [ 76.457825645942492, 12.898867519319294 ], [ 76.456991092788456, 12.896802949175681 ], [ 76.456874021378795, 12.896805695095845 ], [ 76.456829682538654, 12.896806725783451 ], [ 76.456829110234949, 12.896805138801835 ], [ 76.456824310983308, 12.896805277632563 ], [ 76.456532297348616, 12.89599640889003 ], [ 76.456455125541211, 12.895400349212931 ], [ 76.456284389294296, 12.894569667078784 ], [ 76.456277414716652, 12.894535730353127 ], [ 76.456174436703861, 12.894065739595295 ], [ 76.455953217601959, 12.893271379141053 ], [ 76.455763953963626, 12.892928698659967 ], [ 76.455346270000433, 12.891570877494267 ], [ 76.455172305274786, 12.890716939670481 ], [ 76.455150741061601, 12.890611249139253 ], [ 76.455136188336994, 12.890539995135292 ], [ 76.454945558181819, 12.889733698982445 ], [ 76.454905609643816, 12.889530640357041 ], [ 76.454713401671484, 12.888660333189849 ], [ 76.454126936529832, 12.887307981624405 ], [ 76.45265954612529, 12.885793868935993 ], [ 76.452143362970517, 12.885261243980063 ], [ 76.448001533551377, 12.886504410344278 ], [ 76.44622302126254, 12.886882407617396 ], [ 76.44560512535493, 12.887214328773874 ], [ 76.445313362696481, 12.887373690025385 ], [ 76.445178407557478, 12.88744789289478 ], [ 76.444426668616529, 12.887854590422807 ], [ 76.444412054443674, 12.887847568686563 ], [ 76.444406538736743, 12.887850544810869 ], [ 76.444157738079795, 12.887725376178853 ], [ 76.444070584757327, 12.887683501236694 ], [ 76.442369083781216, 12.886930285640947 ], [ 76.438755002559205, 12.883880026569514 ], [ 76.437653693701776, 12.882867984964694 ], [ 76.437579145232931, 12.882800416288692 ], [ 76.435850997600795, 12.8812309270096 ], [ 76.434248230164172, 12.879823677734285 ], [ 76.433603564199132, 12.87926538610941 ], [ 76.433569825874599, 12.879241352867611 ], [ 76.433446346461253, 12.878682296140166 ], [ 76.433328900286583, 12.878247707489043 ], [ 76.433268917842753, 12.878025483140656 ], [ 76.433209435207473, 12.877801683028983 ], [ 76.433125197360965, 12.877479670477644 ], [ 76.432969176690477, 12.87687554036061 ], [ 76.432931597683137, 12.876729144875371 ], [ 76.432779071287953, 12.87607100077455 ], [ 76.432812178015752, 12.875790783865918 ], [ 76.432811750023546, 12.875704256654121 ], [ 76.432808989112914, 12.874249569742467 ], [ 76.432802795641194, 12.873555352020627 ], [ 76.432791631943971, 12.872727730193557 ], [ 76.432778328885803, 12.871741562301617 ], [ 76.43277766021113, 12.871691963958403 ], [ 76.432776828982043, 12.87163029145257 ], [ 76.432780095591212, 12.871405117330223 ], [ 76.432790731159812, 12.87067214053987 ], [ 76.432791258374166, 12.870635823004122 ], [ 76.432791481086682, 12.870455828750591 ], [ 76.432323802474059, 12.87034794191448 ], [ 76.430761984380453, 12.870564961516012 ], [ 76.430538191327358, 12.870523513017512 ], [ 76.430430968501398, 12.870100321042463 ], [ 76.430317542698432, 12.869634791160619 ], [ 76.429681434802802, 12.869268504036247 ], [ 76.429467235136784, 12.86894422840281 ], [ 76.42912985044768, 12.869262964172691 ], [ 76.428950971841616, 12.869082321457315 ], [ 76.428919577280823, 12.86886556980493 ], [ 76.42881226244738, 12.86872931144994 ], [ 76.428680829946586, 12.86865510572582 ], [ 76.428283429351282, 12.86860208763507 ], [ 76.427682957653658, 12.868036428575449 ], [ 76.427354212991119, 12.86793623452157 ], [ 76.426524789095893, 12.86768619226058 ], [ 76.426470244356565, 12.867669748278445 ], [ 76.426321650224111, 12.867624952204206 ], [ 76.426260247291665, 12.867609134912389 ], [ 76.425944442539887, 12.867527780821643 ], [ 76.42519640629115, 12.867439401558329 ], [ 76.424007792468188, 12.867114054982565 ], [ 76.422394111306417, 12.867088529277362 ], [ 76.422247967280228, 12.867047030755467 ], [ 76.421781243413093, 12.866914503924692 ], [ 76.421502065356449, 12.866835230102891 ], [ 76.420943437046944, 12.866956396704255 ], [ 76.420384259165033, 12.867054357817878 ], [ 76.419960359948334, 12.867174288032505 ], [ 76.419863976171456, 12.866950509563154 ], [ 76.418475391142508, 12.866739864462149 ], [ 76.418089784623007, 12.866917267036856 ], [ 76.41736501991069, 12.866597358934804 ], [ 76.417291611652487, 12.866229912265435 ], [ 76.417052129952566, 12.865031186159928 ], [ 76.417049345564791, 12.865017252924748 ], [ 76.417652127075883, 12.865039806655304 ], [ 76.417832509941178, 12.86504655632065 ], [ 76.418636955621892, 12.864877089844928 ], [ 76.419010856325485, 12.864888741119254 ], [ 76.420263110248257, 12.865160484840992 ], [ 76.420889618417718, 12.865185763798115 ], [ 76.421275625513445, 12.865086759063345 ], [ 76.422454218391508, 12.864784462605693 ], [ 76.423214708281037, 12.864527158616829 ], [ 76.423452730265979, 12.864519128056756 ], [ 76.424984399962057, 12.863647569754733 ], [ 76.425360030242487, 12.863403952406385 ], [ 76.425257256668402, 12.863318431288496 ], [ 76.425718623080883, 12.862641959435235 ], [ 76.425780873424898, 12.862294270242053 ], [ 76.425803482121268, 12.861901135030745 ], [ 76.425799553588291, 12.86180687537917 ], [ 76.425755758185076, 12.860755880607295 ], [ 76.425751036491306, 12.860721196140434 ], [ 76.425711369975247, 12.860429759843518 ], [ 76.425705933118593, 12.860389820533316 ], [ 76.425596102859913, 12.859724554202719 ], [ 76.425581728698702, 12.859605793380949 ], [ 76.425500217628681, 12.858932304567084 ], [ 76.425452836952587, 12.858591199381989 ], [ 76.425448473139625, 12.858475592532885 ], [ 76.425427269921826, 12.85821692439603 ], [ 76.425378486325869, 12.857621779621073 ], [ 76.425369068107827, 12.857506854733394 ], [ 76.425368902011797, 12.857493066166059 ], [ 76.425366061692898, 12.857459512669307 ], [ 76.425352402634886, 12.857460004915577 ], [ 76.425346496633978, 12.857541373806505 ], [ 76.424717641350796, 12.857608252217151 ], [ 76.424287195645078, 12.85765501056806 ], [ 76.423207932279979, 12.857730011099157 ], [ 76.421325950885972, 12.857860785616232 ], [ 76.42124576978236, 12.857866355776851 ], [ 76.421174770261644, 12.857875537495543 ], [ 76.421116630233968, 12.857883049407624 ], [ 76.420953110902587, 12.85790417617687 ], [ 76.420958089405104, 12.857917583224181 ], [ 76.42073796423945, 12.85794355842228 ], [ 76.420680781186888, 12.857946758262187 ], [ 76.420609762293935, 12.857913519261182 ], [ 76.42018822587211, 12.857953993096482 ], [ 76.419892951565629, 12.858009409105309 ], [ 76.419714602308034, 12.858048645485981 ], [ 76.419320372469315, 12.858172765622262 ], [ 76.418794201565859, 12.858243781871257 ], [ 76.418553992717463, 12.858446001506941 ], [ 76.418145356630149, 12.858609665135763 ], [ 76.417843024250743, 12.858819396211276 ], [ 76.416626537704872, 12.859687059116144 ], [ 76.416312091396421, 12.860345339234492 ], [ 76.416194761787935, 12.860941560858619 ], [ 76.416120688040778, 12.861426324206626 ], [ 76.415998634428988, 12.861832413846967 ], [ 76.415765336019646, 12.862615830807785 ], [ 76.41575298269666, 12.863021327286221 ], [ 76.415895465745379, 12.863597942877211 ], [ 76.415981391353469, 12.863589772730764 ], [ 76.416046039203678, 12.863583617979362 ], [ 76.416115434350303, 12.863577013587095 ], [ 76.416257400400184, 12.863899462285934 ], [ 76.416282473251528, 12.863977740679209 ], [ 76.416358093256235, 12.864213820322622 ], [ 76.416237362982258, 12.86469245591044 ], [ 76.416208673729486, 12.864806203192913 ], [ 76.416674332451777, 12.864849816936948 ], [ 76.416644034058777, 12.86495147972753 ], [ 76.416540718951723, 12.865298144085084 ], [ 76.416112540453327, 12.864953813559428 ], [ 76.415703388721823, 12.865088309640601 ], [ 76.415655974731621, 12.865571285459204 ], [ 76.415423314226828, 12.865557448677372 ], [ 76.414916541635847, 12.865791590361184 ], [ 76.414610033194052, 12.865704816455686 ], [ 76.41445540585822, 12.865669875153646 ], [ 76.414157215873104, 12.865631870846485 ], [ 76.41413743301591, 12.865610762334075 ], [ 76.414044841848181, 12.865595878080077 ], [ 76.413730871254799, 12.865253135119657 ], [ 76.413563652661864, 12.864995708730213 ], [ 76.413509298530755, 12.86472272267844 ], [ 76.413432170307033, 12.864699455789493 ], [ 76.41332511561599, 12.864667168543477 ], [ 76.413159406083906, 12.864503538706009 ], [ 76.41294350855739, 12.864492146891401 ], [ 76.412706855191857, 12.864619834478784 ], [ 76.412373470076957, 12.864738894094204 ], [ 76.412143643003645, 12.864872042776792 ], [ 76.4117683486446, 12.864694536328187 ], [ 76.411640722177836, 12.86466163049392 ], [ 76.411436952303561, 12.864601312947928 ], [ 76.410779865748395, 12.864865621418167 ], [ 76.410779840936812, 12.864865633304071 ], [ 76.41011775634027, 12.865217374549612 ], [ 76.409731347295548, 12.865111295591918 ], [ 76.409528184750329, 12.865083174969541 ], [ 76.409371335716983, 12.865199776569034 ], [ 76.40936682220476, 12.865494761450503 ], [ 76.409053082782009, 12.865545601660642 ], [ 76.408905115726355, 12.865541728325013 ], [ 76.408876483770229, 12.865540976560959 ], [ 76.408841574430184, 12.865626439524416 ], [ 76.408691474160662, 12.865623705767405 ], [ 76.408578549163309, 12.86562163467126 ], [ 76.40806770370051, 12.865632834729704 ], [ 76.4074768702136, 12.865801160201096 ], [ 76.407412921967079, 12.865802243365696 ], [ 76.407443458622666, 12.86581846555724 ], [ 76.407412980253369, 12.86615740668455 ], [ 76.407391413398585, 12.866397299262374 ], [ 76.40739140528251, 12.866397330947109 ], [ 76.407049705846404, 12.866321107889249 ], [ 76.407022939280196, 12.866330623644213 ], [ 76.406940816019912, 12.866359819830866 ], [ 76.406722519411687, 12.866437421743941 ], [ 76.406416617587283, 12.866546173616825 ], [ 76.40642267056333, 12.866147364575712 ], [ 76.406424240519428, 12.866043824385873 ], [ 76.406424492589267, 12.866027216835263 ], [ 76.40651047259098, 12.865986728632075 ], [ 76.406873618614568, 12.865815704391622 ], [ 76.406892688644717, 12.865772477853056 ], [ 76.406901094943862, 12.865753421449631 ], [ 76.406891172563135, 12.86572662254776 ], [ 76.406878760410578, 12.865693098867254 ], [ 76.406871803071354, 12.865674297037174 ], [ 76.406868249099546, 12.865664693570459 ], [ 76.406811684878747, 12.865511833843875 ], [ 76.406869406214554, 12.865385773056245 ], [ 76.406893870430906, 12.865332345389895 ], [ 76.407180633724863, 12.864706066921128 ], [ 76.40785723707512, 12.863574365943675 ], [ 76.407545192498176, 12.863198561676093 ], [ 76.407403105479418, 12.862769108127736 ], [ 76.40737616254232, 12.862675840709983 ], [ 76.407324638242088, 12.86255343438455 ], [ 76.407359554488096, 12.862425618244645 ], [ 76.407472333979399, 12.8619572135342 ], [ 76.407475239157733, 12.86194514898186 ], [ 76.407579294368674, 12.861496880505403 ], [ 76.407586985136049, 12.861463800414265 ], [ 76.407641852633958, 12.86125227575895 ], [ 76.407749988911164, 12.861033523135083 ], [ 76.407779111015415, 12.860974611874651 ], [ 76.407794605550336, 12.860943276267532 ], [ 76.407854371788488, 12.860840150581279 ], [ 76.407928815330521, 12.860601435971876 ], [ 76.407989538102228, 12.860606922971771 ], [ 76.40809850136722, 12.860598166264937 ], [ 76.408114502970022, 12.860569411888163 ], [ 76.408163008544847, 12.859561775934912 ], [ 76.408195414012866, 12.857531402536209 ], [ 76.408196050455771, 12.857491367598714 ], [ 76.4080912269484, 12.8568319547306 ], [ 76.408085849303887, 12.856798151929809 ], [ 76.408033918732571, 12.856367768738531 ], [ 76.407993130298649, 12.856029733360776 ], [ 76.408372983268222, 12.855844115361943 ], [ 76.408427918388, 12.854785433685327 ], [ 76.408429813073155, 12.854748971060808 ], [ 76.408444135255593, 12.853883504992629 ], [ 76.408462858641457, 12.853553489965572 ], [ 76.408463598669869, 12.853540463384496 ], [ 76.4083617315965, 12.853115199188126 ], [ 76.408125630203713, 12.852129572650108 ], [ 76.40795275183504, 12.851407859377371 ], [ 76.407948803097014, 12.851391360235656 ], [ 76.407946906656662, 12.851373615174468 ], [ 76.407944714251045, 12.851353021280602 ], [ 76.407923891083371, 12.851157883896986 ], [ 76.407900007282649, 12.85093778860074 ], [ 76.407898267766583, 12.850923071211335 ], [ 76.407894189307015, 12.850888577055109 ], [ 76.40782570661402, 12.849294790842618 ], [ 76.407773176259511, 12.848055040008568 ], [ 76.407760914293632, 12.848021171011222 ], [ 76.407687591201594, 12.847818593921536 ], [ 76.407685670045666, 12.84781327312985 ], [ 76.407729024956055, 12.847813938380666 ], [ 76.407734619553594, 12.847813309008714 ], [ 76.407737346428618, 12.847813002506207 ], [ 76.407735178920277, 12.847806711077036 ], [ 76.407733338673438, 12.847801360018824 ], [ 76.407776385623848, 12.847802149861915 ], [ 76.408022721774785, 12.847806672583785 ], [ 76.408122975107887, 12.847808515726291 ], [ 76.408113330398251, 12.847780820340883 ], [ 76.407902466471725, 12.847174716570477 ], [ 76.407776094242067, 12.84673981310144 ], [ 76.407763904355093, 12.846697860734382 ], [ 76.407756360972485, 12.846677447393439 ], [ 76.407732731016523, 12.846613365923522 ], [ 76.40766498022569, 12.846428895634846 ], [ 76.407652991814061, 12.846396148867976 ], [ 76.407319001133175, 12.845494325563324 ], [ 76.407314789468003, 12.845468132930735 ], [ 76.407303662895941, 12.845398857603348 ], [ 76.40729887723343, 12.845369022073353 ], [ 76.407298684974748, 12.845367823972797 ], [ 76.406571609819636, 12.845644093013584 ], [ 76.405926691698681, 12.845889140247497 ], [ 76.404443392524101, 12.846452729962218 ], [ 76.404428079423042, 12.846452525683707 ], [ 76.404362431535475, 12.846477474320629 ], [ 76.403858205603868, 12.846471718818554 ], [ 76.403368056533836, 12.846337618833045 ], [ 76.402954360897994, 12.846155868981716 ], [ 76.402715449205658, 12.845581273211867 ], [ 76.402361642378764, 12.845438888173982 ], [ 76.4019442675188, 12.8457119711946 ], [ 76.401601052767717, 12.846345229728545 ], [ 76.401147979560619, 12.84675620921764 ], [ 76.401068007221738, 12.846767630029566 ], [ 76.401044554865123, 12.846788791132781 ], [ 76.40066691419878, 12.846844069976967 ], [ 76.400297761331757, 12.846576270616376 ], [ 76.400101384977489, 12.846392153348484 ], [ 76.399781741629766, 12.846722661832761 ], [ 76.399708276473206, 12.846729342516291 ], [ 76.399678866575712, 12.846760036214185 ], [ 76.3993077204033, 12.846795909500235 ], [ 76.398964088636433, 12.84651768596455 ], [ 76.398518825574996, 12.846476260931889 ], [ 76.398179973540536, 12.846714326733384 ], [ 76.397976129075701, 12.846857552219785 ], [ 76.39783377374664, 12.847047855270384 ], [ 76.397562771134844, 12.847410114904777 ], [ 76.397497473224902, 12.847403421244312 ], [ 76.397450753128794, 12.847466372773349 ], [ 76.396325516805703, 12.847352823799978 ], [ 76.395905291408567, 12.847331989020887 ], [ 76.395398025304473, 12.847207684226833 ], [ 76.394616903206511, 12.84674547759473 ], [ 76.394363727692721, 12.846625326531093 ], [ 76.392996007312675, 12.846234476777386 ], [ 76.392473525488512, 12.845742318648256 ], [ 76.392367220229858, 12.845642183126371 ], [ 76.392290672192573, 12.845570076847233 ], [ 76.391721689402075, 12.844958265112902 ], [ 76.39172082296075, 12.844957526583563 ], [ 76.39171899790901, 12.844955541038599 ], [ 76.391707045631563, 12.844942538285588 ], [ 76.391631221361735, 12.844861078349719 ], [ 76.391618021559225, 12.844846897005677 ], [ 76.391225348487609, 12.84442527093686 ], [ 76.391146254293872, 12.844416581723902 ], [ 76.390679159477457, 12.844365151626926 ], [ 76.389785434071072, 12.844742870860342 ], [ 76.388769375802283, 12.845376169760192 ], [ 76.388751512743852, 12.845375276274913 ], [ 76.388725486810898, 12.845391634061235 ], [ 76.387401893326683, 12.845314982180177 ], [ 76.386691369168432, 12.84528180957488 ], [ 76.3858272968195, 12.845078271293032 ], [ 76.38568335720322, 12.844835051491847 ], [ 76.38566509442667, 12.844585753266196 ], [ 76.385681592373771, 12.844528919694136 ], [ 76.386056047578322, 12.843206558042191 ], [ 76.386054600258703, 12.843205806017506 ], [ 76.386056717152471, 12.843204193489175 ], [ 76.386071144979553, 12.843153242654417 ], [ 76.386500484636386, 12.842866138233196 ], [ 76.386550874187179, 12.842827752194248 ], [ 76.386849377279987, 12.84262706087625 ], [ 76.386970468362421, 12.842554994894199 ], [ 76.387466610526431, 12.842259719787798 ], [ 76.387801084313821, 12.841378984385193 ], [ 76.387845973344298, 12.841260781490885 ], [ 76.388029042041268, 12.840778721942874 ], [ 76.387057668052279, 12.839509632623061 ], [ 76.386757502629621, 12.839124747897317 ], [ 76.386757053215774, 12.839116882680502 ], [ 76.386748846249532, 12.839106160370321 ], [ 76.386735141029519, 12.838912119417804 ], [ 76.386733037397036, 12.838882326047905 ], [ 76.386505582623542, 12.83877478377142 ], [ 76.386507501826202, 12.838646042496073 ], [ 76.386535769324198, 12.836749613206901 ], [ 76.386506252103359, 12.8364847967458 ], [ 76.385643775447434, 12.835337707457928 ], [ 76.385569815827097, 12.8353172375336 ], [ 76.385438861804644, 12.835252778090476 ], [ 76.38470981108415, 12.834893916613616 ], [ 76.384284685952721, 12.834595226397814 ], [ 76.384337126711486, 12.833744565122847 ], [ 76.384351031871859, 12.833524933119975 ], [ 76.384356639883208, 12.833436351597884 ], [ 76.384361670436675, 12.833356901246278 ], [ 76.384130915600153, 12.83279798912567 ], [ 76.383628604853655, 12.832383890382461 ], [ 76.382991667985721, 12.83145715541144 ], [ 76.38222624417233, 12.83058912643062 ], [ 76.381954320089591, 12.830431879049563 ], [ 76.381756512956514, 12.830114050481457 ], [ 76.381032061002912, 12.830024570640873 ], [ 76.380645122055853, 12.830141416787601 ], [ 76.380236088089816, 12.83022967586983 ], [ 76.379730034567217, 12.829959648692435 ], [ 76.37922269284114, 12.829452823262503 ], [ 76.378840095371814, 12.829024277403354 ], [ 76.378344049402628, 12.828520979713325 ], [ 76.377995096440131, 12.828274730187159 ], [ 76.377744331293457, 12.82814622046844 ], [ 76.377244569176909, 12.828048348931224 ], [ 76.376848572221434, 12.828068362805626 ], [ 76.376693669276477, 12.82815887253224 ], [ 76.376573500909359, 12.828473446395757 ], [ 76.376566357451722, 12.828497934333686 ], [ 76.376414555941537, 12.829061643123939 ], [ 76.376147800888489, 12.829792889162366 ], [ 76.375863981139005, 12.830570908426687 ], [ 76.375649620191695, 12.831026672718885 ], [ 76.375512286369442, 12.831318650871223 ], [ 76.375110274911691, 12.831575850941945 ], [ 76.375087720649233, 12.831590276377433 ], [ 76.375064052470606, 12.831580609361056 ], [ 76.374854284280531, 12.831494890962876 ], [ 76.374445400049922, 12.831327812387396 ], [ 76.374388562238394, 12.831288590950633 ], [ 76.374278565366495, 12.831212685448067 ], [ 76.374079933920342, 12.830951066413897 ], [ 76.373876190727287, 12.830661628334115 ], [ 76.373855200014276, 12.830540108390659 ], [ 76.373861344413456, 12.83049655398408 ], [ 76.37383322420925, 12.830462846716369 ], [ 76.373806099177671, 12.830349064922643 ], [ 76.373821359245724, 12.830199292985233 ], [ 76.373863048565951, 12.829978347231062 ], [ 76.373715864535058, 12.829969586966559 ], [ 76.373499839102067, 12.829965933285402 ], [ 76.373283394941552, 12.830046939354824 ], [ 76.373215476993977, 12.830061688383108 ], [ 76.373132005694913, 12.830079824736348 ], [ 76.373013378268794, 12.8300436956872 ], [ 76.372549898771638, 12.829851467155915 ], [ 76.372537100431259, 12.829845909892144 ], [ 76.372067914857638, 12.829642077840544 ], [ 76.371868728501639, 12.829516610233339 ], [ 76.371771593039142, 12.829424347504574 ], [ 76.371729794185839, 12.829400371223212 ], [ 76.371619441966899, 12.82930518204012 ], [ 76.371378179534318, 12.829095640342423 ], [ 76.371350396693245, 12.829488794711384 ], [ 76.371322665033347, 12.829631858572588 ], [ 76.371195673351536, 12.829966645509417 ], [ 76.370994884448251, 12.829975640200139 ], [ 76.370978973895376, 12.829976358720108 ], [ 76.370934730272751, 12.829914289813114 ], [ 76.370890503051371, 12.829916846402755 ], [ 76.37088448796041, 12.829917194186155 ], [ 76.370868651164642, 12.829918092220172 ], [ 76.370409791791232, 12.829283384876131 ], [ 76.368695080886269, 12.832233941975593 ], [ 76.36521116017849, 12.835502279924807 ], [ 76.363447701225539, 12.837156579821009 ], [ 76.363425380220548, 12.83716236352533 ], [ 76.363407504420366, 12.837179588557763 ], [ 76.3617038239164, 12.837608444364387 ], [ 76.359857809771171, 12.83808677408083 ], [ 76.355609142409151, 12.838786878927445 ], [ 76.350982562574728, 12.838910457501385 ], [ 76.350567859938351, 12.838695619209123 ], [ 76.349821158186984, 12.8384817773173 ], [ 76.348515009692562, 12.838107727115545 ], [ 76.34822194814025, 12.838071667585638 ], [ 76.348108049127063, 12.838038251389717 ], [ 76.347861787229249, 12.837978768609403 ], [ 76.3466268007097, 12.837902791751405 ], [ 76.345808851308576, 12.837884463180256 ], [ 76.343501880517408, 12.838543001562966 ], [ 76.341705779350562, 12.839363838614375 ], [ 76.341095726235125, 12.840247024382995 ], [ 76.340717026485734, 12.840808579057102 ], [ 76.339969696397517, 12.84300748998746 ], [ 76.338963134170498, 12.84432681156995 ], [ 76.339819870422687, 12.845337984170358 ], [ 76.33982018695923, 12.845339645118168 ], [ 76.339825047136785, 12.845365202452403 ], [ 76.339837482424173, 12.845496058366612 ], [ 76.339838358536753, 12.845505277680756 ], [ 76.339839191817859, 12.845512625549478 ], [ 76.339848367454906, 12.845593256873947 ], [ 76.339854234545868, 12.845644691346759 ], [ 76.339859368780537, 12.845689622148534 ], [ 76.339898393589877, 12.846028371554818 ], [ 76.340040617447386, 12.846433263147649 ], [ 76.340055321372546, 12.846477038533713 ], [ 76.340068452326236, 12.846516081970329 ], [ 76.340159944276095, 12.846786759161946 ], [ 76.340183009403006, 12.846943803760325 ], [ 76.340183493042616, 12.846947091158322 ], [ 76.340189105856069, 12.846985296924608 ], [ 76.340325756102175, 12.848101550248805 ], [ 76.340972062095489, 12.848155519233107 ], [ 76.341025613872176, 12.848152361766555 ], [ 76.341032318858836, 12.84822451325214 ], [ 76.341081135638476, 12.848221293714111 ], [ 76.341091256067742, 12.848364811318051 ], [ 76.341649422751942, 12.848390188305475 ], [ 76.342375234556243, 12.848341133466944 ], [ 76.342536164155192, 12.848351732448064 ], [ 76.342540221454087, 12.848352000094927 ], [ 76.342699457422654, 12.848345918744371 ], [ 76.342810958528474, 12.848341662642998 ], [ 76.343732094835545, 12.84830648758548 ], [ 76.344187685620298, 12.848289090230452 ], [ 76.344226316179274, 12.848279781364857 ], [ 76.34449273683191, 12.848265383380562 ], [ 76.344866447731292, 12.84824205767689 ], [ 76.345006143713491, 12.848233336642698 ], [ 76.345231958265117, 12.848219241765387 ], [ 76.345953237222716, 12.848233976077639 ], [ 76.345986663456259, 12.848235506147455 ], [ 76.346698991385509, 12.848268088760124 ], [ 76.346774478254886, 12.848271541070863 ], [ 76.346879988827766, 12.848276367190874 ], [ 76.346952131138835, 12.848413995730537 ], [ 76.34699503704006, 12.848519548283473 ], [ 76.347272784400403, 12.849176960688853 ], [ 76.347354227450538, 12.849929516795983 ], [ 76.347625555325948, 12.849881704445066 ], [ 76.347692896272619, 12.84987503849011 ], [ 76.347860009074466, 12.849858491543744 ], [ 76.348435443830297, 12.849801519111907 ], [ 76.348996597645481, 12.849751763572103 ], [ 76.349083900743153, 12.849817204245667 ], [ 76.349745865987302, 12.850313391956215 ], [ 76.350902464859331, 12.851172504595757 ], [ 76.351591714084051, 12.851679634722844 ], [ 76.351607141767886, 12.851675516872461 ], [ 76.351686433189627, 12.851654363239586 ], [ 76.35182407902937, 12.853414142311617 ], [ 76.351818438341297, 12.853433915718238 ], [ 76.351819768494366, 12.853451286760111 ], [ 76.351798586547673, 12.853524220888461 ], [ 76.352011521489615, 12.854580358538351 ], [ 76.352007531149283, 12.854580498657555 ], [ 76.35200797898014, 12.854582641443047 ], [ 76.351902551748495, 12.854588871981543 ], [ 76.350900091210605, 12.854645281045133 ], [ 76.350496867485589, 12.855218594205434 ], [ 76.35042405884785, 12.855227242677639 ], [ 76.350409001514493, 12.855245998947955 ], [ 76.35018295090363, 12.855274539604075 ], [ 76.34931383833937, 12.855565899857416 ], [ 76.349063199788915, 12.855686230796653 ], [ 76.348911349677266, 12.855759154977452 ], [ 76.348897826935442, 12.855765650510719 ], [ 76.348774170047065, 12.855825712355978 ], [ 76.348296118147431, 12.856053248913296 ], [ 76.347850039224596, 12.856222847730486 ], [ 76.347829492114997, 12.856240411719774 ], [ 76.34821836960694, 12.856570451185428 ], [ 76.348217335337452, 12.85657960540661 ], [ 76.348217529258008, 12.856579767265048 ], [ 76.348179397248643, 12.856915391836012 ], [ 76.348315164371357, 12.858123234164333 ], [ 76.348399253312721, 12.858871323737612 ], [ 76.348429175607279, 12.859137525130889 ], [ 76.348505475147675, 12.859750706418083 ], [ 76.348651665903645, 12.860925559756776 ], [ 76.348589597579661, 12.861716297371187 ], [ 76.348579494938932, 12.86185835593874 ], [ 76.348369775497702, 12.864027409141363 ], [ 76.348329294204518, 12.864299940944193 ], [ 76.348346430215216, 12.864305674945145 ], [ 76.348762178366727, 12.865038093371519 ], [ 76.34881778007896, 12.865161412544428 ], [ 76.348992805857648, 12.865544132694639 ], [ 76.348998265679043, 12.86562488541882 ], [ 76.349026172465685, 12.866037681915783 ], [ 76.349095675052737, 12.866924408828689 ], [ 76.349193677039125, 12.867929082751344 ], [ 76.349305834958329, 12.869005562928736 ], [ 76.350076528209271, 12.868354969369689 ], [ 76.351044421164389, 12.867625244694679 ], [ 76.35174903100534, 12.867088022819999 ], [ 76.352370855967237, 12.866628190098176 ], [ 76.35245938653928, 12.866560933936567 ], [ 76.35312194935527, 12.866056955315686 ], [ 76.353993799702735, 12.865444110853488 ], [ 76.354122695990355, 12.865371495371329 ], [ 76.354310868865554, 12.865119961056777 ], [ 76.354742682770905, 12.864885300605607 ], [ 76.3548704483146, 12.86479077913941 ], [ 76.355111359748932, 12.864612549015499 ], [ 76.355429964968934, 12.864378454473499 ], [ 76.35548330312686, 12.864363106431568 ], [ 76.356447836298969, 12.864285229052497 ], [ 76.356478550717114, 12.864290758262291 ], [ 76.356493563978376, 12.864289368128027 ], [ 76.357143009299548, 12.864399966266909 ], [ 76.357809463904943, 12.864513528554228 ], [ 76.359047984394607, 12.864669946721039 ], [ 76.361434899084472, 12.863917407857391 ], [ 76.361948421911606, 12.86374907752989 ], [ 76.361949872046168, 12.86375504882167 ], [ 76.361967535276392, 12.863749480014683 ], [ 76.361996984646225, 12.863872588781504 ], [ 76.362082720640899, 12.86423301829635 ], [ 76.362134448204813, 12.864531310998448 ], [ 76.362131069649564, 12.864857181362712 ], [ 76.362103902750206, 12.865302142811492 ], [ 76.362075138368084, 12.866056105602881 ], [ 76.362038116169927, 12.866696408157383 ], [ 76.362027281430215, 12.86688378795405 ], [ 76.362001596875473, 12.867248744098481 ], [ 76.361995668700658, 12.867332982554316 ], [ 76.361889640778159, 12.867906823466427 ], [ 76.361883206213506, 12.867940599622884 ], [ 76.36168548234339, 12.868978493339302 ], [ 76.361626183541148, 12.869193409062161 ], [ 76.36112675469866, 12.871223538252503 ], [ 76.36105718650866, 12.871524670519609 ], [ 76.361034331404284, 12.871620594009592 ], [ 76.360998304144687, 12.871771346871306 ], [ 76.361004180356446, 12.872271152503915 ], [ 76.361068786549438, 12.873245705770735 ], [ 76.361115965119453, 12.873905454369966 ], [ 76.362305910773642, 12.873913188055827 ], [ 76.362376098852138, 12.873913644049026 ], [ 76.362468363074825, 12.873914243805421 ], [ 76.363445332981044, 12.87381771177999 ], [ 76.364539373692693, 12.873667338090442 ], [ 76.365767406041442, 12.873927961279181 ], [ 76.365915544956081, 12.87395195103548 ], [ 76.367423147809461, 12.873763481739966 ], [ 76.369433691634967, 12.873849195975023 ], [ 76.369499716244903, 12.873242186390309 ], [ 76.369540960181126, 12.873254166091629 ], [ 76.369547514908319, 12.873191461895551 ], [ 76.370401884779398, 12.873429232055651 ], [ 76.371033339481102, 12.873983993045723 ], [ 76.371475238510357, 12.874670608577809 ], [ 76.371420273269834, 12.876682236363756 ], [ 76.371418551789375, 12.876745237445935 ], [ 76.371349046028698, 12.876765331375937 ], [ 76.37134821110709, 12.876798330455257 ], [ 76.369769526790435, 12.877245571711422 ], [ 76.368902141779515, 12.877479148904074 ], [ 76.368046380312094, 12.87771632044732 ], [ 76.367119583579878, 12.877979675097405 ], [ 76.366251717277365, 12.878214267149943 ], [ 76.365341125251831, 12.878468991702235 ], [ 76.364851894461324, 12.878613165485861 ], [ 76.364714031656675, 12.878653781650632 ], [ 76.364481177721814, 12.881521802818336 ], [ 76.364481508767909, 12.881605267269615 ], [ 76.364485781827298, 12.881871043979594 ], [ 76.364452074181017, 12.881987723270738 ], [ 76.364427103443333, 12.882074156436264 ], [ 76.364425714264939, 12.882078150522391 ], [ 76.363290560178868, 12.88533959443977 ], [ 76.363101683868081, 12.885890349006038 ], [ 76.363015796210519, 12.886140793316551 ], [ 76.363012327037879, 12.886150897835492 ], [ 76.36301211986256, 12.886151268669472 ], [ 76.363011739690108, 12.886152366354276 ], [ 76.362906672786522, 12.886413233805571 ], [ 76.362769176105814, 12.886728969434797 ], [ 76.362668456546103, 12.88703041497781 ], [ 76.362549978124747, 12.887433884300293 ], [ 76.3623820850638, 12.887902581949868 ], [ 76.362187920523127, 12.88843425207766 ], [ 76.361987603483669, 12.889015060196288 ], [ 76.361750533785894, 12.889702426073217 ], [ 76.361730001671276, 12.889761959565398 ], [ 76.361407756116677, 12.890698491467026 ], [ 76.361380049955613, 12.890780080674691 ], [ 76.361138756611211, 12.891408996262467 ], [ 76.361124498590812, 12.891446222182758 ], [ 76.361141486050144, 12.891487853839468 ], [ 76.361171606806309, 12.89156166909903 ], [ 76.362350209963807, 12.892027898838395 ], [ 76.363299529519793, 12.892418200317554 ], [ 76.36345764056469, 12.892483119831915 ], [ 76.363437420275616, 12.893101200983814 ], [ 76.363424379838861, 12.893555726115451 ], [ 76.364235203086608, 12.896064955153271 ], [ 76.364253682903154, 12.896124863979246 ], [ 76.364330845563998, 12.896342292524867 ], [ 76.364887169743795, 12.89788824720784 ], [ 76.364767155452355, 12.899322726636676 ], [ 76.364717798618358, 12.899950360658087 ], [ 76.364581133349205, 12.901885808280365 ], [ 76.36459373013713, 12.902569067542064 ], [ 76.364510527331575, 12.903906754741595 ], [ 76.364487540214355, 12.904276319390025 ], [ 76.364486763779041, 12.904288808315808 ], [ 76.364476067328482, 12.904456587251065 ], [ 76.364464395375819, 12.904588928156032 ], [ 76.3642419037877, 12.907111888059076 ], [ 76.364651770300085, 12.907678276988726 ], [ 76.364929753155579, 12.90821329989768 ], [ 76.365215586414976, 12.908748152099051 ], [ 76.365454415210607, 12.909290767440936 ], [ 76.365455199253091, 12.909294799907297 ], [ 76.365487550252553, 12.909461267239834 ], [ 76.365509000380428, 12.9095716439741 ], [ 76.365731334031835, 12.911670805104798 ], [ 76.365832936468522, 12.913529155016436 ], [ 76.365838536633959, 12.913914720759253 ], [ 76.365839876217734, 12.914006936273958 ], [ 76.365845349097825, 12.914383643027683 ], [ 76.365850319181007, 12.914725801614757 ], [ 76.365863618675164, 12.914906774288475 ], [ 76.365879422057773, 12.915121816354516 ], [ 76.365893280965921, 12.915310408998215 ], [ 76.365904357313184, 12.915451627064208 ], [ 76.366360361033756, 12.917832736996166 ], [ 76.366956498490779, 12.918838554981054 ], [ 76.366987205974539, 12.918904470865037 ], [ 76.367206011930918, 12.919374141868284 ], [ 76.367240305483747, 12.91941665855086 ], [ 76.367295509784199, 12.919485099520458 ], [ 76.36760394182248, 12.919867485536789 ], [ 76.367693691491183, 12.919978754495773 ], [ 76.368067565979715, 12.920442274064838 ], [ 76.368258782712786, 12.920679336894519 ], [ 76.368493796909277, 12.921300472600754 ], [ 76.368710735879247, 12.921450150733477 ], [ 76.370233065236363, 12.921462581428802 ], [ 76.370232885981181, 12.921463276683978 ], [ 76.370237109645814, 12.921463312372417 ], [ 76.370420439255909, 12.921430527211262 ], [ 76.370750854657203, 12.921371439792161 ], [ 76.371017336181467, 12.921323783828971 ], [ 76.371139698251426, 12.921271120116412 ], [ 76.371353868284871, 12.921178942254674 ], [ 76.37142961868372, 12.921146339779222 ], [ 76.371593290403595, 12.921075895205869 ], [ 76.371458827436584, 12.92030121225595 ], [ 76.372074889189861, 12.920170534649582 ], [ 76.373310421251418, 12.919678952103077 ], [ 76.3741768307667, 12.919540286961807 ], [ 76.375183269607717, 12.919232772638383 ], [ 76.37527844378792, 12.919434444094369 ], [ 76.375285780740526, 12.919578431888231 ], [ 76.376492567152781, 12.919077945168214 ], [ 76.377397219849499, 12.918754622189178 ], [ 76.377803960735292, 12.918506971323525 ], [ 76.378147616038618, 12.918169861639507 ], [ 76.378258964612371, 12.918256422742072 ], [ 76.378696164730144, 12.918304618887612 ], [ 76.378982911928034, 12.918422139336201 ], [ 76.379053115251594, 12.918362713206033 ], [ 76.37959831783175, 12.918394628100073 ], [ 76.380145584913222, 12.918392313937741 ], [ 76.380239468952766, 12.918316298931357 ], [ 76.380544376000671, 12.918282766026095 ], [ 76.380545323767976, 12.918282661572766 ], [ 76.381289545003597, 12.918212457581124 ], [ 76.381408557442541, 12.918175707345828 ], [ 76.381594390613913, 12.918123888607733 ], [ 76.382421145973908, 12.917893347571617 ], [ 76.382582568642334, 12.918029651319234 ], [ 76.38296525547598, 12.917921469735965 ], [ 76.383300677190476, 12.917880963824583 ], [ 76.38330955676517, 12.917879596002818 ], [ 76.383838716746155, 12.917798081404046 ], [ 76.384000725079417, 12.917813337603519 ], [ 76.384540439083239, 12.917810337465003 ], [ 76.384594905877591, 12.917800390033181 ], [ 76.384649370823297, 12.917790442600197 ], [ 76.385253067679656, 12.917669918637399 ], [ 76.385742948605255, 12.917587657517839 ], [ 76.387127139150806, 12.917355222153091 ], [ 76.388212786849465, 12.917026389494158 ], [ 76.388759731535302, 12.916994958332451 ], [ 76.38902461230397, 12.917104366903901 ], [ 76.389800256064632, 12.91704871966958 ], [ 76.39013762620641, 12.916803157585223 ], [ 76.390837184641569, 12.916537164253919 ], [ 76.391008944041005, 12.9165763103346 ], [ 76.391205387165428, 12.916558900353316 ], [ 76.392086033222483, 12.916480848566998 ], [ 76.392075273584879, 12.916087259850418 ], [ 76.392520226298387, 12.916052576569362 ], [ 76.392735288826742, 12.916420432133709 ], [ 76.393217846427561, 12.916392962038937 ], [ 76.393983331121618, 12.916388913963271 ], [ 76.394523327219488, 12.916520778491973 ], [ 76.394674973305712, 12.916545369640966 ], [ 76.394671012817639, 12.916680189593308 ], [ 76.395293092467327, 12.917516213251183 ], [ 76.395500357867007, 12.919120189224964 ], [ 76.395722286046976, 12.919119751085594 ], [ 76.396080683540774, 12.920569296722846 ], [ 76.394346157151787, 12.92054438208587 ], [ 76.394089374179174, 12.920668648239417 ], [ 76.393299943033711, 12.920790063597924 ], [ 76.392637033582957, 12.920892018874147 ], [ 76.392207316084622, 12.920850861083903 ], [ 76.392210127025976, 12.921043997760913 ], [ 76.391857651701358, 12.920980471334699 ], [ 76.391774894117503, 12.920961873383209 ], [ 76.391256265424047, 12.921112055055698 ], [ 76.390971262438654, 12.921053942052437 ], [ 76.390674661298334, 12.921136446357302 ], [ 76.390320641873657, 12.921234921156378 ], [ 76.390076434925106, 12.921302850366757 ], [ 76.389889704895211, 12.921287817456086 ], [ 76.389845179772621, 12.921211383112539 ], [ 76.389255800235063, 12.921191110782431 ], [ 76.388725954507763, 12.92122834362694 ], [ 76.388077623898994, 12.921172659989038 ], [ 76.387861087071286, 12.921103602389465 ], [ 76.387319164948991, 12.921052177981744 ], [ 76.386848275425635, 12.921093493776562 ], [ 76.386566565382736, 12.921019074856527 ], [ 76.386209827054813, 12.921061087958945 ], [ 76.385851943250017, 12.921130055116906 ], [ 76.385104914721083, 12.921106535370884 ], [ 76.384577818405859, 12.921026113644675 ], [ 76.384134811547796, 12.92091229298828 ], [ 76.384026072735139, 12.920859201938603 ], [ 76.383040436785208, 12.92090588884445 ], [ 76.381953105324868, 12.920673020880157 ], [ 76.38190675855968, 12.920663093867104 ], [ 76.381900518047161, 12.920664397061227 ], [ 76.379991288070443, 12.921062852093311 ], [ 76.379951014620602, 12.92106883989862 ], [ 76.379085043053308, 12.921257934959613 ], [ 76.379013544923282, 12.921270316342273 ], [ 76.378888332012579, 12.921291998210421 ], [ 76.377459870714858, 12.921539347519003 ], [ 76.373230832051959, 12.921541832413158 ], [ 76.372730583648533, 12.921542122710065 ], [ 76.371507986513279, 12.92165933301974 ], [ 76.371374753840243, 12.921671655958122 ], [ 76.370153659579032, 12.921784592298911 ], [ 76.37013058156694, 12.921810552730955 ], [ 76.369964599124756, 12.92199727121826 ], [ 76.369948948310167, 12.922128341904056 ], [ 76.369826294832237, 12.923155519689647 ], [ 76.369800141308104, 12.923374541733553 ], [ 76.369781066114172, 12.923537335362431 ], [ 76.369752711270436, 12.923779289352398 ], [ 76.369689691253811, 12.924229768186507 ], [ 76.369690552356019, 12.924289326532014 ], [ 76.36969244537886, 12.924420164145426 ], [ 76.369698089430798, 12.924811991896309 ], [ 76.369850921293136, 12.925168222796149 ], [ 76.37022680338805, 12.926044318010559 ], [ 76.370230415174035, 12.926052739195406 ], [ 76.370244794085721, 12.926086248907838 ], [ 76.370879827149025, 12.927658463725635 ], [ 76.370988744118833, 12.928031065858764 ], [ 76.371106480105368, 12.928181712697373 ], [ 76.371225520569411, 12.928511834794563 ], [ 76.371108935628001, 12.928549109736696 ], [ 76.371123368320568, 12.928738779697561 ], [ 76.371136762386783, 12.928915965768073 ], [ 76.370906773735797, 12.929583817160459 ], [ 76.37087769369019, 12.929667921959048 ], [ 76.37065702341738, 12.93030414789723 ], [ 76.370571824138167, 12.930559268530844 ], [ 76.372897623270632, 12.933120644482319 ], [ 76.374202938982521, 12.93459267642999 ], [ 76.376140446693967, 12.93597441929583 ], [ 76.376322773185308, 12.93610444471218 ], [ 76.377006222327523, 12.936591838610189 ], [ 76.377068061168302, 12.936635641706921 ], [ 76.377471124564806, 12.936922890419101 ], [ 76.377962720496924, 12.937273954282627 ], [ 76.377973921651275, 12.937513816254771 ], [ 76.377993106318499, 12.937918311290414 ], [ 76.378077870354929, 12.939660948357618 ], [ 76.378089877790401, 12.939890453852668 ], [ 76.378096963838331, 12.940021025628347 ], [ 76.378116429330561, 12.940357357239598 ], [ 76.378104758512279, 12.942037305715044 ], [ 76.378255216917154, 12.945387696792192 ], [ 76.378244767040073, 12.94569104159156 ], [ 76.378238123901596, 12.945881012489915 ], [ 76.378198397268577, 12.947030449783778 ], [ 76.378176043286004, 12.947728389804537 ], [ 76.378167684489952, 12.947991913277486 ], [ 76.378151199463858, 12.948508944950001 ], [ 76.37815100761604, 12.948514958723516 ], [ 76.378142996413814, 12.948766420476291 ], [ 76.378123161924862, 12.949394135880944 ], [ 76.378120295796393, 12.949485609879599 ], [ 76.378111958661592, 12.949752724958126 ], [ 76.378101794516155, 12.950080515182313 ], [ 76.37808694190376, 12.950619652750328 ], [ 76.378046572058707, 12.95212258294131 ], [ 76.378040066331863, 12.9523765697157 ], [ 76.378059959920577, 12.95626100926046 ], [ 76.37805997391871, 12.957466782862394 ], [ 76.378061754383964, 12.957493835350213 ], [ 76.378130325947083, 12.958477252700028 ], [ 76.37816852487677, 12.958866915298854 ], [ 76.378305642889245, 12.959103633128544 ], [ 76.378305745547351, 12.959134314979666 ], [ 76.378314981337667, 12.95914988399586 ], [ 76.378316888595918, 12.960006366339924 ], [ 76.378321779136897, 12.96008755376659 ], [ 76.378331342170867, 12.96024631452527 ], [ 76.378388084289227, 12.961188228293015 ], [ 76.378410115871148, 12.961599840156552 ], [ 76.378443920805438, 12.962231420619768 ], [ 76.378296530875346, 12.965680678228569 ], [ 76.378280729937472, 12.965867971714482 ], [ 76.378080123065757, 12.966165340986244 ], [ 76.377918415243002, 12.966815604017819 ], [ 76.377316345179821, 12.968460099155379 ], [ 76.377291767118749, 12.968473592387934 ], [ 76.377286957881651, 12.968486849634106 ], [ 76.377156370043252, 12.96856015602185 ], [ 76.377065391895258, 12.96874117867833 ], [ 76.376913123723853, 12.968931981297025 ], [ 76.376877929178775, 12.968989773657439 ], [ 76.376794935784758, 12.969126058796029 ], [ 76.376692704681076, 12.969280184700438 ], [ 76.376506590497826, 12.969539631641409 ], [ 76.375994743774086, 12.970343003817861 ], [ 76.375941434162826, 12.970407125205123 ], [ 76.375808576150675, 12.970569010310262 ], [ 76.375233869775329, 12.971277769809817 ], [ 76.374469880724448, 12.972163482935013 ], [ 76.373028352038645, 12.973839373503298 ], [ 76.372748720834451, 12.974265434364128 ], [ 76.372395720386734, 12.97481110213988 ], [ 76.371892038957014, 12.97557373977099 ], [ 76.371333518814808, 12.976423876596435 ], [ 76.371069850864117, 12.976828378324061 ], [ 76.370819826046102, 12.977221585212998 ], [ 76.37063494943142, 12.977512334712522 ], [ 76.370305618060769, 12.978016885028689 ], [ 76.370110432761138, 12.978322247491615 ], [ 76.369822384488913, 12.979051984894269 ], [ 76.369803758818946, 12.979129106231314 ], [ 76.369726212148279, 12.979450221663832 ], [ 76.369658085015118, 12.979732335137884 ], [ 76.369616553689639, 12.979894714995805 ], [ 76.369393724955231, 12.98076593582125 ], [ 76.369389978259832, 12.980780695911061 ], [ 76.369164433064682, 12.981669536199433 ], [ 76.369093818979294, 12.981937387911914 ], [ 76.369043369249567, 12.982128752663552 ], [ 76.369042968206287, 12.982130274778211 ], [ 76.368965497356939, 12.982426429824654 ], [ 76.368842406413506, 12.982911634567609 ], [ 76.368725546325265, 12.983376033262877 ], [ 76.368542112719581, 12.984090755097347 ], [ 76.368316239598869, 12.984909785002335 ], [ 76.3680514450636, 12.985935367526302 ], [ 76.367975114887429, 12.9861079634095 ], [ 76.367584940528957, 12.986935676572847 ], [ 76.367003228021105, 12.98809601478003 ], [ 76.367124445244826, 12.988096645579658 ], [ 76.367420589508498, 12.98812477817132 ], [ 76.368063727272258, 12.988213942972697 ], [ 76.367887442250776, 12.990107837624217 ], [ 76.367769227782532, 12.990440249449609 ], [ 76.367531394401553, 12.991109022909933 ], [ 76.36726696164601, 12.991669814916349 ], [ 76.367133026846417, 12.991953853024945 ], [ 76.367226819623582, 12.991935986351402 ], [ 76.368277078781162, 12.991647058062354 ], [ 76.369397937989746, 12.991388153383367 ], [ 76.369534487883556, 12.991355627371931 ], [ 76.370742044198565, 12.991205506386821 ], [ 76.371180683638656, 12.991183428096031 ], [ 76.371820666495694, 12.991151213216707 ], [ 76.371820698350788, 12.991151211322181 ], [ 76.371820698377874, 12.99115121161185 ], [ 76.371924034362621, 12.991146009978335 ], [ 76.371941598104542, 12.991367149737835 ], [ 76.371950433963576, 12.991478398261966 ], [ 76.372000396329298, 12.991495991017761 ], [ 76.372345742595485, 12.991591698546367 ], [ 76.372248111555891, 12.992213907215882 ], [ 76.372209220265276, 12.992461762840863 ], [ 76.372177593357705, 12.992591267949434 ], [ 76.372812544827468, 12.992602042084014 ], [ 76.374107790994969, 12.99262810411607 ], [ 76.375934271254934, 12.992658539521466 ], [ 76.375990181932607, 12.992661935659989 ], [ 76.375998542400197, 12.992662012384979 ], [ 76.377130650746011, 12.992729000890076 ], [ 76.377581506786655, 12.992755676514552 ], [ 76.377973343666355, 12.992940683442145 ], [ 76.378255089807595, 12.993073710411103 ], [ 76.378437533297969, 12.993159851773203 ], [ 76.379141981091962, 12.993483003481316 ], [ 76.379689545561291, 12.993734187053594 ], [ 76.379746749160489, 12.993760428445857 ], [ 76.380058662338612, 12.993875608333392 ], [ 76.380215262919364, 12.993933440150164 ], [ 76.380448554354643, 12.994120806698614 ], [ 76.380593186484631, 12.994243723617142 ], [ 76.380662053972316, 12.99425378840834 ], [ 76.380740099085514, 12.994265026638601 ], [ 76.3808165010295, 12.994275699516265 ], [ 76.381352008251156, 12.994431981760457 ], [ 76.381405734435134, 12.994525684910093 ], [ 76.381432554697369, 12.994572457151801 ], [ 76.38159976681797, 12.994637427743349 ], [ 76.382334326278325, 12.994922843599872 ], [ 76.382432230203761, 12.994965404359341 ], [ 76.383124750973664, 12.995266457079783 ], [ 76.383147623157754, 12.995275753888796 ], [ 76.383410873826691, 12.995375702040677 ], [ 76.383436263465455, 12.995393076913292 ], [ 76.38343985101946, 12.995394535138892 ], [ 76.383502717880347, 12.995439299849204 ], [ 76.383846490545977, 12.995684089054263 ], [ 76.384504208273881, 12.995989270138802 ], [ 76.384688070986499, 12.996072278395276 ], [ 76.384945388995689, 12.996087627603627 ], [ 76.385117712982463, 12.996097906136974 ], [ 76.385118570933685, 12.996143897849612 ], [ 76.385259325854932, 12.996252996292673 ], [ 76.385322135266961, 12.996315235767574 ], [ 76.385702714556558, 12.996387968406617 ], [ 76.385946150000734, 12.996540232241218 ], [ 76.386223711330857, 12.996587770483728 ], [ 76.387203087079342, 12.996760150859071 ], [ 76.388193270783574, 12.996944220249468 ], [ 76.388223030857233, 12.996945911750275 ], [ 76.388714789055086, 12.996973856507255 ], [ 76.389281362902807, 12.997024450258326 ], [ 76.389318426807677, 12.997024744711103 ], [ 76.389842971145072, 12.99702892214594 ], [ 76.390152106600851, 12.997022789267232 ], [ 76.390385197950962, 12.997383952301316 ], [ 76.390388720888538, 12.997402621095748 ], [ 76.390423830846871, 12.99745063112776 ], [ 76.390439552654769, 12.997511350276945 ], [ 76.39048224191545, 12.997674727833486 ], [ 76.390484184271557, 12.997682148428883 ], [ 76.390995137702163, 12.997723833115536 ], [ 76.391615370922977, 12.99774798329064 ], [ 76.391970362310204, 12.99794693669465 ], [ 76.392192733213051, 12.998045578706812 ], [ 76.393030649200355, 12.998694396731748 ], [ 76.393432234745475, 12.998934593833306 ], [ 76.393526631473833, 12.998964967188854 ], [ 76.393569442409444, 12.99897874270169 ], [ 76.393666342159975, 12.999014255544175 ], [ 76.393677538764408, 12.999021282902351 ], [ 76.393678808608669, 12.999021765318098 ], [ 76.393706950506157, 12.999039742681409 ], [ 76.393912623917174, 12.99916883009678 ], [ 76.394024569949579, 12.9992391394952 ], [ 76.394226303045954, 12.999313016878645 ], [ 76.394544070230836, 12.999429465560407 ], [ 76.395098642268763, 12.999628337735848 ], [ 76.395260248867359, 12.999690160329191 ], [ 76.395671487067986, 12.999847451990391 ], [ 76.395719694419782, 12.999865889125529 ], [ 76.395704307919431, 12.999889093665683 ], [ 76.395726299292946, 12.99989777940899 ], [ 76.395775488498927, 12.999917207495185 ], [ 76.395677520305, 13.000062425672949 ], [ 76.395556689035544, 13.000241534885182 ], [ 76.395476647095677, 13.000360181277093 ], [ 76.395427272191185, 13.000452783417337 ], [ 76.395949609096846, 13.000565562260158 ], [ 76.39599643430644, 13.000575690596756 ], [ 76.396656738751048, 13.000579634441223 ], [ 76.397287565933837, 13.000579309094752 ], [ 76.397473409676962, 13.000594342876711 ], [ 76.397766628439228, 13.000618104643486 ], [ 76.397984912751625, 13.000635831914245 ], [ 76.398052701033251, 13.000665989663045 ], [ 76.398258684130155, 13.000757274072511 ], [ 76.398562645159117, 13.000900362991727 ], [ 76.398941979038966, 13.000945660887028 ], [ 76.39920234562841, 13.000956879197116 ], [ 76.39946469019111, 13.000967359745427 ], [ 76.399684605082101, 13.000975041808625 ], [ 76.399721637317711, 13.000975438190743 ], [ 76.399773327111788, 13.000978811231956 ], [ 76.39982466169343, 13.0009809922473 ], [ 76.400366529748126, 13.001018893749951 ], [ 76.400720198008301, 13.001049594476765 ], [ 76.401397865540375, 13.001116063446396 ], [ 76.40169399241384, 13.001140455882815 ], [ 76.402057043899433, 13.001170965787114 ], [ 76.40214865696224, 13.001179816033714 ], [ 76.402192107250357, 13.00118402379354 ], [ 76.402819136120769, 13.001183661063472 ], [ 76.403169759723426, 13.00117617612219 ], [ 76.40335212057883, 13.001053209469683 ], [ 76.403465185731704, 13.001032897858328 ], [ 76.403797639908802, 13.000973251259136 ], [ 76.404084912627354, 13.000921751551319 ], [ 76.404496813279422, 13.000999021325484 ], [ 76.404599514939889, 13.001004252482927 ], [ 76.405991408601949, 13.001072077485144 ], [ 76.406088602190138, 13.001064599251336 ], [ 76.406933732062626, 13.000984813903697 ], [ 76.407792081857338, 13.000899896166082 ], [ 76.408162215604648, 13.000884417470498 ], [ 76.408191493038302, 13.000899687687662 ], [ 76.408268346179497, 13.000939584066865 ], [ 76.408980384052967, 13.001299800982613 ], [ 76.410356786407846, 13.001978019863403 ], [ 76.410626974376868, 13.002207527443067 ], [ 76.41216633356899, 13.003514607199669 ], [ 76.41221176773908, 13.003533557895949 ], [ 76.413489321878458, 13.004077650586222 ], [ 76.414648847842216, 13.004516362247537 ], [ 76.415120365753765, 13.004695618302891 ], [ 76.415218869851643, 13.004733288900031 ], [ 76.415926687067568, 13.00500732093299 ], [ 76.416021751035686, 13.005044712541249 ], [ 76.417119918671006, 13.005486815294839 ], [ 76.417119955825868, 13.005486829691487 ], [ 76.417185374348023, 13.005507404928579 ], [ 76.417183876673761, 13.005511597534511 ], [ 76.417187790855564, 13.005513114188995 ], [ 76.422200402150523, 13.002301799568846 ], [ 76.422181944024459, 13.00218937736714 ], [ 76.422170984513045, 13.00212045528472 ], [ 76.422139838017173, 13.001930635332656 ], [ 76.422077024250072, 13.001542359698014 ], [ 76.422013633387152, 13.001160276478339 ], [ 76.42200256366182, 13.001095776538271 ], [ 76.421983318927531, 13.000978417231508 ], [ 76.42197398585111, 13.000922778922508 ], [ 76.421971656436682, 13.000911650540441 ], [ 76.421968151005416, 13.000888277323964 ], [ 76.421840427995335, 13.000160256006616 ], [ 76.421452052234258, 12.999465297305189 ], [ 76.421440958231457, 12.999431906574374 ], [ 76.421432944257504, 12.999417880276235 ], [ 76.42103704886766, 12.99825916752533 ], [ 76.421004632160034, 12.998152854025681 ], [ 76.420807059610667, 12.99750762552604 ], [ 76.420372195800169, 12.996078714453422 ], [ 76.420358729010871, 12.996036422071402 ], [ 76.420294020481634, 12.995717591535893 ], [ 76.419899622553331, 12.994209734627436 ], [ 76.419827912362081, 12.993878672725369 ], [ 76.419738498181943, 12.993662868034933 ], [ 76.419326614069007, 12.992630578466397 ], [ 76.418973343270707, 12.991716104361913 ], [ 76.418797698590808, 12.991236380850379 ], [ 76.418783722463999, 12.991197146693676 ], [ 76.4186878495576, 12.990999467054969 ], [ 76.418587008643527, 12.990818473792336 ], [ 76.418449581435084, 12.990650743294026 ], [ 76.418195229416895, 12.990408929833968 ], [ 76.417975881432923, 12.990199502403989 ], [ 76.417697947404122, 12.989914338098995 ], [ 76.41726870260635, 12.989465408782888 ], [ 76.417340878832547, 12.989457908643512 ], [ 76.417384615858211, 12.989453099326413 ], [ 76.417299916373523, 12.989364043232877 ], [ 76.417519000398713, 12.989348107531974 ], [ 76.41712159607799, 12.988641400172046 ], [ 76.416736797974593, 12.987826620751708 ], [ 76.416252230419047, 12.986461245814338 ], [ 76.415892760349806, 12.985788044648647 ], [ 76.41519374214181, 12.984371147186618 ], [ 76.415146208392656, 12.984278360255068 ], [ 76.415128630473902, 12.984243799304696 ], [ 76.415091851527706, 12.984172324407506 ], [ 76.415080501114986, 12.984150985764794 ], [ 76.414590677273807, 12.983235267620719 ], [ 76.414333663320335, 12.982743230823402 ], [ 76.414091059436785, 12.982288477681074 ], [ 76.414086153941611, 12.982278886032383 ], [ 76.41408473763785, 12.982276280621868 ], [ 76.413419048635745, 12.981021808849851 ], [ 76.413240836637783, 12.980690419328889 ], [ 76.412996563573799, 12.980238054075873 ], [ 76.412431635140479, 12.979134533824789 ], [ 76.411869516838323, 12.978062961023426 ], [ 76.411817926149538, 12.97789784341427 ], [ 76.411664817207452, 12.977201014994922 ], [ 76.411628165459589, 12.977039087898012 ], [ 76.411417948132353, 12.976134350439597 ], [ 76.411416182407137, 12.97612691808631 ], [ 76.411226323564335, 12.975348881028514 ], [ 76.411011118425876, 12.974457436477218 ], [ 76.410436967268964, 12.971039620360541 ], [ 76.410246613709361, 12.970117615492063 ], [ 76.410206354030706, 12.96920504238226 ], [ 76.410206455418631, 12.969184587343618 ], [ 76.410208415355996, 12.968786840593557 ], [ 76.410270291261725, 12.968620082297781 ], [ 76.410327279081045, 12.96846645433499 ], [ 76.4105926399412, 12.967750424597732 ], [ 76.410636509467466, 12.967630983813944 ], [ 76.410960638680081, 12.967075382876645 ], [ 76.411013026290604, 12.966950082090669 ], [ 76.410863955627249, 12.966333699941003 ], [ 76.411748915224734, 12.965970941437954 ], [ 76.41174592924402, 12.965778289899703 ], [ 76.41174483611826, 12.965707679679891 ], [ 76.411743922733748, 12.965648512544449 ], [ 76.411729988005078, 12.964723061174572 ], [ 76.411716474259421, 12.964489147306107 ], [ 76.412328864531005, 12.96436808659263 ], [ 76.412449806894358, 12.964344769283201 ], [ 76.413143898350739, 12.963165114323303 ], [ 76.413404327143041, 12.962677415812051 ], [ 76.413546335962067, 12.960674256448447 ], [ 76.413819020631664, 12.958643119342959 ], [ 76.41383337248817, 12.958631302388884 ], [ 76.413838150270152, 12.9585963379656 ], [ 76.414562981404487, 12.958009219449004 ], [ 76.415757628607011, 12.956916752891871 ], [ 76.415842667100634, 12.956838987545327 ], [ 76.415853012760905, 12.956837034122998 ], [ 76.415857164831678, 12.95683321248633 ], [ 76.416156857972268, 12.956773733947914 ], [ 76.416115826627603, 12.957155222144271 ], [ 76.416167678878807, 12.957723808531984 ], [ 76.416231032790677, 12.957772153932615 ], [ 76.416624070877859, 12.958073061869165 ], [ 76.416922227092812, 12.958278489670839 ], [ 76.417274813175808, 12.958540968581174 ], [ 76.417452222017459, 12.958661655863862 ], [ 76.417537853222967, 12.958719934212027 ], [ 76.417760344809466, 12.958913540348966 ], [ 76.41813901875399, 12.959201848492357 ], [ 76.41833298691499, 12.959350396422149 ], [ 76.418475749779432, 12.95967909393273 ], [ 76.418664329442592, 12.95983178511419 ], [ 76.418873421581878, 12.960014013636453 ], [ 76.418874841340696, 12.960015198308254 ], [ 76.419242007535246, 12.960235861313551 ], [ 76.41965289317227, 12.960505800562085 ], [ 76.419449400468537, 12.960953382418836 ], [ 76.419395334096478, 12.961072169237863 ], [ 76.419296252064299, 12.961607617071193 ], [ 76.419295530371173, 12.961611529096801 ], [ 76.419320694613816, 12.961630759732301 ], [ 76.419504935961072, 12.961806094199877 ], [ 76.41951566010664, 12.961811244147022 ], [ 76.419574005799916, 12.961837570019643 ], [ 76.419620092235562, 12.961853553218232 ], [ 76.419761249748689, 12.961902506697454 ], [ 76.420012047644278, 12.961974649771456 ], [ 76.420694619009581, 12.962170993151259 ], [ 76.421183807600016, 12.962168193503427 ], [ 76.421205388088268, 12.962168069390859 ], [ 76.421497546755944, 12.96190837806669 ], [ 76.421506769762587, 12.961878146932127 ], [ 76.421561541323726, 12.961698624595595 ], [ 76.421677244102668, 12.961318422890184 ], [ 76.421774020654667, 12.961024864737192 ], [ 76.421877072620433, 12.961045899177199 ], [ 76.422260729539602, 12.961026200068501 ], [ 76.422329311240716, 12.96098939521303 ], [ 76.422512558898532, 12.960701080704411 ], [ 76.422753815208424, 12.960248579836939 ], [ 76.423386073312571, 12.960305976463582 ], [ 76.423735269967054, 12.960320340953849 ], [ 76.423987922248415, 12.960380121173861 ], [ 76.424153037462844, 12.959763299371042 ], [ 76.424199715235432, 12.959674176991925 ], [ 76.424371422833417, 12.95957110160874 ], [ 76.424740455879387, 12.959349573122184 ], [ 76.424844174645571, 12.959287310779402 ], [ 76.42503261523791, 12.95929639307594 ], [ 76.425501188588072, 12.959318976900462 ], [ 76.425906337773853, 12.959340994060531 ], [ 76.425996165542387, 12.959428862155582 ], [ 76.426411492965457, 12.959522619203389 ], [ 76.427049658932802, 12.959669900305325 ], [ 76.427278939629858, 12.959722814591233 ], [ 76.427572028765837, 12.959397750625227 ], [ 76.427467786134173, 12.959237558235829 ], [ 76.427396946556613, 12.958879457180824 ], [ 76.427360305226372, 12.958619617402791 ], [ 76.4273091346831, 12.958307704282422 ], [ 76.427329087421981, 12.958307495500677 ], [ 76.427375019824098, 12.958307014167602 ], [ 76.427493531071789, 12.958234175032704 ], [ 76.427715873995879, 12.958077879811377 ], [ 76.427837904452858, 12.958031764883108 ], [ 76.427956483918521, 12.957986955242001 ], [ 76.428096551605492, 12.957940632833621 ], [ 76.428046957025501, 12.957725186518116 ], [ 76.428150375613612, 12.957669401948445 ], [ 76.428222148206913, 12.957627076344162 ], [ 76.428286385992081, 12.957589196425038 ], [ 76.4282556735632, 12.957353436339773 ], [ 76.428248499165178, 12.957298371123377 ], [ 76.428769171615642, 12.957105792628594 ], [ 76.428766809389174, 12.956839266109531 ], [ 76.428758174439338, 12.956681959731133 ], [ 76.428996351788967, 12.956495964683388 ], [ 76.429272244897462, 12.956255598164391 ], [ 76.429593051213089, 12.9562306596606 ], [ 76.430293927066387, 12.956264849048141 ], [ 76.430315041128182, 12.956185696495009 ], [ 76.430325903839446, 12.955957367384272 ], [ 76.430651032015547, 12.955998865599065 ], [ 76.430680018782596, 12.955563771784073 ], [ 76.431092440104422, 12.955581215972463 ], [ 76.431064781747381, 12.954863759127104 ], [ 76.431129540942692, 12.9548610583736 ], [ 76.431496035054522, 12.954845769367623 ], [ 76.431596727612799, 12.954841568365152 ], [ 76.431695771872299, 12.954817964378082 ], [ 76.433164869173083, 12.954684322445305 ], [ 76.433268587666362, 12.954627912451746 ], [ 76.433291629983685, 12.954612765417993 ], [ 76.43332285598332, 12.954592239650054 ], [ 76.433414727683555, 12.954531846584731 ], [ 76.433650875081071, 12.954376615479179 ], [ 76.433695666678972, 12.954347170107422 ], [ 76.434164931754196, 12.954196673716378 ], [ 76.434431271772951, 12.954111255831775 ], [ 76.435299116762778, 12.954026739299682 ], [ 76.435323255582247, 12.953978731338442 ], [ 76.435416136984955, 12.954154958759084 ], [ 76.435557439358433, 12.954361715608291 ], [ 76.435625583267253, 12.955457243811242 ], [ 76.435543492815185, 12.955581112679615 ], [ 76.435825756288111, 12.955772186118228 ], [ 76.435798877811848, 12.956110200911471 ], [ 76.435698061335941, 12.956598293276565 ], [ 76.435815565649904, 12.956665955010811 ], [ 76.435704391517348, 12.956967116564005 ], [ 76.435894968278532, 12.957157294749535 ], [ 76.436245613535533, 12.957262107989019 ], [ 76.436218051995098, 12.957583761992618 ], [ 76.436267963580889, 12.957545393300363 ], [ 76.436352516440394, 12.957678996450303 ], [ 76.436614314524476, 12.958092660201944 ], [ 76.437010473516409, 12.958512829831834 ], [ 76.437024803443578, 12.958528027753914 ], [ 76.437066609034005, 12.958626852954115 ], [ 76.437256181099457, 12.959074982202184 ], [ 76.437290842335216, 12.959156917245352 ], [ 76.437299870679524, 12.959178260981655 ], [ 76.437612330978567, 12.959939466027969 ], [ 76.437718734041781, 12.96064038203105 ], [ 76.43824535000752, 12.960881556796693 ], [ 76.438267257250558, 12.961658515659446 ], [ 76.43853499148436, 12.961652260826375 ], [ 76.438619259485861, 12.961794685002751 ], [ 76.439026542297057, 12.962483044095066 ], [ 76.439091373091387, 12.962592615954867 ], [ 76.439130582854915, 12.962658885103927 ], [ 76.439294221064316, 12.962940331018666 ], [ 76.439623384783985, 12.963506465529978 ], [ 76.440467147900648, 12.96458710368522 ], [ 76.441356374777016, 12.965679953847733 ], [ 76.442078891977687, 12.966578712394538 ], [ 76.442473949031623, 12.967078597827218 ], [ 76.443424259615369, 12.968087808188676 ], [ 76.444385701553458, 12.969079852140586 ], [ 76.444971583787037, 12.969731866007066 ], [ 76.445652050033004, 12.967987874999736 ], [ 76.4469311880368, 12.965009075076759 ], [ 76.447403510411803, 12.964236019880049 ], [ 76.447797728468501, 12.963590794597406 ], [ 76.448448270109921, 12.96226014000321 ], [ 76.448447666108848, 12.962258183463549 ], [ 76.448460746577865, 12.962232822754274 ], [ 76.448248319047991, 12.961602403189326 ], [ 76.448216805884996, 12.961513355964392 ], [ 76.44821464461377, 12.961506699985661 ], [ 76.448215461525663, 12.96150489217019 ], [ 76.448209908004699, 12.961488411028276 ], [ 76.44820783304624, 12.961481697616616 ], [ 76.448778319460558, 12.960226769585775 ], [ 76.448792094619975, 12.960183208133888 ], [ 76.44917426298224, 12.958974712236438 ], [ 76.449206825821506, 12.958872211644961 ], [ 76.449206825933658, 12.958872211284238 ], [ 76.449024762052488, 12.956754006254064 ], [ 76.448962018243762, 12.95612908807318 ], [ 76.449386574390246, 12.954267434992742 ], [ 76.449364849728013, 12.954229875686989 ], [ 76.449345079318135, 12.954195697363728 ], [ 76.448600691516901, 12.953630387591947 ], [ 76.448381177962958, 12.953463786925862 ], [ 76.448316195591531, 12.953414455440058 ], [ 76.448251522072454, 12.953360985453546 ], [ 76.448080968272905, 12.953219977978979 ], [ 76.44803160582984, 12.953179166710781 ], [ 76.447499437315358, 12.952739188618457 ], [ 76.446215882001482, 12.952022833025778 ], [ 76.444877284381874, 12.951285156704692 ], [ 76.444644066767069, 12.951156173929821 ], [ 76.444628600224931, 12.951119189639666 ], [ 76.444633252202152, 12.951117177690568 ], [ 76.444629804891008, 12.95110879131154 ], [ 76.444786998839589, 12.951039403684343 ], [ 76.444464626898267, 12.950257149486529 ], [ 76.444048732018786, 12.950084881742967 ], [ 76.444033332416041, 12.949657666260835 ], [ 76.44375685102554, 12.949555587018926 ], [ 76.443758396685652, 12.949510026348277 ], [ 76.443751840740077, 12.94950758806187 ], [ 76.443755417732319, 12.949330854065201 ], [ 76.443757647302832, 12.94922072452443 ], [ 76.443760938051554, 12.949058144468996 ], [ 76.443839686051049, 12.949002340925375 ], [ 76.443961865089449, 12.948915764480899 ], [ 76.443961517269898, 12.948914055169451 ], [ 76.443959014302152, 12.948860210475997 ], [ 76.443953548276937, 12.948834042446407 ], [ 76.443933266923409, 12.948480762192068 ], [ 76.443705813905993, 12.94814254582889 ], [ 76.443401494063465, 12.948078040118556 ], [ 76.442671907894976, 12.948210574254322 ], [ 76.442622930859031, 12.94811878852815 ], [ 76.442608444206087, 12.948121677463735 ], [ 76.442499586205912, 12.947904827072472 ], [ 76.442179679696054, 12.947195282822001 ], [ 76.4412857333554, 12.94530117401208 ], [ 76.441299302384394, 12.945242629029531 ], [ 76.441274112327449, 12.945186758143734 ], [ 76.441358916648269, 12.944842172765487 ], [ 76.441380152577707, 12.944561375454187 ], [ 76.441756300203195, 12.944622296554023 ], [ 76.441952343554362, 12.944661042833287 ], [ 76.441880306508452, 12.944508857356544 ], [ 76.441636503706818, 12.944001391734069 ], [ 76.441412147995749, 12.943527340998013 ], [ 76.441258287639229, 12.943177359891628 ], [ 76.441047456965023, 12.943093114579206 ], [ 76.440756843296327, 12.942971095337322 ], [ 76.440624853513555, 12.942689735214795 ], [ 76.44049303171812, 12.942370801314199 ], [ 76.440481547260759, 12.942343460389615 ], [ 76.440144477358999, 12.94234586189175 ], [ 76.440036344677708, 12.942032100711719 ], [ 76.439997353590911, 12.941875647163146 ], [ 76.43983856720682, 12.941481815608546 ], [ 76.439729535408716, 12.941193036261748 ], [ 76.439414057193702, 12.941270130317379 ], [ 76.439280109220135, 12.941086395843215 ], [ 76.439142341419085, 12.940904484064429 ], [ 76.439051511788279, 12.940663561093983 ], [ 76.438954471555647, 12.940362758576127 ], [ 76.438811953286233, 12.940388677473965 ], [ 76.438724802539028, 12.94012556209834 ], [ 76.438666552158509, 12.93988112607601 ], [ 76.438666191123602, 12.939834976735677 ], [ 76.438632547898635, 12.939697216776013 ], [ 76.438630203597, 12.93953959433442 ], [ 76.438647444945303, 12.939388746145148 ], [ 76.438715901274406, 12.939049755151208 ], [ 76.438725629472671, 12.938796087459711 ], [ 76.438970995762176, 12.938777383998206 ], [ 76.438993980120287, 12.938564389068766 ], [ 76.439003748428135, 12.938471733939791 ], [ 76.439022112041414, 12.938204504457943 ], [ 76.439032612305851, 12.938060193597755 ], [ 76.438996824350241, 12.937950563475246 ], [ 76.439020090829629, 12.937946010797322 ], [ 76.438991499585526, 12.937871751661163 ], [ 76.438933860374789, 12.937710188084678 ], [ 76.438961493278072, 12.937703468271582 ], [ 76.438936303096796, 12.937668288757372 ], [ 76.438853408107306, 12.937518383463756 ], [ 76.438833478862165, 12.937391689533492 ], [ 76.438335960354024, 12.937403930007209 ], [ 76.438243338413812, 12.937311089095383 ], [ 76.438116044687575, 12.937143973518817 ], [ 76.437976538664728, 12.936960050778783 ], [ 76.4377361777983, 12.936671483214573 ], [ 76.437597982152653, 12.936489676528812 ], [ 76.437581011928273, 12.936469778587032 ], [ 76.437457234768459, 12.936328169075127 ], [ 76.437346947563015, 12.936180835953342 ], [ 76.437286946296013, 12.936035778815731 ], [ 76.437279211339316, 12.936025884323097 ], [ 76.437147234098333, 12.935710669601383 ], [ 76.437077475368341, 12.935450805929035 ], [ 76.437007132333562, 12.935150830517509 ], [ 76.436953508366372, 12.934917515715131 ], [ 76.436950048697724, 12.93490113316038 ], [ 76.436915452686392, 12.934751427469847 ], [ 76.43685952229076, 12.934503989187048 ], [ 76.436821473111209, 12.934363323688219 ], [ 76.436824867278546, 12.93411417643107 ], [ 76.436821406178623, 12.934092708774424 ], [ 76.436803525647846, 12.933989891037179 ], [ 76.436798303767731, 12.933836788966062 ], [ 76.436806381519602, 12.933800342856435 ], [ 76.436876731559266, 12.933428256819527 ], [ 76.436915013121563, 12.933320037469146 ], [ 76.436972441340416, 12.933297862040273 ], [ 76.437141352338884, 12.933240611415671 ], [ 76.437323377749195, 12.933179238446778 ], [ 76.437733259322528, 12.933015500946972 ], [ 76.438149195230253, 12.932875040501937 ], [ 76.438248359090068, 12.932826692859548 ], [ 76.438300765490297, 12.932798602041565 ], [ 76.438563954970306, 12.932674812241501 ], [ 76.438602553727819, 12.932656191828043 ], [ 76.438868607070219, 12.932527848693573 ], [ 76.439069025528184, 12.93244475087319 ], [ 76.439060942454162, 12.932370743718845 ], [ 76.439299372863374, 12.932283116714315 ], [ 76.439393306967261, 12.932249213212369 ], [ 76.439516847500272, 12.93220462359138 ], [ 76.439584453048695, 12.932180223656399 ], [ 76.440277287802161, 12.931941638983252 ], [ 76.440283520392128, 12.931545037372407 ], [ 76.440306511819912, 12.931362550237715 ], [ 76.440293430180589, 12.931041052177402 ], [ 76.440264729522724, 12.930954170281021 ], [ 76.440183717430841, 12.930730978745984 ], [ 76.440175897583714, 12.930710294580718 ], [ 76.439913452285367, 12.93080423729533 ], [ 76.439739656457576, 12.930866188412331 ], [ 76.43972744134409, 12.930820362221125 ], [ 76.439725792467257, 12.930820900375464 ], [ 76.439698120860285, 12.93071771392025 ], [ 76.439463538958435, 12.930716208068148 ], [ 76.439322315823901, 12.930718384575146 ], [ 76.439036147738648, 12.93072061083941 ], [ 76.438880522767235, 12.930637658285319 ], [ 76.438621785579514, 12.930631380623394 ], [ 76.4384535717722, 12.930630269590017 ], [ 76.438183874960018, 12.930638232003979 ], [ 76.437770332161833, 12.930650196235584 ], [ 76.437147140797705, 12.930680288232514 ], [ 76.437144206954201, 12.930636887064484 ], [ 76.437141240237438, 12.93063693234267 ], [ 76.437136133643747, 12.930550012837779 ], [ 76.437132772465375, 12.930492401038633 ], [ 76.436705486140909, 12.930554902497475 ], [ 76.436492240601055, 12.930586095180203 ], [ 76.436272057644842, 12.930518165823308 ], [ 76.436067718994451, 12.930455124807189 ], [ 76.435565778681863, 12.930362432652544 ], [ 76.435480776183013, 12.930328298855011 ], [ 76.435208782722924, 12.930219074036822 ], [ 76.434945799877383, 12.930285727012246 ], [ 76.434779134286316, 12.930327967855979 ], [ 76.434615275086514, 12.930252781801359 ], [ 76.434201547282413, 12.930062942407432 ], [ 76.434046054006643, 12.929856854905614 ], [ 76.434073264879189, 12.929815053731266 ], [ 76.433988642921804, 12.929706520837913 ], [ 76.434857462667225, 12.928497714565856 ], [ 76.435789493657325, 12.927141431996954 ], [ 76.436403639466477, 12.926198555830961 ], [ 76.437747371706905, 12.924605982463234 ], [ 76.437765511825219, 12.924583685449001 ], [ 76.437767258312931, 12.924582413125405 ], [ 76.437785982125405, 12.924560221914835 ], [ 76.438078110062165, 12.924355956326432 ], [ 76.438473487309338, 12.92406792234881 ], [ 76.439059029204529, 12.923684114867305 ], [ 76.43908658855247, 12.923688711575929 ], [ 76.439134126682163, 12.923658665987746 ], [ 76.439514529739043, 12.923713007750656 ], [ 76.440578183237946, 12.923336415699731 ], [ 76.441660426666061, 12.922905681922083 ], [ 76.442302495042156, 12.922638831283246 ], [ 76.444235511953138, 12.921998298219908 ], [ 76.44427908643388, 12.922117576583201 ], [ 76.44500520306643, 12.921392270166756 ], [ 76.447226763049443, 12.91901465783867 ], [ 76.447790555903723, 12.91835121229092 ], [ 76.448602014402695, 12.920024851727069 ], [ 76.450757372221915, 12.920844857768339 ], [ 76.452439479077015, 12.921340234389078 ], [ 76.453096819246312, 12.921609440652393 ], [ 76.454908781739562, 12.927861830796315 ], [ 76.456475828484415, 12.93306734403571 ], [ 76.458165573147099, 12.932594114572264 ], [ 76.459272388753078, 12.932506838409058 ], [ 76.460093016138472, 12.932649640508442 ], [ 76.460649473666379, 12.932571556703529 ], [ 76.460904404880011, 12.932507396027047 ], [ 76.460988087308323, 12.932484180586483 ], [ 76.460990014102819, 12.932483645472812 ], [ 76.461022266892343, 12.932480810718673 ], [ 76.461119027484926, 12.932471739606038 ], [ 76.462483464879242, 12.932346430206854 ], [ 76.463928937050412, 12.932225591482325 ], [ 76.464003413110333, 12.932219365402069 ], [ 76.465021669931218, 12.932049322715857 ], [ 76.465105183529715, 12.932035375981838 ], [ 76.466225344675237, 12.931744034435313 ], [ 76.467636768191113, 12.931738950694459 ], [ 76.467727994300745, 12.931716755900187 ], [ 76.467974241382123, 12.931656845348247 ], [ 76.469457516124635, 12.93147509423882 ], [ 76.470054836841385, 12.931398061701424 ], [ 76.470626370655182, 12.932667466722572 ], [ 76.470685400622031, 12.932789430742242 ], [ 76.471134721008212, 12.933721815814529 ], [ 76.471276837416653, 12.933981563542826 ], [ 76.471412073510066, 12.934166997263569 ], [ 76.471473978069042, 12.934251876938642 ], [ 76.471996780255452, 12.934960875972026 ], [ 76.472123259464752, 12.935115418106923 ], [ 76.472244504067447, 12.935741841832302 ], [ 76.472250076798389, 12.935752134128983 ], [ 76.47263232912934, 12.93645130057056 ], [ 76.473014654738208, 12.937165701891834 ], [ 76.473039424685894, 12.937214638660777 ], [ 76.473142129165367, 12.937888579505838 ], [ 76.473186207296948, 12.938242150983561 ], [ 76.4732311978685, 12.938607152040138 ], [ 76.47325229366983, 12.938823164249365 ], [ 76.473274857073761, 12.939487692113079 ], [ 76.47328008254587, 12.939656062474919 ], [ 76.4732869150792, 12.939880694341916 ], [ 76.473292492529509, 12.939968080240535 ], [ 76.473332685544094, 12.940520617013625 ], [ 76.473342658350518, 12.940657705466142 ], [ 76.473397143125183, 12.941213857910439 ], [ 76.473414603572778, 12.941812464550013 ], [ 76.473045622110376, 12.94210325761034 ], [ 76.472930835064275, 12.942193721630538 ], [ 76.472680466291976, 12.942597475883783 ], [ 76.474028255859224, 12.942457274033343 ], [ 76.474162626216469, 12.942442141252229 ], [ 76.474211085573302, 12.942438255438118 ], [ 76.474235719988584, 12.942435692878879 ], [ 76.474361051706694, 12.942427138407899 ], [ 76.474511125816136, 12.942416894503417 ], [ 76.476010077850191, 12.942136374835794 ], [ 76.476095980329049, 12.942120298130687 ], [ 76.476226138591102, 12.942095939691733 ], [ 76.476358842955321, 12.942057256394715 ], [ 76.47693211183072, 12.941890148601511 ], [ 76.477645950446913, 12.941676899221065 ], [ 76.478765210685012, 12.941294263346064 ], [ 76.479264503019209, 12.941127142635313 ], [ 76.47971750705716, 12.940975516127379 ], [ 76.479761988312987, 12.940983802940547 ], [ 76.480394597015916, 12.941101675232375 ], [ 76.480830595737572, 12.941182912218888 ], [ 76.481608644262167, 12.941277200902034 ], [ 76.48274344848538, 12.941414717797995 ], [ 76.482978076784619, 12.941440293037266 ], [ 76.483057254023237, 12.941449807566052 ], [ 76.483104882367002, 12.941458516776251 ], [ 76.483107221633205, 12.941458800251251 ], [ 76.483186136544745, 12.941468372279777 ], [ 76.483357098833991, 12.941499760117635 ], [ 76.483556546827032, 12.93965669883157 ] ], [ [ 76.412083158479575, 12.869231672368285 ], [ 76.412238970172055, 12.86947318490426 ], [ 76.412320498952198, 12.869393055278259 ], [ 76.412509653271016, 12.869561580891263 ], [ 76.411945470554727, 12.869735633332111 ], [ 76.411837386659926, 12.869856052130737 ], [ 76.411581044520901, 12.869980635029744 ], [ 76.410913264611096, 12.870277395168818 ], [ 76.410833525414276, 12.870168837875257 ], [ 76.410769905477352, 12.86999134813531 ], [ 76.410778168850669, 12.869844842324062 ], [ 76.411019199912957, 12.869798181567958 ], [ 76.41133750670086, 12.869576159005826 ], [ 76.41167397203705, 12.86943264750499 ], [ 76.412083158479575, 12.869231672368285 ] ] ] } }
]
}
