{
"type": "FeatureCollection",
"name": "hoblis_in_police_area.writing_20260805_172659",
"crs": { "type": "name", "properties": { "name": "urn:ogc:def:crs:OGC:1.3:CRS84" } },
"features": [
{ "type": "Feature", "properties": { "OBJECTID": 651, "KGISHobliID": 684, "KGISHobliCode": "060101", "KGISHobliName": "Lingasuguru", "BhuCodeHobli": null, "SHAPE.STArea()": 407863414.3437379, "SHAPE.STLength()": 110290.36909369352, "KGISTalukCode": "0601", "created_user": null, "created_date": null, "last_edited_user": null, "last_edited_date": null, "_overlap_percent": 0.24364520505718612, "_police_station": "Narayanpur PS", "_police_feature_index": "302", "_admin_layer": "Hobli", "_geometry_clipped": true }, "geometry": { "type": "Polygon", "coordinates": [ [ [ 76.362093625864247, 16.207343676893814 ], [ 76.362105681793196, 16.207364585973874 ], [ 76.362111512360542, 16.207365980214515 ], [ 76.363214331986811, 16.209136015197952 ], [ 76.366159039179408, 16.212685630256114 ], [ 76.366404940172117, 16.213341198221261 ], [ 76.366489330570801, 16.213566179739203 ], [ 76.366977212969744, 16.214866849738563 ], [ 76.367009304457838, 16.21523000865227 ], [ 76.367046048203292, 16.215645812208212 ], [ 76.366726580363874, 16.215862555039738 ], [ 76.366754448097979, 16.216241570401319 ], [ 76.366800438424121, 16.216867056718165 ], [ 76.367718394252861, 16.21848761968759 ], [ 76.368639400805762, 16.218918173842038 ], [ 76.368752588561861, 16.218920334405357 ], [ 76.369049312085934, 16.218742706178233 ], [ 76.370919727786571, 16.218719189306043 ], [ 76.373614304144866, 16.219180631748912 ], [ 76.375423045353884, 16.219799155787243 ], [ 76.375961726040671, 16.220164305211199 ], [ 76.37674064950987, 16.220692299981273 ], [ 76.376784656785475, 16.220722130082123 ], [ 76.377909442668397, 16.221484557379085 ], [ 76.379940980910177, 16.222283863038015 ], [ 76.379994395425697, 16.222304878848465 ], [ 76.381227460021492, 16.222790013039525 ], [ 76.382868866459361, 16.223876815932766 ], [ 76.38297956143559, 16.223913235284769 ], [ 76.383041356508812, 16.223933565708464 ], [ 76.38470350450325, 16.224480412657989 ], [ 76.385599423497027, 16.224775163365184 ], [ 76.385605390004898, 16.224778648314082 ], [ 76.386161937966975, 16.225103747341482 ], [ 76.388815967064502, 16.226654022763498 ], [ 76.390046566486177, 16.227275899548474 ], [ 76.390209855418192, 16.227358416392324 ], [ 76.390891972130461, 16.227703114805923 ], [ 76.391186099282578, 16.227851747060452 ], [ 76.391186211000317, 16.22785180326704 ], [ 76.392115015075547, 16.228321154467604 ], [ 76.394213312790271, 16.22967162782712 ], [ 76.394234785200737, 16.229685447625908 ], [ 76.394763184599256, 16.230025521021894 ], [ 76.394765604013998, 16.230032193192756 ], [ 76.39484178732603, 16.230242326971556 ], [ 76.39488862850385, 16.23037152726976 ], [ 76.396014812910892, 16.233477787994996 ], [ 76.396396551131076, 16.234530678098913 ], [ 76.399333826391015, 16.239566997975214 ], [ 76.400353610398128, 16.2400159137696 ], [ 76.401060090289704, 16.240326906613131 ], [ 76.401445764017666, 16.240496679097056 ], [ 76.403729982240534, 16.240623351483663 ], [ 76.40918682789723, 16.240925863428739 ], [ 76.40942517372379, 16.240939073236341 ], [ 76.410005982788462, 16.240971262632485 ], [ 76.413593235166928, 16.24145584804047 ], [ 76.413719785679689, 16.24147294168753 ], [ 76.414857972195804, 16.241626680419188 ], [ 76.415326241907707, 16.243754230602388 ], [ 76.415051815573861, 16.24418187440623 ], [ 76.415002711085791, 16.244258394102793 ], [ 76.413305360414682, 16.246903358852723 ], [ 76.4131898371174, 16.247347756529003 ], [ 76.413149825023538, 16.247501674306264 ], [ 76.412812070735583, 16.248800938852316 ], [ 76.413797129452803, 16.250521529018751 ], [ 76.413811623455643, 16.250518374808042 ], [ 76.413814259997281, 16.25051780104258 ], [ 76.414587790813172, 16.247996701653822 ], [ 76.416284127293082, 16.245995331924632 ], [ 76.416238902723364, 16.244995111422465 ], [ 76.416097676910923, 16.241871538742881 ], [ 76.414110995740359, 16.240602361852325 ], [ 76.408954293190689, 16.240175366228542 ], [ 76.401083090184898, 16.23952335367505 ], [ 76.400944896099276, 16.239326570536125 ], [ 76.397756311782288, 16.234786001135006 ], [ 76.397180122558012, 16.23326852491325 ], [ 76.397106593468763, 16.233074870843787 ], [ 76.397030310660725, 16.233097609307674 ], [ 76.397084707669251, 16.233016869459171 ], [ 76.396981938281286, 16.232746150762765 ], [ 76.395609384245276, 16.229135550134842 ], [ 76.385988535556166, 16.224372853687399 ], [ 76.385973351433819, 16.224385219197053 ], [ 76.38581465033478, 16.224309915457894 ], [ 76.385814672889566, 16.224306186241641 ], [ 76.384011875193309, 16.223502394603162 ], [ 76.383054686801685, 16.223075616725041 ], [ 76.383054785079693, 16.223074954503986 ], [ 76.382334168434795, 16.222754356860261 ], [ 76.379521571141609, 16.221261483516948 ], [ 76.376124244131987, 16.219251152731207 ], [ 76.373826488189877, 16.217891424883494 ], [ 76.368802481753107, 16.217766085993667 ], [ 76.368771226814744, 16.217652890889642 ], [ 76.368374321495807, 16.214119976587849 ], [ 76.368491976392576, 16.213935351151427 ], [ 76.366040879212704, 16.21020058860363 ], [ 76.362924518689425, 16.205899335543354 ], [ 76.36284057134057, 16.205883326332781 ], [ 76.362513381210135, 16.206522390075236 ], [ 76.362092971966021, 16.207343521844134 ], [ 76.362093625864247, 16.207343676893814 ] ] ] } },
{ "type": "Feature", "properties": { "OBJECTID": 116, "KGISHobliID": 282, "KGISHobliCode": "060102", "KGISHobliName": "Gurugunta", "BhuCodeHobli": null, "SHAPE.STArea()": 593241766.82145286, "SHAPE.STLength()": 145149.92037053354, "KGISTalukCode": "0601", "created_user": null, "created_date": null, "last_edited_user": "SURESHBV1", "last_edited_date": 1666331343000.0, "_overlap_percent": 0.042125957051583555, "_police_station": "Narayanpur PS", "_police_feature_index": "302", "_admin_layer": "Hobli", "_geometry_clipped": true }, "geometry": { "type": "Polygon", "coordinates": [ [ [ 76.455898842228933, 16.277146124620412 ], [ 76.46162886712294, 16.279655267954642 ], [ 76.463612857389833, 16.27965642931829 ], [ 76.463736303522211, 16.278092715436973 ], [ 76.458619747510994, 16.27719598003473 ], [ 76.45358740649921, 16.273199293508942 ], [ 76.451143308690973, 16.274266248149225 ], [ 76.455898842228933, 16.277146124620412 ] ] ] } },
{ "type": "Feature", "properties": { "OBJECTID": 572, "KGISHobliID": 625, "KGISHobliCode": "300605", "KGISHobliName": "Kodekal", "BhuCodeHobli": null, "SHAPE.STArea()": 418204782.43850058, "SHAPE.STLength()": 121227.89767363275, "KGISTalukCode": "3006", "created_user": null, "created_date": null, "last_edited_user": null, "last_edited_date": null, "_overlap_percent": 45.3099883309837, "_police_station": "Narayanpur PS", "_police_feature_index": "302", "_admin_layer": "Hobli", "_geometry_clipped": true }, "geometry": { "type": "MultiPolygon", "coordinates": [ [ [ [ 76.46162886712294, 16.279655267954642 ], [ 76.455898842228933, 16.277146124620412 ], [ 76.451143308690973, 16.274266248149225 ], [ 76.450673327501804, 16.274471415311083 ], [ 76.45051214799571, 16.275338983616901 ], [ 76.449864688984775, 16.275920092370995 ], [ 76.448848611967463, 16.27739029827465 ], [ 76.446391141813635, 16.279098598650336 ], [ 76.444743485131127, 16.280675187665125 ], [ 76.442584750022434, 16.281965374032847 ], [ 76.44073917811825, 16.28333503734601 ], [ 76.43811900735777, 16.285039229655393 ], [ 76.436075515466612, 16.286186040229616 ], [ 76.434196585514741, 16.286520884445753 ], [ 76.430916811549054, 16.28757246726666 ], [ 76.429664270051717, 16.288129981115198 ], [ 76.428609767544458, 16.289610769686249 ], [ 76.4274727698606, 16.290852781312172 ], [ 76.425313897172941, 16.292493020034161 ], [ 76.424222200685747, 16.293148415837205 ], [ 76.420775652592937, 16.295711834868566 ], [ 76.417442129149507, 16.2969828995179 ], [ 76.415304313387765, 16.298220774130471 ], [ 76.413691706270711, 16.29959970889465 ], [ 76.412076589748054, 16.30149718504407 ], [ 76.411864280439048, 16.301746608900277 ], [ 76.411874116665743, 16.301752709691598 ], [ 76.412294805664956, 16.302013618677783 ], [ 76.412392947275578, 16.30207448412051 ], [ 76.412565470059533, 16.302181482064196 ], [ 76.41307775002663, 16.302499192542388 ], [ 76.413289643313675, 16.302529746732056 ], [ 76.413354382163078, 16.302524628517293 ], [ 76.414174321412403, 16.302712942417337 ], [ 76.416606952876009, 16.302404839356001 ], [ 76.418631650581105, 16.302316732086751 ], [ 76.420191043054942, 16.302248859959544 ], [ 76.420941682152431, 16.30218930937534 ], [ 76.422947712095862, 16.301442220904736 ], [ 76.423440217602462, 16.301714431846388 ], [ 76.423811252876888, 16.301919503088296 ], [ 76.424277901523951, 16.302177420231985 ], [ 76.424980252899303, 16.302784534938112 ], [ 76.425432039274796, 16.303175059645934 ], [ 76.425580347922917, 16.303197423565017 ], [ 76.429047204120124, 16.304109232512982 ], [ 76.429308582742593, 16.304100829876749 ], [ 76.430778878631557, 16.304053568823377 ], [ 76.430930939847443, 16.304094337804663 ], [ 76.43123541930423, 16.304208903317239 ], [ 76.431701595381327, 16.304183567187081 ], [ 76.432296433884332, 16.30439673467642 ], [ 76.432953709589427, 16.304632272870521 ], [ 76.433532817853404, 16.304797023267746 ], [ 76.434069793032307, 16.304950751763382 ], [ 76.434613459138916, 16.305106391877111 ], [ 76.436023759401039, 16.30559812013518 ], [ 76.437377822538707, 16.306228211997677 ], [ 76.438571689947409, 16.306629725726609 ], [ 76.43872384970534, 16.306689701472457 ], [ 76.442106524788045, 16.307505112097932 ], [ 76.443432250026348, 16.307653464011846 ], [ 76.443472409000634, 16.307184295567147 ], [ 76.443654952680419, 16.306702498198252 ], [ 76.444685503071625, 16.303982503322146 ], [ 76.44472967837838, 16.303201861208812 ], [ 76.445417290290806, 16.297629193980892 ], [ 76.446640470066967, 16.295040668446223 ], [ 76.446685058575625, 16.294946312287614 ], [ 76.451879144370579, 16.295129265219682 ], [ 76.453684694768867, 16.295706350893411 ], [ 76.454551228744634, 16.295983306688292 ], [ 76.456354835194006, 16.295056434153267 ], [ 76.456838505395709, 16.295385822792028 ], [ 76.457535243455538, 16.295690670649268 ], [ 76.457689857132308, 16.29575832068252 ], [ 76.458387081141623, 16.29606337907676 ], [ 76.458407189548268, 16.295666044346955 ], [ 76.458394370262681, 16.295520938880951 ], [ 76.458401792981874, 16.293704263643303 ], [ 76.458377727634542, 16.292370604557743 ], [ 76.459439179201794, 16.29045540633772 ], [ 76.460686257133688, 16.288235849728135 ], [ 76.461189394608454, 16.287316865460809 ], [ 76.461939897249337, 16.286099782689476 ], [ 76.462081826564827, 16.285686808381669 ], [ 76.462165913257294, 16.285533218363721 ], [ 76.462301273831855, 16.285048274474853 ], [ 76.462500618243325, 16.284334088584192 ], [ 76.462641082809967, 16.283830850448023 ], [ 76.463349245766565, 16.282995588323711 ], [ 76.463502165318943, 16.281058585258478 ], [ 76.463612857389833, 16.27965642931829 ], [ 76.46162886712294, 16.279655267954642 ] ] ], [ [ [ 76.332393954228806, 16.427141008622705 ], [ 76.334083173578875, 16.427078402223398 ], [ 76.334218899098502, 16.427073410935677 ], [ 76.334449945715889, 16.427064915058811 ], [ 76.334799951014688, 16.427052043628827 ], [ 76.334903649474356, 16.427048245235035 ], [ 76.334920962976383, 16.427047610916507 ], [ 76.334997616777684, 16.427044790670578 ], [ 76.335583709506437, 16.427190827516004 ], [ 76.3364557205349, 16.426945930555597 ], [ 76.336997525337992, 16.42694876133142 ], [ 76.337133943786753, 16.426949557995044 ], [ 76.339599233980522, 16.426963936158337 ], [ 76.34084163564637, 16.426972061574467 ], [ 76.340883172773786, 16.426970954782618 ], [ 76.341015348178544, 16.426967407078575 ], [ 76.34111613988847, 16.426968305856409 ], [ 76.341303143254493, 16.426970039181352 ], [ 76.342384179675292, 16.426980055150572 ], [ 76.34238420776137, 16.426980054067148 ], [ 76.342419908496169, 16.42698038879676 ], [ 76.342657031133129, 16.426978785289666 ], [ 76.342946748474574, 16.426987394997802 ], [ 76.344005850470637, 16.427019276487886 ], [ 76.345626014616968, 16.427027257065539 ], [ 76.346090839823191, 16.427029786903901 ], [ 76.346163013771999, 16.427030179904101 ], [ 76.347620950612153, 16.427038768829807 ], [ 76.34915042905979, 16.427038043236703 ], [ 76.349327022334137, 16.427037991671536 ], [ 76.34999663653474, 16.42703786671618 ], [ 76.350300289847993, 16.427037809550395 ], [ 76.351286846189467, 16.426087582919209 ], [ 76.351354351681252, 16.426022562413234 ], [ 76.352148858847755, 16.425248402703332 ], [ 76.352944775496013, 16.424474223139899 ], [ 76.353204883548173, 16.424221600577013 ], [ 76.353300253200388, 16.424128975236954 ], [ 76.353631655011057, 16.423631552459611 ], [ 76.353882423825979, 16.423255155458747 ], [ 76.354252127144676, 16.422700238685021 ], [ 76.354259106728421, 16.422689884108969 ], [ 76.354288586142943, 16.4226461763697 ], [ 76.354372136568841, 16.422522277038524 ], [ 76.354485064202706, 16.422354812472573 ], [ 76.354554241944655, 16.422252244011116 ], [ 76.357540382530871, 16.422335752235536 ], [ 76.35766164762417, 16.422339142669543 ], [ 76.35779564511617, 16.422342916138305 ], [ 76.35787423577176, 16.422345129148223 ], [ 76.358298171053917, 16.42235706700767 ], [ 76.359890296204028, 16.422590693816918 ], [ 76.359899667676288, 16.422592137922162 ], [ 76.3604244356019, 16.422673001029267 ], [ 76.360892069599231, 16.422745087721498 ], [ 76.361146474969217, 16.422784298723602 ], [ 76.361792508934968, 16.422883869495621 ], [ 76.36219909809958, 16.422946534030032 ], [ 76.362368397304635, 16.422972631341469 ], [ 76.362700395360051, 16.423023808244466 ], [ 76.363275629299835, 16.423172807507601 ], [ 76.363298023148502, 16.423178607204669 ], [ 76.363298051290414, 16.423178614252215 ], [ 76.364184808435198, 16.423394412059281 ], [ 76.364246737360389, 16.423409479761261 ], [ 76.364564142342857, 16.423486706169133 ], [ 76.365532952753924, 16.423698499570058 ], [ 76.365927646219205, 16.423784782248234 ], [ 76.366039056182927, 16.423812178656171 ], [ 76.366132200722319, 16.423835090879617 ], [ 76.367510041794674, 16.424174020862573 ], [ 76.36792183961623, 16.424260815459274 ], [ 76.368585095440011, 16.42440061201042 ], [ 76.368647625087746, 16.424413792765236 ], [ 76.368751306936105, 16.424435647240852 ], [ 76.368746209194967, 16.424350725407596 ], [ 76.368770529338164, 16.424211217335269 ], [ 76.369969635576837, 16.424340741777918 ], [ 76.369978807346101, 16.424341732120364 ], [ 76.370794753047576, 16.424452281675741 ], [ 76.370885923274827, 16.424464628512762 ], [ 76.371189511258819, 16.424527318792052 ], [ 76.371211400078309, 16.424530225184629 ], [ 76.37130043120456, 16.424538516964883 ], [ 76.37395839459586, 16.424786034191786 ], [ 76.37397044590567, 16.424787156441081 ], [ 76.373992867466498, 16.424789243837036 ], [ 76.375106451221754, 16.424322183762357 ], [ 76.375138659215409, 16.424308675385827 ], [ 76.375138686281559, 16.424308662555518 ], [ 76.375219122636636, 16.424286437542236 ], [ 76.375899275754946, 16.424098532165385 ], [ 76.375980459793936, 16.424076127540587 ], [ 76.375980486069892, 16.424076135502418 ], [ 76.376768909961257, 16.424152658221232 ], [ 76.377459316126362, 16.424219665316784 ], [ 76.378544862929118, 16.424633268703662 ], [ 76.378781164766806, 16.424723302551712 ], [ 76.37878291872542, 16.424723970676407 ], [ 76.37879271571461, 16.424727700409793 ], [ 76.378798733457799, 16.424729994452093 ], [ 76.378800654558191, 16.424730727454982 ], [ 76.378886148907853, 16.424742595606453 ], [ 76.378895628577624, 16.424743953179458 ], [ 76.381049658571172, 16.425042946006911 ], [ 76.381792596295327, 16.425145985502361 ], [ 76.384023571481279, 16.425587789476626 ], [ 76.384078181990319, 16.425598603745446 ], [ 76.384802607147861, 16.425742044974641 ], [ 76.384912796251086, 16.426055659573677 ], [ 76.384951305649096, 16.426165187838958 ], [ 76.384970516870382, 16.426219826628653 ], [ 76.384970524566356, 16.426219855498882 ], [ 76.38529316793371, 16.427203391313714 ], [ 76.385293180324567, 16.427203421960499 ], [ 76.386058359942012, 16.428646309785805 ], [ 76.386083873872778, 16.428694321847541 ], [ 76.386131369176368, 16.428783696675037 ], [ 76.386289318091272, 16.429480585589065 ], [ 76.3864549279876, 16.430182550795408 ], [ 76.386462611297233, 16.430213668721915 ], [ 76.386469980278676, 16.430232157483818 ], [ 76.387394225202556, 16.432551075649727 ], [ 76.387652989635583, 16.433216198839968 ], [ 76.387869463735981, 16.433772616268929 ], [ 76.388039367390078, 16.434153270669313 ], [ 76.3881120590367, 16.434301058457308 ], [ 76.388140412575652, 16.434355769166348 ], [ 76.388202906042665, 16.43447598318026 ], [ 76.388572732031747, 16.435187388966341 ], [ 76.388683024493545, 16.435399547858559 ], [ 76.3889879672532, 16.436007254046682 ], [ 76.389271029179255, 16.436553178474028 ], [ 76.389588538334934, 16.43705154327494 ], [ 76.389708224500765, 16.437240317191279 ], [ 76.389959485620665, 16.437639232660825 ], [ 76.390032963576658, 16.437756684412243 ], [ 76.390054334707187, 16.437790844822018 ], [ 76.390054352724661, 16.437790876334891 ], [ 76.390128077554877, 16.437724925239827 ], [ 76.390605696624561, 16.437297292466877 ], [ 76.390922317855683, 16.437053103457437 ], [ 76.391085210613511, 16.4369274907238 ], [ 76.391467180941504, 16.436734169700241 ], [ 76.391969182842317, 16.436480113005263 ], [ 76.392008084173213, 16.436460390195471 ], [ 76.392498096986458, 16.436261687869937 ], [ 76.392502323095798, 16.436259948964928 ], [ 76.393262574366062, 16.435951617556562 ], [ 76.393643111822385, 16.435835827529328 ], [ 76.394153857435526, 16.435680422997368 ], [ 76.394298153567647, 16.43563649751265 ], [ 76.394427343742407, 16.435573467965803 ], [ 76.396167422075706, 16.435129463494775 ], [ 76.397243274784515, 16.435030348875241 ], [ 76.397268063761487, 16.435028073457975 ], [ 76.39745429112017, 16.434983783459586 ], [ 76.398075691220797, 16.434872564790279 ], [ 76.398511253985902, 16.434794614856258 ], [ 76.398719207818417, 16.434778980487341 ], [ 76.39938639719152, 16.434781845515936 ], [ 76.399675872771695, 16.434743778769512 ], [ 76.400409217751502, 16.434667987310728 ], [ 76.400679014774553, 16.434640099642387 ], [ 76.400679041904908, 16.434640095846163 ], [ 76.400681125765601, 16.434639603836189 ], [ 76.401152420255215, 16.434528344424727 ], [ 76.40176089128866, 16.434421751932256 ], [ 76.403281892678578, 16.43426227583678 ], [ 76.403154283764522, 16.433310396702762 ], [ 76.403083190486058, 16.432780321748748 ], [ 76.403069481718731, 16.432760241157272 ], [ 76.403025891354048, 16.431849468412164 ], [ 76.403049393488914, 16.430632103894631 ], [ 76.403135450318928, 16.430125450410308 ], [ 76.403135018236711, 16.430088479846717 ], [ 76.403194946644831, 16.428738268789758 ], [ 76.403115316876537, 16.427744677878042 ], [ 76.403096194760138, 16.42675460559574 ], [ 76.403004952103203, 16.425314502920038 ], [ 76.403138340311941, 16.423250256591412 ], [ 76.403218844414681, 16.422554536718305 ], [ 76.403491043807293, 16.420996218779248 ], [ 76.403564525571483, 16.420644891639281 ], [ 76.403642945257587, 16.420127795208586 ], [ 76.403699609257757, 16.419509169387975 ], [ 76.40370812610206, 16.419439409622683 ], [ 76.403753129097211, 16.419070796501046 ], [ 76.403754243434548, 16.419061667238953 ], [ 76.403962243696654, 16.41735796636258 ], [ 76.404001472158015, 16.416987503804574 ], [ 76.404078796581942, 16.416257257119113 ], [ 76.404066846625867, 16.415871465223749 ], [ 76.40404481532758, 16.414601984818066 ], [ 76.404027699437549, 16.413551532346755 ], [ 76.403680139497766, 16.411540159633187 ], [ 76.403463487608732, 16.410637602646947 ], [ 76.403400097586029, 16.410498418817937 ], [ 76.402949152571011, 16.409356768271728 ], [ 76.402329666357986, 16.407788397553876 ], [ 76.40229619184943, 16.407703647816014 ], [ 76.401905130744382, 16.407201046712217 ], [ 76.40196308186519, 16.406715920688068 ], [ 76.401964101263573, 16.406707384936116 ], [ 76.401957151557468, 16.406678458001505 ], [ 76.401927148317185, 16.406553554568013 ], [ 76.401880748038806, 16.406360395161684 ], [ 76.401562683466182, 16.405036315103498 ], [ 76.401303624139274, 16.403955426940637 ], [ 76.401137687012849, 16.403263076106242 ], [ 76.401090538676669, 16.403141638863058 ], [ 76.401007607829584, 16.402928034241071 ], [ 76.400999789978854, 16.402846169698819 ], [ 76.400962769406647, 16.402458471439001 ], [ 76.400956085146831, 16.402388468653893 ], [ 76.400835818247529, 16.402057960513591 ], [ 76.400700124188845, 16.401685038629143 ], [ 76.400447789085376, 16.400998019173606 ], [ 76.399765262449989, 16.399156457216534 ], [ 76.399543511355034, 16.398137300519394 ], [ 76.399342288108031, 16.397921367068903 ], [ 76.398925891412858, 16.397730078079572 ], [ 76.398684386023106, 16.39772770122217 ], [ 76.397900875667602, 16.397840713912728 ], [ 76.397589882765146, 16.397850232497625 ], [ 76.397327410132107, 16.397858273078917 ], [ 76.397134180834882, 16.397864188377117 ], [ 76.397057035437811, 16.397838657762037 ], [ 76.396368546936685, 16.397788708051539 ], [ 76.39571892642175, 16.39765590421672 ], [ 76.39513707770665, 16.397536953587537 ], [ 76.394917375191028, 16.397492037652892 ], [ 76.394729200539871, 16.397453567750347 ], [ 76.394884431084748, 16.396631404151179 ], [ 76.394902567973787, 16.39638777362525 ], [ 76.394890133223043, 16.395460393486015 ], [ 76.394880686850271, 16.394755938127425 ], [ 76.39495872351236, 16.393936549633469 ], [ 76.394440074071056, 16.393708209833349 ], [ 76.393865537364206, 16.393518113918418 ], [ 76.393936974684905, 16.39293165649849 ], [ 76.393571841955549, 16.391646400340758 ], [ 76.393435780348639, 16.390929645970346 ], [ 76.393392390049129, 16.390781751223582 ], [ 76.393370306358577, 16.390746578657417 ], [ 76.392982837260462, 16.390129434044571 ], [ 76.392672424062908, 16.389635020702674 ], [ 76.39172687165356, 16.387982499379312 ], [ 76.391679379358138, 16.387867230682801 ], [ 76.391157683667302, 16.386601027073791 ], [ 76.391122673359149, 16.38609306331923 ], [ 76.391121604635686, 16.386077561472682 ], [ 76.391046394648725, 16.38498632880065 ], [ 76.390905117041285, 16.384933818661253 ], [ 76.389215785004239, 16.384748671688087 ], [ 76.389218172709292, 16.384670503942949 ], [ 76.389223732029677, 16.384488710016083 ], [ 76.389257800533713, 16.383374434285056 ], [ 76.389266620398018, 16.38308596781112 ], [ 76.389263673983123, 16.383079213408575 ], [ 76.388592672477429, 16.381541217451932 ], [ 76.388277064568243, 16.380824335281829 ], [ 76.387983873216044, 16.379678667637322 ], [ 76.38792015027839, 16.378249767222947 ], [ 76.387916676170491, 16.378171868542005 ], [ 76.387225112330526, 16.376998273540185 ], [ 76.386779341109118, 16.3748035837828 ], [ 76.386620584855621, 16.374021957079659 ], [ 76.386614136421898, 16.373800901130799 ], [ 76.386606489639689, 16.373538775121805 ], [ 76.385984000407646, 16.372323823453101 ], [ 76.385751229354739, 16.372063696363295 ], [ 76.385581010511601, 16.371873469992263 ], [ 76.385215741772654, 16.372250131611302 ], [ 76.385076517710871, 16.372140080866838 ], [ 76.385053282355116, 16.372011782258973 ], [ 76.385050575216383, 16.371996836085867 ], [ 76.385049315661774, 16.371989883413338 ], [ 76.385055221890482, 16.371807528322677 ], [ 76.384828513088436, 16.36981926679891 ], [ 76.384710631990856, 16.368981567047115 ], [ 76.384674424737128, 16.368724263111503 ], [ 76.385288164137052, 16.367806653533901 ], [ 76.385309794831883, 16.367760889899849 ], [ 76.385740818372838, 16.366848968624453 ], [ 76.385817597835739, 16.365984171688613 ], [ 76.385807994179444, 16.365850691435124 ], [ 76.385696437646828, 16.364299875647362 ], [ 76.385845272666515, 16.363491356824834 ], [ 76.386137033258606, 16.362386420638586 ], [ 76.385984668870449, 16.362388234021154 ], [ 76.38583676288512, 16.362389996267478 ], [ 76.385756149421923, 16.362390955065703 ], [ 76.385457377140426, 16.362386620298693 ], [ 76.384987498755692, 16.362379801505252 ], [ 76.384888599851507, 16.362378366779534 ], [ 76.384859901623145, 16.362380315149206 ], [ 76.382817309421782, 16.362388537886233 ], [ 76.382662227966236, 16.362374504329072 ], [ 76.38147180681689, 16.362266782699812 ], [ 76.380494973796203, 16.36227306457079 ], [ 76.379622533823536, 16.362182780637205 ], [ 76.378313683026903, 16.362067231550729 ], [ 76.37720617110746, 16.362029638230347 ], [ 76.376949486257331, 16.362020926485606 ], [ 76.375491528946156, 16.361916938542308 ], [ 76.374749185023362, 16.361934396580011 ], [ 76.373814964350984, 16.361983846047483 ], [ 76.373773654500212, 16.361983932922733 ], [ 76.372777783645915, 16.361986047110282 ], [ 76.372315027271199, 16.362018829020748 ], [ 76.371178509194095, 16.362089110320692 ], [ 76.370071857672244, 16.362092533018568 ], [ 76.369856029353755, 16.362085627366479 ], [ 76.368858531926648, 16.362053709471169 ], [ 76.367828549409865, 16.362124124514381 ], [ 76.365288420960795, 16.362473286001254 ], [ 76.360850709488389, 16.362953366728284 ], [ 76.360797610327523, 16.362636199572787 ], [ 76.360675210376513, 16.361905068581827 ], [ 76.360404451030362, 16.360062290808113 ], [ 76.360446647277229, 16.359846987424717 ], [ 76.360486125516189, 16.359645546822492 ], [ 76.361899203181764, 16.352435207458043 ], [ 76.361765873752063, 16.350866170664919 ], [ 76.36172647031502, 16.34983997781125 ], [ 76.361722352045732, 16.349767379950894 ], [ 76.361654252722531, 16.3485672480261 ], [ 76.361652873228152, 16.348548916218085 ], [ 76.361612687403763, 16.34801499747898 ], [ 76.361601123903739, 16.347861360068478 ], [ 76.361476927653641, 16.346444200161141 ], [ 76.361395156603791, 16.344591995868207 ], [ 76.361455818573134, 16.344419064102937 ], [ 76.361468076235482, 16.343141750629833 ], [ 76.361546905976226, 16.342464015588444 ], [ 76.361651602996758, 16.342010640781531 ], [ 76.361668833944165, 16.341575559644784 ], [ 76.361686052383703, 16.341140834671375 ], [ 76.361695756371006, 16.340986390097743 ], [ 76.361880718174575, 16.340662738389668 ], [ 76.361958227417063, 16.34052711126316 ], [ 76.361967690972236, 16.340053027242437 ], [ 76.362121269153107, 16.338180687728105 ], [ 76.362139922139349, 16.33795328242579 ], [ 76.362218753565472, 16.336992202508675 ], [ 76.362333570824092, 16.335338162854715 ], [ 76.36238829643591, 16.334549768660761 ], [ 76.362407242081005, 16.334276828158952 ], [ 76.362276111369724, 16.333020470772091 ], [ 76.362067125838067, 16.329731401237709 ], [ 76.362011488507065, 16.328800961735841 ], [ 76.362116525548785, 16.328176491260542 ], [ 76.36232755326246, 16.327543392132704 ], [ 76.362662946635012, 16.326537179765854 ], [ 76.362680182007736, 16.326481706399285 ], [ 76.362714995843476, 16.326369623182675 ], [ 76.362901617928514, 16.325603703798276 ], [ 76.363299973338883, 16.323867101855029 ], [ 76.363349233951965, 16.323652353345402 ], [ 76.363380107848172, 16.323530710735433 ], [ 76.363733474254062, 16.322353819235971 ], [ 76.363902339151451, 16.322195385292769 ], [ 76.364593499089239, 16.321546914372018 ], [ 76.364641471051058, 16.32146934048631 ], [ 76.365374625370933, 16.320062670310861 ], [ 76.365407306974831, 16.319999621579147 ], [ 76.365569279833721, 16.319612045467601 ], [ 76.365977027061689, 16.318636365935884 ], [ 76.366027439163204, 16.318504628667405 ], [ 76.366067572982786, 16.318399748227851 ], [ 76.366111303833222, 16.31828547123537 ], [ 76.366644781063002, 16.316891364486779 ], [ 76.367255735073982, 16.315424955710011 ], [ 76.368365607522946, 16.313098347471879 ], [ 76.367674970644103, 16.310600866029361 ], [ 76.367637971405003, 16.310440070753184 ], [ 76.36825493104979, 16.310619171507906 ], [ 76.369501744063811, 16.310981113143431 ], [ 76.372666684268708, 16.311527440614679 ], [ 76.373691066971148, 16.311728914367535 ], [ 76.373882200218134, 16.31158899470811 ], [ 76.374836685264839, 16.31079785915729 ], [ 76.377847354294502, 16.309697726704627 ], [ 76.378518719757025, 16.309452392281823 ], [ 76.37869345980495, 16.310732930659043 ], [ 76.378971373804319, 16.310910005023619 ], [ 76.381296158844094, 16.312391238800299 ], [ 76.38579470199889, 16.31596861353944 ], [ 76.385889741497365, 16.316066895154201 ], [ 76.390849206477526, 16.314431334061606 ], [ 76.396622714014029, 16.312672021434608 ], [ 76.39926519393039, 16.313577074988356 ], [ 76.401136418468553, 16.314265499428402 ], [ 76.401225810304638, 16.314298385210311 ], [ 76.401885194042208, 16.313332890209974 ], [ 76.402310813880803, 16.312593192109759 ], [ 76.405179978040763, 16.307606612097192 ], [ 76.408235000454724, 16.304712593282964 ], [ 76.410698622460998, 16.30237871103904 ], [ 76.411011066592962, 16.301271460780931 ], [ 76.40903639559744, 16.300171755128449 ], [ 76.408766721493549, 16.298408229427078 ], [ 76.408166647197248, 16.296727757602142 ], [ 76.408099884883811, 16.296540788176607 ], [ 76.408099453257464, 16.296539578173071 ], [ 76.407780765654266, 16.295647097764071 ], [ 76.40766012327289, 16.295299523781054 ], [ 76.407042881079889, 16.293521192754167 ], [ 76.406540889727054, 16.291924383885718 ], [ 76.406157057849583, 16.290710057465681 ], [ 76.406073195048094, 16.290443442554096 ], [ 76.405998113556251, 16.290204750403603 ], [ 76.406050995421552, 16.289796523871829 ], [ 76.406049218451031, 16.289531886425021 ], [ 76.406048447728026, 16.289417202036514 ], [ 76.406104544078104, 16.288107932944648 ], [ 76.406233085549644, 16.288042801872678 ], [ 76.407308021664591, 16.287498137352877 ], [ 76.407192836716021, 16.287283792919489 ], [ 76.406782307313179, 16.286215471152424 ], [ 76.406448031107445, 16.284487812735811 ], [ 76.408498910901059, 16.283235883762913 ], [ 76.409291258197072, 16.282467357838843 ], [ 76.410705377249045, 16.280489346639673 ], [ 76.411061307109946, 16.279991478321207 ], [ 76.411493982919183, 16.279386257498935 ], [ 76.411747920197783, 16.278908303907141 ], [ 76.411974811512678, 16.277181633765867 ], [ 76.41470451253366, 16.273691066351684 ], [ 76.415060189177524, 16.273127691645762 ], [ 76.417100617890995, 16.269895667929223 ], [ 76.417776212645691, 16.262739050259725 ], [ 76.417453552757607, 16.25922164275627 ], [ 76.417577145422513, 16.254788917175361 ], [ 76.419094965215479, 16.253504439703207 ], [ 76.417635792832684, 16.252611589964506 ], [ 76.414784523223275, 16.250946091959744 ], [ 76.413812486795351, 16.250523580280081 ], [ 76.413814259997281, 16.25051780104258 ], [ 76.413811623455643, 16.250518374808042 ], [ 76.413797129452803, 16.250521529018751 ], [ 76.412812070735583, 16.248800938852316 ], [ 76.413149825023538, 16.247501674306264 ], [ 76.4131898371174, 16.247347756529003 ], [ 76.413305360414682, 16.246903358852723 ], [ 76.415002711085791, 16.244258394102793 ], [ 76.415051815573861, 16.24418187440623 ], [ 76.415326241907707, 16.243754230602388 ], [ 76.414857972195804, 16.241626680419188 ], [ 76.413719785679689, 16.24147294168753 ], [ 76.413593235166928, 16.24145584804047 ], [ 76.410005982788462, 16.240971262632485 ], [ 76.40942517372379, 16.240939073236341 ], [ 76.40918682789723, 16.240925863428739 ], [ 76.403729982240534, 16.240623351483663 ], [ 76.401445764017666, 16.240496679097056 ], [ 76.401060090289704, 16.240326906613131 ], [ 76.400353610398128, 16.2400159137696 ], [ 76.399333826391015, 16.239566997975214 ], [ 76.396396551131076, 16.234530678098913 ], [ 76.396014812910892, 16.233477787994996 ], [ 76.39488862850385, 16.23037152726976 ], [ 76.39484178732603, 16.230242326971556 ], [ 76.394765604013998, 16.230032193192756 ], [ 76.394763184599256, 16.230025521021894 ], [ 76.394234785200737, 16.229685447625908 ], [ 76.394213312790271, 16.22967162782712 ], [ 76.392115015075547, 16.228321154467604 ], [ 76.391186211000317, 16.22785180326704 ], [ 76.391186099282578, 16.227851747060452 ], [ 76.390891972130461, 16.227703114805923 ], [ 76.390209855418192, 16.227358416392324 ], [ 76.390046566486177, 16.227275899548474 ], [ 76.388815967064502, 16.226654022763498 ], [ 76.386161937966975, 16.225103747341482 ], [ 76.385605390004898, 16.224778648314082 ], [ 76.385599423497027, 16.224775163365184 ], [ 76.38470350450325, 16.224480412657989 ], [ 76.383041356508812, 16.223933565708464 ], [ 76.38297956143559, 16.223913235284769 ], [ 76.382868866459361, 16.223876815932766 ], [ 76.381227460021492, 16.222790013039525 ], [ 76.379994395425697, 16.222304878848465 ], [ 76.379940980910177, 16.222283863038015 ], [ 76.377909442668397, 16.221484557379085 ], [ 76.376784656785475, 16.220722130082123 ], [ 76.37674064950987, 16.220692299981273 ], [ 76.375961726040671, 16.220164305211199 ], [ 76.375423045353884, 16.219799155787243 ], [ 76.373614304144866, 16.219180631748912 ], [ 76.370919727786571, 16.218719189306043 ], [ 76.369049312085934, 16.218742706178233 ], [ 76.368752588561861, 16.218920334405357 ], [ 76.368639400805762, 16.218918173842038 ], [ 76.367718394252861, 16.21848761968759 ], [ 76.366800438424121, 16.216867056718165 ], [ 76.366754448097979, 16.216241570401319 ], [ 76.366726580363874, 16.215862555039738 ], [ 76.367046048203292, 16.215645812208212 ], [ 76.367009304457838, 16.21523000865227 ], [ 76.366977212969744, 16.214866849738563 ], [ 76.366489330570801, 16.213566179739203 ], [ 76.366404940172117, 16.213341198221261 ], [ 76.366159039179408, 16.212685630256114 ], [ 76.363214331986811, 16.209136015197952 ], [ 76.362111512360542, 16.207365980214515 ], [ 76.362105681793196, 16.207364585973874 ], [ 76.362093625864247, 16.207343676893814 ], [ 76.362092971966021, 16.207343521844134 ], [ 76.362089161679364, 16.207350963991196 ], [ 76.361664938803827, 16.208179535460083 ], [ 76.359641254725872, 16.207393888723505 ], [ 76.359397776799881, 16.207299363309385 ], [ 76.359384777441377, 16.207338647343413 ], [ 76.359312623361859, 16.207556697134216 ], [ 76.358288074887852, 16.207488617510087 ], [ 76.357657790410016, 16.207209785836838 ], [ 76.35660229551479, 16.206982609417821 ], [ 76.35626823056532, 16.206853478945519 ], [ 76.355477732866149, 16.206527027556028 ], [ 76.355475437108694, 16.206524521482731 ], [ 76.354969137772983, 16.205971766293544 ], [ 76.353580565251093, 16.204535601817032 ], [ 76.353226126893276, 16.203185268821663 ], [ 76.352984979006237, 16.203087947714071 ], [ 76.352728523582471, 16.202973172692104 ], [ 76.352331956055451, 16.202016113910577 ], [ 76.352195871928117, 16.201808106753827 ], [ 76.351806764011897, 16.201682002089527 ], [ 76.351839692379244, 16.20145034575097 ], [ 76.351353162793302, 16.201319496760735 ], [ 76.351321909871331, 16.201311092149208 ], [ 76.350879739725286, 16.201138022192659 ], [ 76.350669262407592, 16.200997270311273 ], [ 76.350184341358883, 16.200470156788832 ], [ 76.349940849950116, 16.200205478128836 ], [ 76.349157530242763, 16.19922005469628 ], [ 76.348476133201459, 16.198856681956418 ], [ 76.347742882228175, 16.19846565368552 ], [ 76.347751629176742, 16.198294537356809 ], [ 76.346585053207122, 16.198208725816652 ], [ 76.345724087279123, 16.197896292265128 ], [ 76.344553895705772, 16.197495875856536 ], [ 76.34376443372409, 16.197268585297149 ], [ 76.343408945185914, 16.197326864548721 ], [ 76.342706557505025, 16.197442013130573 ], [ 76.341779464749081, 16.196587060581617 ], [ 76.341232647883842, 16.19608278719906 ], [ 76.339372843112429, 16.195111847957076 ], [ 76.339175230653581, 16.195465966779778 ], [ 76.337639183669637, 16.194920371063422 ], [ 76.335419262382644, 16.194131843008563 ], [ 76.336020488333261, 16.1928172562783 ], [ 76.335949345295674, 16.192788321223748 ], [ 76.333206189228889, 16.191942940526353 ], [ 76.330093993917728, 16.193520442739267 ], [ 76.330172175749055, 16.1936284067516 ], [ 76.330531596045716, 16.19412415186563 ], [ 76.330559019582381, 16.194161976703022 ], [ 76.331416471245504, 16.195344637645519 ], [ 76.331620592724335, 16.19562865968247 ], [ 76.331732525942527, 16.195784408233017 ], [ 76.332524922748092, 16.196886967328979 ], [ 76.332843612865474, 16.197329818529912 ], [ 76.332844997164131, 16.197332319747343 ], [ 76.332847312312481, 16.197335541795649 ], [ 76.332871218763486, 16.197378782297459 ], [ 76.332891469367837, 16.197415408998232 ], [ 76.333125359913765, 16.197838451976221 ], [ 76.333146486478896, 16.197876663867032 ], [ 76.333149810934628, 16.197882675988041 ], [ 76.333583645128073, 16.198361464995457 ], [ 76.333681384456199, 16.198469331290084 ], [ 76.33418358017552, 16.199023559773391 ], [ 76.334391883962851, 16.199253445321162 ], [ 76.334912974444293, 16.199828519837705 ], [ 76.334976362051577, 16.199898474652024 ], [ 76.33589530360058, 16.200912603859184 ], [ 76.336011883672342, 16.201041257489205 ], [ 76.336013806132698, 16.201043379309745 ], [ 76.336170143951279, 16.20165675476272 ], [ 76.336170152570219, 16.201656784534428 ], [ 76.336263180272823, 16.201940811824354 ], [ 76.336266479876642, 16.201950885784996 ], [ 76.336462199982321, 16.202036657860599 ], [ 76.336505924457526, 16.202055819374699 ], [ 76.336844284461804, 16.202204101845698 ], [ 76.337730750680734, 16.202592596565189 ], [ 76.33793308693167, 16.202693055906977 ], [ 76.338105525073004, 16.202670433881295 ], [ 76.338151376359207, 16.202664418539801 ], [ 76.338298358014001, 16.202645135402999 ], [ 76.338860726901842, 16.202893842455364 ], [ 76.338920250960129, 16.202921396118253 ], [ 76.338964185830108, 16.202941735246576 ], [ 76.339229152087555, 16.203247840184801 ], [ 76.339252942153351, 16.203275324342552 ], [ 76.339568392316181, 16.203639749098762 ], [ 76.339568413064768, 16.203639774274727 ], [ 76.340194184049281, 16.204426433469948 ], [ 76.340204529438552, 16.204439438257978 ], [ 76.34020454831051, 16.204439462541888 ], [ 76.34021233144766, 16.204450497814367 ], [ 76.340832063004953, 16.205329148613757 ], [ 76.341044248093922, 16.205644930274488 ], [ 76.341063917277282, 16.205674202636686 ], [ 76.341321379459956, 16.206057364813326 ], [ 76.34141848346195, 16.206193465155767 ], [ 76.341756314102511, 16.206413772637148 ], [ 76.341756341399218, 16.206413797771489 ], [ 76.341783051435101, 16.206449967767892 ], [ 76.341799279677318, 16.206471943607099 ], [ 76.341802955816092, 16.206476922087916 ], [ 76.341864423547165, 16.206670416172077 ], [ 76.341929110719008, 16.206874087610739 ], [ 76.342094034755064, 16.207378194849234 ], [ 76.342138137333933, 16.207467071910568 ], [ 76.342141382553578, 16.207473611279458 ], [ 76.342141403345735, 16.207473642781526 ], [ 76.342243960401049, 16.207602723520932 ], [ 76.34226339630321, 16.207627186219614 ], [ 76.342500592810637, 16.207925727723392 ], [ 76.342821657746583, 16.208309741895334 ], [ 76.342900148362503, 16.208390042887579 ], [ 76.343093760294764, 16.208642177225652 ], [ 76.343098345906924, 16.208648148639824 ], [ 76.343108513345726, 16.208668239364631 ], [ 76.34312208731329, 16.208695060930346 ], [ 76.343149961141279, 16.208750223295691 ], [ 76.343262800968901, 16.209184230817648 ], [ 76.343313444459767, 16.209379077054908 ], [ 76.34331428003965, 16.209382290245937 ], [ 76.343376449482363, 16.209442607913072 ], [ 76.343708218310141, 16.209702163735518 ], [ 76.343804128620235, 16.209778239956552 ], [ 76.343821315759683, 16.209791872769614 ], [ 76.344109111131019, 16.210020154029834 ], [ 76.344163069972353, 16.210062956904189 ], [ 76.344163091608578, 16.210062974843495 ], [ 76.344277125199355, 16.21015286838286 ], [ 76.344571018670962, 16.210482117644752 ], [ 76.344648995734872, 16.210557769198132 ], [ 76.344684368471448, 16.210592085307706 ], [ 76.344690147173338, 16.210597692120121 ], [ 76.344710318681905, 16.210637427924894 ], [ 76.344752937515338, 16.210721437616233 ], [ 76.345060031546566, 16.211337624153341 ], [ 76.34506004387211, 16.211337648478178 ], [ 76.34518907890903, 16.211586334698758 ], [ 76.345200877365173, 16.211609073071511 ], [ 76.345237335275229, 16.211679338528803 ], [ 76.345306914372983, 16.211887256150501 ], [ 76.345540518141803, 16.212687817510666 ], [ 76.345545425442324, 16.212704636172127 ], [ 76.345608255883178, 16.212919953416328 ], [ 76.345807869611278, 16.213536435290042 ], [ 76.345807883844657, 16.213536465025602 ], [ 76.34588932277228, 16.213665290567199 ], [ 76.346024810247641, 16.213864775959703 ], [ 76.346039981281109, 16.213887113285349 ], [ 76.346194809908866, 16.214115074325896 ], [ 76.346215414617333, 16.214182266771498 ], [ 76.346202522772046, 16.214362337964396 ], [ 76.346186494466664, 16.21458608221122 ], [ 76.346149096163984, 16.214830369995607 ], [ 76.346145524974943, 16.214853694693559 ], [ 76.346137108033034, 16.214908673558348 ], [ 76.346143853181033, 16.214963584313249 ], [ 76.346143875790233, 16.214963607669002 ], [ 76.346667683792077, 16.215528463137197 ], [ 76.34672379193961, 16.215607113874384 ], [ 76.346751870757799, 16.215766200787645 ], [ 76.346758539022687, 16.215803982970797 ], [ 76.346777882213146, 16.215913573861172 ], [ 76.346939454566339, 16.216746106366699 ], [ 76.346973395406735, 16.216907270936797 ], [ 76.346979907691619, 16.216938192362981 ], [ 76.347102244884823, 16.217519086923431 ], [ 76.347148320417958, 16.217747771326671 ], [ 76.347155846571823, 16.217785126861195 ], [ 76.34719712228457, 16.217989983813933 ], [ 76.347326396408135, 16.218675293770204 ], [ 76.347329421135896, 16.218742767515643 ], [ 76.347333277973021, 16.218829023485032 ], [ 76.347324632066787, 16.218981130895401 ], [ 76.347321549810474, 16.219035350157391 ], [ 76.347280090521764, 16.219764717088317 ], [ 76.347250787957947, 16.220062012630617 ], [ 76.347242151656147, 16.220149637623802 ], [ 76.347205107018027, 16.220525479122646 ], [ 76.347110438290798, 16.221433212624202 ], [ 76.347099029435213, 16.221542613533455 ], [ 76.347095623717365, 16.221575269928152 ], [ 76.347091746987374, 16.22161129690906 ], [ 76.347014740635942, 16.222327005001876 ], [ 76.346965716111143, 16.222835667787486 ], [ 76.346959973657306, 16.222895170421701 ], [ 76.347005364567678, 16.222963085656893 ], [ 76.34728344856731, 16.223219078993989 ], [ 76.347356769294834, 16.223286574609162 ], [ 76.347800367885071, 16.223705780144616 ], [ 76.347847527511234, 16.223750347559893 ], [ 76.347847547284644, 16.223750366414315 ], [ 76.349142700772035, 16.225039166445104 ], [ 76.349238147200552, 16.225134145568333 ], [ 76.349301148092351, 16.225196838103376 ], [ 76.349413113248787, 16.225308254520186 ], [ 76.350766213919599, 16.226654658366915 ], [ 76.350716279410335, 16.226722466343251 ], [ 76.351093519597867, 16.228335102569098 ], [ 76.351116858127554, 16.228434869061754 ], [ 76.35164765435654, 16.230703878756124 ], [ 76.351725110303917, 16.231034977025825 ], [ 76.352016842625076, 16.232282020394383 ], [ 76.352040509892802, 16.232383189107878 ], [ 76.352551171604603, 16.234566020766295 ], [ 76.352561773960858, 16.234611338748405 ], [ 76.352562312652921, 16.234613640925865 ], [ 76.350218954995484, 16.236226207321366 ], [ 76.35016941774191, 16.236260295298411 ], [ 76.35014728012797, 16.236275528925979 ], [ 76.349671139844077, 16.237109275072591 ], [ 76.350517619397081, 16.23756341451848 ], [ 76.349808024284741, 16.238757033767634 ], [ 76.349783273328853, 16.238771299763634 ], [ 76.349896745750684, 16.239257688323374 ], [ 76.349906823850205, 16.239311222684041 ], [ 76.349914227638763, 16.239362351863967 ], [ 76.349923797081871, 16.239428681053919 ], [ 76.349873749186585, 16.239844605786338 ], [ 76.349835545961639, 16.240185876491619 ], [ 76.349833059033202, 16.240208063634416 ], [ 76.349814913212313, 16.24036994358714 ], [ 76.349752853749791, 16.240896612411042 ], [ 76.34968019428716, 16.241432769082785 ], [ 76.349672547180759, 16.241483820541713 ], [ 76.349661230572323, 16.241559254787859 ], [ 76.349657259794483, 16.241586239748152 ], [ 76.349479270717552, 16.241960776419791 ], [ 76.349280688261757, 16.242381417131 ], [ 76.349280676272457, 16.242381442513913 ], [ 76.349238444346682, 16.242471255149827 ], [ 76.349233262534256, 16.242482275720064 ], [ 76.349228362248951, 16.242487385402718 ], [ 76.349175601734075, 16.242542402453271 ], [ 76.349011497544581, 16.242732228713752 ], [ 76.34880455606698, 16.242964467460592 ], [ 76.348779277689687, 16.243001498230619 ], [ 76.348328267970416, 16.243215895328749 ], [ 76.34829050694519, 16.243327043590831 ], [ 76.34823067881473, 16.243504687070342 ], [ 76.348125698899636, 16.243864403315282 ], [ 76.348072350061827, 16.244048876306952 ], [ 76.348003646221144, 16.244361560826469 ], [ 76.348021016246506, 16.244590862166486 ], [ 76.348029146447473, 16.244710587628411 ], [ 76.348023451951931, 16.244732474304922 ], [ 76.347936530983091, 16.245066552103488 ], [ 76.347931193415022, 16.245086450842244 ], [ 76.347878390806102, 16.245286616761366 ], [ 76.347873816080423, 16.245303958294382 ], [ 76.347831007724395, 16.245470547451006 ], [ 76.347819028965517, 16.24553185661518 ], [ 76.347701832673948, 16.245987037390236 ], [ 76.347671743444863, 16.24608936895423 ], [ 76.347671741814409, 16.246089376157947 ], [ 76.347653093360194, 16.246174359628323 ], [ 76.347641775070585, 16.246225922439017 ], [ 76.347537623561919, 16.24657241682646 ], [ 76.347503677797548, 16.246683555194711 ], [ 76.347469924395199, 16.246793957540159 ], [ 76.347467762035606, 16.24680326868403 ], [ 76.347471239457846, 16.247067201084771 ], [ 76.347497888536225, 16.247502079652552 ], [ 76.347505191482355, 16.247619587912808 ], [ 76.347522995049104, 16.247785908247828 ], [ 76.347512866262392, 16.247794885243188 ], [ 76.347518997726951, 16.247847774011571 ], [ 76.347503380820157, 16.247861926612995 ], [ 76.347482231284104, 16.24788109437079 ], [ 76.347024133052699, 16.248277331010403 ], [ 76.347019923058483, 16.24828093142537 ], [ 76.346525529036953, 16.248704081823021 ], [ 76.346489591533469, 16.248734838985854 ], [ 76.346489568279836, 16.248734859017375 ], [ 76.345936182968316, 16.249196058226701 ], [ 76.345634034021799, 16.249449501416272 ], [ 76.345384345312581, 16.249658902100428 ], [ 76.345377878271307, 16.249664107518239 ], [ 76.345407435161846, 16.249766454235292 ], [ 76.34544437456637, 16.249894460194746 ], [ 76.345603311815111, 16.250712067360066 ], [ 76.345752362008085, 16.251132350639537 ], [ 76.346319525943883, 16.252731680391157 ], [ 76.346417960300386, 16.252938147134305 ], [ 76.346568028640405, 16.25325295229322 ], [ 76.346642632421137, 16.253409433409093 ], [ 76.346798310056826, 16.253670182102532 ], [ 76.346874165921648, 16.253797251572951 ], [ 76.347327745784582, 16.254791597254812 ], [ 76.347575149811888, 16.255786775936599 ], [ 76.347730819164056, 16.256146143909099 ], [ 76.347897142584657, 16.256523803164939 ], [ 76.347898653889061, 16.256533580979561 ], [ 76.347906284346706, 16.256551195428418 ], [ 76.348116285347956, 16.257941609733365 ], [ 76.3481422413074, 16.258109539211116 ], [ 76.348143160779841, 16.258112792486997 ], [ 76.348211507525505, 16.258350478068621 ], [ 76.348233656647892, 16.258427505027065 ], [ 76.348526587858728, 16.259455470266357 ], [ 76.348587066560086, 16.260370738058224 ], [ 76.348567828468276, 16.260767389436722 ], [ 76.348564545972067, 16.260789614497785 ], [ 76.348564325323878, 16.260794119227654 ], [ 76.348530795720848, 16.261021119824129 ], [ 76.348547538693992, 16.261196400161342 ], [ 76.348547929792446, 16.261556169619762 ], [ 76.348547948693522, 16.261573746728999 ], [ 76.348548061283552, 16.261650160143262 ], [ 76.348543959979892, 16.261660649340698 ], [ 76.348543972371289, 16.261677844467446 ], [ 76.348524907971097, 16.26172674610789 ], [ 76.348515938413087, 16.261749734601253 ], [ 76.348502294143387, 16.261801357433505 ], [ 76.348485670655279, 16.261864213666549 ], [ 76.348461167253987, 16.261956828898477 ], [ 76.348462969289358, 16.261964803657776 ], [ 76.348739026290218, 16.263187432256483 ], [ 76.348735539779838, 16.263223177408211 ], [ 76.348742650073348, 16.263251436625442 ], [ 76.348748642116078, 16.263275290581955 ], [ 76.348748645120367, 16.263275319484624 ], [ 76.34870614634994, 16.264343139059736 ], [ 76.34870601542471, 16.264346438786518 ], [ 76.348703673323186, 16.26440549846355 ], [ 76.348698999040138, 16.264420228974281 ], [ 76.348698554917746, 16.264431364558707 ], [ 76.348344635210225, 16.265547875216406 ], [ 76.348306739203451, 16.265618620136078 ], [ 76.348364326159569, 16.266027080760377 ], [ 76.348364556252292, 16.266028713376762 ], [ 76.348365118833485, 16.266032723597583 ], [ 76.34836362135394, 16.266063100119723 ], [ 76.348361481756527, 16.266106464811379 ], [ 76.348355433738831, 16.266132219692484 ], [ 76.348355250047419, 16.266135928812449 ], [ 76.348123571467383, 16.267122011530805 ], [ 76.348050949354302, 16.267431097561534 ], [ 76.348029980224325, 16.267449849075589 ], [ 76.348024008156443, 16.267499663735112 ], [ 76.347941712253856, 16.26796103037789 ], [ 76.347887525201742, 16.268272664316566 ], [ 76.347825385814545, 16.268640281824737 ], [ 76.347737453559034, 16.269273752719833 ], [ 76.347668112458095, 16.269831000227704 ], [ 76.347630425988854, 16.270181608736699 ], [ 76.347610082661276, 16.270329399381836 ], [ 76.347607055377068, 16.27035376628751 ], [ 76.347599067989265, 16.270418046119342 ], [ 76.347579731516035, 16.270552682684198 ], [ 76.347570905317056, 16.270705351958853 ], [ 76.347562656967895, 16.270839174099859 ], [ 76.347511496611247, 16.271672832499991 ], [ 76.347502587790927, 16.271900838587005 ], [ 76.347521577090106, 16.272191317092222 ], [ 76.347508292053618, 16.272265391749279 ], [ 76.347500691899981, 16.27230771837225 ], [ 76.347515215347727, 16.273163657596129 ], [ 76.347495005522163, 16.273189126273333 ], [ 76.347567651108932, 16.273554026380673 ], [ 76.347624371531225, 16.273838927141092 ], [ 76.347637985303578, 16.273871145186824 ], [ 76.347644218697155, 16.27388589808514 ], [ 76.347626844382432, 16.275193784959644 ], [ 76.347626151194007, 16.275245356913658 ], [ 76.347625455575354, 16.275297395246664 ], [ 76.347623014261657, 16.275480816472186 ], [ 76.347622944600118, 16.2754814413742 ], [ 76.347622922063692, 16.27548321124064 ], [ 76.347573803405851, 16.275923331248723 ], [ 76.347490989263207, 16.276665372411493 ], [ 76.347567595291423, 16.276865575523679 ], [ 76.347573765167311, 16.2768816998916 ], [ 76.347616020876018, 16.276878665143929 ], [ 76.347741765747386, 16.276869636050872 ], [ 76.347746750923932, 16.276894932546618 ], [ 76.347834455577996, 16.277339974444502 ], [ 76.347854008664413, 16.277439190771879 ], [ 76.347852495357472, 16.277439279732221 ], [ 76.347853053719106, 16.27744213331874 ], [ 76.347839803381447, 16.277442845155118 ], [ 76.347887951721873, 16.277631213074958 ], [ 76.347823993212458, 16.277617923313919 ], [ 76.347824010307988, 16.277617960261054 ], [ 76.346962053764258, 16.277536388073674 ], [ 76.346176497484365, 16.277530246891857 ], [ 76.346150473036317, 16.277539067302847 ], [ 76.346091640552117, 16.277533592144319 ], [ 76.346030008434113, 16.277527855502353 ], [ 76.345589558328058, 16.277488361442032 ], [ 76.345589536025358, 16.277488384179005 ], [ 76.345568047439073, 16.277512634376574 ], [ 76.345271645840114, 16.277541686519882 ], [ 76.344889958592674, 16.27758136952712 ], [ 76.34426856184173, 16.277473134954644 ], [ 76.343871137791083, 16.277475798566968 ], [ 76.343250785331449, 16.277479954449774 ], [ 76.342415456284257, 16.277346913402496 ], [ 76.342371165381223, 16.277336918096022 ], [ 76.34233837852716, 16.277339734477405 ], [ 76.342338343906391, 16.27733973469703 ], [ 76.342276615580786, 16.27732767994685 ], [ 76.342139813510201, 16.277300963400208 ], [ 76.342082589161748, 16.277333126010582 ], [ 76.342082568699311, 16.277333144216509 ], [ 76.341667645420969, 16.277323423135634 ], [ 76.34121714907252, 16.277312866551718 ], [ 76.341217158607563, 16.277312892701708 ], [ 76.341476710322993, 16.277801677731052 ], [ 76.341562529565877, 16.277970721347746 ], [ 76.34175928037611, 16.278358409210608 ], [ 76.341707736428106, 16.278389195249261 ], [ 76.341761469599632, 16.278501515927701 ], [ 76.341667995993973, 16.278542897486954 ], [ 76.341363486071799, 16.278651068012493 ], [ 76.341363456196845, 16.278651078143771 ], [ 76.341289280921856, 16.278679886349725 ], [ 76.340154816535943, 16.279178215849772 ], [ 76.340154792287365, 16.279178227752858 ], [ 76.339444258181629, 16.279521689451489 ], [ 76.339435159124719, 16.279519920459808 ], [ 76.339423697933995, 16.279517692826371 ], [ 76.339334411754947, 16.279522577894422 ], [ 76.339288782233339, 16.279544382247497 ], [ 76.339278596839819, 16.279542761119714 ], [ 76.339265767921773, 16.279540721089433 ], [ 76.338696178284934, 16.279579430623581 ], [ 76.338645826383868, 16.279582851982383 ], [ 76.33844544416543, 16.279596466223051 ], [ 76.338188535627978, 16.279625836826813 ], [ 76.338130164426957, 16.279618369089054 ], [ 76.338109779781462, 16.279619271718182 ], [ 76.338068606916039, 16.279622069058703 ], [ 76.338065168943189, 16.279621247148011 ], [ 76.337375996134128, 16.279651766621846 ], [ 76.336878104673104, 16.279673789291596 ], [ 76.336755889577603, 16.279671913340717 ], [ 76.335959846685597, 16.279938547979366 ], [ 76.335897644872929, 16.279947039774967 ], [ 76.335818269575782, 16.279965541211713 ], [ 76.3353111513849, 16.280071393490729 ], [ 76.33527045216465, 16.280079888579195 ], [ 76.33524655453094, 16.280082044051081 ], [ 76.335086184114502, 16.280122265166678 ], [ 76.334770893552104, 16.280183295891582 ], [ 76.334384956582511, 16.280232066897817 ], [ 76.333942427329362, 16.280280769246943 ], [ 76.333922395351436, 16.280276710006454 ], [ 76.33390047409209, 16.280272236077508 ], [ 76.333342901846649, 16.280165637800337 ], [ 76.333209795053435, 16.280140190098059 ], [ 76.333051168693615, 16.280122261610657 ], [ 76.333027482934625, 16.28012673161021 ], [ 76.332740814316992, 16.280180830261592 ], [ 76.332173706554784, 16.280260850690279 ], [ 76.33215770546488, 16.280258123421525 ], [ 76.332111156873921, 16.280250189345335 ], [ 76.331951559566534, 16.28027695526022 ], [ 76.331052029007481, 16.280189255557101 ], [ 76.329521274874708, 16.280720016143299 ], [ 76.329006171243719, 16.280833395524468 ], [ 76.328401022994669, 16.280968796489958 ], [ 76.328377636817109, 16.280991642553023 ], [ 76.328364945741768, 16.281003830599584 ], [ 76.328334620112045, 16.281032954720999 ], [ 76.328312233598183, 16.281054453245076 ], [ 76.328307607159161, 16.281058895603625 ], [ 76.328286156905662, 16.28107949618504 ], [ 76.328280431500488, 16.281084993864134 ], [ 76.328248848823876, 16.281115325224796 ], [ 76.3282451623611, 16.281118865099764 ], [ 76.32818645791518, 16.281175242850132 ], [ 76.327518299980056, 16.281260788665776 ], [ 76.32733788910852, 16.281283886003287 ], [ 76.327297035291835, 16.281289116902279 ], [ 76.327034405922149, 16.281303494658601 ], [ 76.326942379453996, 16.281308643376747 ], [ 76.326489361696559, 16.281294028138262 ], [ 76.326421104096525, 16.281292577992573 ], [ 76.325679570557242, 16.281433423241911 ], [ 76.325553461603775, 16.281457376348367 ], [ 76.325553432638856, 16.281457382856544 ], [ 76.324866052513144, 16.281664776255909 ], [ 76.324489192009267, 16.281778050106212 ], [ 76.324176419512426, 16.281871775803673 ], [ 76.324121558105745, 16.281888215419833 ], [ 76.323572569743021, 16.282061810606258 ], [ 76.323537118200434, 16.282063347066288 ], [ 76.323523092203587, 16.282067550270042 ], [ 76.323333514503702, 16.282072153575477 ], [ 76.323235084243791, 16.282088381657612 ], [ 76.323235070366479, 16.282088384544139 ], [ 76.323168646899902, 16.282102200848129 ], [ 76.322234532656125, 16.282296491877403 ], [ 76.321986293873067, 16.282348123607115 ], [ 76.321987072008099, 16.282294140311361 ], [ 76.321419368138606, 16.282415847289066 ], [ 76.320758302111358, 16.282558429942739 ], [ 76.320720315528732, 16.282551496399456 ], [ 76.320716433100046, 16.282552291443984 ], [ 76.320631556331904, 16.282535271989897 ], [ 76.320545446369451, 16.282644548262564 ], [ 76.320551385810134, 16.283564538230653 ], [ 76.320553007343648, 16.283815648165788 ], [ 76.320570533439266, 16.286530300348378 ], [ 76.320570594536818, 16.286539707759015 ], [ 76.320571801859387, 16.286623753044893 ], [ 76.320571961730224, 16.286634915044019 ], [ 76.320572445881339, 16.286667401395555 ], [ 76.320507523222091, 16.286677048459968 ], [ 76.320507535091821, 16.28670000232556 ], [ 76.319692617746767, 16.286812222405842 ], [ 76.319567134581916, 16.286829516237294 ], [ 76.318357114555596, 16.28704544219222 ], [ 76.317550006726094, 16.287091919906288 ], [ 76.317146348274875, 16.287115163238848 ], [ 76.317120868045407, 16.287116630650313 ], [ 76.315944616751096, 16.286935741625175 ], [ 76.314810259479927, 16.286964739622427 ], [ 76.314694905352098, 16.28696768373198 ], [ 76.3142465902406, 16.28690843948382 ], [ 76.313803145698799, 16.286849833737165 ], [ 76.313715979743307, 16.286836935465328 ], [ 76.313468421008324, 16.286800278731505 ], [ 76.313068966609876, 16.286741127968266 ], [ 76.313068931015181, 16.286741122766355 ], [ 76.313019583866904, 16.286721164875402 ], [ 76.31298734357253, 16.286716300762887 ], [ 76.312987307977849, 16.286716295560982 ], [ 76.312799574460072, 16.286639681294961 ], [ 76.31277133421807, 16.286628156693617 ], [ 76.312587026731492, 16.28655294085576 ], [ 76.312514768089983, 16.286523444072806 ], [ 76.312108711792845, 16.286357683942295 ], [ 76.311973317091727, 16.286302412764467 ], [ 76.311601336481075, 16.286224875406486 ], [ 76.31130821524313, 16.286201604847449 ], [ 76.311308188106352, 16.286201605015698 ], [ 76.310694513615303, 16.286254590096245 ], [ 76.310368700338856, 16.286282715697659 ], [ 76.310308059927422, 16.2862602673179 ], [ 76.310271143350434, 16.286246598626615 ], [ 76.310269355713388, 16.286246747398238 ], [ 76.310241067943508, 16.286236211514339 ], [ 76.31020817124184, 16.286223958908529 ], [ 76.309884636542236, 16.286103491039967 ], [ 76.309573873717028, 16.285988428337337 ], [ 76.308947342064101, 16.285756460251648 ], [ 76.308278085730748, 16.285497130216243 ], [ 76.308068197694993, 16.285414068784398 ], [ 76.307085231883846, 16.285025081552227 ], [ 76.306643895092236, 16.284850417020049 ], [ 76.306346949751671, 16.284732896640623 ], [ 76.306133276959727, 16.284666361165392 ], [ 76.305484654023786, 16.284464455814412 ], [ 76.305009304586903, 16.284316475858649 ], [ 76.304617064250891, 16.284148371157844 ], [ 76.304511639450936, 16.284126482841529 ], [ 76.30439997100143, 16.284103299841426 ], [ 76.303348368784228, 16.283884977977344 ], [ 76.303225466792995, 16.283879830567951 ], [ 76.30249225755334, 16.28384910129493 ], [ 76.301813680892096, 16.283749768796433 ], [ 76.301288199647757, 16.283695443169034 ], [ 76.300867553280696, 16.283651302112741 ], [ 76.300611777492577, 16.283624201251769 ], [ 76.300073890670021, 16.283415363233424 ], [ 76.29976941910671, 16.283297148694547 ], [ 76.299757678492554, 16.283676183031648 ], [ 76.299715049886601, 16.285052329586897 ], [ 76.299702466652704, 16.285658886489333 ], [ 76.29970146673034, 16.285707110511371 ], [ 76.299689281323637, 16.286105650570448 ], [ 76.299685678168274, 16.286223502778967 ], [ 76.299685514983537, 16.286224300950707 ], [ 76.299620208635872, 16.286544338081129 ], [ 76.299589287876302, 16.286695739824523 ], [ 76.299589266104462, 16.286696412400122 ], [ 76.299589242518962, 16.286696525522512 ], [ 76.299578016836037, 16.287034791160757 ], [ 76.299576662021195, 16.28708809682583 ], [ 76.299574793544437, 16.287160168038739 ], [ 76.299541937108913, 16.28842197463683 ], [ 76.299532578284897, 16.288781387174662 ], [ 76.299531257392076, 16.28879265025671 ], [ 76.299531068076931, 16.288800875573216 ], [ 76.299451603111862, 16.289488973496155 ], [ 76.299444255559095, 16.289539323431558 ], [ 76.299089029712391, 16.291972991009949 ], [ 76.299088963904296, 16.291973655721534 ], [ 76.299088947917483, 16.291973785969748 ], [ 76.299080852002433, 16.29205602543178 ], [ 76.299057601766393, 16.292291617750795 ], [ 76.298999264992531, 16.292882720765636 ], [ 76.298943514789343, 16.29372590179727 ], [ 76.298943491000799, 16.293726694592944 ], [ 76.29892296509162, 16.294607761584778 ], [ 76.298920385286024, 16.294720180008955 ], [ 76.298890741045767, 16.296011994760352 ], [ 76.298884794372242, 16.296044899586214 ], [ 76.29876522495978, 16.296706521261974 ], [ 76.29876519349412, 16.296707285182446 ], [ 76.298723325201138, 16.297440983477603 ], [ 76.29871862776524, 16.297524595718063 ], [ 76.298640283353478, 16.298918989237464 ], [ 76.298630461182242, 16.299093808406049 ], [ 76.29872011897676, 16.299775805252388 ], [ 76.298723003138264, 16.29979765723407 ], [ 76.29887155818821, 16.300923312823006 ], [ 76.299010896208912, 16.301979109853235 ], [ 76.299014111440187, 16.302003470595288 ], [ 76.299081466307555, 16.302513832424548 ], [ 76.299145404727255, 16.302998493420827 ], [ 76.299145408649309, 16.302998520511274 ], [ 76.299280583380479, 16.303925486996071 ], [ 76.29930044899919, 16.304061718490637 ], [ 76.299456047480874, 16.305131744673318 ], [ 76.299741346463762, 16.306696532446125 ], [ 76.299773340955525, 16.306870063883363 ], [ 76.299777721352356, 16.306893820903127 ], [ 76.29979466345759, 16.30698570093217 ], [ 76.299796833719725, 16.306997465231262 ], [ 76.299884271133919, 16.307471526550597 ], [ 76.299884282531153, 16.307471551787376 ], [ 76.300164384521622, 16.307906977643036 ], [ 76.300360096570145, 16.308212034358224 ], [ 76.300388666486057, 16.308256666155071 ], [ 76.30062939212155, 16.308632727745504 ], [ 76.30098525124113, 16.309891239669948 ], [ 76.300998300629075, 16.309937447398053 ], [ 76.301053553331627, 16.310133090824745 ], [ 76.301053564764999, 16.310133121484125 ], [ 76.301360088313501, 16.310846175205178 ], [ 76.301501153906869, 16.311295577755878 ], [ 76.30153166980034, 16.311421855412338 ], [ 76.301540016409206, 16.311456437344194 ], [ 76.302092304423383, 16.3137447194961 ], [ 76.302096144789033, 16.313761323333477 ], [ 76.302102751225448, 16.31378988116801 ], [ 76.302385717062791, 16.315015854489907 ], [ 76.302387496710168, 16.315023563914565 ], [ 76.302423536725883, 16.315180389692117 ], [ 76.302719797037312, 16.316423412887367 ], [ 76.302763914686849, 16.316608516126102 ], [ 76.302768709483829, 16.317012383046897 ], [ 76.302769227024001, 16.317055805512371 ], [ 76.302791021912185, 16.318884816879752 ], [ 76.302742268780236, 16.318895400263749 ], [ 76.30274303973539, 16.318960502971379 ], [ 76.302513935424656, 16.319011390536179 ], [ 76.30131765426394, 16.319276997883669 ], [ 76.301001044908077, 16.318448842426989 ], [ 76.30099170351231, 16.318424417859138 ], [ 76.300357800772304, 16.318484478546797 ], [ 76.299609056359003, 16.3186906353178 ], [ 76.29899635913138, 16.318871412387885 ], [ 76.298951018323265, 16.318884787665759 ], [ 76.29698960835087, 16.319463485062936 ], [ 76.29685562164299, 16.319963405186289 ], [ 76.296749841379423, 16.320371817792669 ], [ 76.296741104215855, 16.320390713351049 ], [ 76.296739277060254, 16.320394666123867 ], [ 76.296722265974452, 16.320431454771708 ], [ 76.296707424934283, 16.320430993377645 ], [ 76.296700147009432, 16.320458100516234 ], [ 76.296685026166841, 16.320514440687333 ], [ 76.296309729607103, 16.320514815906112 ], [ 76.295977826478548, 16.320515146408653 ], [ 76.295135503018486, 16.320397121311117 ], [ 76.295097244584937, 16.320475496738883 ], [ 76.295102293693489, 16.320624388997516 ], [ 76.295070891361306, 16.320655117145542 ], [ 76.295052315576143, 16.320673292871362 ], [ 76.29505320391398, 16.320682191975109 ], [ 76.295071997240896, 16.32087044596738 ], [ 76.295079583290885, 16.320946431331095 ], [ 76.295102431575799, 16.320984077087427 ], [ 76.295115651247158, 16.321005859016527 ], [ 76.295126297409041, 16.321014490571041 ], [ 76.295158734342294, 16.321076846630209 ], [ 76.29518707050245, 16.321130471652108 ], [ 76.295205356401453, 16.321166183196954 ], [ 76.295275037219014, 16.321379971689709 ], [ 76.295363867836244, 16.32162530281483 ], [ 76.295398701066006, 16.321721514700279 ], [ 76.29537866154979, 16.321880577427901 ], [ 76.295370275186002, 16.322004296785849 ], [ 76.295329266016566, 16.322272553999102 ], [ 76.295329265724746, 16.322272553997237 ], [ 76.29532503811879, 16.322306098036648 ], [ 76.294838623559755, 16.322266210094217 ], [ 76.294869002320809, 16.322473052894363 ], [ 76.294915581897115, 16.322790209782138 ], [ 76.294927618094349, 16.322865841558389 ], [ 76.294934743701802, 16.322951923577946 ], [ 76.294942094003602, 16.323040716575893 ], [ 76.295062456402789, 16.324246452286221 ], [ 76.295069284194767, 16.324314846585288 ], [ 76.295076807447117, 16.324390214090766 ], [ 76.295074633798905, 16.324402114442304 ], [ 76.295069816649203, 16.324428192034322 ], [ 76.295033004328857, 16.32443837437059 ], [ 76.295024088668796, 16.324440840423037 ], [ 76.295020278043054, 16.324461018080203 ], [ 76.294974984821465, 16.324472321177382 ], [ 76.294974984723765, 16.32447232166097 ], [ 76.29497496938761, 16.32447232502896 ], [ 76.293780037292009, 16.324770524916737 ], [ 76.293151182232265, 16.324981844982428 ], [ 76.293043751206667, 16.325017941907642 ], [ 76.293005182775872, 16.325059228744419 ], [ 76.29296193580781, 16.325105524264668 ], [ 76.292806148026088, 16.32527229225585 ], [ 76.292806147698784, 16.325272292360513 ], [ 76.292784124433567, 16.325325442448563 ], [ 76.292703607827903, 16.325305080861568 ], [ 76.292571423442382, 16.325347347781282 ], [ 76.292571366504177, 16.325347371629299 ], [ 76.292387543653248, 16.325437032735405 ], [ 76.292292178984454, 16.325483546805774 ], [ 76.292371025188928, 16.326917195665853 ], [ 76.292370316730398, 16.326924615825966 ], [ 76.292372257111211, 16.326960401495558 ], [ 76.292329035063389, 16.327369284371866 ], [ 76.292316896030755, 16.327484123270519 ], [ 76.292316893803346, 16.327484146597456 ], [ 76.292306727123204, 16.32763101228532 ], [ 76.292295632642336, 16.327785472318467 ], [ 76.292282214889781, 16.327972263512919 ], [ 76.292270230360643, 16.327972804222409 ], [ 76.292270058593047, 16.327974602926652 ], [ 76.292169265855463, 16.327977984026081 ], [ 76.292117425042989, 16.327979716923384 ], [ 76.292117112542229, 16.327981728849718 ], [ 76.291823239502662, 16.329872592083223 ], [ 76.291833493049467, 16.330156202682971 ], [ 76.291847847059401, 16.330542405906439 ], [ 76.291853030429991, 16.3306792077626 ], [ 76.291781628975926, 16.330690032515758 ], [ 76.291779455208541, 16.330690362077558 ], [ 76.291780364062177, 16.330710645513335 ], [ 76.291659220100186, 16.330730747528783 ], [ 76.291508642621196, 16.331342450316477 ], [ 76.291451493547711, 16.331576409204708 ], [ 76.291467290476419, 16.331913285857084 ], [ 76.29149032533536, 16.332148030088362 ], [ 76.291507318963184, 16.332320291461222 ], [ 76.291522970992361, 16.332478959478287 ], [ 76.291525975219301, 16.332509408804576 ], [ 76.291544457261764, 16.332602989086663 ], [ 76.291957941921055, 16.334692288421405 ], [ 76.291964157593739, 16.334723706836602 ], [ 76.291973746526978, 16.334772196694434 ], [ 76.291999120794642, 16.334900506364061 ], [ 76.291967237381016, 16.334979812903569 ], [ 76.292472881313046, 16.335075413076716 ], [ 76.293361651742799, 16.335384475039465 ], [ 76.294700848035959, 16.335850247360778 ], [ 76.296037158848904, 16.336590858337996 ], [ 76.296614451046821, 16.336866161374047 ], [ 76.297899026300442, 16.337438805835468 ], [ 76.298821824906042, 16.337666281579388 ], [ 76.299284376705643, 16.338446361265468 ], [ 76.299325175474721, 16.338494405054806 ], [ 76.299414860119853, 16.338496767303962 ], [ 76.299636219480632, 16.338502550857068 ], [ 76.300173166933249, 16.338502481243314 ], [ 76.300393897576569, 16.338483457164521 ], [ 76.300418980527837, 16.338502449374261 ], [ 76.300506493139949, 16.338502438028492 ], [ 76.301180500422106, 16.339079065506795 ], [ 76.301202017441554, 16.339095358124904 ], [ 76.30208065080528, 16.339760812333157 ], [ 76.303270628253813, 16.340661894298083 ], [ 76.303387706367687, 16.340764023765821 ], [ 76.303732818985935, 16.341011366599137 ], [ 76.304081551945259, 16.341369273974969 ], [ 76.304190407596352, 16.341464229091194 ], [ 76.304884009209886, 16.342069286461079 ], [ 76.305413880254648, 16.342385771370335 ], [ 76.305664383716987, 16.342664992645236 ], [ 76.305799085759119, 16.343241926497878 ], [ 76.305703268772263, 16.343484054930716 ], [ 76.305145525455302, 16.344893452163884 ], [ 76.305152447623684, 16.345065840609564 ], [ 76.305171858335299, 16.345549241530577 ], [ 76.306009703405977, 16.345983335679765 ], [ 76.307656743434805, 16.3458756286926 ], [ 76.307787202535948, 16.345867097255685 ], [ 76.307849240878525, 16.345893068356901 ], [ 76.308301116648394, 16.345737472460247 ], [ 76.308313146776655, 16.345733327897285 ], [ 76.30837893302045, 16.345639698660374 ], [ 76.308381129879606, 16.345638980052605 ], [ 76.308648859330063, 16.345549221911089 ], [ 76.308746949879534, 16.345561101867847 ], [ 76.308794920083912, 16.345566902085476 ], [ 76.308862981505442, 16.345575136248328 ], [ 76.309156176397693, 16.345289614579922 ], [ 76.309561375466529, 16.345339945669515 ], [ 76.309561406385711, 16.345339949996518 ], [ 76.309824260315992, 16.345372617611261 ], [ 76.309824288421055, 16.345372621051883 ], [ 76.310644568612915, 16.345474440338478 ], [ 76.311038326998258, 16.345528472983286 ], [ 76.311079735514397, 16.345534155315555 ], [ 76.311515469726899, 16.345593847770186 ], [ 76.311517219070666, 16.345593681431804 ], [ 76.311708535107329, 16.345575990264926 ], [ 76.311906339621885, 16.345557690051979 ], [ 76.313228449806616, 16.345753076192164 ], [ 76.313583086136163, 16.345805448787893 ], [ 76.313711858547194, 16.345824466030827 ], [ 76.313822823345717, 16.345840852916304 ], [ 76.314119676226198, 16.345884691200062 ], [ 76.314133673095114, 16.345886758633295 ], [ 76.314157966432248, 16.345890317337986 ], [ 76.314166532521384, 16.346033119308732 ], [ 76.314262466967662, 16.347632439029319 ], [ 76.314267124728616, 16.347710092479169 ], [ 76.31428068601322, 16.347936171069776 ], [ 76.314282640227873, 16.34796873310912 ], [ 76.314299445511864, 16.348248756162779 ], [ 76.314206877850467, 16.348991495246011 ], [ 76.314176584817901, 16.349234558697326 ], [ 76.314012343561828, 16.350119483698936 ], [ 76.313953894724563, 16.350434402031382 ], [ 76.313953842365947, 16.350434411395906 ], [ 76.313943626170754, 16.350489611118871 ], [ 76.313959582280532, 16.35085989211526 ], [ 76.313968625296127, 16.35106975285478 ], [ 76.313975122335179, 16.351220434423482 ], [ 76.313989396139604, 16.351551472501715 ], [ 76.314052965521384, 16.353021875875118 ], [ 76.314053814181236, 16.353041829416561 ], [ 76.314159762566035, 16.35374760365044 ], [ 76.313921344425168, 16.35464053970545 ], [ 76.313911420306297, 16.354677708402388 ], [ 76.313863159714927, 16.354858634579351 ], [ 76.313771722907745, 16.355220292312776 ], [ 76.313723876032142, 16.355409503150327 ], [ 76.313193199946937, 16.356684228590947 ], [ 76.312460445341443, 16.358278862856928 ], [ 76.312431120539685, 16.358342663822835 ], [ 76.312243376989329, 16.358764551459153 ], [ 76.312172026355626, 16.35892490427894 ], [ 76.312172016251836, 16.358924933263793 ], [ 76.312015511224971, 16.359518829984466 ], [ 76.311769357869466, 16.360452968323955 ], [ 76.311474493775961, 16.361330898120489 ], [ 76.311392058337702, 16.361429111420776 ], [ 76.311266997492538, 16.361776081914488 ], [ 76.311267806094676, 16.361808647342624 ], [ 76.311204851399552, 16.361808284570625 ], [ 76.311011782490112, 16.361781637853497 ], [ 76.309718865388845, 16.361773078549525 ], [ 76.309705011484979, 16.36183499075366 ], [ 76.309193926651048, 16.364118025654694 ], [ 76.309066228418089, 16.364649187028981 ], [ 76.308919360095004, 16.365332284432586 ], [ 76.308913786194907, 16.365362332814033 ], [ 76.308830722472621, 16.365810124078624 ], [ 76.308782444211374, 16.366470821233143 ], [ 76.308690697849343, 16.366977524095759 ], [ 76.308682411449169, 16.367046610697379 ], [ 76.308644650484865, 16.367062864936745 ], [ 76.30863458104632, 16.367081526602355 ], [ 76.308452457580813, 16.367450978285365 ], [ 76.308160186641672, 16.369145258811493 ], [ 76.308135870800243, 16.369286213600798 ], [ 76.308113095642398, 16.369425024015495 ], [ 76.308009421374706, 16.370056893794619 ], [ 76.307973452944552, 16.370276110954393 ], [ 76.307899433158525, 16.37079287560994 ], [ 76.307899423995778, 16.370792905492607 ], [ 76.307660011178058, 16.37138497763236 ], [ 76.307617035111477, 16.371491258214736 ], [ 76.307617023664889, 16.371491286905162 ], [ 76.307617019539975, 16.371491296723327 ], [ 76.307337293400522, 16.372183064476104 ], [ 76.306908822486832, 16.373613844771661 ], [ 76.306908806898193, 16.373613903708623 ], [ 76.306908801370355, 16.373613915285283 ], [ 76.306890571685429, 16.373674789134945 ], [ 76.306890561556159, 16.373674814504515 ], [ 76.306669650004949, 16.374157570744782 ], [ 76.306581719985388, 16.374328452301533 ], [ 76.306528918769203, 16.37443108325877 ], [ 76.3058181586768, 16.375593746121925 ], [ 76.305482701024346, 16.376142492432908 ], [ 76.304774749080835, 16.37730052826743 ], [ 76.304702073463645, 16.377559558127604 ], [ 76.304608553534834, 16.378059490660743 ], [ 76.304575068055797, 16.378394561922139 ], [ 76.304540790006143, 16.378737306922595 ], [ 76.304530464321942, 16.378840477656102 ], [ 76.30453205940907, 16.378873796690641 ], [ 76.30454501401249, 16.379144441118008 ], [ 76.304552407682522, 16.37929889613207 ], [ 76.304552544918309, 16.379300803485126 ], [ 76.304565197754755, 16.379436819843423 ], [ 76.304597012100785, 16.379778823377784 ], [ 76.304608331809277, 16.379900505521018 ], [ 76.304652200283499, 16.380372089522591 ], [ 76.304659920690597, 16.380455140704488 ], [ 76.304672396249259, 16.380589343317464 ], [ 76.304711169898255, 16.380756622659042 ], [ 76.304869337085037, 16.381380917553003 ], [ 76.304877977125358, 16.381415020772273 ], [ 76.304964839199386, 16.381757868531707 ], [ 76.305020840136692, 16.381978905911275 ], [ 76.305463871178915, 16.383650772094633 ], [ 76.305759774241793, 16.384740137950729 ], [ 76.305764006927703, 16.384755718666678 ], [ 76.305822122999629, 16.384992074757697 ], [ 76.305822450598356, 16.384993466398885 ], [ 76.305892161035345, 16.385263904551291 ], [ 76.305950033807875, 16.385488422179154 ], [ 76.306465881598101, 16.387328123687606 ], [ 76.306780913529607, 16.388451654193307 ], [ 76.306811435423867, 16.388560507329331 ], [ 76.307072511160598, 16.389491594319981 ], [ 76.307082776356069, 16.389528203479145 ], [ 76.307082783084581, 16.38952822964778 ], [ 76.30713626008405, 16.389715030195276 ], [ 76.307556238487109, 16.391142779084721 ], [ 76.307584533342208, 16.391198087974267 ], [ 76.307633704380692, 16.391294180663746 ], [ 76.307676182961956, 16.391377240456844 ], [ 76.308215715140136, 16.392432413551713 ], [ 76.308583102513836, 16.393399152029911 ], [ 76.308612682068087, 16.393472881384248 ], [ 76.309326733784076, 16.395252817118518 ], [ 76.309381549633088, 16.395389454414328 ], [ 76.309499955836458, 16.395661856474941 ], [ 76.309724184046146, 16.396177708015919 ], [ 76.309740601085977, 16.396215477092159 ], [ 76.309674110572018, 16.396605641194714 ], [ 76.309674109875246, 16.396605646180888 ], [ 76.309665449881166, 16.396739840088848 ], [ 76.309638658574258, 16.396913426889046 ], [ 76.309617521643432, 16.397050319120417 ], [ 76.309601352533946, 16.3971550330869 ], [ 76.309705380476828, 16.397145043054554 ], [ 76.309740862879153, 16.397141635173867 ], [ 76.309940843430368, 16.397122428721445 ], [ 76.310788630679596, 16.397039878851487 ], [ 76.310810972305987, 16.396976238049344 ], [ 76.310821387851348, 16.396946567995311 ], [ 76.310914149173684, 16.396682334550619 ], [ 76.310983121638714, 16.39648586233692 ], [ 76.31107192712787, 16.396232893255021 ], [ 76.311443654997319, 16.396130266659135 ], [ 76.311759244745076, 16.396043138411052 ], [ 76.312238810578151, 16.395910738627627 ], [ 76.313022714946783, 16.396283592205766 ], [ 76.31312787617, 16.396333620881876 ], [ 76.313287822491418, 16.396588733479817 ], [ 76.313656054214107, 16.397175671311444 ], [ 76.314802296110429, 16.396794682416662 ], [ 76.315413119287555, 16.396456191123516 ], [ 76.315869766814785, 16.395935034268824 ], [ 76.316053938712358, 16.395522262139266 ], [ 76.31605399362121, 16.39534077395307 ], [ 76.31605401217162, 16.395276773538832 ], [ 76.31605410115894, 16.3949815746297 ], [ 76.316054106115132, 16.394965865549153 ], [ 76.316054108839083, 16.394959998928304 ], [ 76.316058843764509, 16.394956319195064 ], [ 76.316058852544685, 16.394951274623317 ], [ 76.316058863670648, 16.394945404334642 ], [ 76.316210014569307, 16.394827819315793 ], [ 76.316369436841512, 16.394703721106303 ], [ 76.31637960530108, 16.394695806986512 ], [ 76.316394881960107, 16.394691892761927 ], [ 76.316408722002123, 16.394688348149387 ], [ 76.316536938086088, 16.39465553074648 ], [ 76.316984742326596, 16.394540751124847 ], [ 76.316990248579387, 16.39454100766088 ], [ 76.317002831685869, 16.394541583199096 ], [ 76.317358318041144, 16.39455787881111 ], [ 76.31798940013195, 16.39522140754147 ], [ 76.3183183072871, 16.395669782060672 ], [ 76.318926274420122, 16.396498845975849 ], [ 76.319015652443241, 16.39662072638772 ], [ 76.319014677706804, 16.39662902072638 ], [ 76.319016712831555, 16.396631783209486 ], [ 76.319574474962053, 16.397189510465015 ], [ 76.320269634126575, 16.397619919162857 ], [ 76.32154288380363, 16.397389815849756 ], [ 76.322052846052316, 16.397004124612355 ], [ 76.322076623317827, 16.396972709798817 ], [ 76.322714277286281, 16.39613021031052 ], [ 76.322804046508168, 16.396011602423272 ], [ 76.322809203291143, 16.396012374362801 ], [ 76.322833205732209, 16.39601596639028 ], [ 76.322899723245811, 16.395925506013736 ], [ 76.323060170455875, 16.395951365552229 ], [ 76.323418811055603, 16.395957309416808 ], [ 76.324211470520993, 16.395970431445416 ], [ 76.326525592868151, 16.396845736127357 ], [ 76.326547391748676, 16.396853984058048 ], [ 76.326705742867006, 16.396913880306396 ], [ 76.327462500506257, 16.397200109479208 ], [ 76.3289039823172, 16.397368957353972 ], [ 76.329346204557439, 16.397378193668843 ], [ 76.330003685553663, 16.397279434300067 ], [ 76.330019164250032, 16.39727702806421 ], [ 76.330549244690317, 16.397174599468642 ], [ 76.330904524385474, 16.397101691305981 ], [ 76.331231649306758, 16.397005898364181 ], [ 76.331237695388282, 16.397005742733668 ], [ 76.331300548205689, 16.396987094117584 ], [ 76.331498982772857, 16.396981779348629 ], [ 76.331664807802483, 16.396977336152851 ], [ 76.331804402775049, 16.396946554132676 ], [ 76.332049850853636, 16.396892437639863 ], [ 76.332128605444709, 16.397111992410672 ], [ 76.332238012407885, 16.397350289319611 ], [ 76.332389268379458, 16.397594535446643 ], [ 76.33257419475386, 16.397845684526537 ], [ 76.332792765425438, 16.39809685147366 ], [ 76.333020519549109, 16.398345054197343 ], [ 76.333234002785403, 16.398598191510683 ], [ 76.333314859648738, 16.398684050340034 ], [ 76.33333538093774, 16.398723525606247 ], [ 76.333377402696456, 16.398784699400085 ], [ 76.333444405051509, 16.398845399295435 ], [ 76.333671002523531, 16.399053154428515 ], [ 76.333889369741925, 16.399241180037283 ], [ 76.333943661047542, 16.399311246954888 ], [ 76.334110933582508, 16.39947162121657 ], [ 76.334218368669468, 16.399573281998542 ], [ 76.334280831382245, 16.399648283209093 ], [ 76.334315249469213, 16.399726729659996 ], [ 76.334454304899708, 16.399981814749662 ], [ 76.334582112337984, 16.400229985666769 ], [ 76.334608777931351, 16.400273402096353 ], [ 76.334727322559516, 16.400498883974187 ], [ 76.334749942741297, 16.400550187318196 ], [ 76.334803206861366, 16.400621246528456 ], [ 76.334890885193346, 16.400761871333536 ], [ 76.334971777209148, 16.400857589628846 ], [ 76.335026783360348, 16.400992284169991 ], [ 76.335088251122102, 16.401070245015852 ], [ 76.335112800392423, 16.401094916447914 ], [ 76.335135405497482, 16.40114425677956 ], [ 76.335162119821831, 16.401202473428828 ], [ 76.335190286127428, 16.401240461048587 ], [ 76.335405619556226, 16.401432426543025 ], [ 76.335618903012445, 16.401625378203782 ], [ 76.33583316552054, 16.401803530008461 ], [ 76.336026090179502, 16.402007324225774 ], [ 76.336192739280747, 16.402507426789978 ], [ 76.336458373510368, 16.403103034976922 ], [ 76.336601691049282, 16.403424382045145 ], [ 76.336633893609118, 16.403604332585008 ], [ 76.336805075452318, 16.404508650982123 ], [ 76.336814757124785, 16.404559234654652 ], [ 76.336913330262746, 16.405072539083097 ], [ 76.337015073105448, 16.405605382342216 ], [ 76.336977821081135, 16.40571119116602 ], [ 76.336939595386468, 16.405819767284338 ], [ 76.336668106917941, 16.406590889134392 ], [ 76.336609259180975, 16.406756459782468 ], [ 76.33601738749212, 16.407035344831513 ], [ 76.335322315776338, 16.407057909778704 ], [ 76.334355323092851, 16.407085905957381 ], [ 76.332785882797992, 16.406950019779806 ], [ 76.332616723050791, 16.407168021990067 ], [ 76.332598088187979, 16.407192036643934 ], [ 76.332415860700522, 16.407236219501389 ], [ 76.332305945109169, 16.407260829231316 ], [ 76.332213444871357, 16.407301128713662 ], [ 76.332065034952478, 16.407418132925859 ], [ 76.331901976411316, 16.407478574299923 ], [ 76.331800256263222, 16.407532316431347 ], [ 76.331645936789855, 16.407611231028085 ], [ 76.331584656696052, 16.407636982746439 ], [ 76.331546519595904, 16.407661618004379 ], [ 76.331518855325555, 16.407699689659335 ], [ 76.331469119175338, 16.407885066043217 ], [ 76.331453385090811, 16.408028452403876 ], [ 76.331408177704631, 16.408186939140688 ], [ 76.331400248886368, 16.408238471643251 ], [ 76.331374927978786, 16.408282150071155 ], [ 76.331248628226462, 16.408431658023854 ], [ 76.331036540133411, 16.408654305357164 ], [ 76.330984424002722, 16.408709779088856 ], [ 76.330773240342538, 16.408943335662464 ], [ 76.330725268012088, 16.409018625113646 ], [ 76.330661089925343, 16.40907270559034 ], [ 76.330651936654888, 16.40908506247748 ], [ 76.330639415773376, 16.40911760357228 ], [ 76.330594621597427, 16.409328596546693 ], [ 76.330533953821501, 16.409614360211361 ], [ 76.33052025115272, 16.409637942183899 ], [ 76.330519535093742, 16.409639634113852 ], [ 76.330503162641932, 16.409678340918006 ], [ 76.33049950046022, 16.409769798866016 ], [ 76.330494094752979, 16.409904784027031 ], [ 76.330493271097367, 16.409925359735649 ], [ 76.330495348787508, 16.409940355986862 ], [ 76.330530336776988, 16.41019289295857 ], [ 76.330535382357283, 16.410229313973922 ], [ 76.330583218766421, 16.410533265365167 ], [ 76.33065402591933, 16.41083602010594 ], [ 76.330728256763322, 16.41113878022572 ], [ 76.33081739096076, 16.411441491069446 ], [ 76.330905345307798, 16.411748698497991 ], [ 76.33152133716068, 16.412569179416074 ], [ 76.331856988667695, 16.413016252471756 ], [ 76.332592624752593, 16.413996077136364 ], [ 76.332648872718025, 16.414070986846735 ], [ 76.332651946735311, 16.414078856927418 ], [ 76.332652616135988, 16.414079745311749 ], [ 76.332682988232193, 16.41415704343807 ], [ 76.332712573303851, 16.41425822853958 ], [ 76.332762056666553, 16.414346128959899 ], [ 76.332772402477673, 16.414360505116203 ], [ 76.332799071503828, 16.414397564273298 ], [ 76.332823390155369, 16.414442316114627 ], [ 76.332823514533104, 16.414442795123325 ], [ 76.332828274287436, 16.414451512005574 ], [ 76.332838828742823, 16.414491842135956 ], [ 76.332837857803028, 16.414545605363255 ], [ 76.332850787358041, 16.414603863542947 ], [ 76.332876692483751, 16.414673796898164 ], [ 76.332916372066535, 16.414761196415817 ], [ 76.332938619929834, 16.414836252204033 ], [ 76.332958545806164, 16.414905710133208 ], [ 76.332970360589499, 16.414939837614575 ], [ 76.333013593356796, 16.415052996324071 ], [ 76.333046341018445, 16.415149340413883 ], [ 76.333073259743458, 16.415231131467237 ], [ 76.333090918025121, 16.415317394545351 ], [ 76.333132704259697, 16.41547302287114 ], [ 76.333163141868042, 16.415568252749118 ], [ 76.333188784038882, 16.415618659330324 ], [ 76.333200538724896, 16.415670200665463 ], [ 76.333212252609201, 16.415710531537119 ], [ 76.333221890777295, 16.415765933526945 ], [ 76.33323259352035, 16.415776279404646 ], [ 76.333232921339587, 16.415778479554501 ], [ 76.333240876766808, 16.415786151435611 ], [ 76.33324561707677, 16.415817518411064 ], [ 76.333248052251946, 16.415851125172811 ], [ 76.333252706096957, 16.415857848813502 ], [ 76.333260868813426, 16.41587353032364 ], [ 76.333260955789086, 16.415901545728001 ], [ 76.333262289980624, 16.415951948445802 ], [ 76.33326471976406, 16.415986686797016 ], [ 76.333275312169548, 16.416037091292846 ], [ 76.333282460738388, 16.416096462548033 ], [ 76.333287326624827, 16.41616480313294 ], [ 76.333296758841982, 16.416215206857292 ], [ 76.333309804450892, 16.416300070275486 ], [ 76.333314647017517, 16.416361688550204 ], [ 76.333330029018981, 16.416461397390822 ], [ 76.33334060068141, 16.416502842652864 ], [ 76.333348860988295, 16.416548775488959 ], [ 76.333353856899251, 16.416663393349936 ], [ 76.333356248922911, 16.416665517457368 ], [ 76.333356166262618, 16.416666174184119 ], [ 76.333366557595753, 16.416675380235066 ], [ 76.332906483442343, 16.420408507785119 ], [ 76.331970303680706, 16.422487204715452 ], [ 76.331563888996456, 16.424037771409196 ], [ 76.331372510673134, 16.425224553170121 ], [ 76.331839516197832, 16.426790655232974 ], [ 76.331904847678004, 16.427009739852146 ], [ 76.331988151659402, 16.427156046549527 ], [ 76.332393954228806, 16.427141008622705 ] ] ] ] } }
]
}
