{
"type": "FeatureCollection",
"name": "police_station_boundary.writing_20260805_172659",
"crs": { "type": "name", "properties": { "name": "urn:ogc:def:crs:OGC:1.3:CRS84" } },
"features": [
{ "type": "Feature", "properties": { "Shape.STArea()": 247428505.48755321, "Shape.STLength()": 83390.024834395153, "OBJECTID": 195, "KGISPS_BOUNDID": 287, "PS_BOUNDName": "Basavapatna PS", "PS_BOUNDCode": "PSB - 287", "KGISPS_SUB_DIVID": 43, "_source_layer": "Police Station Boundary", "_source_layer_url": "https://kgis.ksrsac.in/kgismaps/rest/services/Home/Home_Department/MapServer/82", "_police_station": "Basavapatna PS" }, "geometry": { "type": "Polygon", "coordinates": [ [ [ 75.870809637294258, 14.323803331983129 ], [ 75.869671204813272, 14.325115926194304 ], [ 75.869596201457952, 14.325202404285706 ], [ 75.866808962472746, 14.324708496960392 ], [ 75.865463707880551, 14.324450307525714 ], [ 75.864086027781184, 14.324174598631057 ], [ 75.861432756637811, 14.323736244206879 ], [ 75.860667898606209, 14.323814072521042 ], [ 75.860031149551872, 14.323843794649347 ], [ 75.858953893306818, 14.323948033102837 ], [ 75.858857640223889, 14.323955711526505 ], [ 75.858208568715625, 14.324007486040275 ], [ 75.857351259372606, 14.323978247799277 ], [ 75.856469141084688, 14.323954603611245 ], [ 75.856143954558334, 14.323839780019753 ], [ 75.855164251163103, 14.323827520695952 ], [ 75.853459288551775, 14.323606117601752 ], [ 75.853317901557205, 14.32358359853896 ], [ 75.852723537747451, 14.323488927255672 ], [ 75.852724459308661, 14.323369819536456 ], [ 75.852577112966742, 14.323359262596956 ], [ 75.851351645978639, 14.32327145967626 ], [ 75.8511220566171, 14.32326949794324 ], [ 75.85040644320074, 14.323217261850358 ], [ 75.848462629771561, 14.323064824890826 ], [ 75.848299697728024, 14.323671725249074 ], [ 75.848289839743572, 14.323864067169062 ], [ 75.848149920014947, 14.323859869246828 ], [ 75.846465548209125, 14.323809287952368 ], [ 75.846365011641126, 14.323807820895647 ], [ 75.845615922792305, 14.323063273707248 ], [ 75.845623482373142, 14.323039232396207 ], [ 75.845695339618601, 14.322810726773312 ], [ 75.84575536716352, 14.322619838978147 ], [ 75.845669036069538, 14.322531436308676 ], [ 75.845616293629774, 14.322477430313702 ], [ 75.845820940130864, 14.322334084410391 ], [ 75.846035384525479, 14.321977948840933 ], [ 75.846043403198337, 14.321070633174886 ], [ 75.846524136541319, 14.319498233178567 ], [ 75.846701473015571, 14.319217237946658 ], [ 75.848902518679381, 14.317378754895703 ], [ 75.849091555360701, 14.317132240679562 ], [ 75.848869227492372, 14.316500067562677 ], [ 75.848663976244012, 14.316126336410191 ], [ 75.848675643652641, 14.315772766374351 ], [ 75.848454265342525, 14.315483589569611 ], [ 75.847448461452544, 14.314344664708944 ], [ 75.846927660766042, 14.31375492178171 ], [ 75.846623124647436, 14.313410072615859 ], [ 75.846293935392168, 14.31350310413587 ], [ 75.846192055732274, 14.31316032353662 ], [ 75.846144833649845, 14.313001457881915 ], [ 75.846370193432435, 14.312547004359523 ], [ 75.84641769693917, 14.312014842974783 ], [ 75.846350687136763, 14.311678718867482 ], [ 75.845990967617738, 14.310037976334591 ], [ 75.845880781355532, 14.309879621216755 ], [ 75.84551969226996, 14.309857259395065 ], [ 75.845194828532073, 14.31010088334323 ], [ 75.844855891341297, 14.310064196025024 ], [ 75.844487663165751, 14.309941196680811 ], [ 75.844570050395419, 14.309380815032057 ], [ 75.844644903626431, 14.308871679510345 ], [ 75.844270442572579, 14.308287763440454 ], [ 75.843792584635366, 14.307776436870794 ], [ 75.843498100631862, 14.307639226612686 ], [ 75.842930361205603, 14.307738577270509 ], [ 75.842347152226949, 14.308146909934639 ], [ 75.842074818919372, 14.307995382703471 ], [ 75.841633442060512, 14.307642242066798 ], [ 75.841214920272918, 14.306972933351833 ], [ 75.841223347074859, 14.306527374053296 ], [ 75.841489431568334, 14.306204569025379 ], [ 75.841816509985847, 14.305807768586055 ], [ 75.842017076930901, 14.30435157217528 ], [ 75.842179675792963, 14.30415789619636 ], [ 75.842474730224694, 14.304050752426237 ], [ 75.842902222661252, 14.304037336083882 ], [ 75.843308225753191, 14.303757965705177 ], [ 75.843522917546906, 14.303348796843435 ], [ 75.843907563715604, 14.302753159192893 ], [ 75.843907900701396, 14.302609424820494 ], [ 75.843082807628562, 14.302463846222595 ], [ 75.842832475983528, 14.302355482308837 ], [ 75.842730060455196, 14.302031851729119 ], [ 75.842517162270539, 14.301679225018104 ], [ 75.842369807014606, 14.301435161507804 ], [ 75.842194440555801, 14.301017325052742 ], [ 75.842195388656023, 14.300614871114472 ], [ 75.842202970415912, 14.300343631496453 ], [ 75.842356765092433, 14.300221385423283 ], [ 75.842025595003761, 14.300229329644885 ], [ 75.841757958605783, 14.300219362749086 ], [ 75.841616518058686, 14.300235328630396 ], [ 75.840385813367277, 14.300300363563585 ], [ 75.839157454763438, 14.300367798713904 ], [ 75.837929178730263, 14.300430533220739 ], [ 75.836894585250391, 14.300496388056649 ], [ 75.836287154472501, 14.300490966324723 ], [ 75.83629391608666, 14.300128637622302 ], [ 75.836253130005616, 14.299632970608718 ], [ 75.836102397496006, 14.298940343894754 ], [ 75.836033136213373, 14.298806857628744 ], [ 75.835563187104697, 14.29882097081345 ], [ 75.833859552383743, 14.298872121781935 ], [ 75.833805612421685, 14.298873741130755 ], [ 75.833637292227635, 14.298878797278158 ], [ 75.832596151197777, 14.298910048297627 ], [ 75.832035165645436, 14.298892438423243 ], [ 75.830967751949814, 14.299008256305116 ], [ 75.83020160555283, 14.298955901969096 ], [ 75.828817736486229, 14.29888173883008 ], [ 75.828800293743953, 14.298880804196175 ], [ 75.828672638091376, 14.298873962838345 ], [ 75.828607974745822, 14.298870493962671 ], [ 75.828482466456279, 14.299004431396822 ], [ 75.827942439060877, 14.299542015187805 ], [ 75.827387536638355, 14.300119312196873 ], [ 75.826830628619092, 14.300694536486407 ], [ 75.826276308372528, 14.301242651284408 ], [ 75.826107962599693, 14.301054492876949 ], [ 75.824724154514669, 14.301026498280399 ], [ 75.823247325759084, 14.300969036721822 ], [ 75.823223581437333, 14.300966924667662 ], [ 75.822549904382711, 14.30095556740469 ], [ 75.821563403315452, 14.300958128027492 ], [ 75.81995376282903, 14.301008065459945 ], [ 75.818531735511087, 14.301074402210821 ], [ 75.818304588053067, 14.301084990538492 ], [ 75.816643742439126, 14.301200144165982 ], [ 75.814950940778246, 14.301285000057172 ], [ 75.814026135475444, 14.301329903733663 ], [ 75.814010954927952, 14.30123756336415 ], [ 75.813958401289369, 14.300918004089608 ], [ 75.813906511356592, 14.300602483827859 ], [ 75.81401760556497, 14.300022749581846 ], [ 75.813997285254359, 14.299839770315634 ], [ 75.813950601707703, 14.299483093103767 ], [ 75.813911215513897, 14.299182246888344 ], [ 75.813870143418882, 14.298832043650249 ], [ 75.813834146986324, 14.298524984598755 ], [ 75.813817512079311, 14.29842568038077 ], [ 75.813806756531605, 14.298361538065128 ], [ 75.81369880232549, 14.298082653574259 ], [ 75.8136436432398, 14.297866265864 ], [ 75.813583295588487, 14.297730179669113 ], [ 75.813582051246513, 14.297716478721746 ], [ 75.813567021256446, 14.297551140082582 ], [ 75.813556788095823, 14.297354305289092 ], [ 75.813548747269564, 14.297199656288299 ], [ 75.813548857935842, 14.297185054746354 ], [ 75.813549850461357, 14.297052932972178 ], [ 75.813541942200175, 14.297034145760218 ], [ 75.813525759008769, 14.296995670300408 ], [ 75.813480850685991, 14.296533806859207 ], [ 75.813474802917867, 14.296479876460573 ], [ 75.813469526856807, 14.29643274403962 ], [ 75.813455516047185, 14.296307646852258 ], [ 75.813439565481019, 14.296165206674265 ], [ 75.81344040432532, 14.296132659029817 ], [ 75.813443238348796, 14.296022753648128 ], [ 75.813444758381991, 14.295963834783564 ], [ 75.813435181492608, 14.295912335809305 ], [ 75.813303935185829, 14.295206583485497 ], [ 75.813277345045861, 14.295074668071928 ], [ 75.813170626101439, 14.294545216566684 ], [ 75.81315699461318, 14.294477593292438 ], [ 75.812874599574116, 14.293004820068344 ], [ 75.812854196933458, 14.292886416854776 ], [ 75.812783761259638, 14.292477660092006 ], [ 75.812759849814853, 14.292095989371168 ], [ 75.812738876881269, 14.291944717811734 ], [ 75.81266841953132, 14.291436549193474 ], [ 75.812612366378673, 14.291022221858464 ], [ 75.812580415154201, 14.290786045074727 ], [ 75.812490611709606, 14.290135490950908 ], [ 75.812407867928357, 14.28949220960911 ], [ 75.812406052898808, 14.289481938926523 ], [ 75.812350077686887, 14.289165217531567 ], [ 75.81234631326582, 14.289143916276846 ], [ 75.812330384991029, 14.288856148433686 ], [ 75.812314390141538, 14.288662972933084 ], [ 75.812313788181825, 14.288635509403573 ], [ 75.81230396260986, 14.288187944047493 ], [ 75.812307953339541, 14.288030227757895 ], [ 75.812320392430351, 14.287538635498501 ], [ 75.81232445830824, 14.287423824713322 ], [ 75.812323781337554, 14.28739405598755 ], [ 75.812313876091963, 14.286958344482862 ], [ 75.812311926048864, 14.286872709566689 ], [ 75.812304994064661, 14.286530799801273 ], [ 75.812300975184215, 14.286333127092682 ], [ 75.812236665171667, 14.28621549192658 ], [ 75.812195215605627, 14.286137512949823 ], [ 75.812146355963606, 14.286045591833302 ], [ 75.812144591972924, 14.286013352294404 ], [ 75.81213627785759, 14.285861359301837 ], [ 75.812110693555539, 14.285393603909014 ], [ 75.812102022347375, 14.285235082727626 ], [ 75.811684878711219, 14.28426795214345 ], [ 75.811286788589214, 14.283361467667129 ], [ 75.811329581690799, 14.283345038148923 ], [ 75.81125139622965, 14.28322467612384 ], [ 75.811175714745673, 14.283108162421263 ], [ 75.811383849890149, 14.280888846534946 ], [ 75.811384832631077, 14.280746265956145 ], [ 75.811397676164788, 14.27888000371502 ], [ 75.811402898401738, 14.278122188539767 ], [ 75.811392355353775, 14.278014328415757 ], [ 75.811378785897077, 14.277875515027278 ], [ 75.81134698087385, 14.27755015958552 ], [ 75.811386386705209, 14.277404906671622 ], [ 75.81138889729985, 14.277395631108211 ], [ 75.811408511301039, 14.27732329155109 ], [ 75.811452971234544, 14.277150839683905 ], [ 75.811479110579498, 14.277067088057784 ], [ 75.811660837837735, 14.276436613197456 ], [ 75.811840695693292, 14.275809621750156 ], [ 75.812016603384933, 14.275200198533181 ], [ 75.812088255665756, 14.274945858256421 ], [ 75.812195008163016, 14.274555485140146 ], [ 75.812383791231639, 14.273932282725584 ], [ 75.812414680974442, 14.273827073206508 ], [ 75.812439029593094, 14.273735318183654 ], [ 75.812502230742638, 14.273497154722868 ], [ 75.812502817123388, 14.273485916583663 ], [ 75.812513842958339, 14.273273819902457 ], [ 75.812512408469857, 14.272616931003864 ], [ 75.812501869352872, 14.271965089054399 ], [ 75.812487555355119, 14.271321979067297 ], [ 75.812471721364403, 14.270664681677451 ], [ 75.812459487539428, 14.270007486793808 ], [ 75.812440801185033, 14.26971635917544 ], [ 75.812416797183246, 14.269342353730631 ], [ 75.812413200494674, 14.268886082533919 ], [ 75.812377706212033, 14.26867732497147 ], [ 75.812344305314184, 14.268470671333684 ], [ 75.812270190720952, 14.268012126121885 ], [ 75.812166274923356, 14.267347017958299 ], [ 75.812153939788772, 14.267242350821942 ], [ 75.812145936545392, 14.267193063089341 ], [ 75.812062430652475, 14.266678386163932 ], [ 75.811955465603646, 14.266171728876444 ], [ 75.811944910821325, 14.266121775361448 ], [ 75.812136631658163, 14.266087539492741 ], [ 75.811897519608976, 14.264641543459167 ], [ 75.811870310871186, 14.264476967944336 ], [ 75.811415326674506, 14.26368225100982 ], [ 75.810556372077031, 14.262461250200412 ], [ 75.810155524728131, 14.261771277935336 ], [ 75.809872655102083, 14.261137499042984 ], [ 75.809844472472264, 14.260959217591685 ], [ 75.809791896702066, 14.260837867890105 ], [ 75.809577284772431, 14.259864171724223 ], [ 75.809531693923745, 14.259657288407576 ], [ 75.809447361950319, 14.259274711640128 ], [ 75.809518525376831, 14.258498418290838 ], [ 75.809533173939769, 14.258338557959682 ], [ 75.809577231627244, 14.257857916064252 ], [ 75.80959583375612, 14.25765496462741 ], [ 75.809638021520755, 14.256899722068649 ], [ 75.809655089125258, 14.255871079717938 ], [ 75.809662997641908, 14.255394273580357 ], [ 75.809874208076323, 14.255398631316726 ], [ 75.809870147352285, 14.255110919591074 ], [ 75.809739490309354, 14.25500701454509 ], [ 75.809729997972184, 14.254840920069647 ], [ 75.809923565988456, 14.254861607867419 ], [ 75.809927220031028, 14.254654862896249 ], [ 75.80992909798988, 14.254548360691979 ], [ 75.809918157675696, 14.254456297097189 ], [ 75.809900236000487, 14.254305392108858 ], [ 75.80982734324904, 14.253691793124727 ], [ 75.809817490489564, 14.253608861761514 ], [ 75.809784958239234, 14.253335021508462 ], [ 75.809695577717989, 14.252582658195578 ], [ 75.80965362238905, 14.252196781132106 ], [ 75.809651150792945, 14.25205323456586 ], [ 75.809646562640197, 14.251786930024434 ], [ 75.809656914618174, 14.251699585867359 ], [ 75.809695899555138, 14.251370508192668 ], [ 75.809830275585981, 14.250729628617394 ], [ 75.809774054274115, 14.250490361935835 ], [ 75.809730738051044, 14.25030597467398 ], [ 75.809634904430411, 14.249898027694808 ], [ 75.809560527292163, 14.249581432372175 ], [ 75.809490006555691, 14.249240698890832 ], [ 75.809467215552871, 14.249130575306483 ], [ 75.809336134596577, 14.249124853926583 ], [ 75.809288308965648, 14.249124411276192 ], [ 75.807979002195196, 14.249112278399432 ], [ 75.806812813129781, 14.249036968618688 ], [ 75.806021082563561, 14.248903265686943 ], [ 75.805948947317887, 14.248891084240938 ], [ 75.805513110961314, 14.248834850536849 ], [ 75.804687942888322, 14.248809745512709 ], [ 75.804497966967773, 14.248827872257067 ], [ 75.804284244587066, 14.248738891235396 ], [ 75.803899001481511, 14.248739187522213 ], [ 75.803645938603921, 14.2486245326361 ], [ 75.803428750080059, 14.248563602325156 ], [ 75.803395788193328, 14.248554355831271 ], [ 75.802589695226047, 14.248356415212536 ], [ 75.802196705698009, 14.248304339307738 ], [ 75.802121663503414, 14.248294395068825 ], [ 75.801733922652289, 14.248258397395658 ], [ 75.801235560366152, 14.248156199598988 ], [ 75.800903456683486, 14.248123052451112 ], [ 75.800842732977344, 14.248111306696755 ], [ 75.800676960201216, 14.24807923112277 ], [ 75.800647116069342, 14.248075336014804 ], [ 75.800527617072689, 14.248059720695863 ], [ 75.800407946282974, 14.24804480205176 ], [ 75.799734114869338, 14.247960795989707 ], [ 75.798759904868206, 14.247764342099387 ], [ 75.798458100110324, 14.24757506624872 ], [ 75.798288685777266, 14.24746881766109 ], [ 75.797501961607907, 14.247440223669638 ], [ 75.797267181136334, 14.247431689473773 ], [ 75.796909905916479, 14.247479252359593 ], [ 75.796538578181071, 14.247480538049533 ], [ 75.796377101223243, 14.247481096808233 ], [ 75.796210102851859, 14.247479360275776 ], [ 75.79603902214059, 14.247477580283888 ], [ 75.796051782022758, 14.247418039548807 ], [ 75.796092452028461, 14.247228271710094 ], [ 75.796024719863809, 14.247226986865945 ], [ 75.795889683799942, 14.247224424732746 ], [ 75.795621785310857, 14.247164277355919 ], [ 75.795356909308168, 14.247117792365106 ], [ 75.79510203550592, 14.247073062976234 ], [ 75.794962555112932, 14.247048583359851 ], [ 75.794864070016047, 14.247031300324535 ], [ 75.794547862107649, 14.24697580599649 ], [ 75.794241123563708, 14.246948600798419 ], [ 75.793570855830311, 14.24688915321866 ], [ 75.793074892722998, 14.246823585173049 ], [ 75.79286281896465, 14.246842182892907 ], [ 75.792667411726299, 14.246859319192517 ], [ 75.792605245287433, 14.247038718281111 ], [ 75.792449411888057, 14.246991811828831 ], [ 75.791661729417129, 14.2466576395269 ], [ 75.791385789896935, 14.246588278543392 ], [ 75.79058113501776, 14.246379096169179 ], [ 75.790549926931789, 14.246370982125436 ], [ 75.790545327800402, 14.24636999199347 ], [ 75.789017281130683, 14.246040821194301 ], [ 75.788409782997732, 14.24589373887709 ], [ 75.787034732941422, 14.245560814779031 ], [ 75.785985859217959, 14.245190924786813 ], [ 75.785806887860161, 14.24512289508951 ], [ 75.7834666269857, 14.24423336865752 ], [ 75.783299496714733, 14.244120505080298 ], [ 75.783109305992639, 14.243992078693605 ], [ 75.782229628376768, 14.243398050660662 ], [ 75.780725317650678, 14.242382206313319 ], [ 75.780422662038447, 14.242154378033266 ], [ 75.78024690454474, 14.242129008221223 ], [ 75.778095481950217, 14.241818436346344 ], [ 75.778022366564386, 14.241804892397948 ], [ 75.777502869329396, 14.242003053684167 ], [ 75.777268772506019, 14.241935127219579 ], [ 75.777022660449902, 14.241863718121651 ], [ 75.775368835042045, 14.241383858029318 ], [ 75.774190592040952, 14.241273629046935 ], [ 75.772736505078015, 14.241281479493164 ], [ 75.771858717536588, 14.241163263099859 ], [ 75.771201704633668, 14.24107478445778 ], [ 75.769415534053437, 14.240908431707288 ], [ 75.768909805497771, 14.240798076933066 ], [ 75.768668872421756, 14.241152542186125 ], [ 75.768583258577422, 14.241597940795627 ], [ 75.768435457149209, 14.241531783656947 ], [ 75.768354798810861, 14.241495679949033 ], [ 75.768222388474499, 14.241358986037275 ], [ 75.767418856644198, 14.241251744238932 ], [ 75.767127880748887, 14.241284278846608 ], [ 75.766938469500403, 14.241336258864299 ], [ 75.766678317313946, 14.241210488233595 ], [ 75.766463883038213, 14.241162965026449 ], [ 75.766219159693676, 14.241105636106946 ], [ 75.765830542070688, 14.241014596760362 ], [ 75.765654053325122, 14.241036237582044 ], [ 75.764821905731054, 14.240916209581506 ], [ 75.763257763684436, 14.240589729779057 ], [ 75.762341921867119, 14.240522170201077 ], [ 75.762270411047254, 14.240516883429045 ], [ 75.761141725953607, 14.239997412347767 ], [ 75.760865594012031, 14.239870318162314 ], [ 75.760713292651559, 14.239800223968089 ], [ 75.759920435098735, 14.23916912555719 ], [ 75.750442642240998, 14.231322707556952 ], [ 75.750456623082016, 14.23117472532085 ], [ 75.75022671204627, 14.229481527711281 ], [ 75.749919166774674, 14.226997099877011 ], [ 75.749812506025904, 14.226299541575663 ], [ 75.749753031728659, 14.225829691824238 ], [ 75.749706998517112, 14.225466025160868 ], [ 75.749710185311045, 14.225443060606736 ], [ 75.749720388492264, 14.22536953857476 ], [ 75.749714431967519, 14.225285565040195 ], [ 75.749750034038001, 14.225080356839314 ], [ 75.749772789419481, 14.224949193401956 ], [ 75.749774938512971, 14.224936745143172 ], [ 75.749845096573623, 14.224532404029485 ], [ 75.749865339701202, 14.224415731471431 ], [ 75.749911601488634, 14.223557599879836 ], [ 75.749919593561046, 14.223476903390875 ], [ 75.749946072375266, 14.223209563194757 ], [ 75.74998132346866, 14.222783906731028 ], [ 75.750024473348432, 14.22231564620022 ], [ 75.75003495090607, 14.222216893067639 ], [ 75.750067814611086, 14.221907155156583 ], [ 75.750105203292975, 14.2215547713279 ], [ 75.750107331878866, 14.2215347104851 ], [ 75.750130870840309, 14.221262706102467 ], [ 75.750163961053445, 14.220880339933773 ], [ 75.75025488962514, 14.220727563933693 ], [ 75.754002602218961, 14.214430601395138 ], [ 75.754544533759557, 14.213430601915858 ], [ 75.754622962835214, 14.213505780227351 ], [ 75.754770275549447, 14.21295581013683 ], [ 75.754961064243531, 14.212925035037909 ], [ 75.754951764482271, 14.21278102271244 ], [ 75.754913516497652, 14.212188770445518 ], [ 75.754882000007143, 14.2117007575538 ], [ 75.75481152018682, 14.210579718039039 ], [ 75.754794317389624, 14.210306083300958 ], [ 75.754546933833169, 14.207897482276211 ], [ 75.754302584629173, 14.205546267545785 ], [ 75.754284724993326, 14.205369415667398 ], [ 75.754188135447919, 14.204412898794351 ], [ 75.751623040493314, 14.204712120606368 ], [ 75.750109159157859, 14.20489253727378 ], [ 75.749550606856488, 14.204974367544011 ], [ 75.748116927584306, 14.205153459117874 ], [ 75.746989469851428, 14.205303734367105 ], [ 75.744408976395249, 14.205648234874095 ], [ 75.744139432492076, 14.205696292480196 ], [ 75.74278868347217, 14.205936061950171 ], [ 75.740509748344039, 14.206340573824324 ], [ 75.739807140428027, 14.20646528384685 ], [ 75.739317807700189, 14.206550365544746 ], [ 75.739215501801382, 14.206567873396381 ], [ 75.739066072596131, 14.206593445011469 ], [ 75.73878294468885, 14.206641895761464 ], [ 75.738762500989424, 14.206645591621559 ], [ 75.738350761133162, 14.206720038981071 ], [ 75.737808804268212, 14.206818030782188 ], [ 75.737463596805, 14.206718504553987 ], [ 75.737173462490873, 14.206634855351904 ], [ 75.736242135414741, 14.206339932275693 ], [ 75.736112573192301, 14.205325797203491 ], [ 75.736070006975041, 14.204992612269699 ], [ 75.735907193954063, 14.203751999860028 ], [ 75.735817094283348, 14.203180455410893 ], [ 75.735808544689931, 14.203105778001483 ], [ 75.735788410995951, 14.20292992465799 ], [ 75.735775980588315, 14.202848490039619 ], [ 75.735597851558182, 14.201681478706877 ], [ 75.735230081667567, 14.199272003722669 ], [ 75.734765207319484, 14.196226286582762 ], [ 75.734450124421002, 14.194152796659923 ], [ 75.734446259588267, 14.194127359359953 ], [ 75.734248897232561, 14.192939233688517 ], [ 75.734289852313125, 14.192890833574305 ], [ 75.734663841348507, 14.192448807316396 ], [ 75.738265529254335, 14.188191833680435 ], [ 75.738679858056699, 14.187702110763368 ], [ 75.742867469567031, 14.182752298219139 ], [ 75.742889597675173, 14.182726142188658 ], [ 75.742989737114272, 14.182653985974817 ], [ 75.743537892563168, 14.182259009790418 ], [ 75.747434754452144, 14.17710186103878 ], [ 75.751466302438615, 14.17176614154487 ], [ 75.753155932608408, 14.170488389017747 ], [ 75.755916266078628, 14.168419904828346 ], [ 75.759648151476028, 14.169812133325037 ], [ 75.761077476463868, 14.169268130668696 ], [ 75.761199137919689, 14.169225509736332 ], [ 75.763830174802536, 14.168246587708932 ], [ 75.765514548163125, 14.167599473698811 ], [ 75.765737883557904, 14.167545824061961 ], [ 75.766516298902218, 14.167358833518712 ], [ 75.769352124961628, 14.166076338931271 ], [ 75.778177929879959, 14.160372936779209 ], [ 75.783031169769828, 14.156180860647614 ], [ 75.793217165753973, 14.147381702366246 ], [ 75.793404309679971, 14.147192288583415 ], [ 75.797588337891867, 14.142957484744468 ], [ 75.798977366742861, 14.140703388960073 ], [ 75.799062254551075, 14.140563514655723 ], [ 75.799620562916203, 14.139643456782112 ], [ 75.799991961392294, 14.138364353673071 ], [ 75.800341211272155, 14.13716151868856 ], [ 75.800447127829258, 14.136098734005657 ], [ 75.801447585822302, 14.126059472030462 ], [ 75.801466834822889, 14.125866306782145 ], [ 75.801498450089525, 14.125549029959441 ], [ 75.801615122377001, 14.124198230718727 ], [ 75.80202793414324, 14.119418654302187 ], [ 75.802062817668443, 14.11942731877833 ], [ 75.816641507683229, 14.12304855946606 ], [ 75.816735349675753, 14.123071866191966 ], [ 75.81690913865657, 14.123126091391091 ], [ 75.816909689861504, 14.12312608771129 ], [ 75.817835890670267, 14.123120600324548 ], [ 75.818409887187443, 14.12306454478191 ], [ 75.818641780477151, 14.123056813195179 ], [ 75.820533208661985, 14.122932551957188 ], [ 75.822161584703736, 14.122824448996175 ], [ 75.822870718263971, 14.122979321371361 ], [ 75.823459345329013, 14.123136733263502 ], [ 75.823598959431692, 14.123187389890392 ], [ 75.823677324316321, 14.123215823414963 ], [ 75.823861728013071, 14.123282731570214 ], [ 75.824090597281582, 14.12328711922072 ], [ 75.824133610042608, 14.123287944703495 ], [ 75.824241149667316, 14.123262022605832 ], [ 75.824625114186816, 14.123198016947512 ], [ 75.824628620419844, 14.12319743262972 ], [ 75.824995664455258, 14.123229609082559 ], [ 75.825036851384269, 14.1232181258186 ], [ 75.825054939662294, 14.123215556698902 ], [ 75.825183162252358, 14.123197344909411 ], [ 75.825250414271977, 14.123220187054306 ], [ 75.825454930849759, 14.123179855711811 ], [ 75.825810252465232, 14.123103413722225 ], [ 75.825780827955995, 14.122942567356276 ], [ 75.826156822595522, 14.12285318576396 ], [ 75.826513520173137, 14.12272206397725 ], [ 75.827019756851016, 14.122535969726098 ], [ 75.827165902273649, 14.122513942350347 ], [ 75.827437997662926, 14.122500536400105 ], [ 75.827576781927675, 14.122493695966204 ], [ 75.827778901120027, 14.122483737183053 ], [ 75.828356138252147, 14.122455292733173 ], [ 75.828699322644738, 14.122554882676551 ], [ 75.828706821959713, 14.122667598948803 ], [ 75.828770628805358, 14.122679430906672 ], [ 75.828795985621724, 14.122590799874525 ], [ 75.828866977550831, 14.122565708656486 ], [ 75.828987017829888, 14.12262344450979 ], [ 75.829284612548818, 14.122548322897746 ], [ 75.829873876188742, 14.122515543368946 ], [ 75.830551127202426, 14.122326545553316 ], [ 75.830940132126841, 14.122345305205368 ], [ 75.830887244763687, 14.122115748121338 ], [ 75.830864681008819, 14.121946311537233 ], [ 75.830801102528739, 14.12152315798037 ], [ 75.830723948883502, 14.121051986240174 ], [ 75.830729307029216, 14.120594454644438 ], [ 75.830732345406162, 14.120588002396742 ], [ 75.830731633141824, 14.120579095791108 ], [ 75.830756059049278, 14.120345852363348 ], [ 75.830894468754252, 14.120205956752033 ], [ 75.830923264275185, 14.120062905440777 ], [ 75.830938343151502, 14.119987991553472 ], [ 75.830939989924232, 14.119975369062015 ], [ 75.830967740684201, 14.119762634638347 ], [ 75.831003616159322, 14.119597489631651 ], [ 75.830955463591181, 14.119462269585568 ], [ 75.830941997097682, 14.119348458342477 ], [ 75.831152307205926, 14.118948895455446 ], [ 75.831169599450376, 14.118618085562781 ], [ 75.831153336742958, 14.118563969477217 ], [ 75.831067635759808, 14.118278778443202 ], [ 75.831051945464594, 14.118234074831376 ], [ 75.831046095905421, 14.118216359172981 ], [ 75.830835153195395, 14.117576864297581 ], [ 75.830911590747618, 14.117500717844816 ], [ 75.830970724688854, 14.117441830837233 ], [ 75.830929855091313, 14.116670485997746 ], [ 75.830923971837052, 14.116559368996322 ], [ 75.830917838811047, 14.115818290291093 ], [ 75.833412789709172, 14.115664115338525 ], [ 75.834372848678441, 14.115550296734002 ], [ 75.834787839256364, 14.115500652757516 ], [ 75.834948001198924, 14.115481491658654 ], [ 75.834946557170142, 14.115615349549977 ], [ 75.83526426043457, 14.115616193851686 ], [ 75.835423462309592, 14.115644984114152 ], [ 75.83604896293258, 14.115549095477357 ], [ 75.836741708553859, 14.115547002995251 ], [ 75.83733323625124, 14.115480632471778 ], [ 75.837360586657908, 14.115477564629821 ], [ 75.837497273107601, 14.115561693470964 ], [ 75.837516275849865, 14.115561657189039 ], [ 75.837504294098068, 14.115737674856533 ], [ 75.837620768321784, 14.11574430079647 ], [ 75.837610974765028, 14.115913725344853 ], [ 75.837724411027722, 14.115891582320481 ], [ 75.837784852551664, 14.115883879635057 ], [ 75.837942733843889, 14.115863758896104 ], [ 75.83794911761612, 14.116140552914779 ], [ 75.837997226267987, 14.11625932409062 ], [ 75.83809549934675, 14.116251559223329 ], [ 75.838648691473225, 14.116117506470312 ], [ 75.839420927896697, 14.116169112413106 ], [ 75.839856366249506, 14.116147328842167 ], [ 75.840122505023146, 14.115683885347131 ], [ 75.840549007638955, 14.115289215660383 ], [ 75.84074644148788, 14.115112117230581 ], [ 75.840606023109473, 14.114867885446078 ], [ 75.841824444250207, 14.114617597175 ], [ 75.843025305345165, 14.114135651456783 ], [ 75.843706648277433, 14.11412221177835 ], [ 75.843918397364575, 14.114491492265085 ], [ 75.843922148391073, 14.114501846477307 ], [ 75.843955758756394, 14.11459460093538 ], [ 75.84377632620226, 14.11502761234231 ], [ 75.84392967634993, 14.115478672949479 ], [ 75.843453702001199, 14.115558218985287 ], [ 75.843024898246114, 14.116108280086527 ], [ 75.843790379541971, 14.116281925253332 ], [ 75.84387882572149, 14.116249630688468 ], [ 75.844280791379504, 14.11610285199527 ], [ 75.844937151913513, 14.116134479846966 ], [ 75.845091940911047, 14.11614193774993 ], [ 75.845099380161898, 14.116142296778751 ], [ 75.84517965529912, 14.116146164752431 ], [ 75.845185357401547, 14.116146474728016 ], [ 75.845852569329139, 14.116182773249612 ], [ 75.846508723802827, 14.116213732998846 ], [ 75.847196450533872, 14.116174033542935 ], [ 75.847705058043502, 14.116029331225301 ], [ 75.848273154548195, 14.115909741248087 ], [ 75.848492260117865, 14.115863617361365 ], [ 75.848505392101686, 14.115873773873421 ], [ 75.849459644997651, 14.116611825825865 ], [ 75.851154583943043, 14.117614769314446 ], [ 75.851466759809654, 14.117606783062326 ], [ 75.85578593479903, 14.117496316138494 ], [ 75.855785881109867, 14.118287151950517 ], [ 75.853731564498091, 14.124648309832043 ], [ 75.853540263545355, 14.125049202708471 ], [ 75.855619776594054, 14.126380290554083 ], [ 75.856047330391661, 14.126653963121095 ], [ 75.857383307879488, 14.127509095555569 ], [ 75.863003705731487, 14.129175761756619 ], [ 75.863556503870953, 14.129339679584236 ], [ 75.866029214052389, 14.129834919459435 ], [ 75.866461271534462, 14.129921449442 ], [ 75.867191735838901, 14.130067742212452 ], [ 75.867420673323664, 14.130157950170714 ], [ 75.867350864963285, 14.130274481639086 ], [ 75.867323058712955, 14.13032090158795 ], [ 75.86596304235907, 14.132613362420752 ], [ 75.865868361690531, 14.132801071434864 ], [ 75.866163422277282, 14.132911931505033 ], [ 75.892886897066845, 14.13192826977577 ], [ 75.892675049572631, 14.149004495792044 ], [ 75.893393814897578, 14.148550544413768 ], [ 75.893753788421563, 14.148323193286386 ], [ 75.893840842661319, 14.148268210709077 ], [ 75.893785039132865, 14.147606171612653 ], [ 75.894375304344777, 14.147463957974226 ], [ 75.894973490242705, 14.14731983471192 ], [ 75.89515193373731, 14.147308224875118 ], [ 75.896244297898676, 14.147037005513258 ], [ 75.896258328975762, 14.147033276225772 ], [ 75.896825859469502, 14.146996743842235 ], [ 75.898020695872418, 14.14693113096671 ], [ 75.897909347414753, 14.146640031421816 ], [ 75.897892949733404, 14.146597162888476 ], [ 75.897363513970333, 14.145190315084402 ], [ 75.896812530033714, 14.145023697219282 ], [ 75.896340472790996, 14.143568830236434 ], [ 75.896080937903065, 14.142787403408368 ], [ 75.896082899596394, 14.142568188377266 ], [ 75.896608803168249, 14.141187840446182 ], [ 75.896941091062303, 14.141237257524546 ], [ 75.897567419534212, 14.141330404467446 ], [ 75.897832364065408, 14.141755212506546 ], [ 75.898022723471726, 14.14184736123398 ], [ 75.898148369395898, 14.142079656096808 ], [ 75.898968197679991, 14.142595570818353 ], [ 75.899144583722659, 14.142694215220557 ], [ 75.898751213921727, 14.144512873275715 ], [ 75.898710724288662, 14.14470004756925 ], [ 75.898769001718449, 14.144986939699438 ], [ 75.898770659362995, 14.144996412884426 ], [ 75.898825684425404, 14.14531051489921 ], [ 75.898897606559217, 14.145712216052996 ], [ 75.898941747301606, 14.145972959550548 ], [ 75.899007137026558, 14.14623363978251 ], [ 75.899072673978452, 14.146469740838981 ], [ 75.89947321211892, 14.147912607373502 ], [ 75.899501562533999, 14.148003423719128 ], [ 75.899557250052425, 14.14818181089063 ], [ 75.899646900298862, 14.148468985631652 ], [ 75.899676020160825, 14.148666808034648 ], [ 75.899677564194249, 14.148677293309005 ], [ 75.899743449138739, 14.149124862058692 ], [ 75.899655365113105, 14.149539061696759 ], [ 75.899609749468496, 14.149874441908846 ], [ 75.899594730242086, 14.150264806347971 ], [ 75.899576360572198, 14.151801598801184 ], [ 75.899512886601926, 14.152424230816163 ], [ 75.899467716366061, 14.153663560471708 ], [ 75.899460174448677, 14.153884690130134 ], [ 75.899421495719793, 14.155018603835915 ], [ 75.899425733348863, 14.155315944761341 ], [ 75.899426864892561, 14.155395366579944 ], [ 75.899495059838486, 14.158491527164276 ], [ 75.899496040200731, 14.158536040838015 ], [ 75.899499018575867, 14.158671285926356 ], [ 75.899521677814548, 14.158799504814104 ], [ 75.899552807196116, 14.158975653878258 ], [ 75.899656441973761, 14.159442105389422 ], [ 75.900166659880696, 14.161738522683434 ], [ 75.90017986957406, 14.16179797121279 ], [ 75.898739123631856, 14.162196098355784 ], [ 75.897508571222161, 14.162536132602595 ], [ 75.8973773423713, 14.162572394564972 ], [ 75.895462428157344, 14.163086121864231 ], [ 75.895290924998932, 14.163136184759965 ], [ 75.89501651588823, 14.163216286427149 ], [ 75.893940436110299, 14.16353039865305 ], [ 75.8939278665909, 14.163534961408738 ], [ 75.89389764330393, 14.1635459330241 ], [ 75.893781766837975, 14.163587999815832 ], [ 75.893652159600435, 14.163635049501831 ], [ 75.893110695009426, 14.163831612970808 ], [ 75.891318975936443, 14.164336375627824 ], [ 75.890301280749583, 14.164623071883447 ], [ 75.889511189941587, 14.164859246806504 ], [ 75.888688100786609, 14.165129605776663 ], [ 75.88858255920465, 14.165164272567555 ], [ 75.885362472453011, 14.166698058336184 ], [ 75.885649658663382, 14.167449465539969 ], [ 75.886005242694992, 14.167942431038654 ], [ 75.886396712262055, 14.168244670928843 ], [ 75.886393373093924, 14.168277440301376 ], [ 75.886376013109484, 14.168447791840967 ], [ 75.886372653478674, 14.168480780982774 ], [ 75.886329413570166, 14.168905067125072 ], [ 75.886316811085706, 14.169028744547196 ], [ 75.886262702948954, 14.169559722848728 ], [ 75.886239930364951, 14.169693482294221 ], [ 75.886078507975952, 14.170641926039616 ], [ 75.886073638526355, 14.17067052958261 ], [ 75.886071079241432, 14.17068556503213 ], [ 75.886098103732934, 14.170715980077187 ], [ 75.886468223189297, 14.171132555608647 ], [ 75.886477890414596, 14.171143306587446 ], [ 75.88652554719684, 14.171196303645266 ], [ 75.88656265733664, 14.171237572029838 ], [ 75.886600350985631, 14.171279489196278 ], [ 75.887538324705517, 14.172322562869692 ], [ 75.887647193224581, 14.172359818029413 ], [ 75.889495661084084, 14.172992354457396 ], [ 75.890316109617842, 14.173273102838968 ], [ 75.894047499226446, 14.174609809445201 ], [ 75.894231928768008, 14.174680314216852 ], [ 75.894241456530338, 14.174683955614844 ], [ 75.894269629994838, 14.174693630075593 ], [ 75.894390003673877, 14.174734944603086 ], [ 75.894423151372067, 14.174746320972568 ], [ 75.894544939035228, 14.174887635044257 ], [ 75.894641433036668, 14.174999600857959 ], [ 75.893705667592741, 14.176905149264666 ], [ 75.892331609531851, 14.180286919350371 ], [ 75.891721745014735, 14.181121894851996 ], [ 75.891024532002817, 14.182076449438163 ], [ 75.890976019604736, 14.182246099506598 ], [ 75.89070898631617, 14.183179916888923 ], [ 75.890405971311409, 14.183790910776024 ], [ 75.889911298919685, 14.185126897443274 ], [ 75.889775141219189, 14.185494621522382 ], [ 75.890386215442163, 14.185728567508459 ], [ 75.891974483441359, 14.186336617063983 ], [ 75.89261132947, 14.186710016273858 ], [ 75.892801001786893, 14.186800244612517 ], [ 75.893152271451996, 14.186967349019508 ], [ 75.893348573812418, 14.18706073186231 ], [ 75.894267291386939, 14.187497769064576 ], [ 75.894432024401652, 14.187987665305512 ], [ 75.894475051192998, 14.190707860977827 ], [ 75.893872821847211, 14.191644474001302 ], [ 75.893175133543153, 14.192729538561094 ], [ 75.893091481050149, 14.193187974487694 ], [ 75.893099314665747, 14.193355527922636 ], [ 75.892830221630575, 14.195516415376487 ], [ 75.892598701796871, 14.197397456593812 ], [ 75.892499710596468, 14.198201723258393 ], [ 75.892446501925008, 14.198634019475531 ], [ 75.892435489047685, 14.198723489266001 ], [ 75.892411824210811, 14.198915752166295 ], [ 75.892369000533378, 14.198926748185215 ], [ 75.892735219506307, 14.199131733631726 ], [ 75.893450023366242, 14.199531836232261 ], [ 75.894167960000928, 14.200231810575557 ], [ 75.894266260081707, 14.200327648205095 ], [ 75.894816190666191, 14.200863818845285 ], [ 75.894844311260314, 14.200926666209487 ], [ 75.89492526713606, 14.201107576953156 ], [ 75.896914625923742, 14.203450310373212 ], [ 75.897114982820796, 14.203686257394056 ], [ 75.897262252168304, 14.204115724015637 ], [ 75.897404199912955, 14.204529668310238 ], [ 75.897573604935985, 14.20496747682205 ], [ 75.897667135319594, 14.205209194155374 ], [ 75.897782013781779, 14.205561079215258 ], [ 75.897813411161437, 14.205643266701404 ], [ 75.897884079223644, 14.205828248781417 ], [ 75.898033161632881, 14.206218488647039 ], [ 75.898170960973516, 14.206583439148366 ], [ 75.898251406073513, 14.206706455399472 ], [ 75.898238613235804, 14.206712764215807 ], [ 75.896802584938541, 14.207421045769962 ], [ 75.89679754789907, 14.207420524909086 ], [ 75.896719748169758, 14.207459890182562 ], [ 75.896779576448068, 14.207788558016647 ], [ 75.896806261998648, 14.207935154100623 ], [ 75.896890955645347, 14.208400415635962 ], [ 75.897016303787041, 14.20943460247809 ], [ 75.897085958194836, 14.210453732466718 ], [ 75.896866406383921, 14.210473715948707 ], [ 75.896873287325718, 14.210506598877592 ], [ 75.896990854175087, 14.211068468728213 ], [ 75.897098986198003, 14.211490602191846 ], [ 75.897156958736318, 14.212632074123418 ], [ 75.897164516398362, 14.212780897147892 ], [ 75.897179775327629, 14.213081341699445 ], [ 75.897204978980483, 14.213380962382796 ], [ 75.897241466628742, 14.214256480269709 ], [ 75.897241950313301, 14.214256457661227 ], [ 75.897241022924248, 14.2145308926754 ], [ 75.897204211894831, 14.21476959723009 ], [ 75.897173774049605, 14.215188817407798 ], [ 75.897158993808404, 14.215392401473183 ], [ 75.897143132041094, 14.216212419431326 ], [ 75.897142102675701, 14.21626562238894 ], [ 75.897107896153628, 14.216611430466804 ], [ 75.897096560995294, 14.216697076311988 ], [ 75.897094083415965, 14.21675107306333 ], [ 75.897090354582915, 14.216832315504071 ], [ 75.897076860417755, 14.217126359308859 ], [ 75.897070252064353, 14.217270370536543 ], [ 75.896504163130757, 14.217263227550671 ], [ 75.896472304909068, 14.217264145295118 ], [ 75.896472016272014, 14.217372256914855 ], [ 75.89648106920805, 14.217504497003231 ], [ 75.896471563043193, 14.217542568420255 ], [ 75.896471558811015, 14.217544081875136 ], [ 75.896440371350693, 14.217843957358982 ], [ 75.896423316653298, 14.218300576286552 ], [ 75.896459519842423, 14.218632528290158 ], [ 75.896469020691754, 14.218719651921067 ], [ 75.896473297539487, 14.218758864148848 ], [ 75.896474138332536, 14.218808781876547 ], [ 75.896482091089268, 14.219281099569415 ], [ 75.896670653868554, 14.219706250083435 ], [ 75.896672245408197, 14.219709837853332 ], [ 75.896680513811006, 14.219774395595921 ], [ 75.896809073466329, 14.220778016598931 ], [ 75.896809349763501, 14.220790035374124 ], [ 75.896830835135219, 14.221718511629716 ], [ 75.897040592001815, 14.222676405474679 ], [ 75.897240840354073, 14.223850779790858 ], [ 75.897418289090169, 14.224986015608222 ], [ 75.897650150728367, 14.226130667085231 ], [ 75.897752130218478, 14.226885876254757 ], [ 75.897580921169649, 14.226907662282484 ], [ 75.897565656931903, 14.226921174198774 ], [ 75.897289156562394, 14.227165924799166 ], [ 75.896066302974702, 14.228136174275415 ], [ 75.896233217458843, 14.228488055449029 ], [ 75.896665192242438, 14.231685326186591 ], [ 75.896751564345621, 14.232297061645239 ], [ 75.896775267039359, 14.232464934349922 ], [ 75.896947744339741, 14.233686494725765 ], [ 75.896894925103979, 14.233862420789842 ], [ 75.89674171720759, 14.234372724966699 ], [ 75.896725643623981, 14.234426252845328 ], [ 75.896684109898331, 14.235256753966537 ], [ 75.896672060382784, 14.235497666184841 ], [ 75.896670941910898, 14.235520043752091 ], [ 75.897004952338818, 14.238743741728161 ], [ 75.897023810705448, 14.23892574973744 ], [ 75.897108344551739, 14.239139483934547 ], [ 75.897461900864599, 14.24037702293168 ], [ 75.897840510955632, 14.2416698157406 ], [ 75.897877285420762, 14.241795381192256 ], [ 75.898096132639452, 14.242036906624143 ], [ 75.898598924177691, 14.243968860206119 ], [ 75.898655796825707, 14.244093607561421 ], [ 75.898785343052623, 14.244377766742264 ], [ 75.898743469048028, 14.244622807021091 ], [ 75.898676842652009, 14.245012697721094 ], [ 75.898726455315881, 14.245633038165876 ], [ 75.898734053501542, 14.24586312486205 ], [ 75.898742276215785, 14.246112122613971 ], [ 75.89873280027696, 14.246705961691033 ], [ 75.898705037611208, 14.247733761507339 ], [ 75.898745388916367, 14.248266788703228 ], [ 75.898776641345677, 14.249048084994302 ], [ 75.898801439512951, 14.249112131735908 ], [ 75.898808421960155, 14.249130165390959 ], [ 75.899470356000023, 14.250839727629677 ], [ 75.89947598138933, 14.251142168063899 ], [ 75.899482948137901, 14.251516669638873 ], [ 75.899482611389061, 14.251594024186856 ], [ 75.899480529439487, 14.252070938131387 ], [ 75.899473503263991, 14.252409837236064 ], [ 75.899470557791034, 14.252551887790615 ], [ 75.899494568614955, 14.252977734789155 ], [ 75.899496771005687, 14.253016796395915 ], [ 75.899495804641845, 14.253033508381609 ], [ 75.899459812521243, 14.253803345250091 ], [ 75.899461045425113, 14.253815762689763 ], [ 75.899518243956209, 14.254391402100348 ], [ 75.900598528107977, 14.25544612714689 ], [ 75.900686115458768, 14.255531641718195 ], [ 75.901024522897941, 14.255862040508287 ], [ 75.901757526003038, 14.256501061698632 ], [ 75.902617017608534, 14.257250343537635 ], [ 75.902626067229107, 14.257258232657597 ], [ 75.902598064378353, 14.257316981854423 ], [ 75.901973618910077, 14.258627038883223 ], [ 75.90102052252567, 14.259588301537629 ], [ 75.900768316063463, 14.25950800269827 ], [ 75.899410904280913, 14.259075816255359 ], [ 75.899384536162785, 14.259067154241684 ], [ 75.899282824789466, 14.259012272185775 ], [ 75.897642385624096, 14.258127087005594 ], [ 75.897360258103191, 14.257974848885334 ], [ 75.897357479227907, 14.257981674312884 ], [ 75.896851123827986, 14.259225876639857 ], [ 75.896809571692955, 14.25932797631368 ], [ 75.8967705441313, 14.259423874428618 ], [ 75.896260482049854, 14.260677166633338 ], [ 75.895988249329633, 14.261346071456254 ], [ 75.895513786919395, 14.262586963777883 ], [ 75.895437802807351, 14.262698567905328 ], [ 75.895418967588952, 14.262726232138466 ], [ 75.895224200663776, 14.263012300940561 ], [ 75.894211120160932, 14.264435161427233 ], [ 75.894167292642081, 14.264496720246138 ], [ 75.891503678089506, 14.26774317881458 ], [ 75.891446125533633, 14.267813323972543 ], [ 75.890360481606749, 14.269183943109795 ], [ 75.889280758750402, 14.270547063518343 ], [ 75.889209161175359, 14.270637640447667 ], [ 75.889208940906883, 14.270637731677871 ], [ 75.889034226063089, 14.270671744203156 ], [ 75.88682981289594, 14.271100881079033 ], [ 75.886324905941123, 14.271199178258071 ], [ 75.886301182458411, 14.271203788720063 ], [ 75.884905871713812, 14.271543072087296 ], [ 75.884725600356106, 14.271583637779989 ], [ 75.884073474821605, 14.271730356226389 ], [ 75.883711133522212, 14.271811865402565 ], [ 75.881586978414987, 14.273553874394402 ], [ 75.881450346676786, 14.273665916810087 ], [ 75.879897914884154, 14.27497037192984 ], [ 75.879788483507809, 14.274964346216027 ], [ 75.879397808850129, 14.27494283297338 ], [ 75.879256175366805, 14.274919081047276 ], [ 75.879117184449882, 14.275216368887243 ], [ 75.879056096265188, 14.275347031153666 ], [ 75.87892300001856, 14.27563170957252 ], [ 75.878636725023682, 14.276244019233323 ], [ 75.878622963431354, 14.276273454559099 ], [ 75.878331300094104, 14.276897284646763 ], [ 75.877701027988977, 14.278541069065684 ], [ 75.877440812108119, 14.278981095785269 ], [ 75.877217522123999, 14.279358663158829 ], [ 75.877158432932092, 14.279458580567274 ], [ 75.877099945201053, 14.280055012008257 ], [ 75.876673072181688, 14.281145198832123 ], [ 75.876128083219214, 14.2824735523897 ], [ 75.875065738504816, 14.285391646022726 ], [ 75.875085620060275, 14.285386056221066 ], [ 75.875152708983151, 14.285372627159521 ], [ 75.875239321129271, 14.287693601951302 ], [ 75.875361267112538, 14.290452647905687 ], [ 75.875364521761725, 14.290526629835357 ], [ 75.875718407007327, 14.296706226843918 ], [ 75.875733895996149, 14.29683453801321 ], [ 75.875734933205564, 14.296843101295748 ], [ 75.87587202858326, 14.297978543775686 ], [ 75.876308040631415, 14.300805375789613 ], [ 75.876441648498997, 14.301572975727998 ], [ 75.87669762775775, 14.303043614330711 ], [ 75.876744765957099, 14.303485464987569 ], [ 75.876805311103354, 14.304189673638009 ], [ 75.876805991245163, 14.304678519797154 ], [ 75.876856752262881, 14.305562087505827 ], [ 75.876877876599394, 14.306585020339821 ], [ 75.876937201304102, 14.30882447728445 ], [ 75.876968872083566, 14.30892888328513 ], [ 75.877306651168169, 14.31004261514177 ], [ 75.87740776162714, 14.311853193629936 ], [ 75.877409526682499, 14.312575493020896 ], [ 75.877911963575386, 14.316489507266056 ], [ 75.878258905611872, 14.319192128139264 ], [ 75.878170736706764, 14.319654230152311 ], [ 75.878108363393309, 14.31998113260437 ], [ 75.876199282527111, 14.320592268625044 ], [ 75.875066785992104, 14.320942989704665 ], [ 75.875047400871338, 14.320948991896032 ], [ 75.87490309970309, 14.320993679712444 ], [ 75.87486120428801, 14.321016098854463 ], [ 75.8744549710012, 14.321233581780874 ], [ 75.872002292695086, 14.322534264301742 ], [ 75.871828624272325, 14.322626360669361 ], [ 75.870809637294258, 14.323803331983129 ] ] ] } }
]
}
