{
"type": "FeatureCollection",
"name": "wards_in_police_area.writing_20260805_172659",
"crs": { "type": "name", "properties": { "name": "urn:ogc:def:crs:OGC:1.3:CRS84" } },
"features": [
{ "type": "Feature", "properties": { "KGISWardID": 2561, "KGISWardCode": "0903020", "KGISWardName": "", "SHAPE.STArea()": 13631302.254294155, "SHAPE.STLength()": 17255.497594573091, "OBJECTID": 16548, "KGISWardNo": "20", "KGISTownCode": "0903", "LGD_WardCode": 28058, "created_user": "SA", "created_date": 1634898537000, "last_edited_user": "SURESHBV1", "last_edited_date": 1692253972000, "_overlap_percent": 19.425400165699898, "_police_station": "Dharwad Sub Urban PS", "_police_feature_index": "228", "_admin_layer": "Ward", "_geometry_clipped": true }, "geometry": { "type": "Polygon", "coordinates": [ [ [ 74.96704547453632, 15.434980550431749 ], [ 74.967741581977975, 15.436010387871871 ], [ 74.96871767472166, 15.436693630958759 ], [ 74.969085477562231, 15.437312652551377 ], [ 74.969583476230085, 15.437982982988306 ], [ 74.969793509371314, 15.438355542767537 ], [ 74.969735031427845, 15.438614391335658 ], [ 74.969948710821029, 15.438773841746167 ], [ 74.97019531390626, 15.438875538743416 ], [ 74.97071010187517, 15.439063982060782 ], [ 74.971076928118933, 15.439195593895295 ], [ 74.971335859283514, 15.43932420139336 ], [ 74.971471486877135, 15.439413922432294 ], [ 74.971745822438976, 15.439611302651473 ], [ 74.972004743304311, 15.439823630574423 ], [ 74.972146526584496, 15.439994084270104 ], [ 74.972285218763261, 15.4402243383491 ], [ 74.972393084335593, 15.440457578320647 ], [ 74.972565670539979, 15.440813419591224 ], [ 74.972713599720294, 15.441145338247136 ], [ 74.972818379566348, 15.441396518323351 ], [ 74.97291084890405, 15.44150716279834 ], [ 74.97305880405041, 15.441638745407925 ], [ 74.973185182979122, 15.441755374419177 ], [ 74.973265321078529, 15.441857045994439 ], [ 74.973305382592528, 15.441970673796101 ], [ 74.973326942382172, 15.442123170597922 ], [ 74.97334234676643, 15.442200914913327 ], [ 74.973419405456582, 15.442287636976442 ], [ 74.973687592023083, 15.442395312287028 ], [ 74.974149978433104, 15.442634572760859 ], [ 74.974720253344884, 15.442951587951224 ], [ 74.975361429457863, 15.443316450232492 ], [ 74.976375600562065, 15.443884677175783 ], [ 74.977303465188484, 15.444405049069347 ], [ 74.978200507897412, 15.444910463148375 ], [ 74.978662819646559, 15.44517375565106 ], [ 74.980288227970632, 15.446074257384225 ], [ 74.98121304584707, 15.446403247199612 ], [ 74.981706291778735, 15.446487009595433 ], [ 74.982224203561728, 15.44652293401516 ], [ 74.982945590568747, 15.446487109254008 ], [ 74.983488178110278, 15.446367546837573 ], [ 74.983950615398754, 15.446206116271064 ], [ 74.984468547839839, 15.445972926724119 ], [ 74.98503581255595, 15.445614155277555 ], [ 74.985701741195257, 15.445058043716756 ], [ 74.986762286220852, 15.444137162997194 ], [ 74.987718004060099, 15.443288033270038 ], [ 74.9886490458385, 15.442540561807803 ], [ 74.989259452345934, 15.442205701983447 ], [ 74.989370438685924, 15.442080124173179 ], [ 74.98943826782488, 15.441906701760862 ], [ 74.989512268311046, 15.441622647348801 ], [ 74.989552356738514, 15.441374471827046 ], [ 74.989623287040345, 15.440836260160065 ], [ 74.98967566867627, 15.440473264177847 ], [ 74.98943617925454, 15.440353966776897 ], [ 74.989828178605791, 15.437584782866852 ], [ 74.989232994807452, 15.436739634359579 ], [ 74.988815459893658, 15.435524446441292 ], [ 74.988299143002422, 15.434522690412535 ], [ 74.987524627081527, 15.433854829178729 ], [ 74.987040654548451, 15.433279701109258 ], [ 74.976604900323551, 15.431861257220934 ], [ 74.974189578807824, 15.431976970472773 ], [ 74.972176627285265, 15.432877840897259 ], [ 74.969079764598732, 15.434128978132755 ], [ 74.968099159718406, 15.434028715243997 ], [ 74.966601269420394, 15.434181429682065 ], [ 74.96704547453632, 15.434980550431749 ] ] ] } },
{ "type": "Feature", "properties": { "KGISWardID": 2560, "KGISWardCode": "0903019", "KGISWardName": "", "SHAPE.STArea()": 1014896.943834265, "SHAPE.STLength()": 7289.4096811762993, "OBJECTID": 16547, "KGISWardNo": "19", "KGISTownCode": "0903", "LGD_WardCode": 28057, "created_user": "SA", "created_date": 1634898537000, "last_edited_user": "SURESHBV1", "last_edited_date": 1692253972000, "_overlap_percent": 56.589117867483893, "_police_station": "Dharwad Sub Urban PS", "_police_feature_index": "228", "_admin_layer": "Ward", "_geometry_clipped": true }, "geometry": { "type": "Polygon", "coordinates": [ [ [ 74.989623287040345, 15.440836260160065 ], [ 74.989552356738514, 15.441374471827046 ], [ 74.989512268311046, 15.441622647348801 ], [ 74.98943826782488, 15.441906701760862 ], [ 74.989370438685924, 15.442080124173179 ], [ 74.989259452345934, 15.442205701983447 ], [ 74.9886490458385, 15.442540561807803 ], [ 74.987718004060099, 15.443288033270038 ], [ 74.986762286220852, 15.444137162997194 ], [ 74.985701741195257, 15.445058043716756 ], [ 74.98503581255595, 15.445614155277555 ], [ 74.984468547839839, 15.445972926724119 ], [ 74.983950615398754, 15.446206116271064 ], [ 74.983488178110278, 15.446367546837573 ], [ 74.982945590568747, 15.446487109254008 ], [ 74.982224203561728, 15.44652293401516 ], [ 74.981706291778735, 15.446487009595433 ], [ 74.98121304584707, 15.446403247199612 ], [ 74.980288227970632, 15.446074257384225 ], [ 74.978662819646559, 15.44517375565106 ], [ 74.978356957136839, 15.445631089181088 ], [ 74.978270121897609, 15.445856892693334 ], [ 74.978752088286285, 15.446079739871708 ], [ 74.9791250961499, 15.446220309282317 ], [ 74.979800215918871, 15.446420708424247 ], [ 74.980413682319082, 15.446609138098804 ], [ 74.980823686298578, 15.446743728281435 ], [ 74.981344670422402, 15.446920187196183 ], [ 74.981976631614046, 15.447159446383413 ], [ 74.982701075968421, 15.44744356184537 ], [ 74.983126499961585, 15.44755123791626 ], [ 74.984273299974433, 15.447811459636849 ], [ 74.984763467676572, 15.44789820663239 ], [ 74.985034752546483, 15.447981947163049 ], [ 74.985491006593605, 15.44810158093814 ], [ 74.986637806463364, 15.448457472644453 ], [ 74.987226619542596, 15.44867877444965 ], [ 74.987251233788783, 15.448691459299708 ], [ 74.987453612546361, 15.448242589928409 ], [ 74.987678076598996, 15.447728308184113 ], [ 74.987848275318171, 15.44729535307245 ], [ 74.987922271610799, 15.44715422643389 ], [ 74.987949402073468, 15.447125522245646 ], [ 74.988065319012691, 15.447082471373484 ], [ 74.988383470347159, 15.447058567029131 ], [ 74.988881657863843, 15.447044240182757 ], [ 74.989352716646266, 15.447027518702534 ], [ 74.989823772437106, 15.447070598860462 ], [ 74.990038336631173, 15.447104096885615 ], [ 74.990585846693165, 15.447159139011667 ], [ 74.990982916085656, 15.447197428222543 ], [ 74.991269004074155, 15.447187871717343 ], [ 74.99170800238177, 15.44714483142443 ], [ 74.991841181937559, 15.447118522913332 ], [ 74.991870778280429, 15.447089819239771 ], [ 74.991942305366408, 15.446972610593805 ], [ 74.992198816314485, 15.446467893322975 ], [ 74.992255543003623, 15.446391348977336 ], [ 74.992344328367665, 15.446391352059656 ], [ 74.99239612012174, 15.446396138269673 ], [ 74.992482437607194, 15.446436806141103 ], [ 74.992558890392473, 15.446477474552159 ], [ 74.992645209044113, 15.446513357931675 ], [ 74.992724128973876, 15.446534889558077 ], [ 74.99282771180556, 15.446539675552007 ], [ 74.992901699661587, 15.446539678836313 ], [ 74.993005282419489, 15.446546858769667 ], [ 74.993143393006633, 15.446558823248965 ], [ 74.993237110966902, 15.446568394078934 ], [ 74.993281502762386, 15.446597100189804 ], [ 74.993320962129729, 15.446642550738218 ], [ 74.993365354408922, 15.446656904451379 ], [ 74.99342947670749, 15.446654515050174 ], [ 74.993478802806109, 15.446637771910984 ], [ 74.99349853478634, 15.446587538705279 ], [ 74.993523200886898, 15.446465543736799 ], [ 74.993568956384351, 15.446283269375542 ], [ 74.993697210565372, 15.445984265260652 ], [ 74.993867393615048, 15.445611107197726 ], [ 74.993941385309213, 15.44546758540873 ], [ 74.993946320130846, 15.445398214941919 ], [ 74.993948787544724, 15.44533123842985 ], [ 74.993948790627286, 15.44525708339863 ], [ 74.993968520671018, 15.445233162695583 ], [ 74.994022778850947, 15.445228380639488 ], [ 74.994054840277343, 15.445225989286683 ], [ 74.994077037046907, 15.445190107567688 ], [ 74.994106634430025, 15.445103994963644 ], [ 74.994136231923179, 15.445013097021853 ], [ 74.994192956640916, 15.445001138345717 ], [ 74.994930362366148, 15.445118367702463 ], [ 74.994964888656327, 15.4451398984192 ], [ 74.99494762368326, 15.445185345581164 ], [ 74.994920493911224, 15.445235578752989 ], [ 74.994863768808159, 15.445300163620518 ], [ 74.994821840267562, 15.445400629323188 ], [ 74.994792242838912, 15.445498703092458 ], [ 74.994750311787257, 15.44565897142674 ], [ 74.994663985188978, 15.445969938243993 ], [ 74.994614654651187, 15.446168478179434 ], [ 74.994594922979317, 15.446218710582365 ], [ 74.994557928638301, 15.446254591083175 ], [ 74.994471608795223, 15.446290470353748 ], [ 74.994414883294709, 15.446319173695109 ], [ 74.994407484149491, 15.446350269581249 ], [ 74.994407482803055, 15.446400504271427 ], [ 74.994408709534, 15.44660741817186 ], [ 74.994414872537632, 15.446721041266439 ], [ 74.994424119705911, 15.446774862700655 ], [ 74.994448782337457, 15.446798784556428 ], [ 74.994507355782318, 15.44679280457534 ], [ 74.994689245456968, 15.44671805819025 ], [ 74.995068436841663, 15.446583512584352 ], [ 74.995984045358966, 15.446251631673753 ], [ 74.996317848490619, 15.446116919432152 ], [ 74.994698248039853, 15.444697998831554 ], [ 74.992570990268092, 15.443286188456526 ], [ 74.992906910549777, 15.442363132657672 ], [ 74.992459074383419, 15.441983031432009 ], [ 74.991507420783378, 15.441385718949245 ], [ 74.98967566867627, 15.440473264177847 ], [ 74.989623287040345, 15.440836260160065 ] ] ] } },
{ "type": "Feature", "properties": { "KGISWardID": 2552, "KGISWardCode": "0903015", "KGISWardName": "", "SHAPE.STArea()": 2391780.1525375298, "SHAPE.STLength()": 7173.7752371254755, "OBJECTID": 16543, "KGISWardNo": "15", "KGISTownCode": "0903", "LGD_WardCode": 28053, "created_user": "SA", "created_date": 1634898537000, "last_edited_user": "SURESHBV1", "last_edited_date": 1692253972000, "_overlap_percent": 75.136024201204393, "_police_station": "Dharwad Sub Urban PS", "_police_feature_index": "228", "_admin_layer": "Ward", "_geometry_clipped": true }, "geometry": { "type": "Polygon", "coordinates": [ [ [ 74.995984045358966, 15.446251631673753 ], [ 74.995068436841663, 15.446583512584352 ], [ 74.994689245456968, 15.44671805819025 ], [ 74.994507355782318, 15.44679280457534 ], [ 74.994448782337457, 15.446798784556428 ], [ 74.994424119705911, 15.446774862700655 ], [ 74.994414872537632, 15.446721041266439 ], [ 74.994408709534, 15.44660741817186 ], [ 74.994407482803055, 15.446400504271427 ], [ 74.994407484149491, 15.446350269581249 ], [ 74.994414883294709, 15.446319173695109 ], [ 74.994471608795223, 15.446290470353748 ], [ 74.994557928638301, 15.446254591083175 ], [ 74.994594922979317, 15.446218710582365 ], [ 74.994614654651187, 15.446168478179434 ], [ 74.994663985188978, 15.445969938243993 ], [ 74.994750311787257, 15.44565897142674 ], [ 74.994792242838912, 15.445498703092458 ], [ 74.994821840267562, 15.445400629323188 ], [ 74.994863768808159, 15.445300163620518 ], [ 74.994920493911224, 15.445235578752989 ], [ 74.99494762368326, 15.445185345581164 ], [ 74.994964888656327, 15.4451398984192 ], [ 74.994930362366148, 15.445118367702463 ], [ 74.994192956640916, 15.445001138345717 ], [ 74.994136231923179, 15.445013097021853 ], [ 74.994106634430025, 15.445103994963644 ], [ 74.994077037046907, 15.445190107567688 ], [ 74.994054840277343, 15.445225989286683 ], [ 74.994022778850947, 15.445228380639488 ], [ 74.993968520671018, 15.445233162695583 ], [ 74.993948790627286, 15.44525708339863 ], [ 74.993948787544724, 15.44533123842985 ], [ 74.993946320130846, 15.445398214941919 ], [ 74.993941385309213, 15.44546758540873 ], [ 74.993867393615048, 15.445611107197726 ], [ 74.993697210565372, 15.445984265260652 ], [ 74.993568956384351, 15.446283269375542 ], [ 74.993523200886898, 15.446465543736799 ], [ 74.99349853478634, 15.446587538705279 ], [ 74.993478802806109, 15.446637771910984 ], [ 74.99342947670749, 15.446654515050174 ], [ 74.993365354408922, 15.446656904451379 ], [ 74.993320962129729, 15.446642550738218 ], [ 74.993281502762386, 15.446597100189804 ], [ 74.993237110966902, 15.446568394078934 ], [ 74.993143393006633, 15.446558823248965 ], [ 74.993005282419489, 15.446546858769667 ], [ 74.992901699661587, 15.446539678836313 ], [ 74.99282771180556, 15.446539675552007 ], [ 74.992724128973876, 15.446534889558077 ], [ 74.992645209044113, 15.446513357931675 ], [ 74.992558890392473, 15.446477474552159 ], [ 74.992482437607194, 15.446436806141103 ], [ 74.99239612012174, 15.446396138269673 ], [ 74.992344328367665, 15.446391352059656 ], [ 74.992255543003623, 15.446391348977336 ], [ 74.992198816314485, 15.446467893322975 ], [ 74.991942305366408, 15.446972610593805 ], [ 74.991870778280429, 15.447089819239771 ], [ 74.991841181937559, 15.447118522913332 ], [ 74.99170800238177, 15.44714483142443 ], [ 74.991269004074155, 15.447187871717343 ], [ 74.990982916085656, 15.447197428222543 ], [ 74.990585846693165, 15.447159139011667 ], [ 74.990038336631173, 15.447104096885615 ], [ 74.989823772437106, 15.447070598860462 ], [ 74.989352716646266, 15.447027518702534 ], [ 74.988881657863843, 15.447044240182757 ], [ 74.988383470347159, 15.447058567029131 ], [ 74.988065319012691, 15.447082471373484 ], [ 74.987949402073468, 15.447125522245646 ], [ 74.987922271610799, 15.44715422643389 ], [ 74.987848275318171, 15.44729535307245 ], [ 74.987678076598996, 15.447728308184113 ], [ 74.987453612546361, 15.448242589928409 ], [ 74.987251233788783, 15.448691459299708 ], [ 74.987522565807808, 15.448831285425785 ], [ 74.987858585163806, 15.449049579556464 ], [ 74.988031218985327, 15.449175172921345 ], [ 74.988302499117864, 15.449396453588768 ], [ 74.988496710256896, 15.449581849445824 ], [ 74.988687836260198, 15.449803124557912 ], [ 74.989144073982686, 15.450353323893598 ], [ 74.989513997806228, 15.450813813820442 ], [ 74.989791441818667, 15.451157687071632 ], [ 74.990241520150434, 15.451707882897839 ], [ 74.99083340429307, 15.452488320170813 ], [ 74.991268073623033, 15.453026552148776 ], [ 74.991662667972847, 15.45353787161403 ], [ 74.991974027798292, 15.453971444969104 ], [ 74.992248392171831, 15.454455848834728 ], [ 74.992458013724985, 15.4549761306201 ], [ 74.992957429324349, 15.455666856302914 ], [ 74.99315489601652, 15.455888137594474 ], [ 74.993274963852372, 15.456022685572783 ], [ 74.993493846886409, 15.456276848819236 ], [ 74.993869954086207, 15.456841985724067 ], [ 74.994205985016322, 15.457347318335005 ], [ 74.994437202198853, 15.457643342840623 ], [ 74.994579016619198, 15.457750989555448 ], [ 74.994868814463373, 15.45791545061396 ], [ 74.995285017124218, 15.458058984424154 ], [ 74.995725882990769, 15.458208496649068 ], [ 74.996416472806516, 15.45842379528089 ], [ 74.996949831184835, 15.458600217567058 ], [ 74.997218051820752, 15.458707864288076 ], [ 74.997378366800064, 15.458806539092175 ], [ 74.997473939052114, 15.458887272368719 ], [ 74.997575676989001, 15.459036777683163 ], [ 74.99764041882483, 15.459234123170814 ], [ 74.99830416761877, 15.459487523740911 ], [ 74.998883775223362, 15.45967590276258 ], [ 74.999358560887984, 15.459891191007808 ], [ 75.000076906766523, 15.460288872183051 ], [ 75.000499282557001, 15.460522098664342 ], [ 75.000847667940732, 15.460677581385692 ], [ 75.000893173940767, 15.460685482917217 ], [ 75.000934609873724, 15.460668259911062 ], [ 75.000968152712616, 15.460607023320524 ], [ 75.001204927869651, 15.460107559017864 ], [ 75.00139631961855, 15.459669331182473 ], [ 75.001627172709178, 15.459213880040808 ], [ 75.001842240692994, 15.458825407078725 ], [ 75.002029684141903, 15.458402487567469 ], [ 75.002219101093999, 15.458058028970456 ], [ 75.002392730910799, 15.45762936921839 ], [ 75.002680797034529, 15.456913659707125 ], [ 75.002692635359111, 15.456888781825072 ], [ 75.002732097071132, 15.456879213398475 ], [ 75.003014252840941, 15.456934705261213 ], [ 75.003667313406069, 15.457081113072933 ], [ 75.00411667874252, 15.456977021362183 ], [ 75.004963882061091, 15.456926770270613 ], [ 75.005289444772373, 15.456887293956136 ], [ 75.005529916135728, 15.456837054348716 ], [ 75.005866574970625, 15.45672222675258 ], [ 75.006118144458114, 15.456607401008929 ], [ 75.006351212631415, 15.456456694137248 ], [ 75.006661968606707, 15.456212693850956 ], [ 75.006791450552768, 15.456105047610084 ], [ 75.006902432209401, 15.455961519591479 ], [ 75.006969014440841, 15.455652941123885 ], [ 75.00703396075491, 15.455384565687142 ], [ 75.00712254025666, 15.453579193650295 ], [ 75.006891195105467, 15.453063171026669 ], [ 75.006567312506888, 15.452322789173291 ], [ 75.005572591987672, 15.451739478070003 ], [ 75.003536916976799, 15.45149272233264 ], [ 75.001269921401061, 15.45126838606263 ], [ 75.000689646500931, 15.450904238808528 ], [ 75.000938840379888, 15.450777318594193 ], [ 75.000964319594402, 15.450743249787637 ], [ 75.000654069411553, 15.450695894860948 ], [ 74.997497314068653, 15.446652778326893 ], [ 74.996433657509343, 15.446218378901571 ], [ 74.996317848490619, 15.446116919432152 ], [ 74.995984045358966, 15.446251631673753 ] ] ] } },
{ "type": "Feature", "properties": { "KGISWardID": 2549, "KGISWardCode": "0903014", "KGISWardName": "", "SHAPE.STArea()": 1266795.8860546099, "SHAPE.STLength()": 4950.1969370914085, "OBJECTID": 16542, "KGISWardNo": "14", "KGISTownCode": "0903", "LGD_WardCode": 28052, "created_user": "SA", "created_date": 1634898537000, "last_edited_user": "SURESHBV1", "last_edited_date": 1692253972000, "_overlap_percent": 99.999999999999972, "_police_station": "Dharwad Sub Urban PS", "_police_feature_index": "228", "_admin_layer": "Ward", "_geometry_clipped": true }, "geometry": { "type": "Polygon", "coordinates": [ [ [ 74.992957429324349, 15.455666856302914 ], [ 74.992458013724985, 15.4549761306201 ], [ 74.992248392171831, 15.454455848834728 ], [ 74.991974027798292, 15.453971444969104 ], [ 74.991662667972847, 15.45353787161403 ], [ 74.991268073623033, 15.453026552148776 ], [ 74.99083340429307, 15.452488320170813 ], [ 74.990241520150434, 15.451707882897839 ], [ 74.989791441818667, 15.451157687071632 ], [ 74.989513997806228, 15.450813813820442 ], [ 74.989144073982686, 15.450353323893598 ], [ 74.988687836260198, 15.449803124557912 ], [ 74.988496710256896, 15.449581849445824 ], [ 74.988302499117864, 15.449396453588768 ], [ 74.988031218985327, 15.449175172921345 ], [ 74.987858585163806, 15.449049579556464 ], [ 74.987522565807808, 15.448831285425785 ], [ 74.987251233788783, 15.448691459299708 ], [ 74.987226619542596, 15.44867877444965 ], [ 74.986637806463364, 15.448457472644453 ], [ 74.985491006593605, 15.44810158093814 ], [ 74.985034752546483, 15.447981947163049 ], [ 74.984763467676572, 15.44789820663239 ], [ 74.984273299974433, 15.447811459636849 ], [ 74.983126499961585, 15.44755123791626 ], [ 74.982701075968421, 15.44744356184537 ], [ 74.981976631614046, 15.447159446383413 ], [ 74.981344670422402, 15.446920187196183 ], [ 74.980823686298578, 15.446743728281435 ], [ 74.980413682319082, 15.446609138098804 ], [ 74.979800215918871, 15.446420708424247 ], [ 74.9791250961499, 15.446220309282317 ], [ 74.978752088286285, 15.446079739871708 ], [ 74.978270121897609, 15.445856892693334 ], [ 74.978226690761687, 15.446094181432279 ], [ 74.978204960031107, 15.446362091003783 ], [ 74.978181245117142, 15.446733338411066 ], [ 74.978167371852393, 15.447324655080591 ], [ 74.978137715039296, 15.447912144066878 ], [ 74.978121853436889, 15.448662294958689 ], [ 74.978072462695977, 15.449268918720858 ], [ 74.978031971534961, 15.449683220578965 ], [ 74.978002344922231, 15.449977441799014 ], [ 74.977943119014398, 15.450305149241947 ], [ 74.977883893427034, 15.450628072232911 ], [ 74.977775314306356, 15.451202157258166 ], [ 74.977728407645742, 15.451637509094935 ], [ 74.977735768610927, 15.451989143431227 ], [ 74.977770281425748, 15.452139847262032 ], [ 74.977809733877379, 15.452228357663531 ], [ 74.977849192289469, 15.452252282832989 ], [ 74.978162411430347, 15.452307331181384 ], [ 74.978320253995292, 15.45232887477821 ], [ 74.978401645090329, 15.452312139040259 ], [ 74.978468234545446, 15.452321712559872 ], [ 74.978574283402793, 15.452364780855149 ], [ 74.978635936432141, 15.452417412773219 ], [ 74.978690179277322, 15.452575294090272 ], [ 74.978739485766894, 15.452776232034994 ], [ 74.979023060365449, 15.453314474343662 ], [ 74.979030454565702, 15.453367100103572 ], [ 74.97902304977903, 15.453419725367333 ], [ 74.978968780652195, 15.453517794612031 ], [ 74.978791172041397, 15.453821570599368 ], [ 74.978665368457968, 15.454020100409126 ], [ 74.979491774663117, 15.454303737838123 ], [ 74.980179867462468, 15.454537026663042 ], [ 74.980738481686288, 15.454702128606922 ], [ 74.981160221918827, 15.454795454799752 ], [ 74.981837230441755, 15.454906742842892 ], [ 74.98260672330764, 15.455046739928484 ], [ 74.982640018436769, 15.455058703599548 ], [ 74.982657280344554, 15.455092193209881 ], [ 74.9826375351889, 15.455259636575366 ], [ 74.982593100684824, 15.455738046591707 ], [ 74.982531380545666, 15.456462837680936 ], [ 74.982482020296402, 15.456847956396539 ], [ 74.98249926854453, 15.457034539433986 ], [ 74.982541179253332, 15.457257003971296 ], [ 74.982602821956036, 15.457462726371947 ], [ 74.982743386312947, 15.457709120700725 ], [ 74.982911076553563, 15.458000965432836 ], [ 74.982950539440168, 15.458024888779919 ], [ 74.982999866033325, 15.458022501261167 ], [ 74.983105925548244, 15.457969883426923 ], [ 74.983379708448624, 15.457826379563372 ], [ 74.98367814973237, 15.457733111813988 ], [ 74.984065382562719, 15.457630281215899 ], [ 74.984854639451214, 15.457493988618115 ], [ 74.985278865800367, 15.457403118576384 ], [ 74.985947267447187, 15.457300303181601 ], [ 74.986605800542861, 15.457180740594955 ], [ 74.987215005152336, 15.457101839003782 ], [ 74.987666358067415, 15.457039670685383 ], [ 74.988159641262726, 15.456955975592273 ], [ 74.988729384191558, 15.456834009718765 ], [ 74.98943724541374, 15.456668991900674 ], [ 74.989789942861819, 15.456585286432054 ], [ 74.990196901787982, 15.456484837323698 ], [ 74.991025613936671, 15.456305468274293 ], [ 74.99180006489695, 15.45614522910711 ], [ 74.99226374725184, 15.45605195583083 ], [ 74.99315489601652, 15.455888137594474 ], [ 74.992957429324349, 15.455666856302914 ] ] ] } },
{ "type": "Feature", "properties": { "KGISWardID": 2548, "KGISWardCode": "0903013", "KGISWardName": "", "SHAPE.STArea()": 5203432.6867147302, "SHAPE.STLength()": 9449.7074692638034, "OBJECTID": 16541, "KGISWardNo": "13", "KGISTownCode": "0903", "LGD_WardCode": 28051, "created_user": "SA", "created_date": 1634898537000, "last_edited_user": "SURESHBV1", "last_edited_date": 1692253972000, "_overlap_percent": 69.646099819693816, "_police_station": "Dharwad Sub Urban PS", "_police_feature_index": "228", "_admin_layer": "Ward", "_geometry_clipped": true }, "geometry": { "type": "Polygon", "coordinates": [ [ [ 74.965351408185583, 15.467904488277179 ], [ 74.965994455312398, 15.467935507635437 ], [ 74.966110872645544, 15.467941123571084 ], [ 74.968054162668324, 15.468034853154633 ], [ 74.968276637315142, 15.468012101277409 ], [ 74.968511048817419, 15.467991027047585 ], [ 74.968941209946948, 15.467801840155555 ], [ 74.969074206008614, 15.468020832703591 ], [ 74.969753025661035, 15.468011981413774 ], [ 74.970540374915998, 15.468168893855857 ], [ 74.970661833237358, 15.468193099677032 ], [ 74.971404332132394, 15.468223774738163 ], [ 74.971421729799687, 15.468193375312646 ], [ 74.971619447246198, 15.467847892839918 ], [ 74.971926576290542, 15.467876699061151 ], [ 74.972041190856856, 15.467534776789849 ], [ 74.972189489037589, 15.467130085330094 ], [ 74.972287533713754, 15.467129741407163 ], [ 74.972308831277402, 15.467129667223123 ], [ 74.972394174464057, 15.466854599996296 ], [ 74.972421143942384, 15.466767673750251 ], [ 74.972447284739516, 15.466581403795782 ], [ 74.972409329879042, 15.46633843881019 ], [ 74.973423808076589, 15.466241056326803 ], [ 74.973772822235517, 15.466211795610747 ], [ 74.974194596785836, 15.466183140432147 ], [ 74.975070217053087, 15.46607559758357 ], [ 74.974986424592771, 15.465501493036699 ], [ 74.974995120553714, 15.464978827785608 ], [ 74.975013697539509, 15.464311443951249 ], [ 74.975072942795848, 15.46390958372082 ], [ 74.975161781795691, 15.463522079136929 ], [ 74.975886914820478, 15.463590333614167 ], [ 74.976324161226557, 15.46361892274664 ], [ 74.976412555128718, 15.46313124943936 ], [ 74.9765014037106, 15.46263370893268 ], [ 74.976563115465922, 15.462186399210349 ], [ 74.97659027335942, 15.4619448041732 ], [ 74.976649485699056, 15.461786933554524 ], [ 74.97690359392692, 15.461212864854007 ], [ 74.977046683999049, 15.460875598779092 ], [ 74.977083693030565, 15.460765567234484 ], [ 74.977113312250978, 15.460564637230592 ], [ 74.977197200454313, 15.460299126727584 ], [ 74.977249016569615, 15.460100590286649 ], [ 74.977278632406595, 15.459928364973459 ], [ 74.977303339679693, 15.459538460589167 ], [ 74.977333006888458, 15.458892606356519 ], [ 74.977318236288568, 15.458636653596352 ], [ 74.977323179924966, 15.458531403128005 ], [ 74.977392273460154, 15.458230009622683 ], [ 74.977510713652563, 15.457730080194779 ], [ 74.977557601042648, 15.457490878248469 ], [ 74.977572427436399, 15.457230144947998 ], [ 74.977537943463844, 15.456813921923183 ], [ 74.977488686767657, 15.456153706226662 ], [ 74.977481323083211, 15.455821208806256 ], [ 74.977525736074128, 15.45565137620329 ], [ 74.977676214983092, 15.45536912755858 ], [ 74.977799557282708, 15.455146677776339 ], [ 74.978024029208925, 15.45484530038955 ], [ 74.978357032205167, 15.454421936888552 ], [ 74.978665368457968, 15.454020100409126 ], [ 74.978791172041397, 15.453821570599368 ], [ 74.978968780652195, 15.453517794612031 ], [ 74.97902304977903, 15.453419725367333 ], [ 74.979030454565702, 15.453367100103572 ], [ 74.979023060365449, 15.453314474343662 ], [ 74.978739485766894, 15.452776232034994 ], [ 74.978690179277322, 15.452575294090272 ], [ 74.978635936432141, 15.452417412773219 ], [ 74.978574283402793, 15.452364780855149 ], [ 74.978468234545446, 15.452321712559872 ], [ 74.978401645090329, 15.452312139040259 ], [ 74.978320253995292, 15.45232887477821 ], [ 74.978162411430347, 15.452307331181384 ], [ 74.977849192289469, 15.452252282832989 ], [ 74.977809733877379, 15.452228357663531 ], [ 74.977770281425748, 15.452139847262032 ], [ 74.977735768610927, 15.451989143431227 ], [ 74.977728407645742, 15.451637509094935 ], [ 74.977775314306356, 15.451202157258166 ], [ 74.977883893427034, 15.450628072232911 ], [ 74.977943119014398, 15.450305149241947 ], [ 74.978002344922231, 15.449977441799014 ], [ 74.978031971534961, 15.449683220578965 ], [ 74.978072462695977, 15.449268918720858 ], [ 74.978121853436889, 15.448662294958689 ], [ 74.978137715039296, 15.447912144066878 ], [ 74.978167371852393, 15.447324655080591 ], [ 74.978181245117142, 15.446733338411066 ], [ 74.978204960031107, 15.446362091003783 ], [ 74.978226690761687, 15.446094181432279 ], [ 74.978270121897609, 15.445856892693334 ], [ 74.978356957136839, 15.445631089181088 ], [ 74.978662819646559, 15.44517375565106 ], [ 74.978200507897412, 15.444910463148375 ], [ 74.977303465188484, 15.444405049069347 ], [ 74.976375600562065, 15.443884677175783 ], [ 74.975361429457863, 15.443316450232492 ], [ 74.974720253344884, 15.442951587951224 ], [ 74.974149978433104, 15.442634572760859 ], [ 74.973687592023083, 15.442395312287028 ], [ 74.973419405456582, 15.442287636976442 ], [ 74.97334234676643, 15.442200914913327 ], [ 74.973326942382172, 15.442123170597922 ], [ 74.973305382592528, 15.441970673796101 ], [ 74.973265321078529, 15.441857045994439 ], [ 74.973185182979122, 15.441755374419177 ], [ 74.97305880405041, 15.441638745407925 ], [ 74.97291084890405, 15.44150716279834 ], [ 74.972818379566348, 15.441396518323351 ], [ 74.972713599720294, 15.441145338247136 ], [ 74.972565670539979, 15.440813419591224 ], [ 74.972393084335593, 15.440457578320647 ], [ 74.972285218763261, 15.4402243383491 ], [ 74.972146526584496, 15.439994084270104 ], [ 74.972004743304311, 15.439823630574423 ], [ 74.971745822438976, 15.439611302651473 ], [ 74.971471486877135, 15.439413922432294 ], [ 74.971335859283514, 15.43932420139336 ], [ 74.971076928118933, 15.439195593895295 ], [ 74.97071010187517, 15.439063982060782 ], [ 74.97019531390626, 15.438875538743416 ], [ 74.969948710821029, 15.438773841746167 ], [ 74.969735031427845, 15.438614391335658 ], [ 74.969613094836291, 15.43868433477199 ], [ 74.969401643673919, 15.438682666604238 ], [ 74.969263048544875, 15.438619487895187 ], [ 74.968857914545154, 15.438499732930687 ], [ 74.967771392734747, 15.438178559807097 ], [ 74.967604448985867, 15.438060347748472 ], [ 74.967600080229616, 15.438084621861561 ], [ 74.9675318466509, 15.438424575022712 ], [ 74.967380735311338, 15.438426132301855 ], [ 74.967312687389352, 15.438498464157474 ], [ 74.969443070257825, 15.443893509709135 ], [ 74.969364347495841, 15.445568057886595 ], [ 74.969128623894179, 15.447547048778199 ], [ 74.967166130333993, 15.451048116376988 ], [ 74.966223864732669, 15.45424485767002 ], [ 74.966302123214859, 15.455614961548495 ], [ 74.965987952374036, 15.457137238077324 ], [ 74.964810707469894, 15.457289287020265 ], [ 74.963711955193091, 15.457365226669197 ], [ 74.962220781062754, 15.457517209326644 ], [ 74.961278806103863, 15.458582673811151 ], [ 74.960572238453466, 15.459800408842133 ], [ 74.960493381410274, 15.461779415678679 ], [ 74.960414725223217, 15.46269279653924 ], [ 74.961670430813228, 15.462845249029566 ], [ 74.963946188102838, 15.464367954489287 ], [ 74.964887726802871, 15.465966545738699 ], [ 74.96496601913033, 15.467108300233221 ], [ 74.964965888380362, 15.467885889307823 ], [ 74.965351408185583, 15.467904488277179 ] ] ] } },
{ "type": "Feature", "properties": { "KGISWardID": 2553, "KGISWardCode": "0903016", "KGISWardName": "", "SHAPE.STArea()": 697977.06483106501, "SHAPE.STLength()": 4967.5434162210886, "OBJECTID": 16544, "KGISWardNo": "16", "KGISTownCode": "0903", "LGD_WardCode": 28054, "created_user": "SA", "created_date": 1634898537000, "last_edited_user": "SURESHBV1", "last_edited_date": 1692253972000, "_overlap_percent": 7.4327262929640137, "_police_station": "Dharwad Sub Urban PS", "_police_feature_index": "228", "_admin_layer": "Ward", "_geometry_clipped": true }, "geometry": { "type": "Polygon", "coordinates": [ [ [ 75.006969014440841, 15.455652941123885 ], [ 75.006902432209401, 15.455961519591479 ], [ 75.006791450552768, 15.456105047610084 ], [ 75.006661968606707, 15.456212693850956 ], [ 75.006351212631415, 15.456456694137248 ], [ 75.006118144458114, 15.456607401008929 ], [ 75.005866574970625, 15.45672222675258 ], [ 75.005529916135728, 15.456837054348716 ], [ 75.005289444772373, 15.456887293956136 ], [ 75.004963882061091, 15.456926770270613 ], [ 75.00411667874252, 15.456977021362183 ], [ 75.003667313406069, 15.457081113072933 ], [ 75.003773903684717, 15.457105008992533 ], [ 75.004296782362729, 15.457271486933179 ], [ 75.00468351667628, 15.45741883066972 ], [ 75.005105767964807, 15.457619753576251 ], [ 75.005739148058595, 15.457929751004537 ], [ 75.006443562967419, 15.458289498222518 ], [ 75.006895416371165, 15.458517209429258 ], [ 75.007759663260131, 15.458980284440955 ], [ 75.007827516737677, 15.459020706450991 ], [ 75.007850664428261, 15.458972990289833 ], [ 75.007729647527341, 15.458444921927068 ], [ 75.006936265790742, 15.45639321065635 ], [ 75.007030071803783, 15.455463827858097 ], [ 75.00703396075491, 15.455384565687142 ], [ 75.006969014440841, 15.455652941123885 ] ] ] } },
{ "type": "Feature", "properties": { "KGISWardID": 2545, "KGISWardCode": "0903012", "KGISWardName": "", "SHAPE.STArea()": 1663196.7321456899, "SHAPE.STLength()": 6425.9521233616579, "OBJECTID": 16540, "KGISWardNo": "12", "KGISTownCode": "0903", "LGD_WardCode": 28050, "created_user": "SA", "created_date": 1634898537000, "last_edited_user": "SURESHBV1", "last_edited_date": 1692253972000, "_overlap_percent": 100.00000000000003, "_police_station": "Dharwad Sub Urban PS", "_police_feature_index": "228", "_admin_layer": "Ward", "_geometry_clipped": true }, "geometry": { "type": "Polygon", "coordinates": [ [ [ 74.99226374725184, 15.45605195583083 ], [ 74.99180006489695, 15.45614522910711 ], [ 74.991025613936671, 15.456305468274293 ], [ 74.990196901787982, 15.456484837323698 ], [ 74.989789942861819, 15.456585286432054 ], [ 74.98943724541374, 15.456668991900674 ], [ 74.988729384191558, 15.456834009718765 ], [ 74.988159641262726, 15.456955975592273 ], [ 74.987666358067415, 15.457039670685383 ], [ 74.987215005152336, 15.457101839003782 ], [ 74.986605800542861, 15.457180740594955 ], [ 74.985947267447187, 15.457300303181601 ], [ 74.985278865800367, 15.457403118576384 ], [ 74.984854639451214, 15.457493988618115 ], [ 74.984065382562719, 15.457630281215899 ], [ 74.98367814973237, 15.457733111813988 ], [ 74.983379708448624, 15.457826379563372 ], [ 74.983105925548244, 15.457969883426923 ], [ 74.982999866033325, 15.458022501261167 ], [ 74.982950539440168, 15.458024888779919 ], [ 74.982911076553563, 15.458000965432836 ], [ 74.982743386312947, 15.457709120700725 ], [ 74.982602821956036, 15.457462726371947 ], [ 74.982541179253332, 15.457257003971296 ], [ 74.98249926854453, 15.457034539433986 ], [ 74.982482020296402, 15.456847956396539 ], [ 74.982531380545666, 15.456462837680936 ], [ 74.982593100684824, 15.455738046591707 ], [ 74.9826375351889, 15.455259636575366 ], [ 74.982657280344554, 15.455092193209881 ], [ 74.982640018436769, 15.455058703599548 ], [ 74.98260672330764, 15.455046739928484 ], [ 74.981837230441755, 15.454906742842892 ], [ 74.981160221918827, 15.454795454799752 ], [ 74.980738481686288, 15.454702128606922 ], [ 74.980179867462468, 15.454537026663042 ], [ 74.979491774663117, 15.454303737838123 ], [ 74.978665368457968, 15.454020100409126 ], [ 74.978357032205167, 15.454421936888552 ], [ 74.978024029208925, 15.45484530038955 ], [ 74.977799557282708, 15.455146677776339 ], [ 74.977676214983092, 15.45536912755858 ], [ 74.977525736074128, 15.45565137620329 ], [ 74.977481323083211, 15.455821208806256 ], [ 74.977488686767657, 15.456153706226662 ], [ 74.977537943463844, 15.456813921923183 ], [ 74.977572427436399, 15.457230144947998 ], [ 74.977557601042648, 15.457490878248469 ], [ 74.977510713652563, 15.457730080194779 ], [ 74.977392273460154, 15.458230009622683 ], [ 74.977323179924966, 15.458531403128005 ], [ 74.977318236288568, 15.458636653596352 ], [ 74.977333006888458, 15.458892606356519 ], [ 74.977303339679693, 15.459538460589167 ], [ 74.977278632406595, 15.459928364973459 ], [ 74.977249016569615, 15.460100590286649 ], [ 74.977197200454313, 15.460299126727584 ], [ 74.977113312250978, 15.460564637230592 ], [ 74.977083693030565, 15.460765567234484 ], [ 74.977046683999049, 15.460875598779092 ], [ 74.97690359392692, 15.461212864854007 ], [ 74.976649485699056, 15.461786933554524 ], [ 74.97659027335942, 15.4619448041732 ], [ 74.976563115465922, 15.462186399210349 ], [ 74.9765014037106, 15.46263370893268 ], [ 74.976412555128718, 15.46313124943936 ], [ 74.976324161226557, 15.46361892274664 ], [ 74.976656447620357, 15.463640648823192 ], [ 74.977773759435877, 15.463637176306431 ], [ 74.97820662033547, 15.463673099746844 ], [ 74.97918703140904, 15.463770073102264 ], [ 74.98008235523767, 15.463827564825168 ], [ 74.980441223947494, 15.463852713194342 ], [ 74.980755699924757, 15.463849152415255 ], [ 74.98105907968089, 15.463806120578996 ], [ 74.981392057858741, 15.463752328580355 ], [ 74.981773134043038, 15.463677010149215 ], [ 74.982139411171232, 15.463601689869478 ], [ 74.982409497668357, 15.463512009009523 ], [ 74.982638887815853, 15.463407972275879 ], [ 74.982830663982838, 15.463306324602673 ], [ 74.983129736275856, 15.463129932447336 ], [ 74.983496640627962, 15.462908694163676 ], [ 74.983888210960998, 15.462654566426341 ], [ 74.984248951000467, 15.462382495124984 ], [ 74.984464777658204, 15.462224035894412 ], [ 74.98456343833945, 15.462182181813645 ], [ 74.984739175431628, 15.462149303348555 ], [ 74.984884078129156, 15.462167253052781 ], [ 74.985028979348272, 15.462206134054092 ], [ 74.985297194450837, 15.462370607006829 ], [ 74.985611652593619, 15.462591893575237 ], [ 74.985827457372565, 15.462729450554276 ], [ 74.986043264570029, 15.462849067550424 ], [ 74.986274491021618, 15.462920844695487 ], [ 74.98661053810217, 15.463040467648735 ], [ 74.986847929053226, 15.463136164864272 ], [ 74.987276464732034, 15.463345495650319 ], [ 74.987822157433129, 15.463551841359013 ], [ 74.988155125904001, 15.463647542402805 ], [ 74.988315445081938, 15.46366250087428 ], [ 74.988592924003044, 15.463644575562874 ], [ 74.989126299872069, 15.463614701557374 ], [ 74.989582599291211, 15.463557911645637 ], [ 74.990020400333506, 15.46348915981303 ], [ 74.990282463961435, 15.463450300300595 ], [ 74.990442783552695, 15.463456287799859 ], [ 74.990559940130012, 15.463483203834238 ], [ 74.990895992540601, 15.463557970406233 ], [ 74.991706837771289, 15.463725446122533 ], [ 74.992486853821234, 15.463880957678363 ], [ 74.992970896267011, 15.463964696407073 ], [ 74.993945148566056, 15.464111238566478 ], [ 74.995061224817618, 15.464260770362209 ], [ 74.995393697383022, 15.464303921389956 ], [ 74.995765849820529, 15.463740148287243 ], [ 74.996083417788583, 15.463225861411717 ], [ 74.996382484986654, 15.462744462584249 ], [ 74.996650719406631, 15.462307914560171 ], [ 74.996875788635052, 15.461964058788292 ], [ 74.996968283008471, 15.461793625445097 ], [ 74.997036112291497, 15.461617211204812 ], [ 74.997122440639004, 15.461392956578774 ], [ 74.99723343476326, 15.461093949697284 ], [ 74.997344428551045, 15.460723180938986 ], [ 74.997433841890114, 15.460412214431551 ], [ 74.997535586043696, 15.46001752423869 ], [ 74.997600333618792, 15.459739447110234 ], [ 74.997637332336836, 15.459482300155376 ], [ 74.997640417437239, 15.459356717226145 ], [ 74.99764041882483, 15.459234123170814 ], [ 74.997575676989001, 15.459036777683163 ], [ 74.997473939052114, 15.458887272368719 ], [ 74.997378366800064, 15.458806539092175 ], [ 74.997218051820752, 15.458707864288076 ], [ 74.996949831184835, 15.458600217567058 ], [ 74.996416472806516, 15.45842379528089 ], [ 74.995725882990769, 15.458208496649068 ], [ 74.995285017124218, 15.458058984424154 ], [ 74.994868814463373, 15.45791545061396 ], [ 74.994579016619198, 15.457750989555448 ], [ 74.994437202198853, 15.457643342840623 ], [ 74.994205985016322, 15.457347318335005 ], [ 74.993869954086207, 15.456841985724067 ], [ 74.993493846886409, 15.456276848819236 ], [ 74.993274963852372, 15.456022685572783 ], [ 74.99315489601652, 15.455888137594474 ], [ 74.99226374725184, 15.45605195583083 ] ] ] } },
{ "type": "Feature", "properties": { "KGISWardID": 2541, "KGISWardCode": "0903010", "KGISWardName": "", "SHAPE.STArea()": 462206.52548420499, "SHAPE.STLength()": 3605.1392925687514, "OBJECTID": 16538, "KGISWardNo": "10", "KGISTownCode": "0903", "LGD_WardCode": 28048, "created_user": "SA", "created_date": 1634898537000, "last_edited_user": "SURESHBV1", "last_edited_date": 1692253972000, "_overlap_percent": 0.57098077680487569, "_police_station": "Dharwad Sub Urban PS", "_police_feature_index": "228", "_admin_layer": "Ward", "_geometry_clipped": true }, "geometry": { "type": "MultiPolygon", "coordinates": [ [ [ [ 75.01286534315976, 15.462285881000776 ], [ 75.013070095575898, 15.462867140953191 ], [ 75.013277318343114, 15.463489065403028 ], [ 75.013546214041284, 15.464276038428649 ], [ 75.013748487584905, 15.464613306823251 ], [ 75.013933647620902, 15.464816108754235 ], [ 75.013956293938193, 15.464798785845966 ], [ 75.013886944480134, 15.464714524120778 ], [ 75.012892794072968, 15.462322407179443 ], [ 75.012861439643203, 15.462274628179935 ], [ 75.01286534315976, 15.462285881000776 ] ] ], [ [ [ 75.011210269989789, 15.460726345224444 ], [ 75.011217869782485, 15.460730957265007 ], [ 75.011125611247223, 15.46066225975062 ], [ 75.011105089081994, 15.460672212710735 ], [ 75.011210269989789, 15.460726345224444 ] ] ], [ [ [ 75.007827516737677, 15.459020706450991 ], [ 75.00786698813792, 15.459044220296281 ], [ 75.007850664428261, 15.458972990289833 ], [ 75.007827516737677, 15.459020706450991 ] ] ] ] } },
{ "type": "Feature", "properties": { "KGISWardID": 2544, "KGISWardCode": "0903011", "KGISWardName": "", "SHAPE.STArea()": 1219737.0896303451, "SHAPE.STLength()": 5828.391200252031, "OBJECTID": 16539, "KGISWardNo": "11", "KGISTownCode": "0903", "LGD_WardCode": 28049, "created_user": "SA", "created_date": 1634898537000, "last_edited_user": "SURESHBV1", "last_edited_date": 1692253972000, "_overlap_percent": 98.21703274722546, "_police_station": "Dharwad Sub Urban PS", "_police_feature_index": "228", "_admin_layer": "Ward", "_geometry_clipped": true }, "geometry": { "type": "Polygon", "coordinates": [ [ [ 75.007827516737677, 15.459020706450991 ], [ 75.007759663260131, 15.458980284440955 ], [ 75.006895416371165, 15.458517209429258 ], [ 75.006443562967419, 15.458289498222518 ], [ 75.005739148058595, 15.457929751004537 ], [ 75.005105767964807, 15.457619753576251 ], [ 75.00468351667628, 15.45741883066972 ], [ 75.004296782362729, 15.457271486933179 ], [ 75.003773903684717, 15.457105008992533 ], [ 75.003667313406069, 15.457081113072933 ], [ 75.003014252840941, 15.456934705261213 ], [ 75.002732097071132, 15.456879213398475 ], [ 75.002692635359111, 15.456888781825072 ], [ 75.002680797034529, 15.456913659707125 ], [ 75.002392730910799, 15.45762936921839 ], [ 75.002219101093999, 15.458058028970456 ], [ 75.002029684141903, 15.458402487567469 ], [ 75.001842240692994, 15.458825407078725 ], [ 75.001627172709178, 15.459213880040808 ], [ 75.00139631961855, 15.459669331182473 ], [ 75.001204927869651, 15.460107559017864 ], [ 75.000968152712616, 15.460607023320524 ], [ 75.000934609873724, 15.460668259911062 ], [ 75.000893173940767, 15.460685482917217 ], [ 75.000847667940732, 15.460677581385692 ], [ 75.000499282557001, 15.460522098664342 ], [ 75.000076906766523, 15.460288872183051 ], [ 74.999358560887984, 15.459891191007808 ], [ 74.998883775223362, 15.45967590276258 ], [ 74.99830416761877, 15.459487523740911 ], [ 74.99764041882483, 15.459234123170814 ], [ 74.997640417437239, 15.459356717226145 ], [ 74.997637332336836, 15.459482300155376 ], [ 74.997600333618792, 15.459739447110234 ], [ 74.997535586043696, 15.46001752423869 ], [ 74.997433841890114, 15.460412214431551 ], [ 74.997344428551045, 15.460723180938986 ], [ 74.99723343476326, 15.461093949697284 ], [ 74.997122440639004, 15.461392956578774 ], [ 74.997036112291497, 15.461617211204812 ], [ 74.996968283008471, 15.461793625445097 ], [ 74.996875788635052, 15.461964058788292 ], [ 74.996650719406631, 15.462307914560171 ], [ 74.996382484986654, 15.462744462584249 ], [ 74.996083417788583, 15.463225861411717 ], [ 74.995765849820529, 15.463740148287243 ], [ 74.995393697383022, 15.464303921389956 ], [ 74.995936821997134, 15.464374410908153 ], [ 74.996476362911167, 15.464428242165765 ], [ 74.996803170585309, 15.464437216554686 ], [ 74.997330380321657, 15.464440214249191 ], [ 74.997987080725522, 15.464434240662687 ], [ 74.998329304343798, 15.464455174895802 ], [ 74.998386377085623, 15.464453314710774 ], [ 74.998696192666273, 15.464443216306906 ], [ 74.999013752253745, 15.464398367168632 ], [ 74.999392973813883, 15.464305676257791 ], [ 74.999525547241433, 15.464248864749548 ], [ 74.999574876979082, 15.464248864849688 ], [ 74.999587209121231, 15.464278765694386 ], [ 74.999577959620765, 15.464335578412687 ], [ 74.999544045446967, 15.464506012030483 ], [ 74.999485466461692, 15.464799039579891 ], [ 74.999359057442859, 15.465142898222251 ], [ 74.999186401043502, 15.46566616242797 ], [ 74.999174067541617, 15.465737924163545 ], [ 74.999183317748219, 15.465782774971832 ], [ 74.99925114568137, 15.465821646364297 ], [ 74.999722862842091, 15.46606683361235 ], [ 75.000163748927108, 15.46633893088103 ], [ 75.000490561027149, 15.46649142519078 ], [ 75.000715629968994, 15.466593087169086 ], [ 75.001017777007391, 15.46669773838736 ], [ 75.001369254691411, 15.466802389797209 ], [ 75.00163748781317, 15.466865179416056 ], [ 75.001985882720277, 15.466916007860808 ], [ 75.002052223226883, 15.46643164443244 ], [ 75.002123745979844, 15.465891035951696 ], [ 75.002129664594477, 15.465796788606136 ], [ 75.002139530879887, 15.46576808379881 ], [ 75.002171101162276, 15.465752774613144 ], [ 75.002528249243824, 15.465687707413261 ], [ 75.003084688451509, 15.465586276443947 ], [ 75.003287926701248, 15.465547999967882 ], [ 75.003491164619817, 15.465494414426392 ], [ 75.003684535923028, 15.465391074327723 ], [ 75.003986431087554, 15.465207358031096 ], [ 75.004165988850986, 15.465082967935523 ], [ 75.004258726082824, 15.464977715252431 ], [ 75.004310027073245, 15.464860980549558 ], [ 75.004341594865934, 15.464740421035383 ], [ 75.004365270280729, 15.464608377976768 ], [ 75.004367240242843, 15.464439976639214 ], [ 75.004359343293629, 15.464252439618763 ], [ 75.004333690424048, 15.464147189194192 ], [ 75.004302118228964, 15.464095521319758 ], [ 75.004209377387085, 15.464047681605306 ], [ 75.003996273456437, 15.463946261615821 ], [ 75.003933128565279, 15.463902249147626 ], [ 75.003921289806627, 15.463867803696903 ], [ 75.003933127763958, 15.463810394052599 ], [ 75.004006132088506, 15.463634337445104 ], [ 75.004092949050616, 15.463471674584419 ], [ 75.004156087652049, 15.463345372648373 ], [ 75.004181738423966, 15.463309012554241 ], [ 75.004236988453513, 15.463312837595019 ], [ 75.004306049204985, 15.463366419610386 ], [ 75.004461930550846, 15.463442962743198 ], [ 75.004755937538931, 15.463582653223639 ], [ 75.005201879195099, 15.463735734729354 ], [ 75.00558665265811, 15.463883076846637 ], [ 75.005825409970356, 15.463990235577285 ], [ 75.006008918851407, 15.464116531429692 ], [ 75.006164803164779, 15.464221778075119 ], [ 75.00626938509312, 15.464319371175129 ], [ 75.006362127816317, 15.464439928337651 ], [ 75.006604842183364, 15.464832220213479 ], [ 75.006723239929883, 15.465042717589103 ], [ 75.007074483597123, 15.465528774638644 ], [ 75.007342851717965, 15.465901928069972 ], [ 75.007534260716781, 15.466150696110409 ], [ 75.007627002745608, 15.466210016307828 ], [ 75.007737504169825, 15.466259767006886 ], [ 75.007928906322604, 15.466307601725273 ], [ 75.008044327765845, 15.466323957893232 ], [ 75.008185423613284, 15.466343951997549 ], [ 75.00885828843613, 15.466395594593727 ], [ 75.009665327805834, 15.466424265564525 ], [ 75.010286887211919, 15.466429979421331 ], [ 75.010644035132586, 15.46640699787751 ], [ 75.011099842541, 15.466366788914668 ], [ 75.011291241103223, 15.466332333589937 ], [ 75.011524075245504, 15.466271084282448 ], [ 75.01180426503457, 15.46617730141185 ], [ 75.012076559219665, 15.466060553943937 ], [ 75.012427776929599, 15.465857686688844 ], [ 75.01281845263459, 15.465591667131825 ], [ 75.013311729185958, 15.465245268447333 ], [ 75.013933647620902, 15.464816108754235 ], [ 75.013748487584905, 15.464613306823251 ], [ 75.013546214041284, 15.464276038428649 ], [ 75.013277318343114, 15.463489065403028 ], [ 75.013070095575898, 15.462867140953191 ], [ 75.01286534315976, 15.462285881000776 ], [ 75.012861439643203, 15.462274628179935 ], [ 75.012635068890731, 15.461929676345401 ], [ 75.012156453305366, 15.461429844960161 ], [ 75.011217869782485, 15.460730957265007 ], [ 75.011210269989789, 15.460726345224444 ], [ 75.011105089081994, 15.460672212710735 ], [ 75.010904731716579, 15.460769383201457 ], [ 75.010794296488356, 15.460912205236029 ], [ 75.010242092639018, 15.461108604305787 ], [ 75.009391947746778, 15.46108280681063 ], [ 75.009316377634178, 15.460753066398592 ], [ 75.009051916819757, 15.460276780524781 ], [ 75.008598558314844, 15.459507397069506 ], [ 75.007880780363195, 15.459104403938122 ], [ 75.00786698813792, 15.459044220296281 ], [ 75.007827516737677, 15.459020706450991 ] ] ] } },
{ "type": "Feature", "properties": { "KGISWardID": 2533, "KGISWardCode": "0903006", "KGISWardName": "", "SHAPE.STArea()": 4531695.645301505, "SHAPE.STLength()": 11487.94389646982, "OBJECTID": 16534, "KGISWardNo": "6", "KGISTownCode": "0903", "LGD_WardCode": 28044, "created_user": "SA", "created_date": 1634898537000, "last_edited_user": "SURESHBV1", "last_edited_date": 1692253972000, "_overlap_percent": 0.045402810863107441, "_police_station": "Dharwad Sub Urban PS", "_police_feature_index": "228", "_admin_layer": "Ward", "_geometry_clipped": true }, "geometry": { "type": "MultiPolygon", "coordinates": [ [ [ [ 75.01783153645134, 15.467935624421992 ], [ 75.017856707424016, 15.46807627635455 ], [ 75.017867078266306, 15.468215493789398 ], [ 75.017880400270855, 15.468242761731915 ], [ 75.01788232675645, 15.468243829141743 ], [ 75.017844820919208, 15.46792761225317 ], [ 75.017826455608585, 15.467925323726147 ], [ 75.01783153645134, 15.467935624421992 ] ] ], [ [ [ 75.016716337542803, 15.467864274186452 ], [ 75.016826841238611, 15.467904452408181 ], [ 75.016919584049035, 15.467931236101233 ], [ 75.017006406929553, 15.467942711334976 ], [ 75.017120853691594, 15.467944615563486 ], [ 75.017245165096298, 15.46793312494267 ], [ 75.017444456912457, 15.467894835794766 ], [ 75.017493832220254, 15.467883875060874 ], [ 75.016570268988005, 15.467768788555791 ], [ 75.016716337542803, 15.467864274186452 ] ] ], [ [ [ 75.013933647620902, 15.464816108754235 ], [ 75.014091353241412, 15.464988839679478 ], [ 75.014589627806188, 15.465617920706089 ], [ 75.015078036009555, 15.466208727695966 ], [ 75.015549178461455, 15.466761261240137 ], [ 75.016042517657823, 15.467251599216301 ], [ 75.01632759166425, 15.467575341265654 ], [ 75.016535177745709, 15.467744945225473 ], [ 75.015414900348205, 15.466571037510372 ], [ 75.013956293938193, 15.464798785845966 ], [ 75.013933647620902, 15.464816108754235 ] ] ] ] } },
{ "type": "Feature", "properties": { "KGISWardID": 2532, "KGISWardCode": "0903005", "KGISWardName": "", "SHAPE.STArea()": 2008159.59200441, "SHAPE.STLength()": 7406.7061486658622, "OBJECTID": 16533, "KGISWardNo": "5", "KGISTownCode": "0903", "LGD_WardCode": 28043, "created_user": "SA", "created_date": 1634898537000, "last_edited_user": "SURESHBV1", "last_edited_date": 1692253972000, "_overlap_percent": 8.4436780055132843, "_police_station": "Dharwad Sub Urban PS", "_police_feature_index": "228", "_admin_layer": "Ward", "_geometry_clipped": true }, "geometry": { "type": "Polygon", "coordinates": [ [ [ 75.01632759166425, 15.467575341265654 ], [ 75.016029635839914, 15.467561968099201 ], [ 75.01597241202893, 15.467560058284079 ], [ 75.015801112592371, 15.467554759972124 ], [ 75.015566300536889, 15.467571999420592 ], [ 75.015441990753686, 15.467591144893341 ], [ 75.015368983840133, 15.467619854677123 ], [ 75.015327548986704, 15.467654303195843 ], [ 75.015290061542714, 15.46771937008918 ], [ 75.015272311721944, 15.467830363145765 ], [ 75.015270353908988, 15.468044692052207 ], [ 75.015252599895831, 15.468111672428256 ], [ 75.015193405720979, 15.468142293341705 ], [ 75.015122371271531, 15.468159521025601 ], [ 75.015031603391137, 15.468163355100234 ], [ 75.014938863326293, 15.468172929307652 ], [ 75.014867829254953, 15.468195897850917 ], [ 75.014782985459732, 15.46824948594686 ], [ 75.014709978238116, 15.4682915913424 ], [ 75.014654727360707, 15.46828394011513 ], [ 75.014579743216316, 15.468251411557297 ], [ 75.014518571643038, 15.468228452715017 ], [ 75.01444753644472, 15.468236112248801 ], [ 75.014402156381266, 15.468301180407483 ], [ 75.014337053968987, 15.468500203615388 ], [ 75.014301543283068, 15.468605456794839 ], [ 75.014246300565063, 15.468731761052405 ], [ 75.014202896900258, 15.468814050958503 ], [ 75.014193036435259, 15.468905906641899 ], [ 75.014204881633503, 15.468992019992557 ], [ 75.014214754109787, 15.469076220424384 ], [ 75.014214757635202, 15.469127888889423 ], [ 75.014193056642867, 15.469202523412264 ], [ 75.014200954433974, 15.469256104414853 ], [ 75.014212799245541, 15.46934987265103 ], [ 75.014238457763454, 15.469441726050071 ], [ 75.014242409923199, 15.46952975384993 ], [ 75.014228605388269, 15.469652228432226 ], [ 75.014195070860296, 15.469799581082587 ], [ 75.01416745621701, 15.469964157071905 ], [ 75.014173378384228, 15.470000516281885 ], [ 75.014193112704731, 15.470025391822634 ], [ 75.014236525421126, 15.470044525804902 ], [ 75.014283882986746, 15.470044522755913 ], [ 75.014420034795705, 15.470027291113453 ], [ 75.014921234441204, 15.469975588551391 ], [ 75.015205376852251, 15.46994877937906 ], [ 75.015388885862862, 15.469916234108512 ], [ 75.015615804401918, 15.46987220465347 ], [ 75.015838775822786, 15.469816691559631 ], [ 75.015935461462632, 15.469778412895577 ], [ 75.016288658918128, 15.469634863697719 ], [ 75.016369557647309, 15.469592757203756 ], [ 75.016395210368685, 15.469598496246718 ], [ 75.016416922649967, 15.469688435734469 ], [ 75.016436666569888, 15.469831958679119 ], [ 75.01644371017403, 15.470004545281418 ], [ 75.016485062617377, 15.47049192540625 ], [ 75.016492491126925, 15.470850733585726 ], [ 75.016466623224659, 15.471238249832641 ], [ 75.016444458897922, 15.471683175180241 ], [ 75.016413848038724, 15.471982329199786 ], [ 75.016378366401256, 15.472451175774705 ], [ 75.016384291885544, 15.472523893592962 ], [ 75.016402054649973, 15.472567906744601 ], [ 75.01644152262719, 15.472608090389063 ], [ 75.016500721221789, 15.47261956786358 ], [ 75.017112429561408, 15.472602298624945 ], [ 75.017572201687685, 15.472613743593916 ], [ 75.018093140761934, 15.472596479734245 ], [ 75.018623946059137, 15.47258303990672 ], [ 75.018975185806866, 15.472571528212942 ], [ 75.019259332163429, 15.472544712938628 ], [ 75.019312610595179, 15.472550449237549 ], [ 75.019340238749507, 15.472571496633561 ], [ 75.01941947854813, 15.47272879232151 ], [ 75.019794485541169, 15.473632958715214 ], [ 75.020016539562477, 15.474274010759325 ], [ 75.020228722832641, 15.474852870558026 ], [ 75.020406352957906, 15.475211663748142 ], [ 75.020613594309694, 15.475675704842526 ], [ 75.020702483422738, 15.475856406905525 ], [ 75.02067906703914, 15.475751398642295 ], [ 75.020562968526704, 15.475427237272608 ], [ 75.020449333569744, 15.475047817952753 ], [ 75.020306090418885, 15.474676407851975 ], [ 75.020186019774897, 15.474313326674698 ], [ 75.019905158787765, 15.473653172266301 ], [ 75.019745709585663, 15.473489469451206 ], [ 75.019717779081716, 15.473417734622785 ], [ 75.019765253775134, 15.473415948439504 ], [ 75.019565049711005, 15.472944753615607 ], [ 75.019493749202226, 15.472762489174087 ], [ 75.019177320002143, 15.47200207024499 ], [ 75.018908919371157, 15.471334100247542 ], [ 75.018783079942963, 15.471045688872834 ], [ 75.018529568986338, 15.470464728945641 ], [ 75.01802903267982, 15.469480727023319 ], [ 75.01788232675645, 15.468243829141743 ], [ 75.017880400270855, 15.468242761731915 ], [ 75.017867078266306, 15.468215493789398 ], [ 75.017856707424016, 15.46807627635455 ], [ 75.01783153645134, 15.467935624421992 ], [ 75.017826455608585, 15.467925323726147 ], [ 75.017493832220254, 15.467883875060874 ], [ 75.017444456912457, 15.467894835794766 ], [ 75.017245165096298, 15.46793312494267 ], [ 75.017120853691594, 15.467944615563486 ], [ 75.017006406929553, 15.467942711334976 ], [ 75.016919584049035, 15.467931236101233 ], [ 75.016826841238611, 15.467904452408181 ], [ 75.016716337542803, 15.467864274186452 ], [ 75.016570268988005, 15.467768788555791 ], [ 75.016556266649573, 15.46776704370483 ], [ 75.016535177745709, 15.467744945225473 ], [ 75.01632759166425, 15.467575341265654 ] ] ] } },
{ "type": "Feature", "properties": { "KGISWardID": 2528, "KGISWardCode": "0903003", "KGISWardName": "", "SHAPE.STArea()": 1132212.8044361901, "SHAPE.STLength()": 5860.515484138411, "OBJECTID": 16531, "KGISWardNo": "3", "KGISTownCode": "0903", "LGD_WardCode": 28041, "created_user": "SA", "created_date": 1634898537000, "last_edited_user": "SURESHBV1", "last_edited_date": 1692253972000, "_overlap_percent": 76.363817963327946, "_police_station": "Dharwad Sub Urban PS", "_police_feature_index": "228", "_admin_layer": "Ward", "_geometry_clipped": true }, "geometry": { "type": "Polygon", "coordinates": [ [ [ 75.011463107594494, 15.476899282141051 ], [ 75.011512391393879, 15.476014216982428 ], [ 75.011524704267927, 15.475652417057992 ], [ 75.011524686230587, 15.475326498170103 ], [ 75.011499999876605, 15.474952740011247 ], [ 75.011472221638272, 15.474432467838978 ], [ 75.011419773894502, 15.473837445376928 ], [ 75.011395075310347, 15.473233450210701 ], [ 75.011388023130124, 15.472829550680231 ], [ 75.011404289303371, 15.472579819006471 ], [ 75.011389489098988, 15.472565467421015 ], [ 75.011342130178178, 15.472551118408523 ], [ 75.010961780576835, 15.472490856799272 ], [ 75.010574029406584, 15.472380362126112 ], [ 75.010325397545515, 15.472343057754504 ], [ 75.010041245727194, 15.472294272838903 ], [ 75.009721575888022, 15.472234007242315 ], [ 75.009147346338139, 15.471979994696605 ], [ 75.009025989020827, 15.471924025066548 ], [ 75.008975669049605, 15.471875229128191 ], [ 75.008959387733498, 15.471839347560989 ], [ 75.008969741946885, 15.471704435972532 ], [ 75.008966778615459, 15.47162406294161 ], [ 75.008956416011131, 15.47156378259327 ], [ 75.008920895179941, 15.471507810319613 ], [ 75.008846896633713, 15.471464756242062 ], [ 75.008752178985404, 15.471420267272409 ], [ 75.008750698251617, 15.471390127850656 ], [ 75.008778813739823, 15.47132410593361 ], [ 75.008786213084136, 15.471305447134672 ], [ 75.008854288777954, 15.471276739725841 ], [ 75.008886847113857, 15.471272433169197 ], [ 75.008910527460102, 15.471283914096846 ], [ 75.008919407660812, 15.471319794159486 ], [ 75.008929768079412, 15.471351368909369 ], [ 75.008957887400513, 15.471354238243592 ], [ 75.009002285088144, 15.471347060721069 ], [ 75.009057043145319, 15.471348493271387 ], [ 75.009159158386751, 15.471355665698377 ], [ 75.009185796805809, 15.471347053185887 ], [ 75.00918579591972, 15.471326959897612 ], [ 75.009184314744132, 15.471288208165156 ], [ 75.009150265799406, 15.471060006773278 ], [ 75.009144339081118, 15.470900694585186 ], [ 75.009153213426913, 15.470781570170335 ], [ 75.009181325209582, 15.470615081751205 ], [ 75.009212398133968, 15.470478732685672 ], [ 75.009209435317203, 15.470432805289104 ], [ 75.009197594192557, 15.470394054888214 ], [ 75.009166515003542, 15.470366786259536 ], [ 75.009108795845023, 15.470330907313537 ], [ 75.009061436465331, 15.47029072267579 ], [ 75.009011117377256, 15.470253408618241 ], [ 75.008951919187922, 15.470226142005371 ], [ 75.008826125076041, 15.470226147053834 ], [ 75.008732889740642, 15.470236196942658 ], [ 75.008664813176097, 15.470236199616309 ], [ 75.008567137633023, 15.470224722439777 ], [ 75.00847094109271, 15.470201760571111 ], [ 75.008337746917064, 15.470178802768693 ], [ 75.008063960175804, 15.470174507652752 ], [ 75.008007722754471, 15.47016733306587 ], [ 75.007985522975758, 15.470155851987087 ], [ 75.007961842753559, 15.470118536728574 ], [ 75.007921879800747, 15.469975014656464 ], [ 75.007855275310249, 15.4697769536845 ], [ 75.007785713121123, 15.469632834126749 ], [ 75.007779545205764, 15.469576023443487 ], [ 75.007794958157007, 15.469510240764746 ], [ 75.008016928703228, 15.469031819919762 ], [ 75.008072417238751, 15.468822513148659 ], [ 75.008106319320959, 15.468502573341748 ], [ 75.008093962009383, 15.467862696628261 ], [ 75.008084674989888, 15.466896902433877 ], [ 75.008044327765845, 15.466323957893232 ], [ 75.007928906322604, 15.466307601725273 ], [ 75.007737504169825, 15.466259767006886 ], [ 75.007627002745608, 15.466210016307828 ], [ 75.007534260716781, 15.466150696110409 ], [ 75.007342851717965, 15.465901928069972 ], [ 75.007074483597123, 15.465528774638644 ], [ 75.006723239929883, 15.465042717589103 ], [ 75.006604842183364, 15.464832220213479 ], [ 75.006362127816317, 15.464439928337651 ], [ 75.00626938509312, 15.464319371175129 ], [ 75.006164803164779, 15.464221778075119 ], [ 75.006008918851407, 15.464116531429692 ], [ 75.005825409970356, 15.463990235577285 ], [ 75.00558665265811, 15.463883076846637 ], [ 75.005201879195099, 15.463735734729354 ], [ 75.004755937538931, 15.463582653223639 ], [ 75.004461930550846, 15.463442962743198 ], [ 75.004306049204985, 15.463366419610386 ], [ 75.004236988453513, 15.463312837595019 ], [ 75.004181738423966, 15.463309012554241 ], [ 75.004156087652049, 15.463345372648373 ], [ 75.004092949050616, 15.463471674584419 ], [ 75.004006132088506, 15.463634337445104 ], [ 75.003933127763958, 15.463810394052599 ], [ 75.003921289806627, 15.463867803696903 ], [ 75.003933128565279, 15.463902249147626 ], [ 75.003996273456437, 15.463946261615821 ], [ 75.004209377387085, 15.464047681605306 ], [ 75.004302118228964, 15.464095521319758 ], [ 75.004333690424048, 15.464147189194192 ], [ 75.004359343293629, 15.464252439618763 ], [ 75.004367240242843, 15.464439976639214 ], [ 75.004365270280729, 15.464608377976768 ], [ 75.004341594865934, 15.464740421035383 ], [ 75.004310027073245, 15.464860980549558 ], [ 75.004258726082824, 15.464977715252431 ], [ 75.004165988850986, 15.465082967935523 ], [ 75.003986431087554, 15.465207358031096 ], [ 75.003684535923028, 15.465391074327723 ], [ 75.003491164619817, 15.465494414426392 ], [ 75.003287926701248, 15.465547999967882 ], [ 75.003084688451509, 15.465586276443947 ], [ 75.002528249243824, 15.465687707413261 ], [ 75.002171101162276, 15.465752774613144 ], [ 75.002139530879887, 15.46576808379881 ], [ 75.002129664594477, 15.465796788606136 ], [ 75.002123745979844, 15.465891035951696 ], [ 75.002052223226883, 15.46643164443244 ], [ 75.001985882720277, 15.466916007860808 ], [ 75.001902643591251, 15.467514024859746 ], [ 75.001844066171628, 15.467810042763199 ], [ 75.001723827410146, 15.468336298187843 ], [ 75.001674499583686, 15.468578494856612 ], [ 75.001677582802103, 15.468620355786019 ], [ 75.001723830032603, 15.46865324605027 ], [ 75.001779328442296, 15.468653245611421 ], [ 75.001865655381948, 15.468620354281839 ], [ 75.002072225987888, 15.468506729730173 ], [ 75.002186302404866, 15.468467856586136 ], [ 75.002312711593149, 15.468461875682875 ], [ 75.002547032214252, 15.468488784112758 ], [ 75.002821433989112, 15.468509711264174 ], [ 75.003198319791977, 15.468552284939728 ], [ 75.003275275377419, 15.468558024756245 ], [ 75.003336445748886, 15.468577160614718 ], [ 75.003399589040612, 15.468615432293227 ], [ 75.003474572728123, 15.468661358657487 ], [ 75.003537716005752, 15.468695803303708 ], [ 75.003600859905745, 15.468711112064799 ], [ 75.003938280230017, 15.468701536581014 ], [ 75.003979717907143, 15.468705364641181 ], [ 75.00399550479662, 15.468732155113264 ], [ 75.003987612853109, 15.468797219553698 ], [ 75.003977752543776, 15.469084266771437 ], [ 75.003995519550514, 15.469501442977352 ], [ 75.004034989335821, 15.469788489284074 ], [ 75.004068536391685, 15.469866948791244 ], [ 75.004102082050736, 15.469920530583487 ], [ 75.004194825752108, 15.469981765241458 ], [ 75.004392151256809, 15.470079357400575 ], [ 75.00468813932973, 15.470222875741971 ], [ 75.004871652333549, 15.470280281182893 ], [ 75.005015698970411, 15.470289845899902 ], [ 75.005124227825519, 15.470316635072159 ], [ 75.005214997142247, 15.470362559570095 ], [ 75.005345233742858, 15.470446758426112 ], [ 75.005414297380213, 15.470473548404732 ], [ 75.005540585254138, 15.470490767197509 ], [ 75.005658979892814, 15.470507987024163 ], [ 75.005737910184365, 15.470527120857303 ], [ 75.00579513644908, 15.470557738015243 ], [ 75.005797109090778, 15.470592183603305 ], [ 75.005779351177665, 15.470636199446989 ], [ 75.005702397322622, 15.470724227679893 ], [ 75.005631365913914, 15.470915595363564 ], [ 75.00559585262819, 15.47110313332672 ], [ 75.005568229739396, 15.471219866763798 ], [ 75.005526794071741, 15.471311722835166 ], [ 75.005422217583614, 15.471508831311695 ], [ 75.005307773793831, 15.471696372041162 ], [ 75.005100589782856, 15.472019784361798 ], [ 75.00492300455015, 15.472329799093504 ], [ 75.004767123599322, 15.472609194566004 ], [ 75.00465662729313, 15.472865627025271 ], [ 75.004510612740447, 15.473198605395414 ], [ 75.00421858111261, 15.473763137971506 ], [ 75.004009423126632, 15.474260690435928 ], [ 75.003717392453183, 15.474985968553865 ], [ 75.003429302692467, 15.475623219075649 ], [ 75.003318802347621, 15.475829895406356 ], [ 75.003220140139646, 15.476007865916445 ], [ 75.00304254842851, 15.476298743176148 ], [ 75.002718934219715, 15.476771418158124 ], [ 75.002511740748275, 15.477062295333791 ], [ 75.002336120180658, 15.477301503548846 ], [ 75.002065781024996, 15.477670841016456 ], [ 75.001815095754694, 15.478013478560179 ], [ 75.001894829452098, 15.478042811815447 ], [ 75.002520540442674, 15.478296636316418 ], [ 75.003200247884166, 15.478578604223923 ], [ 75.003286160268715, 15.478610384885743 ], [ 75.005504618785807, 15.476458912095563 ], [ 75.009686294226029, 15.476565485878663 ], [ 75.011449919591286, 15.47742053339959 ], [ 75.011463107594494, 15.476899282141051 ] ] ] } },
{ "type": "Feature", "properties": { "KGISWardID": 2529, "KGISWardCode": "0903004", "KGISWardName": "", "SHAPE.STArea()": 1428409.101671315, "SHAPE.STLength()": 6478.1205663194251, "OBJECTID": 16532, "KGISWardNo": "4", "KGISTownCode": "0903", "LGD_WardCode": 28042, "created_user": "SA", "created_date": 1634898537000, "last_edited_user": "SURESHBV1", "last_edited_date": 1692253972000, "_overlap_percent": 78.186395426026721, "_police_station": "Dharwad Sub Urban PS", "_police_feature_index": "228", "_admin_layer": "Ward", "_geometry_clipped": true }, "geometry": { "type": "Polygon", "coordinates": [ [ [ 75.020613594309694, 15.475675704842526 ], [ 75.020406352957906, 15.475211663748142 ], [ 75.020228722832641, 15.474852870558026 ], [ 75.020016539562477, 15.474274010759325 ], [ 75.019794485541169, 15.473632958715214 ], [ 75.01941947854813, 15.47272879232151 ], [ 75.019340238749507, 15.472571496633561 ], [ 75.019312610595179, 15.472550449237549 ], [ 75.019259332163429, 15.472544712938628 ], [ 75.018975185806866, 15.472571528212942 ], [ 75.018623946059137, 15.47258303990672 ], [ 75.018093140761934, 15.472596479734245 ], [ 75.017572201687685, 15.472613743593916 ], [ 75.017112429561408, 15.472602298624945 ], [ 75.016500721221789, 15.47261956786358 ], [ 75.01644152262719, 15.472608090389063 ], [ 75.016402054649973, 15.472567906744601 ], [ 75.016384291885544, 15.472523893592962 ], [ 75.016378366401256, 15.472451175774705 ], [ 75.016413848038724, 15.471982329199786 ], [ 75.016444458897922, 15.471683175180241 ], [ 75.016466623224659, 15.471238249832641 ], [ 75.016492491126925, 15.470850733585726 ], [ 75.016485062617377, 15.47049192540625 ], [ 75.01644371017403, 15.470004545281418 ], [ 75.016436666569888, 15.469831958679119 ], [ 75.016416922649967, 15.469688435734469 ], [ 75.016395210368685, 15.469598496246718 ], [ 75.016369557647309, 15.469592757203756 ], [ 75.016288658918128, 15.469634863697719 ], [ 75.015935461462632, 15.469778412895577 ], [ 75.015838775822786, 15.469816691559631 ], [ 75.015615804401918, 15.46987220465347 ], [ 75.015388885862862, 15.469916234108512 ], [ 75.015205376852251, 15.46994877937906 ], [ 75.014921234441204, 15.469975588551391 ], [ 75.014420034795705, 15.470027291113453 ], [ 75.014283882986746, 15.470044522755913 ], [ 75.014236525421126, 15.470044525804902 ], [ 75.014193112704731, 15.470025391822634 ], [ 75.014173378384228, 15.470000516281885 ], [ 75.01416745621701, 15.469964157071905 ], [ 75.014195070860296, 15.469799581082587 ], [ 75.014228605388269, 15.469652228432226 ], [ 75.014242409923199, 15.46952975384993 ], [ 75.014238457763454, 15.469441726050071 ], [ 75.014212799245541, 15.46934987265103 ], [ 75.014200954433974, 15.469256104414853 ], [ 75.014193056642867, 15.469202523412264 ], [ 75.014214757635202, 15.469127888889423 ], [ 75.014214754109787, 15.469076220424384 ], [ 75.014204881633503, 15.468992019992557 ], [ 75.014193036435259, 15.468905906641899 ], [ 75.014202896900258, 15.468814050958503 ], [ 75.014246300565063, 15.468731761052405 ], [ 75.014301543283068, 15.468605456794839 ], [ 75.014337053968987, 15.468500203615388 ], [ 75.014402156381266, 15.468301180407483 ], [ 75.01444753644472, 15.468236112248801 ], [ 75.014518571643038, 15.468228452715017 ], [ 75.014579743216316, 15.468251411557297 ], [ 75.014654727360707, 15.46828394011513 ], [ 75.014709978238116, 15.4682915913424 ], [ 75.014782985459732, 15.46824948594686 ], [ 75.014867829254953, 15.468195897850917 ], [ 75.014938863326293, 15.468172929307652 ], [ 75.015031603391137, 15.468163355100234 ], [ 75.015122371271531, 15.468159521025601 ], [ 75.015193405720979, 15.468142293341705 ], [ 75.015252599895831, 15.468111672428256 ], [ 75.015270353908988, 15.468044692052207 ], [ 75.015272311721944, 15.467830363145765 ], [ 75.015290061542714, 15.46771937008918 ], [ 75.015327548986704, 15.467654303195843 ], [ 75.015368983840133, 15.467619854677123 ], [ 75.015441990753686, 15.467591144893341 ], [ 75.015566300536889, 15.467571999420592 ], [ 75.015801112592371, 15.467554759972124 ], [ 75.01597241202893, 15.467560058284079 ], [ 75.016029635839914, 15.467561968099201 ], [ 75.01632759166425, 15.467575341265654 ], [ 75.016042517657823, 15.467251599216301 ], [ 75.015549178461455, 15.466761261240137 ], [ 75.015078036009555, 15.466208727695966 ], [ 75.014589627806188, 15.465617920706089 ], [ 75.014091353241412, 15.464988839679478 ], [ 75.013933647620902, 15.464816108754235 ], [ 75.013311729185958, 15.465245268447333 ], [ 75.01281845263459, 15.465591667131825 ], [ 75.012427776929599, 15.465857686688844 ], [ 75.012076559219665, 15.466060553943937 ], [ 75.01180426503457, 15.46617730141185 ], [ 75.011524075245504, 15.466271084282448 ], [ 75.011291241103223, 15.466332333589937 ], [ 75.011099842541, 15.466366788914668 ], [ 75.010644035132586, 15.46640699787751 ], [ 75.010286887211919, 15.466429979421331 ], [ 75.009665327805834, 15.466424265564525 ], [ 75.00885828843613, 15.466395594593727 ], [ 75.008185423613284, 15.466343951997549 ], [ 75.008044327765845, 15.466323957893232 ], [ 75.008084674989888, 15.466896902433877 ], [ 75.008093962009383, 15.467862696628261 ], [ 75.008106319320959, 15.468502573341748 ], [ 75.008072417238751, 15.468822513148659 ], [ 75.008016928703228, 15.469031819919762 ], [ 75.007794958157007, 15.469510240764746 ], [ 75.007779545205764, 15.469576023443487 ], [ 75.007785713121123, 15.469632834126749 ], [ 75.007855275310249, 15.4697769536845 ], [ 75.007921879800747, 15.469975014656464 ], [ 75.007961842753559, 15.470118536728574 ], [ 75.007985522975758, 15.470155851987087 ], [ 75.008007722754471, 15.47016733306587 ], [ 75.008063960175804, 15.470174507652752 ], [ 75.008337746917064, 15.470178802768693 ], [ 75.00847094109271, 15.470201760571111 ], [ 75.008567137633023, 15.470224722439777 ], [ 75.008664813176097, 15.470236199616309 ], [ 75.008732889740642, 15.470236196942658 ], [ 75.008826125076041, 15.470226147053834 ], [ 75.008951919187922, 15.470226142005371 ], [ 75.009011117377256, 15.470253408618241 ], [ 75.009061436465331, 15.47029072267579 ], [ 75.009108795845023, 15.470330907313537 ], [ 75.009166515003542, 15.470366786259536 ], [ 75.009197594192557, 15.470394054888214 ], [ 75.009209435317203, 15.470432805289104 ], [ 75.009212398133968, 15.470478732685672 ], [ 75.009181325209582, 15.470615081751205 ], [ 75.009153213426913, 15.470781570170335 ], [ 75.009144339081118, 15.470900694585186 ], [ 75.009150265799406, 15.471060006773278 ], [ 75.009184314744132, 15.471288208165156 ], [ 75.00918579591972, 15.471326959897612 ], [ 75.009185796805809, 15.471347053185887 ], [ 75.009159158386751, 15.471355665698377 ], [ 75.009057043145319, 15.471348493271387 ], [ 75.009002285088144, 15.471347060721069 ], [ 75.008957887400513, 15.471354238243592 ], [ 75.008929768079412, 15.471351368909369 ], [ 75.008919407660812, 15.471319794159486 ], [ 75.008910527460102, 15.471283914096846 ], [ 75.008886847113857, 15.471272433169197 ], [ 75.008854288777954, 15.471276739725841 ], [ 75.008786213084136, 15.471305447134672 ], [ 75.008778813739823, 15.47132410593361 ], [ 75.008750698251617, 15.471390127850656 ], [ 75.008752178985404, 15.471420267272409 ], [ 75.008846896633713, 15.471464756242062 ], [ 75.008920895179941, 15.471507810319613 ], [ 75.008956416011131, 15.47156378259327 ], [ 75.008966778615459, 15.47162406294161 ], [ 75.008969741946885, 15.471704435972532 ], [ 75.008959387733498, 15.471839347560989 ], [ 75.008975669049605, 15.471875229128191 ], [ 75.009025989020827, 15.471924025066548 ], [ 75.009147346338139, 15.471979994696605 ], [ 75.009721575888022, 15.472234007242315 ], [ 75.010041245727194, 15.472294272838903 ], [ 75.010325397545515, 15.472343057754504 ], [ 75.010574029406584, 15.472380362126112 ], [ 75.010961780576835, 15.472490856799272 ], [ 75.011342130178178, 15.472551118408523 ], [ 75.011389489098988, 15.472565467421015 ], [ 75.011404289303371, 15.472579819006471 ], [ 75.011388023130124, 15.472829550680231 ], [ 75.011395075310347, 15.473233450210701 ], [ 75.011419773894502, 15.473837445376928 ], [ 75.011472221638272, 15.474432467838978 ], [ 75.011499999876605, 15.474952740011247 ], [ 75.011524686230587, 15.475326498170103 ], [ 75.011524704267927, 15.475652417057992 ], [ 75.011512391393879, 15.476014216982428 ], [ 75.011463107594494, 15.476899282141051 ], [ 75.011449919591286, 15.47742053339959 ], [ 75.011887235505313, 15.477632554555285 ], [ 75.014088192110279, 15.478592884020435 ], [ 75.017499571912481, 15.478379206219751 ], [ 75.020734407745863, 15.476330126910911 ], [ 75.020689424398171, 15.476135484433245 ], [ 75.020765495525183, 15.476138977927235 ], [ 75.020702483422738, 15.475856406905525 ], [ 75.020613594309694, 15.475675704842526 ] ] ] } },
{ "type": "Feature", "properties": { "KGISWardID": 2525, "KGISWardCode": "0903002", "KGISWardName": "", "SHAPE.STArea()": 3368529.7551407199, "SHAPE.STLength()": 8022.5378495663208, "OBJECTID": 16530, "KGISWardNo": "2", "KGISTownCode": "0903", "LGD_WardCode": 28040, "created_user": "SA", "created_date": 1634898537000, "last_edited_user": "SURESHBV1", "last_edited_date": 1692253972000, "_overlap_percent": 100.00000000000004, "_police_station": "Dharwad Sub Urban PS", "_police_feature_index": "228", "_admin_layer": "Ward", "_geometry_clipped": true }, "geometry": { "type": "Polygon", "coordinates": [ [ [ 74.991636744423289, 15.488277583569751 ], [ 74.992304774710263, 15.487500691692816 ], [ 74.992494656438183, 15.487314582649486 ], [ 74.992645074389571, 15.48714351698821 ], [ 74.992746378781177, 15.487028291250578 ], [ 74.992861776452884, 15.486896225553373 ], [ 74.99302561362812, 15.486748372408508 ], [ 74.993354816028457, 15.486460134430292 ], [ 74.993647673455428, 15.48619939533388 ], [ 74.994009585385442, 15.485899000992688 ], [ 74.994475117115044, 15.485466375555868 ], [ 74.994823370674396, 15.485184287219504 ], [ 74.995271793200402, 15.484753711043316 ], [ 74.995576494353315, 15.484496493724496 ], [ 74.996635436464146, 15.483629781554765 ], [ 74.997110619664028, 15.483285561907969 ], [ 74.997634747935393, 15.482913888342891 ], [ 74.997872324321037, 15.4828117382994 ], [ 74.998178384707344, 15.48250706380114 ], [ 74.998291218536593, 15.482336313055125 ], [ 74.998629240643965, 15.481824921141197 ], [ 74.999023794385366, 15.481227621962597 ], [ 74.999257453464296, 15.480873917111436 ], [ 74.999618369592497, 15.480327168576617 ], [ 74.999776026922561, 15.480215600276045 ], [ 74.999966944140922, 15.480013548404299 ], [ 75.000146312853659, 15.479823785589778 ], [ 75.000362148108238, 15.479555252417219 ], [ 75.000532898036482, 15.479342810340412 ], [ 75.001148769790547, 15.478687790754851 ], [ 75.001453346173392, 15.478361089934808 ], [ 75.001772309964238, 15.477997739701012 ], [ 75.001815095754694, 15.478013478560179 ], [ 75.002065781024996, 15.477670841016456 ], [ 75.002336120180658, 15.477301503548846 ], [ 75.002511740748275, 15.477062295333791 ], [ 75.002718934219715, 15.476771418158124 ], [ 75.00304254842851, 15.476298743176148 ], [ 75.003220140139646, 15.476007865916445 ], [ 75.003318802347621, 15.475829895406356 ], [ 75.003429302692467, 15.475623219075649 ], [ 75.003717392453183, 15.474985968553865 ], [ 75.004009423126632, 15.474260690435928 ], [ 75.00421858111261, 15.473763137971506 ], [ 75.004510612740447, 15.473198605395414 ], [ 75.00465662729313, 15.472865627025271 ], [ 75.004767123599322, 15.472609194566004 ], [ 75.00492300455015, 15.472329799093504 ], [ 75.005100589782856, 15.472019784361798 ], [ 75.005307773793831, 15.471696372041162 ], [ 75.005422217583614, 15.471508831311695 ], [ 75.005526794071741, 15.471311722835166 ], [ 75.005568229739396, 15.471219866763798 ], [ 75.00559585262819, 15.47110313332672 ], [ 75.005631365913914, 15.470915595363564 ], [ 75.005702397322622, 15.470724227679893 ], [ 75.005779351177665, 15.470636199446989 ], [ 75.005797109090778, 15.470592183603305 ], [ 75.00579513644908, 15.470557738015243 ], [ 75.005737910184365, 15.470527120857303 ], [ 75.005658979892814, 15.470507987024163 ], [ 75.005540585254138, 15.470490767197509 ], [ 75.005414297380213, 15.470473548404732 ], [ 75.005345233742858, 15.470446758426112 ], [ 75.005214997142247, 15.470362559570095 ], [ 75.005124227825519, 15.470316635072159 ], [ 75.005015698970411, 15.470289845899902 ], [ 75.004871652333549, 15.470280281182893 ], [ 75.00468813932973, 15.470222875741971 ], [ 75.004392151256809, 15.470079357400575 ], [ 75.004194825752108, 15.469981765241458 ], [ 75.004102082050736, 15.469920530583487 ], [ 75.004068536391685, 15.469866948791244 ], [ 75.004034989335821, 15.469788489284074 ], [ 75.003995519550514, 15.469501442977352 ], [ 75.003977752543776, 15.469084266771437 ], [ 75.003987612853109, 15.468797219553698 ], [ 75.00399550479662, 15.468732155113264 ], [ 75.003979717907143, 15.468705364641181 ], [ 75.003938280230017, 15.468701536581014 ], [ 75.003600859905745, 15.468711112064799 ], [ 75.003537716005752, 15.468695803303708 ], [ 75.003474572728123, 15.468661358657487 ], [ 75.003399589040612, 15.468615432293227 ], [ 75.003336445748886, 15.468577160614718 ], [ 75.003275275377419, 15.468558024756245 ], [ 75.003198319791977, 15.468552284939728 ], [ 75.002821433989112, 15.468509711264174 ], [ 75.002547032214252, 15.468488784112758 ], [ 75.002312711593149, 15.468461875682875 ], [ 75.002186302404866, 15.468467856586136 ], [ 75.002072225987888, 15.468506729730173 ], [ 75.001865655381948, 15.468620354281839 ], [ 75.001779328442296, 15.468653245611421 ], [ 75.001723830032603, 15.46865324605027 ], [ 75.001677582802103, 15.468620355786019 ], [ 75.001674499583686, 15.468578494856612 ], [ 75.001723827410146, 15.468336298187843 ], [ 75.001844066171628, 15.467810042763199 ], [ 75.001902643591251, 15.467514024859746 ], [ 75.001985882720277, 15.466916007860808 ], [ 75.00163748781317, 15.466865179416056 ], [ 75.001369254691411, 15.466802389797209 ], [ 75.001017777007391, 15.46669773838736 ], [ 75.000715629968994, 15.466593087169086 ], [ 75.000490561027149, 15.46649142519078 ], [ 75.000163748927108, 15.46633893088103 ], [ 74.999722862842091, 15.46606683361235 ], [ 74.99925114568137, 15.465821646364297 ], [ 74.999183317748219, 15.465782774971832 ], [ 74.999174067541617, 15.465737924163545 ], [ 74.999186401043502, 15.46566616242797 ], [ 74.999359057442859, 15.465142898222251 ], [ 74.999485466461692, 15.464799039579891 ], [ 74.999544045446967, 15.464506012030483 ], [ 74.999577959620765, 15.464335578412687 ], [ 74.999587209121231, 15.464278765694386 ], [ 74.999574876979082, 15.464248864849688 ], [ 74.999525547241433, 15.464248864749548 ], [ 74.999392973813883, 15.464305676257791 ], [ 74.999013752253745, 15.464398367168632 ], [ 74.998696192666273, 15.464443216306906 ], [ 74.998386377085623, 15.464453314710774 ], [ 74.998031747007857, 15.464594605042842 ], [ 74.997772764818635, 15.464763242566084 ], [ 74.997254798379188, 15.465161516247811 ], [ 74.996725730069926, 15.465559787636144 ], [ 74.996037568535954, 15.466101579420037 ], [ 74.995416000959793, 15.466571607747825 ], [ 74.995038617800006, 15.466923232763389 ], [ 74.994535436989125, 15.46742914344539 ], [ 74.994172847933243, 15.467816647754121 ], [ 74.993595663746433, 15.468437372217831 ], [ 74.993155373386827, 15.468914575895029 ], [ 74.992666980746762, 15.469467127158948 ], [ 74.992049086418604, 15.470152432174293 ], [ 74.991579188588375, 15.470672687721898 ], [ 74.991005687275489, 15.471329286734592 ], [ 74.990702283230434, 15.471716789424272 ], [ 74.990062163861495, 15.472660429162927 ], [ 74.989729150137947, 15.473191451700641 ], [ 74.989540442080383, 15.473492843041305 ], [ 74.989351736213337, 15.473722471580656 ], [ 74.989114929953715, 15.473977214877413 ], [ 74.988726421567634, 15.474361122251505 ], [ 74.988289813180884, 15.474723497422801 ], [ 74.987827303676269, 15.475110985769604 ], [ 74.987349991237551, 15.47550923722593 ], [ 74.986957782211348, 15.4758034379558 ], [ 74.986458266541575, 15.476201686153731 ], [ 74.985799648205003, 15.476660920740223 ], [ 74.985296432322684, 15.477012521614853 ], [ 74.984726614448263, 15.477389232214744 ], [ 74.984182689977658, 15.477805412798462 ], [ 74.98374607103807, 15.478121133555273 ], [ 74.983379748614396, 15.478451211068684 ], [ 74.983065226116011, 15.478756174662665 ], [ 74.982765502023113, 15.479079079602112 ], [ 74.982425070204073, 15.479477330897323 ], [ 74.98215494394428, 15.479800238239132 ], [ 74.981725695210073, 15.480367120983573 ], [ 74.981374150430554, 15.480867033054185 ], [ 74.981941450558736, 15.48126775026439 ], [ 74.982086352159556, 15.481450155584971 ], [ 74.982363836562072, 15.481653503670636 ], [ 74.982521099160238, 15.481512982600108 ], [ 74.982943495801621, 15.481788103028958 ], [ 74.983196317437105, 15.481949586359288 ], [ 74.98358517903597, 15.482100793765239 ], [ 74.983707522290885, 15.482150557262832 ], [ 74.983762771230914, 15.482215626444244 ], [ 74.983790387200287, 15.48235149693164 ], [ 74.983798275244766, 15.482424215700872 ], [ 74.983823925228393, 15.482473972033745 ], [ 74.98388114790859, 15.482527558556793 ], [ 74.983916664367086, 15.482577317404967 ], [ 74.983934419796427, 15.482638554113567 ], [ 74.984028619279258, 15.483005981575465 ], [ 74.984191391724707, 15.483404271183732 ], [ 74.986019129841537, 15.484721223146559 ], [ 74.986440907967605, 15.485187702407416 ], [ 74.987066178539351, 15.485894592325653 ], [ 74.987765453840822, 15.486644543333965 ], [ 74.988267413332224, 15.487039260007117 ], [ 74.989379884401927, 15.487651683699108 ], [ 74.989673422316642, 15.487771299720222 ], [ 74.989964496546648, 15.48783111462844 ], [ 74.990324636445706, 15.487960303423842 ], [ 74.990711911539876, 15.488096666675863 ], [ 74.990985716392885, 15.488218672327893 ], [ 74.991355721768002, 15.488431580694062 ], [ 74.991562923989306, 15.488565544041855 ], [ 74.991617433740444, 15.488475831189485 ], [ 74.991636744423289, 15.488277583569751 ] ] ] } },
{ "type": "Feature", "properties": { "KGISWardID": 2524, "KGISWardCode": "0903001", "KGISWardName": "", "SHAPE.STArea()": 6524266.3228278896, "SHAPE.STLength()": 13591.527424789665, "OBJECTID": 16529, "KGISWardNo": "1", "KGISTownCode": "0903", "LGD_WardCode": 28039, "created_user": "SA", "created_date": 1634898537000, "last_edited_user": "SURESHBV1", "last_edited_date": 1692253972000, "_overlap_percent": 99.641676433446591, "_police_station": "Dharwad Sub Urban PS", "_police_feature_index": "228", "_admin_layer": "Ward", "_geometry_clipped": true }, "geometry": { "type": "Polygon", "coordinates": [ [ [ 74.989331783716395, 15.491865579121212 ], [ 74.989585005094582, 15.491611730927099 ], [ 74.989726624633747, 15.491627566239867 ], [ 74.989727340909155, 15.491622620033361 ], [ 74.989728793046226, 15.491612578447501 ], [ 74.989991188235706, 15.489798800312835 ], [ 74.991313867298643, 15.488898666588968 ], [ 74.991928093076581, 15.489227035807358 ], [ 74.992057338886028, 15.489033003368789 ], [ 74.992111203615067, 15.488912529837283 ], [ 74.992106598995491, 15.488909651975176 ], [ 74.991617433740444, 15.488475831189485 ], [ 74.991562923989306, 15.488565544041855 ], [ 74.991355721768002, 15.488431580694062 ], [ 74.990985716392885, 15.488218672327893 ], [ 74.990711911539876, 15.488096666675863 ], [ 74.990324636445706, 15.487960303423842 ], [ 74.989964496546648, 15.48783111462844 ], [ 74.989673422316642, 15.487771299720222 ], [ 74.989379884401927, 15.487651683699108 ], [ 74.988267413332224, 15.487039260007117 ], [ 74.987765453840822, 15.486644543333965 ], [ 74.987066178539351, 15.485894592325653 ], [ 74.986440907967605, 15.485187702407416 ], [ 74.986019129841537, 15.484721223146559 ], [ 74.984191391724707, 15.483404271183732 ], [ 74.984028619279258, 15.483005981575465 ], [ 74.983934419796427, 15.482638554113567 ], [ 74.983916664367086, 15.482577317404967 ], [ 74.98388114790859, 15.482527558556793 ], [ 74.983823925228393, 15.482473972033745 ], [ 74.983798275244766, 15.482424215700872 ], [ 74.983790387200287, 15.48235149693164 ], [ 74.983762771230914, 15.482215626444244 ], [ 74.983707522290885, 15.482150557262832 ], [ 74.98358517903597, 15.482100793765239 ], [ 74.983196317437105, 15.481949586359288 ], [ 74.982943495801621, 15.481788103028958 ], [ 74.982521099160238, 15.481512982600108 ], [ 74.982363836562072, 15.481653503670636 ], [ 74.982086352159556, 15.481450155584971 ], [ 74.981941450558736, 15.48126775026439 ], [ 74.981374150430554, 15.480867033054185 ], [ 74.981725695210073, 15.480367120983573 ], [ 74.98215494394428, 15.479800238239132 ], [ 74.982425070204073, 15.479477330897323 ], [ 74.982765502023113, 15.479079079602112 ], [ 74.983065226116011, 15.478756174662665 ], [ 74.983379748614396, 15.478451211068684 ], [ 74.98374607103807, 15.478121133555273 ], [ 74.984182689977658, 15.477805412798462 ], [ 74.984726614448263, 15.477389232214744 ], [ 74.985296432322684, 15.477012521614853 ], [ 74.985799648205003, 15.476660920740223 ], [ 74.986458266541575, 15.476201686153731 ], [ 74.986957782211348, 15.4758034379558 ], [ 74.987349991237551, 15.47550923722593 ], [ 74.987827303676269, 15.475110985769604 ], [ 74.988289813180884, 15.474723497422801 ], [ 74.988726421567634, 15.474361122251505 ], [ 74.989114929953715, 15.473977214877413 ], [ 74.989351736213337, 15.473722471580656 ], [ 74.989540442080383, 15.473492843041305 ], [ 74.989729150137947, 15.473191451700641 ], [ 74.990062163861495, 15.472660429162927 ], [ 74.990702283230434, 15.471716789424272 ], [ 74.991005687275489, 15.471329286734592 ], [ 74.991579188588375, 15.470672687721898 ], [ 74.992049086418604, 15.470152432174293 ], [ 74.992666980746762, 15.469467127158948 ], [ 74.993155373386827, 15.468914575895029 ], [ 74.993595663746433, 15.468437372217831 ], [ 74.994172847933243, 15.467816647754121 ], [ 74.994535436989125, 15.46742914344539 ], [ 74.995038617800006, 15.466923232763389 ], [ 74.995416000959793, 15.466571607747825 ], [ 74.996037568535954, 15.466101579420037 ], [ 74.996725730069926, 15.465559787636144 ], [ 74.997254798379188, 15.465161516247811 ], [ 74.997772764818635, 15.464763242566084 ], [ 74.998031747007857, 15.464594605042842 ], [ 74.998386377085623, 15.464453314710774 ], [ 74.998329304343798, 15.464455174895802 ], [ 74.997987080725522, 15.464434240662687 ], [ 74.997330380321657, 15.464440214249191 ], [ 74.996803170585309, 15.464437216554686 ], [ 74.996476362911167, 15.464428242165765 ], [ 74.995936821997134, 15.464374410908153 ], [ 74.995393697383022, 15.464303921389956 ], [ 74.995061224817618, 15.464260770362209 ], [ 74.993945148566056, 15.464111238566478 ], [ 74.992970896267011, 15.463964696407073 ], [ 74.992486853821234, 15.463880957678363 ], [ 74.991706837771289, 15.463725446122533 ], [ 74.990895992540601, 15.463557970406233 ], [ 74.990559940130012, 15.463483203834238 ], [ 74.990442783552695, 15.463456287799859 ], [ 74.990282463961435, 15.463450300300595 ], [ 74.990020400333506, 15.46348915981303 ], [ 74.989582599291211, 15.463557911645637 ], [ 74.989126299872069, 15.463614701557374 ], [ 74.988592924003044, 15.463644575562874 ], [ 74.988315445081938, 15.46366250087428 ], [ 74.988155125904001, 15.463647542402805 ], [ 74.987822157433129, 15.463551841359013 ], [ 74.987276464732034, 15.463345495650319 ], [ 74.986847929053226, 15.463136164864272 ], [ 74.98661053810217, 15.463040467648735 ], [ 74.986274491021618, 15.462920844695487 ], [ 74.986043264570029, 15.462849067550424 ], [ 74.985827457372565, 15.462729450554276 ], [ 74.985611652593619, 15.462591893575237 ], [ 74.985297194450837, 15.462370607006829 ], [ 74.985028979348272, 15.462206134054092 ], [ 74.984884078129156, 15.462167253052781 ], [ 74.984739175431628, 15.462149303348555 ], [ 74.98456343833945, 15.462182181813645 ], [ 74.984464777658204, 15.462224035894412 ], [ 74.984248951000467, 15.462382495124984 ], [ 74.983888210960998, 15.462654566426341 ], [ 74.983496640627962, 15.462908694163676 ], [ 74.983129736275856, 15.463129932447336 ], [ 74.982830663982838, 15.463306324602673 ], [ 74.982638887815853, 15.463407972275879 ], [ 74.982409497668357, 15.463512009009523 ], [ 74.982139411171232, 15.463601689869478 ], [ 74.981773134043038, 15.463677010149215 ], [ 74.981392057858741, 15.463752328580355 ], [ 74.98105907968089, 15.463806120578996 ], [ 74.980755699924757, 15.463849152415255 ], [ 74.980441223947494, 15.463852713194342 ], [ 74.98008235523767, 15.463827564825168 ], [ 74.97918703140904, 15.463770073102264 ], [ 74.97820662033547, 15.463673099746844 ], [ 74.977773759435877, 15.463637176306431 ], [ 74.976656447620357, 15.463640648823192 ], [ 74.976324161226557, 15.46361892274664 ], [ 74.975886914820478, 15.463590333614167 ], [ 74.975161781795691, 15.463522079136929 ], [ 74.975072942795848, 15.46390958372082 ], [ 74.975013697539509, 15.464311443951249 ], [ 74.974995120553714, 15.464978827785608 ], [ 74.974986424592771, 15.465501493036699 ], [ 74.975070217053087, 15.46607559758357 ], [ 74.974194596785836, 15.466183140432147 ], [ 74.973772822235517, 15.466211795610747 ], [ 74.973423808076589, 15.466241056326803 ], [ 74.972409329879042, 15.46633843881019 ], [ 74.972447284739516, 15.466581403795782 ], [ 74.972421143942384, 15.466767673750251 ], [ 74.972394174464057, 15.466854599996296 ], [ 74.972308831277402, 15.467129667223123 ], [ 74.972287533713754, 15.467129741407163 ], [ 74.972189489037589, 15.467130085330094 ], [ 74.972041190856856, 15.467534776789849 ], [ 74.971926576290542, 15.467876699061151 ], [ 74.971619447246198, 15.467847892839918 ], [ 74.971421729799687, 15.468193375312646 ], [ 74.971404332132394, 15.468223774738163 ], [ 74.970661833237358, 15.468193099677032 ], [ 74.970540374915998, 15.468168893855857 ], [ 74.969753025661035, 15.468011981413774 ], [ 74.969074206008614, 15.468020832703591 ], [ 74.968941209946948, 15.467801840155555 ], [ 74.968511048817419, 15.467991027047585 ], [ 74.968677327855957, 15.468551058114361 ], [ 74.969251860044366, 15.46952018397776 ], [ 74.969434065626928, 15.46985269639875 ], [ 74.969608633088143, 15.470229662374287 ], [ 74.969612547023374, 15.470661436699229 ], [ 74.969618093378728, 15.471054497412387 ], [ 74.969612611670158, 15.471381349560497 ], [ 74.969727215890302, 15.472054510658536 ], [ 74.970016157623562, 15.472617765856461 ], [ 74.970252521920841, 15.473103568793631 ], [ 74.970324501217732, 15.473415241765389 ], [ 74.970389358005832, 15.473716041230748 ], [ 74.970520367348769, 15.474407684369671 ], [ 74.970698123785013, 15.475052879907208 ], [ 74.970819269745206, 15.475512072311892 ], [ 74.970936328441482, 15.476150373177626 ], [ 74.971020328311113, 15.477073371228867 ], [ 74.971074528800429, 15.477359385414832 ], [ 74.971201361313206, 15.478018338408065 ], [ 74.97123943684241, 15.47821615429514 ], [ 74.971088225632045, 15.478883757448704 ], [ 74.971098132616873, 15.479369448164924 ], [ 74.971283189931967, 15.479651221955153 ], [ 74.971418620987663, 15.479991522304033 ], [ 74.97156789639628, 15.480280654080358 ], [ 74.971396957070937, 15.481101314412514 ], [ 74.971199288964129, 15.4822562986237 ], [ 74.971232698723881, 15.482733706314534 ], [ 74.971330271849894, 15.483435070211071 ], [ 74.971286518913033, 15.484484746568082 ], [ 74.971285224161747, 15.484516983316221 ], [ 74.971105939032284, 15.486357211553061 ], [ 74.971093524370971, 15.486424621120594 ], [ 74.970892368602662, 15.487516819954445 ], [ 74.970906389349508, 15.48794582842191 ], [ 74.970981106807059, 15.488221201276312 ], [ 74.971053859918243, 15.48840382934246 ], [ 74.97112124016239, 15.488472580134676 ], [ 74.971206968814755, 15.488599509257638 ], [ 74.971302119933966, 15.488771249560827 ], [ 74.971414990356152, 15.488797559439332 ], [ 74.971452599448313, 15.488924779685163 ], [ 74.971482789363122, 15.4889486296833 ], [ 74.971568058968089, 15.488971979571403 ], [ 74.971648118731395, 15.489029938881192 ], [ 74.971702109365367, 15.489064548682569 ], [ 74.97168167939455, 15.489188049289286 ], [ 74.971562429438762, 15.489907729578077 ], [ 74.972561929821779, 15.490684439875777 ], [ 74.972703038267511, 15.490850269825541 ], [ 74.972816515223428, 15.490996748003289 ], [ 74.973200786307459, 15.491493235145237 ], [ 74.973435466906565, 15.491831437592024 ], [ 74.973700969818168, 15.492033478572724 ], [ 74.973780817346594, 15.492206373168601 ], [ 74.973566664708741, 15.49239719331279 ], [ 74.973670726755159, 15.49247552011985 ], [ 74.973838557560384, 15.492348879788178 ], [ 74.97434878503762, 15.492489186349712 ], [ 74.974504157887651, 15.492504518577276 ], [ 74.974567295447926, 15.492590352268637 ], [ 74.974885530318502, 15.492625127120121 ], [ 74.975112293675849, 15.492738308701981 ], [ 74.975251317755337, 15.493118119682146 ], [ 74.975116550759608, 15.493275764905082 ], [ 74.975094808610393, 15.493517060429442 ], [ 74.975009776801258, 15.493652961648962 ], [ 74.974893913755025, 15.493692147762298 ], [ 74.974921447158493, 15.493750445258238 ], [ 74.975168081464687, 15.493741810160426 ], [ 74.975570034705157, 15.494215926240582 ], [ 74.975680106565406, 15.494476575562416 ], [ 74.975874337940581, 15.494631999662698 ], [ 74.976098852076802, 15.494707499599738 ], [ 74.97647096828068, 15.49535723703098 ], [ 74.976475575971179, 15.495365282051203 ], [ 74.976906449190338, 15.495446673228484 ], [ 74.978697242191629, 15.495739115860347 ], [ 74.978696382564038, 15.495784624599839 ], [ 74.978696375996094, 15.495785029628358 ], [ 74.978695428246411, 15.495835230549542 ], [ 74.978692616854261, 15.495984273771741 ], [ 74.978692239066561, 15.496004280186019 ], [ 74.978786886925676, 15.496020929834691 ], [ 74.981231925998316, 15.496450985304332 ], [ 74.982596502716106, 15.496779763570817 ], [ 74.983205010455421, 15.496820220412367 ], [ 74.984348802457262, 15.496860796382382 ], [ 74.9843722725562, 15.496837185205946 ], [ 74.98496770441443, 15.496240316897184 ], [ 74.986351010552667, 15.494098777405769 ], [ 74.98812036074537, 15.492427243296664 ], [ 74.988742795435002, 15.492456016746306 ], [ 74.989331783716395, 15.491865579121212 ] ] ] } }
]
}
