{
"type": "FeatureCollection",
"name": "wards_in_police_area.writing_20260805_172659",
"crs": { "type": "name", "properties": { "name": "urn:ogc:def:crs:OGC:1.3:CRS84" } },
"features": [
{ "type": "Feature", "properties": { "KGISWardID": 5933, "KGISWardCode": "0406047", "KGISWardName": " ", "SHAPE.STArea()": 3730344.9683943652, "SHAPE.STLength()": 13002.658012889136, "OBJECTID": 15537, "KGISWardNo": "47", "KGISTownCode": "0406", "LGD_WardCode": 27026, "created_user": "SA", "created_date": 1634898537000, "last_edited_user": "SURESHBV1", "last_edited_date": 1692253949000, "_overlap_percent": 19.589190556974874, "_police_station": "Brahmapur PS", "_police_feature_index": "705", "_admin_layer": "Ward", "_geometry_clipped": true }, "geometry": { "type": "Polygon", "coordinates": [ [ [ 76.846557462458094, 17.324840436978128 ], [ 76.84651749188177, 17.324730182289944 ], [ 76.846239423461711, 17.324847518531389 ], [ 76.845933795143353, 17.324647680832651 ], [ 76.845846350330291, 17.324590504189683 ], [ 76.845495582604229, 17.324586920875163 ], [ 76.845258918238272, 17.324281813180441 ], [ 76.845127998836915, 17.324062096400795 ], [ 76.845268914926692, 17.323229585714266 ], [ 76.844938478626005, 17.322856873122454 ], [ 76.844910670982046, 17.322590087746878 ], [ 76.844849317137047, 17.322481248940807 ], [ 76.844628416404973, 17.32208938535851 ], [ 76.844936657267311, 17.32162988440755 ], [ 76.844953946687028, 17.32058002803592 ], [ 76.844928520463142, 17.320555657095127 ], [ 76.844861755903196, 17.320242754263671 ], [ 76.844305954181266, 17.318917157666743 ], [ 76.843942841846484, 17.318892414154892 ], [ 76.843551606012966, 17.318865753093167 ], [ 76.842813232193365, 17.318925919485888 ], [ 76.843046744868857, 17.319475489147063 ], [ 76.842958457609853, 17.319888214090952 ], [ 76.842947474623941, 17.320003604917126 ], [ 76.84270339709829, 17.320803805666962 ], [ 76.842690628209382, 17.321482967053957 ], [ 76.84269035818167, 17.321497299666806 ], [ 76.842689309793798, 17.321553094713465 ], [ 76.842685329021194, 17.321764784442042 ], [ 76.841825890913839, 17.324448148218472 ], [ 76.841214782834058, 17.326361897521924 ], [ 76.839893565052506, 17.326839382431483 ], [ 76.838582358148798, 17.327286697428658 ], [ 76.837029648548437, 17.327672617361642 ], [ 76.83600562325968, 17.327960806967727 ], [ 76.835323085446362, 17.328162246891246 ], [ 76.834593682165902, 17.328337093634275 ], [ 76.834185864441039, 17.328484833053512 ], [ 76.834166635981674, 17.328454696080382 ], [ 76.834140294725046, 17.328462558066317 ], [ 76.834272117602595, 17.328770813508811 ], [ 76.834610333700155, 17.329732245373354 ], [ 76.834691015362239, 17.329982238808448 ], [ 76.834710389231233, 17.330038532609528 ], [ 76.834974697758497, 17.33078040247344 ], [ 76.835129411072444, 17.330729289493867 ], [ 76.835413568716945, 17.330628424300581 ], [ 76.835679025321681, 17.330539024477076 ], [ 76.835791588685353, 17.330506368336504 ], [ 76.835990926078992, 17.330449198379846 ], [ 76.836374337400144, 17.330337256766345 ], [ 76.836591187943029, 17.330267501905407 ], [ 76.836754344319075, 17.330237769376815 ], [ 76.837162963304593, 17.330177548632868 ], [ 76.837525306171912, 17.330134693219723 ], [ 76.838329211871383, 17.330033570502057 ], [ 76.839451238603317, 17.329936298453767 ], [ 76.839793692654624, 17.329903786575294 ], [ 76.839940589219353, 17.329894530580535 ], [ 76.840471385172251, 17.329881745538504 ], [ 76.840644669643879, 17.329865469892894 ], [ 76.840757546615635, 17.329864432050428 ], [ 76.841393224977281, 17.329874398074889 ], [ 76.841808339128008, 17.329876226574203 ], [ 76.841945705112238, 17.329854633141249 ], [ 76.842111720469205, 17.329816964076755 ], [ 76.842243502356709, 17.329766056826028 ], [ 76.842257555631974, 17.329760280389912 ], [ 76.843222883162255, 17.329515345604772 ], [ 76.844307393058045, 17.329253496565638 ], [ 76.844317952662522, 17.329251140443965 ], [ 76.845743926186486, 17.328917243270261 ], [ 76.84581900760223, 17.328899609743566 ], [ 76.845830742951634, 17.328897242705413 ], [ 76.846516288474419, 17.328720378473207 ], [ 76.846779036564271, 17.328654562107545 ], [ 76.848141761058116, 17.328181377983839 ], [ 76.848125690690551, 17.32759395493396 ], [ 76.848143235939602, 17.3258984761198 ], [ 76.84814329150602, 17.325890725635571 ], [ 76.848135526930022, 17.325305097667428 ], [ 76.847754456643059, 17.32547542047914 ], [ 76.847660777921888, 17.3255172900943 ], [ 76.847010564298031, 17.324522121036274 ], [ 76.846656052950507, 17.324671713820159 ], [ 76.846557462458094, 17.324840436978128 ] ] ] } },
{ "type": "Feature", "properties": { "KGISWardID": 5934, "KGISWardCode": "0406049", "KGISWardName": " ", "SHAPE.STArea()": 788157.08205624996, "SHAPE.STLength()": 4522.8773889426766, "OBJECTID": 15539, "KGISWardNo": "49", "KGISTownCode": "0406", "LGD_WardCode": 27028, "created_user": "SA", "created_date": 1634898537000, "last_edited_user": "SURESHBV1", "last_edited_date": 1692253949000, "_overlap_percent": 14.911713489037121, "_police_station": "Brahmapur PS", "_police_feature_index": "705", "_admin_layer": "Ward", "_geometry_clipped": true }, "geometry": { "type": "Polygon", "coordinates": [ [ [ 76.828253835430715, 17.329128548845105 ], [ 76.828581737955673, 17.329229461795659 ], [ 76.828769737443892, 17.32927405123802 ], [ 76.828826321503641, 17.329288216953092 ], [ 76.829096252118546, 17.329353516803522 ], [ 76.829115686474765, 17.329356727536297 ], [ 76.82955095230119, 17.329434069285643 ], [ 76.829744819988207, 17.329477474715848 ], [ 76.829948027062827, 17.329514018005572 ], [ 76.829963346119243, 17.329517266269232 ], [ 76.830186575548097, 17.329557014579201 ], [ 76.830428573187248, 17.329592073317574 ], [ 76.830671136403836, 17.329624867724846 ], [ 76.830716472154876, 17.329631041798159 ], [ 76.830826566812561, 17.329646034958689 ], [ 76.830848319240559, 17.329645836031602 ], [ 76.831858393073972, 17.329642243394261 ], [ 76.832279611752142, 17.329666624444926 ], [ 76.832914346222438, 17.32975907441643 ], [ 76.83303179233873, 17.329744445970139 ], [ 76.833198034374703, 17.329729370643495 ], [ 76.833393817255057, 17.329728707213278 ], [ 76.833632517019126, 17.329727650517672 ], [ 76.833879413747169, 17.32972313016824 ], [ 76.834204535124556, 17.329721281124598 ], [ 76.834610333700155, 17.329732245373354 ], [ 76.834272117602595, 17.328770813508811 ], [ 76.834140294725046, 17.328462558066317 ], [ 76.834004070738288, 17.328199905809331 ], [ 76.833355409233192, 17.327183251589407 ], [ 76.832983008376218, 17.326539558357972 ], [ 76.832887667045981, 17.327918555014637 ], [ 76.83147541288406, 17.327949019002602 ], [ 76.83061464577051, 17.327908980587988 ], [ 76.830067884006823, 17.328036972949771 ], [ 76.830060936686152, 17.328216219115305 ], [ 76.829160358773976, 17.328280602292587 ], [ 76.829141126393154, 17.328277446632292 ], [ 76.828795344339269, 17.32822073653578 ], [ 76.828668752565335, 17.32824730408927 ], [ 76.828309715467398, 17.328322655184753 ], [ 76.828211549639377, 17.328343256994195 ], [ 76.828162607068009, 17.328316320175009 ], [ 76.82817661984673, 17.328520250521795 ], [ 76.828183713051075, 17.328623476247792 ], [ 76.828185017668247, 17.328642466779037 ], [ 76.828180008873034, 17.328735377914619 ], [ 76.828173757886091, 17.328851339873211 ], [ 76.828160659295307, 17.329094317316784 ], [ 76.828253835430715, 17.329128548845105 ] ] ] } },
{ "type": "Feature", "properties": { "KGISWardID": 5926, "KGISWardCode": "0406045", "KGISWardName": " ", "SHAPE.STArea()": 740235.71289903997, "SHAPE.STLength()": 6326.6674524006967, "OBJECTID": 15535, "KGISWardNo": "45", "KGISTownCode": "0406", "LGD_WardCode": 27024, "created_user": "SA", "created_date": 1634898537000, "last_edited_user": "SURESHBV1", "last_edited_date": 1692253949000, "_overlap_percent": 50.217510174951194, "_police_station": "Brahmapur PS", "_police_feature_index": "705", "_admin_layer": "Ward", "_geometry_clipped": true }, "geometry": { "type": "Polygon", "coordinates": [ [ [ 76.846516288474419, 17.328720378473207 ], [ 76.845830742951634, 17.328897242705413 ], [ 76.84581900760223, 17.328899609743566 ], [ 76.845743926186486, 17.328917243270261 ], [ 76.844317952662522, 17.329251140443965 ], [ 76.844307393058045, 17.329253496565638 ], [ 76.843222883162255, 17.329515345604772 ], [ 76.842257555631974, 17.329760280389912 ], [ 76.842243502356709, 17.329766056826028 ], [ 76.842111720469205, 17.329816964076755 ], [ 76.841945705112238, 17.329854633141249 ], [ 76.841808339128008, 17.329876226574203 ], [ 76.841393224977281, 17.329874398074889 ], [ 76.840757546615635, 17.329864432050428 ], [ 76.840644669643879, 17.329865469892894 ], [ 76.840471385172251, 17.329881745538504 ], [ 76.839940589219353, 17.329894530580535 ], [ 76.839793692654624, 17.329903786575294 ], [ 76.839451238603317, 17.329936298453767 ], [ 76.839284335952755, 17.330062068640132 ], [ 76.839080838639617, 17.331000231258194 ], [ 76.838881339512994, 17.331985792875692 ], [ 76.83881458038023, 17.33236702226009 ], [ 76.838791332670141, 17.332630391766422 ], [ 76.838825705284407, 17.333011821534011 ], [ 76.838853547731858, 17.333091754902156 ], [ 76.838863881663499, 17.333302862361407 ], [ 76.838865973612812, 17.333512916108628 ], [ 76.838869191296993, 17.333599852236638 ], [ 76.839155991764812, 17.333587052367378 ], [ 76.840118326691751, 17.333570301713497 ], [ 76.840456115099983, 17.333599949338645 ], [ 76.840557019694884, 17.333636292479223 ], [ 76.840685668820669, 17.333683674660179 ], [ 76.841439868855261, 17.334021211564298 ], [ 76.842207690932483, 17.334486244761766 ], [ 76.842299024488511, 17.334388273747589 ], [ 76.842540927869749, 17.334059643878149 ], [ 76.842843274482163, 17.333660433100174 ], [ 76.843257294102386, 17.333080615477868 ], [ 76.843574596314738, 17.332648512866957 ], [ 76.843736718725353, 17.332397417355779 ], [ 76.843843044402078, 17.332211212766587 ], [ 76.84388383921231, 17.3321614396854 ], [ 76.845763703340992, 17.332225394984849 ], [ 76.845741094611654, 17.333449597647284 ], [ 76.845789050522271, 17.333516092136044 ], [ 76.845947447341047, 17.334807717873193 ], [ 76.846770481335909, 17.334631535437669 ], [ 76.84675274276168, 17.334491795560879 ], [ 76.847749177742543, 17.334239773862446 ], [ 76.84813324298652, 17.334134580145903 ], [ 76.848180638956421, 17.33412323231197 ], [ 76.848037295673194, 17.333355158125801 ], [ 76.848289852425481, 17.333283235081787 ], [ 76.848285349392569, 17.3332824886484 ], [ 76.84736334456008, 17.333449796743917 ], [ 76.847283002071748, 17.332270888679787 ], [ 76.847259515758083, 17.331926252753423 ], [ 76.847456588186162, 17.33103969682313 ], [ 76.846664779952974, 17.331324382971584 ], [ 76.846467200861071, 17.331282247570673 ], [ 76.846185653564731, 17.33020600878508 ], [ 76.84588409893253, 17.328965314780564 ], [ 76.846779036564271, 17.328654562107545 ], [ 76.846516288474419, 17.328720378473207 ] ] ] } },
{ "type": "Feature", "properties": { "KGISWardID": 5927, "KGISWardCode": "0406043", "KGISWardName": " ", "SHAPE.STArea()": 392497.11952055001, "SHAPE.STLength()": 2822.7617262488411, "OBJECTID": 15533, "KGISWardNo": "43", "KGISTownCode": "0406", "LGD_WardCode": 27022, "created_user": "SA", "created_date": 1634898537000, "last_edited_user": "SURESHBV1", "last_edited_date": 1692253949000, "_overlap_percent": 99.999999999999986, "_police_station": "Brahmapur PS", "_police_feature_index": "705", "_admin_layer": "Ward", "_geometry_clipped": true }, "geometry": { "type": "Polygon", "coordinates": [ [ [ 76.839284335952755, 17.330062068640132 ], [ 76.839451238603317, 17.329936298453767 ], [ 76.838329211871383, 17.330033570502057 ], [ 76.837525306171912, 17.330134693219723 ], [ 76.837162963304593, 17.330177548632868 ], [ 76.836754344319075, 17.330237769376815 ], [ 76.836591187943029, 17.330267501905407 ], [ 76.836374337400144, 17.330337256766345 ], [ 76.835990926078992, 17.330449198379846 ], [ 76.835791588685353, 17.330506368336504 ], [ 76.835679025321681, 17.330539024477076 ], [ 76.835413568716945, 17.330628424300581 ], [ 76.835129411072444, 17.330729289493867 ], [ 76.834974697758497, 17.33078040247344 ], [ 76.834710389231233, 17.330038532609528 ], [ 76.834691015362239, 17.329982238808448 ], [ 76.834610333700155, 17.329732245373354 ], [ 76.834204535124556, 17.329721281124598 ], [ 76.833879413747169, 17.32972313016824 ], [ 76.833632517019126, 17.329727650517672 ], [ 76.833393817255057, 17.329728707213278 ], [ 76.833198034374703, 17.329729370643495 ], [ 76.83303179233873, 17.329744445970139 ], [ 76.832914346222438, 17.32975907441643 ], [ 76.832279611752142, 17.329666624444926 ], [ 76.831858393073972, 17.329642243394261 ], [ 76.830848319240559, 17.329645836031602 ], [ 76.830826566812561, 17.329646034958689 ], [ 76.830716472154876, 17.329631041798159 ], [ 76.830671136403836, 17.329624867724846 ], [ 76.830707397693203, 17.332060932401475 ], [ 76.830480666538776, 17.332075377160578 ], [ 76.83049065209687, 17.332118038804275 ], [ 76.830610260300958, 17.332558551743912 ], [ 76.830674000624171, 17.332938586349957 ], [ 76.830698172117039, 17.333063731885218 ], [ 76.830717051735789, 17.333900465952976 ], [ 76.830804130643969, 17.33390644604675 ], [ 76.832726569569161, 17.33406165499385 ], [ 76.833118436117147, 17.334089690440987 ], [ 76.833885875922746, 17.334162849691346 ], [ 76.834395124019892, 17.334169477389327 ], [ 76.835020768266418, 17.334173907267527 ], [ 76.835066049059805, 17.334174621552073 ], [ 76.835463547910322, 17.334177753333545 ], [ 76.836007756222912, 17.334152432389072 ], [ 76.836470899244873, 17.334134630343158 ], [ 76.836940527691681, 17.334000436885411 ], [ 76.83759828805168, 17.333864515268111 ], [ 76.838216102808147, 17.333732346699112 ], [ 76.838433102487045, 17.333677270731268 ], [ 76.838684223490588, 17.333624139948348 ], [ 76.838869191296993, 17.333599852236638 ], [ 76.838865973612812, 17.333512916108628 ], [ 76.838863881663499, 17.333302862361407 ], [ 76.838853547731858, 17.333091754902156 ], [ 76.838825705284407, 17.333011821534011 ], [ 76.838791332670141, 17.332630391766422 ], [ 76.83881458038023, 17.33236702226009 ], [ 76.838881339512994, 17.331985792875692 ], [ 76.839080838639617, 17.331000231258194 ], [ 76.839284335952755, 17.330062068640132 ] ] ] } },
{ "type": "Feature", "properties": { "KGISWardID": 5918, "KGISWardCode": "0406029", "KGISWardName": " ", "SHAPE.STArea()": 1304144.5081043099, "SHAPE.STLength()": 8300.6902009247278, "OBJECTID": 15519, "KGISWardNo": "29", "KGISTownCode": "0406", "LGD_WardCode": 27008, "created_user": "SA", "created_date": 1634898537000, "last_edited_user": "SURESHBV1", "last_edited_date": 1692253949000, "_overlap_percent": 6.802258664537014, "_police_station": "Brahmapur PS", "_police_feature_index": "705", "_admin_layer": "Ward", "_geometry_clipped": true }, "geometry": { "type": "Polygon", "coordinates": [ [ [ 76.848684220501127, 17.335431712280126 ], [ 76.848225996445734, 17.335529686161713 ], [ 76.847372250309689, 17.335704722575748 ], [ 76.846989696494077, 17.335785053944001 ], [ 76.846092321391652, 17.335977449811931 ], [ 76.846320797687412, 17.338002979530348 ], [ 76.846325173653014, 17.338041775849742 ], [ 76.846403929652112, 17.33873996055399 ], [ 76.846434121550004, 17.338730061116728 ], [ 76.846997334038534, 17.338546415109207 ], [ 76.847085902520433, 17.338517624137953 ], [ 76.847490808169582, 17.338385999858783 ], [ 76.847925714914155, 17.338307442497275 ], [ 76.848625006449467, 17.338208371316441 ], [ 76.84923937606365, 17.338142835671292 ], [ 76.849263273775705, 17.338144563192674 ], [ 76.849204482694404, 17.337875539206017 ], [ 76.849190036385252, 17.33780943455297 ], [ 76.84877888195328, 17.335759487091757 ], [ 76.848705719063872, 17.335427291129012 ], [ 76.848684220501127, 17.335431712280126 ] ] ] } },
{ "type": "Feature", "properties": { "KGISWardID": 5917, "KGISWardCode": "0406044", "KGISWardName": " ", "SHAPE.STArea()": 789090.15178316005, "SHAPE.STLength()": 6003.8685101622159, "OBJECTID": 15534, "KGISWardNo": "44", "KGISTownCode": "0406", "LGD_WardCode": 27023, "created_user": "SA", "created_date": 1634898537000, "last_edited_user": "SURESHBV1", "last_edited_date": 1692253949000, "_overlap_percent": 53.151306359341596, "_police_station": "Brahmapur PS", "_police_feature_index": "705", "_admin_layer": "Ward", "_geometry_clipped": true }, "geometry": { "type": "Polygon", "coordinates": [ [ [ 76.848037295673194, 17.333355158125801 ], [ 76.848180638956421, 17.33412323231197 ], [ 76.84813324298652, 17.334134580145903 ], [ 76.847749177742543, 17.334239773862446 ], [ 76.84675274276168, 17.334491795560879 ], [ 76.846770481335909, 17.334631535437669 ], [ 76.845947447341047, 17.334807717873193 ], [ 76.845789050522271, 17.333516092136044 ], [ 76.845741094611654, 17.333449597647284 ], [ 76.845763703340992, 17.332225394984849 ], [ 76.84388383921231, 17.3321614396854 ], [ 76.843843044402078, 17.332211212766587 ], [ 76.843736718725353, 17.332397417355779 ], [ 76.843574596314738, 17.332648512866957 ], [ 76.843257294102386, 17.333080615477868 ], [ 76.842843274482163, 17.333660433100174 ], [ 76.842540927869749, 17.334059643878149 ], [ 76.842299024488511, 17.334388273747589 ], [ 76.842207690932483, 17.334486244761766 ], [ 76.841439868855261, 17.334021211564298 ], [ 76.840685668820669, 17.333683674660179 ], [ 76.840557019694884, 17.333636292479223 ], [ 76.840456115099983, 17.333599949338645 ], [ 76.840118326691751, 17.333570301713497 ], [ 76.839155991764812, 17.333587052367378 ], [ 76.838869191296993, 17.333599852236638 ], [ 76.838870457101436, 17.333608876003844 ], [ 76.838944090777872, 17.334094981457422 ], [ 76.838865612948197, 17.334362246641071 ], [ 76.838752231083589, 17.334667103478523 ], [ 76.838708704773723, 17.33484256414377 ], [ 76.838643250563791, 17.335118745027078 ], [ 76.838628143556377, 17.335373004317855 ], [ 76.838665229506915, 17.335554500954451 ], [ 76.838673243625593, 17.335591698335417 ], [ 76.838758684551252, 17.336023482903826 ], [ 76.838778487882109, 17.336122690298225 ], [ 76.838781573718649, 17.336137344462433 ], [ 76.838891918821432, 17.33664908920808 ], [ 76.838953444855477, 17.33692297393403 ], [ 76.838982359805783, 17.337051462582899 ], [ 76.839012495656789, 17.337184457699674 ], [ 76.839066224450235, 17.337383872013632 ], [ 76.839260518506805, 17.338177200826546 ], [ 76.839388015224372, 17.338757682187499 ], [ 76.839460006082334, 17.339083842215274 ], [ 76.83978530221286, 17.339052655826883 ], [ 76.839969305586422, 17.339095788546 ], [ 76.840109337144497, 17.339097488898481 ], [ 76.840332951345417, 17.339056584826604 ], [ 76.840481768635954, 17.339026573042883 ], [ 76.840449741759684, 17.338622553994174 ], [ 76.840446840005015, 17.338566656163461 ], [ 76.840830916353241, 17.338542086276099 ], [ 76.841423760812091, 17.338884705356023 ], [ 76.841889677862341, 17.338798257720093 ], [ 76.841849795228015, 17.338511412687936 ], [ 76.841857438758851, 17.338442752960542 ], [ 76.842241819760503, 17.338448777709981 ], [ 76.842399079983764, 17.33844350430963 ], [ 76.842407980053068, 17.338537134591007 ], [ 76.842497656625056, 17.338543959171279 ], [ 76.842514477217094, 17.338655506852749 ], [ 76.842528052478997, 17.338778488864502 ], [ 76.842727666352772, 17.338748415225773 ], [ 76.842735684799791, 17.338668152425356 ], [ 76.842742040928385, 17.338598069730367 ], [ 76.842736495054908, 17.338532196890515 ], [ 76.842909533198409, 17.33851083396635 ], [ 76.842850318279446, 17.337900219251949 ], [ 76.842816014384383, 17.337526696455903 ], [ 76.842754153811214, 17.337278793231789 ], [ 76.842749455569049, 17.337237320743817 ], [ 76.843181375669019, 17.337168369723827 ], [ 76.843165313654694, 17.336941827318167 ], [ 76.843180599642295, 17.336941686532729 ], [ 76.843366283198904, 17.336871081544022 ], [ 76.843533910184661, 17.336817584055826 ], [ 76.84402486284074, 17.336640259383742 ], [ 76.844531813588731, 17.336416479863104 ], [ 76.844857625196497, 17.336306181701964 ], [ 76.845358784047164, 17.336150218884349 ], [ 76.845619210547568, 17.336086828691432 ], [ 76.846053887334179, 17.335985689495754 ], [ 76.846092321391652, 17.335977449811931 ], [ 76.846989696494077, 17.335785053944001 ], [ 76.847372250309689, 17.335704722575748 ], [ 76.848225996445734, 17.335529686161713 ], [ 76.848684220501127, 17.335431712280126 ], [ 76.848705719063872, 17.335427291129012 ], [ 76.84859485484445, 17.334923912347701 ], [ 76.848714793666105, 17.334500740554059 ], [ 76.848698617291276, 17.333350992912703 ], [ 76.848289852425481, 17.333283235081787 ], [ 76.848037295673194, 17.333355158125801 ] ] ] } },
{ "type": "Feature", "properties": { "KGISWardID": 5919, "KGISWardCode": "0406034", "KGISWardName": " ", "SHAPE.STArea()": 177097.17684147999, "SHAPE.STLength()": 1826.0329097951096, "OBJECTID": 15524, "KGISWardNo": "34", "KGISTownCode": "0406", "LGD_WardCode": 27013, "created_user": "SA", "created_date": 1634898537000, "last_edited_user": "SURESHBV1", "last_edited_date": 1692253949000, "_overlap_percent": 0.037805823914527151, "_police_station": "Brahmapur PS", "_police_feature_index": "705", "_admin_layer": "Ward", "_geometry_clipped": true }, "geometry": { "type": "MultiPolygon", "coordinates": [ [ [ [ 76.827552576924731, 17.336254637532839 ], [ 76.827586053064621, 17.335835010983448 ], [ 76.827558321955536, 17.336062460866369 ], [ 76.827516306928317, 17.336484820644493 ], [ 76.827552576924731, 17.336254637532839 ] ] ], [ [ [ 76.827362518265147, 17.337380167440937 ], [ 76.827335505447692, 17.337508958972755 ], [ 76.827328007986281, 17.33760804226484 ], [ 76.827362518265147, 17.337380167440937 ] ] ] ] } },
{ "type": "Feature", "properties": { "KGISWardID": 5908, "KGISWardCode": "0406033", "KGISWardName": " ", "SHAPE.STArea()": 1171578.744157745, "SHAPE.STLength()": 6132.1622619581267, "OBJECTID": 15523, "KGISWardNo": "33", "KGISTownCode": "0406", "LGD_WardCode": 27012, "created_user": "SA", "created_date": 1634898537000, "last_edited_user": "SURESHBV1", "last_edited_date": 1692253949000, "_overlap_percent": 41.634314147720467, "_police_station": "Brahmapur PS", "_police_feature_index": "705", "_admin_layer": "Ward", "_geometry_clipped": true }, "geometry": { "type": "Polygon", "coordinates": [ [ [ 76.827328007986281, 17.33760804226484 ], [ 76.827311018220655, 17.337832571851443 ], [ 76.827287842842694, 17.338138837349327 ], [ 76.827298582196534, 17.338138782655772 ], [ 76.827353534849379, 17.338138504036039 ], [ 76.82876644905005, 17.338061056847085 ], [ 76.828901830852288, 17.338045922202998 ], [ 76.830044596606086, 17.337918168845082 ], [ 76.830277474498217, 17.337856381742938 ], [ 76.831380251465646, 17.337563790188611 ], [ 76.831634729679635, 17.337603578912521 ], [ 76.8318902133325, 17.33764352435081 ], [ 76.83191156548763, 17.337657785567213 ], [ 76.832722977082113, 17.338199715930774 ], [ 76.832733954635572, 17.338207546683442 ], [ 76.832638987502108, 17.338254851238705 ], [ 76.83257611229196, 17.338286170054225 ], [ 76.832731195500841, 17.338396212508183 ], [ 76.833875449361386, 17.339007801502813 ], [ 76.833876549327385, 17.338965258061279 ], [ 76.833610750357096, 17.338784726679449 ], [ 76.832870576318243, 17.338261806284283 ], [ 76.832872899214664, 17.338199666512747 ], [ 76.832903963389384, 17.338130486929895 ], [ 76.832985852199201, 17.338028088425613 ], [ 76.833358366670367, 17.337823637972125 ], [ 76.83350931191481, 17.337747712865312 ], [ 76.8337211838287, 17.337708500466842 ], [ 76.833768716259215, 17.337699029498292 ], [ 76.834131281549858, 17.337617776395803 ], [ 76.834458638152626, 17.337543621974728 ], [ 76.834540768411884, 17.337524798263843 ], [ 76.83465575523087, 17.337498896743924 ], [ 76.834823408494415, 17.337447664912737 ], [ 76.834933545860366, 17.337407125162152 ], [ 76.834995293569335, 17.337348958246192 ], [ 76.83504890008075, 17.33729990137536 ], [ 76.835090792944769, 17.33725546960936 ], [ 76.835183457754511, 17.33711344160589 ], [ 76.835376595315708, 17.336727665551283 ], [ 76.835488725382547, 17.336473645751251 ], [ 76.835779057208583, 17.335810268631089 ], [ 76.836116825446069, 17.335009795528936 ], [ 76.836269276732011, 17.334671828017857 ], [ 76.836458050971288, 17.334379833610942 ], [ 76.836470899244873, 17.334134630343158 ], [ 76.836007756222912, 17.334152432389072 ], [ 76.835463547910322, 17.334177753333545 ], [ 76.835066049059805, 17.334174621552073 ], [ 76.835020768266418, 17.334173907267527 ], [ 76.834395124019892, 17.334169477389327 ], [ 76.833885875922746, 17.334162849691346 ], [ 76.833118436117147, 17.334089690440987 ], [ 76.832726569569161, 17.33406165499385 ], [ 76.830804130643969, 17.33390644604675 ], [ 76.830717051735789, 17.333900465952976 ], [ 76.830698172117039, 17.333063731885218 ], [ 76.830674000624171, 17.332938586349957 ], [ 76.830610260300958, 17.332558551743912 ], [ 76.83049065209687, 17.332118038804275 ], [ 76.830480666538776, 17.332075377160578 ], [ 76.830707397693203, 17.332060932401475 ], [ 76.830671136403836, 17.329624867724846 ], [ 76.830428573187248, 17.329592073317574 ], [ 76.830186575548097, 17.329557014579201 ], [ 76.829963346119243, 17.329517266269232 ], [ 76.829948027062827, 17.329514018005572 ], [ 76.829744819988207, 17.329477474715848 ], [ 76.82955095230119, 17.329434069285643 ], [ 76.829115686474765, 17.329356727536297 ], [ 76.829096252118546, 17.329353516803522 ], [ 76.828826321503641, 17.329288216953092 ], [ 76.828769737443892, 17.32927405123802 ], [ 76.828581737955673, 17.329229461795659 ], [ 76.828253835430715, 17.329128548845105 ], [ 76.828160659295307, 17.329094317316784 ], [ 76.828158253864743, 17.329138937793811 ], [ 76.8281504875076, 17.329221081268873 ], [ 76.828172972702973, 17.329992842607997 ], [ 76.828167761002675, 17.330403755317064 ], [ 76.828167526965785, 17.330420216418194 ], [ 76.828155902928714, 17.330448029756926 ], [ 76.828142885639906, 17.330490476069546 ], [ 76.828126048995514, 17.330545375573376 ], [ 76.828338895237522, 17.330943402797686 ], [ 76.828494434309789, 17.33121154011771 ], [ 76.828520636214478, 17.331256711107457 ], [ 76.82865549450176, 17.332249762590646 ], [ 76.828696888537522, 17.332523562144853 ], [ 76.828430740446734, 17.333127444733758 ], [ 76.828340166894051, 17.333285339649205 ], [ 76.828236035628947, 17.333466869938498 ], [ 76.828231298054675, 17.333475969578849 ], [ 76.8282617029937, 17.333474347698523 ], [ 76.828278387809888, 17.33347345710423 ], [ 76.828142730748084, 17.333811923206792 ], [ 76.828066630197853, 17.334046880137759 ], [ 76.827658574867996, 17.335306726405744 ], [ 76.827645564769298, 17.335346892998803 ], [ 76.827613767404898, 17.335607698637862 ], [ 76.827586053064621, 17.335835010983448 ], [ 76.827552576924731, 17.336254637532839 ], [ 76.827516306928317, 17.336484820644493 ], [ 76.827495920780336, 17.336689754200588 ], [ 76.827485631071241, 17.336793191020806 ], [ 76.827362518265147, 17.337380167440937 ], [ 76.827328007986281, 17.33760804226484 ] ] ] } },
{ "type": "Feature", "properties": { "KGISWardID": 5915, "KGISWardCode": "0406031", "KGISWardName": " ", "SHAPE.STArea()": 225324.25031475499, "SHAPE.STLength()": 2579.4866044582659, "OBJECTID": 15521, "KGISWardNo": "31", "KGISTownCode": "0406", "LGD_WardCode": 27010, "created_user": "SA", "created_date": 1634898537000, "last_edited_user": "SURESHBV1", "last_edited_date": 1692253949000, "_overlap_percent": 99.901640917893687, "_police_station": "Brahmapur PS", "_police_feature_index": "705", "_admin_layer": "Ward", "_geometry_clipped": true }, "geometry": { "type": "Polygon", "coordinates": [ [ [ 76.844917916046526, 17.338672722382313 ], [ 76.844817359331699, 17.33843762849326 ], [ 76.844782962618211, 17.338357210971353 ], [ 76.845088581255965, 17.338302756180884 ], [ 76.84534354014059, 17.338260243020333 ], [ 76.845528268790957, 17.338214073708677 ], [ 76.845837792699569, 17.33810220723776 ], [ 76.846058303570089, 17.338049969948255 ], [ 76.846320797687412, 17.338002979530348 ], [ 76.846092321391652, 17.335977449811931 ], [ 76.846053887334179, 17.335985689495754 ], [ 76.845619210547568, 17.336086828691432 ], [ 76.845358784047164, 17.336150218884349 ], [ 76.844857625196497, 17.336306181701964 ], [ 76.844531813588731, 17.336416479863104 ], [ 76.84402486284074, 17.336640259383742 ], [ 76.843533910184661, 17.336817584055826 ], [ 76.843366283198904, 17.336871081544022 ], [ 76.843180599642295, 17.336941686532729 ], [ 76.843165313654694, 17.336941827318167 ], [ 76.843181375669019, 17.337168369723827 ], [ 76.842749455569049, 17.337237320743817 ], [ 76.842754153811214, 17.337278793231789 ], [ 76.842816014384383, 17.337526696455903 ], [ 76.842850318279446, 17.337900219251949 ], [ 76.842909533198409, 17.33851083396635 ], [ 76.842736495054908, 17.338532196890515 ], [ 76.842742040928385, 17.338598069730367 ], [ 76.842735684799791, 17.338668152425356 ], [ 76.842727666352772, 17.338748415225773 ], [ 76.842528052478997, 17.338778488864502 ], [ 76.842514477217094, 17.338655506852749 ], [ 76.842497656625056, 17.338543959171279 ], [ 76.842407980053068, 17.338537134591007 ], [ 76.842399079983764, 17.33844350430963 ], [ 76.842241819760503, 17.338448777709981 ], [ 76.841857438758851, 17.338442752960542 ], [ 76.841849795228015, 17.338511412687936 ], [ 76.841889677862341, 17.338798257720093 ], [ 76.841423760812091, 17.338884705356023 ], [ 76.840830916353241, 17.338542086276099 ], [ 76.840446840005015, 17.338566656163461 ], [ 76.840449741759684, 17.338622553994174 ], [ 76.840481768635954, 17.339026573042883 ], [ 76.840332951345417, 17.339056584826604 ], [ 76.840109337144497, 17.339097488898481 ], [ 76.839969305586422, 17.339095788546 ], [ 76.83978530221286, 17.339052655826883 ], [ 76.839460006082334, 17.339083842215274 ], [ 76.839474841150832, 17.339151052923537 ], [ 76.839532571531379, 17.339397865990659 ], [ 76.83971064737446, 17.340156330843488 ], [ 76.839747476898694, 17.340311852647879 ], [ 76.839775251066683, 17.340443739809349 ], [ 76.839811146125541, 17.341036356998792 ], [ 76.839761914516416, 17.341111351624424 ], [ 76.839759382461196, 17.341624133073093 ], [ 76.839794172658557, 17.341781809537192 ], [ 76.840166841541659, 17.341714808467447 ], [ 76.840170714411713, 17.341714112360961 ], [ 76.84059859711401, 17.341563750938338 ], [ 76.841064379898569, 17.341469817346688 ], [ 76.841797006778194, 17.341301708203844 ], [ 76.842166163026647, 17.341190732695637 ], [ 76.842687675877116, 17.341069387656585 ], [ 76.843007201311622, 17.340973808640811 ], [ 76.843289006144857, 17.340886224781997 ], [ 76.84398422912021, 17.340592001972297 ], [ 76.844129752020933, 17.34054973600422 ], [ 76.844228432743336, 17.340521074352917 ], [ 76.844308664395683, 17.340438870152688 ], [ 76.844460036271499, 17.34032989704707 ], [ 76.844709017481392, 17.340164538693664 ], [ 76.844722746209015, 17.340112953002304 ], [ 76.844676633063884, 17.339703497752588 ], [ 76.844670300355176, 17.339647267604121 ], [ 76.845088416569823, 17.339594379489597 ], [ 76.845100869318543, 17.339589844831558 ], [ 76.844917916046526, 17.338672722382313 ] ] ] } },
{ "type": "Feature", "properties": { "KGISWardID": 5913, "KGISWardCode": "0406027", "KGISWardName": " ", "SHAPE.STArea()": 218931.54061905999, "SHAPE.STLength()": 2622.2563551089206, "OBJECTID": 15517, "KGISWardNo": "27", "KGISTownCode": "0406", "LGD_WardCode": 27006, "created_user": "SA", "created_date": 1634898537000, "last_edited_user": "SURESHBV1", "last_edited_date": 1692253949000, "_overlap_percent": 17.174011044897895, "_police_station": "Brahmapur PS", "_police_feature_index": "705", "_admin_layer": "Ward", "_geometry_clipped": true }, "geometry": { "type": "MultiPolygon", "coordinates": [ [ [ [ 76.843007201311622, 17.340973808640811 ], [ 76.842687675877116, 17.341069387656585 ], [ 76.842166163026647, 17.341190732695637 ], [ 76.841797006778194, 17.341301708203844 ], [ 76.841064379898569, 17.341469817346688 ], [ 76.84059859711401, 17.341563750938338 ], [ 76.840170714411713, 17.341714112360961 ], [ 76.840166841541659, 17.341714808467447 ], [ 76.840168653057418, 17.341722687270927 ], [ 76.840765990514527, 17.341576394697366 ], [ 76.841029090055642, 17.341512444817674 ], [ 76.841041568128674, 17.341508902880456 ], [ 76.841842033968774, 17.341312857188839 ], [ 76.842330506999176, 17.341164644189593 ], [ 76.842712089813986, 17.341067562648085 ], [ 76.842944087279022, 17.340998050914681 ], [ 76.843220387971101, 17.340915264432002 ], [ 76.843289006144857, 17.340886224781997 ], [ 76.843007201311622, 17.340973808640811 ] ] ], [ [ [ 76.844670300355176, 17.339647267604121 ], [ 76.844676633063884, 17.339703497752588 ], [ 76.844722746209015, 17.340112953002304 ], [ 76.844709017481392, 17.340164538693664 ], [ 76.844460036271499, 17.34032989704707 ], [ 76.844308664395683, 17.340438870152688 ], [ 76.844228432743336, 17.340521074352917 ], [ 76.844233454342387, 17.340519615837845 ], [ 76.844239114448968, 17.340560418891961 ], [ 76.844281581295917, 17.340892278718592 ], [ 76.844310728361236, 17.341076676700041 ], [ 76.844408566456693, 17.341695650680702 ], [ 76.844409107751162, 17.341699073708803 ], [ 76.844557200547143, 17.34161632240469 ], [ 76.844680248275665, 17.341533731437011 ], [ 76.845050782442115, 17.341312895989212 ], [ 76.845213368700641, 17.3411825704198 ], [ 76.845284497604396, 17.340968045582404 ], [ 76.845231650857599, 17.340230122364144 ], [ 76.845074046133988, 17.33959961247179 ], [ 76.845088416569823, 17.339594379489597 ], [ 76.844670300355176, 17.339647267604121 ] ] ], [ [ [ 76.847085902520433, 17.338517624137953 ], [ 76.846997334038534, 17.338546415109207 ], [ 76.846434121550004, 17.338730061116728 ], [ 76.846403929652112, 17.33873996055399 ], [ 76.846325173653014, 17.338041775849742 ], [ 76.846320797687412, 17.338002979530348 ], [ 76.846058303570089, 17.338049969948255 ], [ 76.845837792699569, 17.33810220723776 ], [ 76.845528268790957, 17.338214073708677 ], [ 76.84534354014059, 17.338260243020333 ], [ 76.845088581255965, 17.338302756180884 ], [ 76.844782962618211, 17.338357210971353 ], [ 76.844817359331699, 17.33843762849326 ], [ 76.844917916046526, 17.338672722382313 ], [ 76.845100869318543, 17.339589844831558 ], [ 76.84551829023431, 17.339437841354087 ], [ 76.845519280095971, 17.33943531768292 ], [ 76.845572591907072, 17.339299459070691 ], [ 76.845580001732273, 17.339289421108312 ], [ 76.845606561274337, 17.33925344308701 ], [ 76.845801670122242, 17.339139422426257 ], [ 76.846080044101384, 17.339054890155968 ], [ 76.846397821147718, 17.338888451624893 ], [ 76.846911831677971, 17.338813943412571 ], [ 76.847116953127141, 17.338762198424625 ], [ 76.847144939036752, 17.338757420605742 ], [ 76.847085902520433, 17.338517624137953 ] ] ] ] } },
{ "type": "Feature", "properties": { "KGISWardID": 5909, "KGISWardCode": "0406024", "KGISWardName": " ", "SHAPE.STArea()": 279339.29140652501, "SHAPE.STLength()": 3169.2726951679851, "OBJECTID": 15514, "KGISWardNo": "24", "KGISTownCode": "0406", "LGD_WardCode": 27003, "created_user": "SA", "created_date": 1634898537000, "last_edited_user": "SURESHBV1", "last_edited_date": 1692253949000, "_overlap_percent": 41.520799493619151, "_police_station": "Brahmapur PS", "_police_feature_index": "705", "_admin_layer": "Ward", "_geometry_clipped": true }, "geometry": { "type": "Polygon", "coordinates": [ [ [ 76.840166841541659, 17.341714808467447 ], [ 76.839794172658557, 17.341781809537192 ], [ 76.839759382461196, 17.341624133073093 ], [ 76.839761914516416, 17.341111351624424 ], [ 76.839811146125541, 17.341036356998792 ], [ 76.839775251066683, 17.340443739809349 ], [ 76.839747476898694, 17.340311852647879 ], [ 76.83971064737446, 17.340156330843488 ], [ 76.839532571531379, 17.339397865990659 ], [ 76.839474841150832, 17.339151052923537 ], [ 76.839460006082334, 17.339083842215274 ], [ 76.839388015224372, 17.338757682187499 ], [ 76.839260518506805, 17.338177200826546 ], [ 76.839066224450235, 17.337383872013632 ], [ 76.839012495656789, 17.337184457699674 ], [ 76.838982359805783, 17.337051462582899 ], [ 76.838953444855477, 17.33692297393403 ], [ 76.838891918821432, 17.33664908920808 ], [ 76.838781573718649, 17.336137344462433 ], [ 76.838778487882109, 17.336122690298225 ], [ 76.838758684551252, 17.336023482903826 ], [ 76.83809928104732, 17.336113117579266 ], [ 76.837793715839126, 17.336190465800836 ], [ 76.837461173344892, 17.336274837812827 ], [ 76.836860485537983, 17.336474613114323 ], [ 76.837109972830731, 17.33696588186794 ], [ 76.837575211658816, 17.337984869411319 ], [ 76.837659504951546, 17.338301463703598 ], [ 76.837655866324425, 17.338467522545258 ], [ 76.837645324801898, 17.338944236552635 ], [ 76.83764443002535, 17.338972480385351 ], [ 76.83762346939703, 17.33976101124145 ], [ 76.837623016389571, 17.33977456849637 ], [ 76.83759194705695, 17.340374578254913 ], [ 76.837591482806232, 17.340387006188092 ], [ 76.837586006519246, 17.340663765483008 ], [ 76.837645089291868, 17.340751317971989 ], [ 76.837644776408311, 17.340767664861094 ], [ 76.839541622343063, 17.341877582888166 ], [ 76.839865916435954, 17.341796829816214 ], [ 76.840168653057418, 17.341722687270927 ], [ 76.840166841541659, 17.341714808467447 ] ] ] } },
{ "type": "Feature", "properties": { "KGISWardID": 5910, "KGISWardCode": "0406014", "KGISWardName": " ", "SHAPE.STArea()": 881975.21321711503, "SHAPE.STLength()": 4663.9758444805975, "OBJECTID": 15504, "KGISWardNo": "14", "KGISTownCode": "0406", "LGD_WardCode": 26993, "created_user": "SA", "created_date": 1634898537000, "last_edited_user": "SURESHBV1", "last_edited_date": 1692253949000, "_overlap_percent": 0.75592446269285041, "_police_station": "Brahmapur PS", "_police_feature_index": "705", "_admin_layer": "Ward", "_geometry_clipped": true }, "geometry": { "type": "Polygon", "coordinates": [ [ [ 76.84923937606365, 17.338142835671292 ], [ 76.848625006449467, 17.338208371316441 ], [ 76.847925714914155, 17.338307442497275 ], [ 76.847490808169582, 17.338385999858783 ], [ 76.847085902520433, 17.338517624137953 ], [ 76.847144939036752, 17.338757420605742 ], [ 76.847289260888601, 17.338732781647114 ], [ 76.848176530754628, 17.338510173583789 ], [ 76.849215073636842, 17.338395198889007 ], [ 76.849315613882851, 17.338384067960689 ], [ 76.849263273775705, 17.338144563192674 ], [ 76.84923937606365, 17.338142835671292 ] ] ] } },
{ "type": "Feature", "properties": { "KGISWardID": 5902, "KGISWardCode": "0406017", "KGISWardName": " ", "SHAPE.STArea()": 703715.71692254499, "SHAPE.STLength()": 5046.0833745635982, "OBJECTID": 15507, "KGISWardNo": "17", "KGISTownCode": "0406", "LGD_WardCode": 26996, "created_user": "SA", "created_date": 1634898537000, "last_edited_user": "SURESHBV1", "last_edited_date": 1692253949000, "_overlap_percent": 30.247474362944498, "_police_station": "Brahmapur PS", "_police_feature_index": "705", "_admin_layer": "Ward", "_geometry_clipped": true }, "geometry": { "type": "Polygon", "coordinates": [ [ [ 76.837645089291868, 17.340751317971989 ], [ 76.837586006519246, 17.340663765483008 ], [ 76.837591482806232, 17.340387006188092 ], [ 76.83759194705695, 17.340374578254913 ], [ 76.837623016389571, 17.33977456849637 ], [ 76.83762346939703, 17.33976101124145 ], [ 76.83764443002535, 17.338972480385351 ], [ 76.837645324801898, 17.338944236552635 ], [ 76.837655866324425, 17.338467522545258 ], [ 76.837659504951546, 17.338301463703598 ], [ 76.837575211658816, 17.337984869411319 ], [ 76.837109972830731, 17.33696588186794 ], [ 76.836860485537983, 17.336474613114323 ], [ 76.837461173344892, 17.336274837812827 ], [ 76.837793715839126, 17.336190465800836 ], [ 76.83809928104732, 17.336113117579266 ], [ 76.838758684551252, 17.336023482903826 ], [ 76.838673243625593, 17.335591698335417 ], [ 76.838665229506915, 17.335554500954451 ], [ 76.838628143556377, 17.335373004317855 ], [ 76.838643250563791, 17.335118745027078 ], [ 76.838708704773723, 17.33484256414377 ], [ 76.838752231083589, 17.334667103478523 ], [ 76.838865612948197, 17.334362246641071 ], [ 76.838944090777872, 17.334094981457422 ], [ 76.838870457101436, 17.333608876003844 ], [ 76.838869191296993, 17.333599852236638 ], [ 76.838684223490588, 17.333624139948348 ], [ 76.838433102487045, 17.333677270731268 ], [ 76.838216102808147, 17.333732346699112 ], [ 76.83759828805168, 17.333864515268111 ], [ 76.836940527691681, 17.334000436885411 ], [ 76.836470899244873, 17.334134630343158 ], [ 76.836458050971288, 17.334379833610942 ], [ 76.836269276732011, 17.334671828017857 ], [ 76.836116825446069, 17.335009795528936 ], [ 76.835779057208583, 17.335810268631089 ], [ 76.835488725382547, 17.336473645751251 ], [ 76.835376595315708, 17.336727665551283 ], [ 76.835183457754511, 17.33711344160589 ], [ 76.835090792944769, 17.33725546960936 ], [ 76.83504890008075, 17.33729990137536 ], [ 76.834995293569335, 17.337348958246192 ], [ 76.834933545860366, 17.337407125162152 ], [ 76.834823408494415, 17.337447664912737 ], [ 76.83465575523087, 17.337498896743924 ], [ 76.834540768411884, 17.337524798263843 ], [ 76.834458638152626, 17.337543621974728 ], [ 76.834131281549858, 17.337617776395803 ], [ 76.833768716259215, 17.337699029498292 ], [ 76.8337211838287, 17.337708500466842 ], [ 76.83350931191481, 17.337747712865312 ], [ 76.833358366670367, 17.337823637972125 ], [ 76.832985852199201, 17.338028088425613 ], [ 76.832903963389384, 17.338130486929895 ], [ 76.832872899214664, 17.338199666512747 ], [ 76.832870576318243, 17.338261806284283 ], [ 76.833610750357096, 17.338784726679449 ], [ 76.833876549327385, 17.338965258061279 ], [ 76.833875449361386, 17.339007801502813 ], [ 76.834337800898268, 17.339254922462032 ], [ 76.834419426483365, 17.339298549795014 ], [ 76.834493137702367, 17.339351585034201 ], [ 76.834545787642199, 17.339389465788479 ], [ 76.834685481039585, 17.339489974321769 ], [ 76.834860541210332, 17.339615928329479 ], [ 76.834855830759054, 17.339432718084321 ], [ 76.835672388101969, 17.339786104737556 ], [ 76.835966583856731, 17.339976541859745 ], [ 76.836267652839979, 17.340139296001421 ], [ 76.836813955011294, 17.340364988090087 ], [ 76.837286721582814, 17.340560298245713 ], [ 76.837464236662768, 17.340662024063125 ], [ 76.837644776408311, 17.340767664861094 ], [ 76.837645089291868, 17.340751317971989 ] ] ] } }
]
}
