{
"type": "FeatureCollection",
"name": "wards_in_police_area.writing_20260805_172659",
"crs": { "type": "name", "properties": { "name": "urn:ogc:def:crs:OGC:1.3:CRS84" } },
"features": [
{ "type": "Feature", "properties": { "KGISWardID": 6737, "KGISWardCode": "0105001", "KGISWardName": " ", "SHAPE.STArea()": 760505.70135768002, "SHAPE.STLength()": 3895.5830028325195, "OBJECTID": 14089, "KGISWardNo": "1", "KGISTownCode": "0105", "LGD_WardCode": 25488, "created_user": "SA", "created_date": 1634898537000, "last_edited_user": "SURESHBV1", "last_edited_date": 1692253928000, "_overlap_percent": 99.999999999999972, "_police_station": "Udyambag PS", "_police_feature_index": "73", "_admin_layer": "Ward", "_geometry_clipped": true }, "geometry": { "type": "Polygon", "coordinates": [ [ [ 74.499604246713687, 15.810663516554195 ], [ 74.499567580613217, 15.809927160432427 ], [ 74.49953053033579, 15.808667553999429 ], [ 74.499504568194425, 15.807771962560984 ], [ 74.499477337982384, 15.806789063455513 ], [ 74.49944168544539, 15.805614409589205 ], [ 74.499414107479993, 15.804370790542574 ], [ 74.49936534902676, 15.803101051296368 ], [ 74.499329094765386, 15.802235683586524 ], [ 74.499328288825268, 15.80223574410755 ], [ 74.498534077211687, 15.802296110803994 ], [ 74.496954585871308, 15.802014063798083 ], [ 74.4968145766899, 15.802977034629819 ], [ 74.496160553199928, 15.803105678324059 ], [ 74.495443124734095, 15.802938190548963 ], [ 74.494970400242892, 15.802827828883256 ], [ 74.494522420459376, 15.802688539737581 ], [ 74.493686441593709, 15.802622924626512 ], [ 74.493256343272861, 15.802836267849555 ], [ 74.492531633760905, 15.802257558548694 ], [ 74.492251135574961, 15.802075842015745 ], [ 74.49218526894272, 15.802033170794846 ], [ 74.492180717929841, 15.802030222974922 ], [ 74.492129925499441, 15.802285504639803 ], [ 74.491665983618702, 15.805805530296585 ], [ 74.491234196038747, 15.809081467399677 ], [ 74.490936511377328, 15.810459885931042 ], [ 74.490839652731012, 15.810908384172739 ], [ 74.491020696886665, 15.81099030197246 ], [ 74.491220731302278, 15.811022343769567 ], [ 74.491644816308792, 15.81097950143586 ], [ 74.491834405853496, 15.81105383932101 ], [ 74.491755330635783, 15.811160708211174 ], [ 74.491829502754541, 15.811266685412914 ], [ 74.492022178760124, 15.8114405338499 ], [ 74.492918355484861, 15.810792016334318 ], [ 74.493681756408094, 15.810428847084802 ], [ 74.494151117301939, 15.810402856962414 ], [ 74.494772471792032, 15.81030599566064 ], [ 74.495421578099027, 15.810234551377158 ], [ 74.496240610467225, 15.810214924896405 ], [ 74.496536243825958, 15.810270771378564 ], [ 74.496564514142378, 15.810282766447749 ], [ 74.496650400597986, 15.810319206139683 ], [ 74.49682662616236, 15.810388501326809 ], [ 74.497027897198265, 15.810490145320173 ], [ 74.497270763932093, 15.810585427042078 ], [ 74.497447039546159, 15.810634629846566 ], [ 74.497775192275242, 15.810681902885092 ], [ 74.498097968192965, 15.810747162190495 ], [ 74.498382988150354, 15.810817367451328 ], [ 74.499613410596453, 15.810996286673818 ], [ 74.499604246713687, 15.810663516554195 ] ] ] } },
{ "type": "Feature", "properties": { "KGISWardID": 6740, "KGISWardCode": "0105004", "KGISWardName": " ", "SHAPE.STArea()": 1008699.49825995, "SHAPE.STLength()": 5437.8066554216175, "OBJECTID": 14092, "KGISWardNo": "4", "KGISTownCode": "0105", "LGD_WardCode": 25491, "created_user": "SA", "created_date": 1634898537000, "last_edited_user": "SURESHBV1", "last_edited_date": 1692253928000, "_overlap_percent": 34.936766711099395, "_police_station": "Udyambag PS", "_police_feature_index": "73", "_admin_layer": "Ward", "_geometry_clipped": true }, "geometry": { "type": "MultiPolygon", "coordinates": [ [ [ [ 74.499762309881191, 15.815797202545793 ], [ 74.499768715671621, 15.818216633973593 ], [ 74.499764603791419, 15.818381665453442 ], [ 74.49976236196828, 15.819320540965595 ], [ 74.499762297929408, 15.819347348828376 ], [ 74.500375204644158, 15.819236340904823 ], [ 74.500805242377808, 15.819177532413786 ], [ 74.501309633350289, 15.819108932400432 ], [ 74.501526645189045, 15.819054172139365 ], [ 74.50158996333424, 15.819025614656628 ], [ 74.501655757512367, 15.818985994067789 ], [ 74.501052883579959, 15.817776161028792 ], [ 74.499862536975854, 15.818085017691329 ], [ 74.499828326425686, 15.817356929610673 ], [ 74.499756696465397, 15.815612017745448 ], [ 74.499754543215289, 15.815543820973341 ], [ 74.499762309881191, 15.815797202545793 ] ] ], [ [ [ 74.500654849710003, 15.802605078921621 ], [ 74.499541965218199, 15.802219502757501 ], [ 74.499329094765386, 15.802235683586524 ], [ 74.49936534902676, 15.803101051296368 ], [ 74.499414107479993, 15.804370790542574 ], [ 74.49944168544539, 15.805614409589205 ], [ 74.499477337982384, 15.806789063455513 ], [ 74.499504568194425, 15.807771962560984 ], [ 74.49953053033579, 15.808667553999429 ], [ 74.499567580613217, 15.809927160432427 ], [ 74.499604246713687, 15.810663516554195 ], [ 74.499613410596453, 15.810996286673818 ], [ 74.499676825438357, 15.813008337566286 ], [ 74.499705165726255, 15.813932917920546 ], [ 74.499745807480309, 15.81312474354101 ], [ 74.500053114256403, 15.813014505362016 ], [ 74.500055771432983, 15.812922620715341 ], [ 74.500133448908485, 15.81291085008707 ], [ 74.500240443739258, 15.812936673978699 ], [ 74.50042346416447, 15.812862113232454 ], [ 74.500447534648828, 15.812706084653964 ], [ 74.50042814720635, 15.812601001111709 ], [ 74.500348734855123, 15.812473570236424 ], [ 74.500127108048943, 15.812381790531767 ], [ 74.500106400667818, 15.812294877587842 ], [ 74.5001054637289, 15.812199590037926 ], [ 74.500127754992775, 15.812170802870986 ], [ 74.500412879501766, 15.812144357099859 ], [ 74.500539826202356, 15.812049638506119 ], [ 74.500872646875777, 15.812204396599668 ], [ 74.501005528080483, 15.81219054939818 ], [ 74.50101343710871, 15.811919646789955 ], [ 74.500888193450891, 15.811810017775871 ], [ 74.500920861679404, 15.811735777263554 ], [ 74.501011995833949, 15.811768228807786 ], [ 74.501116543310758, 15.811589238282847 ], [ 74.501056709682715, 15.81145081083217 ], [ 74.501099993207859, 15.811358064819402 ], [ 74.50119308278579, 15.811399928088079 ], [ 74.501205338264114, 15.811181556721282 ], [ 74.501293028337827, 15.811142431982057 ], [ 74.501309998229431, 15.811061656299071 ], [ 74.50149873001331, 15.811032931951177 ], [ 74.501622578233352, 15.810715847300214 ], [ 74.501778213181652, 15.810867120941179 ], [ 74.501897719395487, 15.81088990261917 ], [ 74.502082754501757, 15.810767530083403 ], [ 74.502031476537908, 15.810417537502877 ], [ 74.502088317971641, 15.809872104200377 ], [ 74.502083816252451, 15.80960870265408 ], [ 74.502219508891372, 15.809023933129691 ], [ 74.502295158926813, 15.808799997044678 ], [ 74.502398738922182, 15.808644019215432 ], [ 74.502396296909154, 15.808336552797245 ], [ 74.502451121160121, 15.808126829064076 ], [ 74.502473956001253, 15.807850783967805 ], [ 74.502531762452179, 15.807493111081008 ], [ 74.502611033043223, 15.806453919685795 ], [ 74.502708926341839, 15.806126525771917 ], [ 74.502725451015223, 15.806071258764971 ], [ 74.502808243672845, 15.805794366305598 ], [ 74.502889960365891, 15.805477338811679 ], [ 74.502887333461615, 15.805477476541641 ], [ 74.502975209827056, 15.805146607955036 ], [ 74.503075029996324, 15.805024335921003 ], [ 74.503301509676845, 15.804746916593164 ], [ 74.503115312750879, 15.804617076478243 ], [ 74.50308139806549, 15.804653846208979 ], [ 74.502833707967227, 15.804922383510023 ], [ 74.502826256641654, 15.804640947858697 ], [ 74.502839312048962, 15.804356682505482 ], [ 74.502843357185441, 15.804268592386709 ], [ 74.502864765988377, 15.803802440246248 ], [ 74.502918145849534, 15.803389198381538 ], [ 74.500654849710003, 15.802605078921621 ] ] ] ] } },
{ "type": "Feature", "properties": { "KGISWardID": 6778, "KGISWardCode": "0105006", "KGISWardName": " ", "SHAPE.STArea()": 2455796.2262875699, "SHAPE.STLength()": 9253.0703463400259, "OBJECTID": 14094, "KGISWardNo": "6", "KGISTownCode": "0105", "LGD_WardCode": 25493, "created_user": "SA", "created_date": 1634898537000, "last_edited_user": "SURESHBV1", "last_edited_date": 1692253928000, "_overlap_percent": 3.2093142284313396, "_police_station": "Udyambag PS", "_police_feature_index": "73", "_admin_layer": "Ward", "_geometry_clipped": true }, "geometry": { "type": "Polygon", "coordinates": [ [ [ 74.503192574900183, 15.822100773394123 ], [ 74.503058496808634, 15.822118405983138 ], [ 74.502875005942514, 15.822135925324959 ], [ 74.502753403144183, 15.822154423424664 ], [ 74.502548399131456, 15.821970760781742 ], [ 74.502309227550697, 15.821866579403336 ], [ 74.502204145126598, 15.821894073983135 ], [ 74.502293562867109, 15.822273921493595 ], [ 74.502342694608231, 15.822436253626798 ], [ 74.501912926890981, 15.822589577074744 ], [ 74.501732911610432, 15.821991938504434 ], [ 74.501622378294684, 15.821624974407726 ], [ 74.501421227517199, 15.82168946860733 ], [ 74.501237828571519, 15.821746170015356 ], [ 74.500679534638223, 15.821949561720443 ], [ 74.500547381064536, 15.821950446472318 ], [ 74.500062716181915, 15.822117721047237 ], [ 74.49975560136923, 15.822151456882628 ], [ 74.499750655568704, 15.824221876734367 ], [ 74.499750166045089, 15.82428954740473 ], [ 74.500974168423085, 15.823806352428891 ], [ 74.502233494935339, 15.823334163784489 ], [ 74.502642837502918, 15.823254734200766 ], [ 74.502601422339879, 15.823822956629909 ], [ 74.50250545491906, 15.825064892848975 ], [ 74.502945933581898, 15.825093503883899 ], [ 74.503014408624551, 15.824204434698469 ], [ 74.503047027264188, 15.82348061896842 ], [ 74.503456968994882, 15.823488520356978 ], [ 74.503466799774003, 15.823310046023906 ], [ 74.503437723767902, 15.823075572561148 ], [ 74.5033497311329, 15.822685489736026 ], [ 74.503243342882456, 15.822240351114329 ], [ 74.503156254666663, 15.82187479342339 ], [ 74.503192574900183, 15.822100773394123 ] ] ] } },
{ "type": "Feature", "properties": { "KGISWardID": 6738, "KGISWardCode": "0105002", "KGISWardName": " ", "SHAPE.STArea()": 3835580.0502566351, "SHAPE.STLength()": 9845.8122254758346, "OBJECTID": 14090, "KGISWardNo": "2", "KGISTownCode": "0105", "LGD_WardCode": 25489, "created_user": "SA", "created_date": 1634898537000, "last_edited_user": "SURESHBV1", "last_edited_date": 1692253928000, "_overlap_percent": 95.419311831795255, "_police_station": "Udyambag PS", "_police_feature_index": "73", "_admin_layer": "Ward", "_geometry_clipped": true }, "geometry": { "type": "Polygon", "coordinates": [ [ [ 74.499725384083035, 15.827715997406939 ], [ 74.499750166045089, 15.82428954740473 ], [ 74.499750655568704, 15.824221876734367 ], [ 74.49975560136923, 15.822151456882628 ], [ 74.499762297929408, 15.819347348828376 ], [ 74.49976236196828, 15.819320540965595 ], [ 74.499764603791419, 15.818381665453442 ], [ 74.499768715671621, 15.818216633973593 ], [ 74.499762309881191, 15.815797202545793 ], [ 74.499754543215289, 15.815543820973341 ], [ 74.499704253309474, 15.813951061622415 ], [ 74.499705165726255, 15.813932917920546 ], [ 74.499676825438357, 15.813008337566286 ], [ 74.499613410596453, 15.810996286673818 ], [ 74.498382988150354, 15.810817367451328 ], [ 74.498097968192965, 15.810747162190495 ], [ 74.497775192275242, 15.810681902885092 ], [ 74.497447039546159, 15.810634629846566 ], [ 74.497270763932093, 15.810585427042078 ], [ 74.497027897198265, 15.810490145320173 ], [ 74.49682662616236, 15.810388501326809 ], [ 74.496650400597986, 15.810319206139683 ], [ 74.496564514142378, 15.810282766447749 ], [ 74.496536243825958, 15.810270771378564 ], [ 74.496240610467225, 15.810214924896405 ], [ 74.495421578099027, 15.810234551377158 ], [ 74.494772471792032, 15.81030599566064 ], [ 74.494151117301939, 15.810402856962414 ], [ 74.493681756408094, 15.810428847084802 ], [ 74.492918355484861, 15.810792016334318 ], [ 74.492022178760124, 15.8114405338499 ], [ 74.491829502754541, 15.811266685412914 ], [ 74.491755330635783, 15.811160708211174 ], [ 74.491834405853496, 15.81105383932101 ], [ 74.491644816308792, 15.81097950143586 ], [ 74.491220731302278, 15.811022343769567 ], [ 74.491020696886665, 15.81099030197246 ], [ 74.490839652731012, 15.810908384172739 ], [ 74.490936511377328, 15.810459885931042 ], [ 74.491234196038747, 15.809081467399677 ], [ 74.491665983618702, 15.805805530296585 ], [ 74.492129925499441, 15.802285504639803 ], [ 74.492180717929841, 15.802030222974922 ], [ 74.492104768631364, 15.801981020075342 ], [ 74.491690531425874, 15.801660976892391 ], [ 74.490788662817252, 15.801548603975185 ], [ 74.490197629023271, 15.801282273201428 ], [ 74.490112952684456, 15.801294776806142 ], [ 74.490070578907122, 15.801321094176103 ], [ 74.490019803692533, 15.801388754457975 ], [ 74.489976402590855, 15.801479265949871 ], [ 74.489825305407379, 15.801539070662892 ], [ 74.489719984916931, 15.801532151659984 ], [ 74.489634810672868, 15.801441502830624 ], [ 74.48951378617457, 15.801284334788663 ], [ 74.489187330547182, 15.801155110266977 ], [ 74.489181413286872, 15.80134084721197 ], [ 74.489118563171374, 15.801524647263486 ], [ 74.489005583988273, 15.801698455637268 ], [ 74.488973340638196, 15.801705545226673 ], [ 74.488964405383541, 15.801807633964794 ], [ 74.488722098850658, 15.801826404305837 ], [ 74.488774649058925, 15.802053612717707 ], [ 74.48868461867626, 15.802318272635231 ], [ 74.488883091865688, 15.80251610851383 ], [ 74.488850358784077, 15.802647097333763 ], [ 74.488793119147076, 15.802670697002192 ], [ 74.488763397955779, 15.802682949543867 ], [ 74.488720231642077, 15.802875754072879 ], [ 74.48820169493608, 15.802983923690451 ], [ 74.488164356101706, 15.803095335319947 ], [ 74.488065651437026, 15.803070478012533 ], [ 74.488043947093544, 15.803076133093345 ], [ 74.487891440941965, 15.8031278212539 ], [ 74.487874584078341, 15.803129883711023 ], [ 74.4872741875554, 15.803333153599581 ], [ 74.486832015630043, 15.803530300423947 ], [ 74.486240137540278, 15.804057658707485 ], [ 74.486193840366525, 15.804112417380587 ], [ 74.486216543376543, 15.804175772731298 ], [ 74.486076865889231, 15.804323786803709 ], [ 74.485999238383101, 15.80440411486291 ], [ 74.485993765448328, 15.804396139251468 ], [ 74.485981066552085, 15.804409960701522 ], [ 74.485918275784186, 15.804368060648763 ], [ 74.48568491896846, 15.804469746786378 ], [ 74.485656683314744, 15.804538753583795 ], [ 74.485629529066259, 15.804534256860032 ], [ 74.485627635230998, 15.804539163951576 ], [ 74.485527417516266, 15.804538378655101 ], [ 74.485401700383619, 15.804593160383289 ], [ 74.485403886329863, 15.804614587711914 ], [ 74.485339316539793, 15.804675320942668 ], [ 74.485321505659513, 15.804805459438278 ], [ 74.484843311716986, 15.804762344716035 ], [ 74.48426853818151, 15.80481504908489 ], [ 74.48424080762932, 15.804863637367296 ], [ 74.484238380635375, 15.80486189497187 ], [ 74.484177570921503, 15.804823390408435 ], [ 74.484155528844923, 15.804825411576187 ], [ 74.483918771675661, 15.80503304292634 ], [ 74.483762023854823, 15.805273531889311 ], [ 74.484281004128633, 15.805836056229328 ], [ 74.484350143664997, 15.805867379405033 ], [ 74.48460234766587, 15.80598087082002 ], [ 74.484745830919223, 15.806034538753108 ], [ 74.484874807610694, 15.806082780586115 ], [ 74.48503140315492, 15.806159039395336 ], [ 74.485035607213121, 15.806161087035226 ], [ 74.485173481345925, 15.806479032525344 ], [ 74.485181134737999, 15.806575211917652 ], [ 74.485214450435024, 15.806667810702292 ], [ 74.484641169870329, 15.807499614517692 ], [ 74.484424913148686, 15.808027986364142 ], [ 74.484371984710265, 15.8081573000656 ], [ 74.484367484262208, 15.808168301322077 ], [ 74.484131420960765, 15.808223654853336 ], [ 74.48407755819548, 15.808236284547284 ], [ 74.483901937725662, 15.808513617545126 ], [ 74.484008585005284, 15.808669624596954 ], [ 74.484168557412985, 15.808944263358718 ], [ 74.4840918896831, 15.809011096712252 ], [ 74.484037615284848, 15.80922882806048 ], [ 74.484089694131029, 15.809694816102166 ], [ 74.484109057163948, 15.809699227631778 ], [ 74.484170453533395, 15.809713218597745 ], [ 74.484281522458105, 15.809738531079731 ], [ 74.484284282217772, 15.809771122335265 ], [ 74.484286552345253, 15.80996163035147 ], [ 74.484248821309862, 15.809963977112989 ], [ 74.484134441213115, 15.809971095901279 ], [ 74.484136387445105, 15.81000192960744 ], [ 74.484140032006664, 15.810059725392787 ], [ 74.484146637849378, 15.810095997031247 ], [ 74.484177833466958, 15.810267307140039 ], [ 74.484295746468192, 15.810346666777832 ], [ 74.484273882886399, 15.810449858213309 ], [ 74.484281822604515, 15.810487425771232 ], [ 74.48421922052556, 15.810707850337721 ], [ 74.484200131514953, 15.810797948113709 ], [ 74.484105544588431, 15.81121000343726 ], [ 74.484031985301428, 15.811558329647925 ], [ 74.484024580501057, 15.811593391863415 ], [ 74.483988294653784, 15.811705867682178 ], [ 74.483848378968347, 15.81169393204415 ], [ 74.483576480060506, 15.812178312528124 ], [ 74.483570042551563, 15.812211523771316 ], [ 74.483543996202215, 15.812259830810738 ], [ 74.48349609673231, 15.812567774405037 ], [ 74.483465831975948, 15.812749150263329 ], [ 74.483449925425361, 15.812831216917971 ], [ 74.483419997413492, 15.813028509454373 ], [ 74.484187944286546, 15.814279777627254 ], [ 74.484533200597937, 15.814280980052597 ], [ 74.484535062671526, 15.814356507656571 ], [ 74.48454762410978, 15.814865819416987 ], [ 74.484718425436938, 15.815144112974256 ], [ 74.484561544023023, 15.815604400310248 ], [ 74.484563587267971, 15.81573958041834 ], [ 74.484648248997203, 15.816032153988653 ], [ 74.484470814821023, 15.816244459864523 ], [ 74.48426890190234, 15.816486051192344 ], [ 74.484262288915772, 15.81648679034576 ], [ 74.484259587376343, 15.816490335852313 ], [ 74.48422482082762, 15.816592340300744 ], [ 74.483733751992887, 15.817423893307581 ], [ 74.483479960620571, 15.818254957387092 ], [ 74.483240777961228, 15.818793727640779 ], [ 74.483287572433511, 15.819015184079701 ], [ 74.483219033432206, 15.819129220066257 ], [ 74.482827284674187, 15.819415751505641 ], [ 74.482827346911392, 15.819416926159205 ], [ 74.482807144531264, 15.819452521234796 ], [ 74.482653000906737, 15.819738520733923 ], [ 74.482648571077647, 15.820289361340908 ], [ 74.482841050601223, 15.821456416751753 ], [ 74.482444369821778, 15.822029645288897 ], [ 74.482419307913247, 15.822065862224141 ], [ 74.485402016446116, 15.822823478173799 ], [ 74.485399486952943, 15.823264158030987 ], [ 74.485650641200735, 15.823330965038521 ], [ 74.485742502158203, 15.823518321263318 ], [ 74.485715257956159, 15.824983647298643 ], [ 74.487175097935349, 15.825091831277861 ], [ 74.489065445960875, 15.825243731927523 ], [ 74.489090525887804, 15.826551315738815 ], [ 74.490195162810267, 15.826464217203386 ], [ 74.490550919974027, 15.826475816911978 ], [ 74.490828939376641, 15.826533715911458 ], [ 74.491687434526966, 15.826782253525552 ], [ 74.492287435076065, 15.826937936406363 ], [ 74.494005250191222, 15.827670284113491 ], [ 74.49449862752914, 15.827782657207383 ], [ 74.494868997052194, 15.827880391469295 ], [ 74.495328350024849, 15.827963981584125 ], [ 74.496107535657885, 15.828100695657559 ], [ 74.496238222933613, 15.828007236278188 ], [ 74.496485785320402, 15.827810717916977 ], [ 74.49666185292206, 15.827749894030328 ], [ 74.497447281666339, 15.827959810420024 ], [ 74.497982897655234, 15.82814870705865 ], [ 74.498867097858422, 15.828417318370617 ], [ 74.499686355289498, 15.828694081955112 ], [ 74.499646960794877, 15.828386469218421 ], [ 74.499546727247292, 15.827701554951105 ], [ 74.499605612696172, 15.827617973418025 ], [ 74.499723847474627, 15.827757639291379 ], [ 74.499725384083035, 15.827715997406939 ] ] ] } },
{ "type": "Feature", "properties": { "KGISWardID": 6741, "KGISWardCode": "0105005", "KGISWardName": " ", "SHAPE.STArea()": 178694.37723196499, "SHAPE.STLength()": 2331.1426421227902, "OBJECTID": 14093, "KGISWardNo": "5", "KGISTownCode": "0105", "LGD_WardCode": 25492, "created_user": "SA", "created_date": 1634898537000, "last_edited_user": "SURESHBV1", "last_edited_date": 1692253928000, "_overlap_percent": 50.978628752452558, "_police_station": "Udyambag PS", "_police_feature_index": "73", "_admin_layer": "Ward", "_geometry_clipped": true }, "geometry": { "type": "Polygon", "coordinates": [ [ [ 74.50158996333424, 15.819025614656628 ], [ 74.501526645189045, 15.819054172139365 ], [ 74.501309633350289, 15.819108932400432 ], [ 74.500805242377808, 15.819177532413786 ], [ 74.500375204644158, 15.819236340904823 ], [ 74.499762297929408, 15.819347348828376 ], [ 74.49975560136923, 15.822151456882628 ], [ 74.500062716181915, 15.822117721047237 ], [ 74.500547381064536, 15.821950446472318 ], [ 74.500679534638223, 15.821949561720443 ], [ 74.501237828571519, 15.821746170015356 ], [ 74.501421227517199, 15.82168946860733 ], [ 74.501622378294684, 15.821624974407726 ], [ 74.501732911610432, 15.821991938504434 ], [ 74.501912926890981, 15.822589577074744 ], [ 74.502342694608231, 15.822436253626798 ], [ 74.502293562867109, 15.822273921493595 ], [ 74.502204145126598, 15.821894073983135 ], [ 74.502309227550697, 15.821866579403336 ], [ 74.502548399131456, 15.821970760781742 ], [ 74.502753403144183, 15.822154423424664 ], [ 74.502875005942514, 15.822135925324959 ], [ 74.503058496808634, 15.822118405983138 ], [ 74.503192574900183, 15.822100773394123 ], [ 74.503156254666663, 15.82187479342339 ], [ 74.503103942621181, 15.821655210666039 ], [ 74.502951990383295, 15.821533194297988 ], [ 74.502701022924001, 15.821230919459625 ], [ 74.502538950823606, 15.820825120023594 ], [ 74.501975977621555, 15.819630753109115 ], [ 74.501877674999605, 15.819389597136983 ], [ 74.501665152290315, 15.819004847284253 ], [ 74.501655757512367, 15.818985994067789 ], [ 74.50158996333424, 15.819025614656628 ] ] ] } },
{ "type": "Feature", "properties": { "KGISWardID": 6739, "KGISWardCode": "0105003", "KGISWardName": " ", "SHAPE.STArea()": 1922063.402805045, "SHAPE.STLength()": 7363.8009455311958, "OBJECTID": 14091, "KGISWardNo": "3", "KGISTownCode": "0105", "LGD_WardCode": 25490, "created_user": "SA", "created_date": 1634898537000, "last_edited_user": "SURESHBV1", "last_edited_date": 1692253928000, "_overlap_percent": 33.16883477279535, "_police_station": "Udyambag PS", "_police_feature_index": "73", "_admin_layer": "Ward", "_geometry_clipped": true }, "geometry": { "type": "Polygon", "coordinates": [ [ [ 74.498867097858422, 15.828417318370617 ], [ 74.497982897655234, 15.82814870705865 ], [ 74.497447281666339, 15.827959810420024 ], [ 74.49666185292206, 15.827749894030328 ], [ 74.496485785320402, 15.827810717916977 ], [ 74.496238222933613, 15.828007236278188 ], [ 74.496107535657885, 15.828100695657559 ], [ 74.495328350024849, 15.827963981584125 ], [ 74.494868997052194, 15.827880391469295 ], [ 74.49449862752914, 15.827782657207383 ], [ 74.494005250191222, 15.827670284113491 ], [ 74.492287435076065, 15.826937936406363 ], [ 74.491687434526966, 15.826782253525552 ], [ 74.490828939376641, 15.826533715911458 ], [ 74.490550919974027, 15.826475816911978 ], [ 74.490195162810267, 15.826464217203386 ], [ 74.489090525887804, 15.826551315738815 ], [ 74.489065445960875, 15.825243731927523 ], [ 74.487175097935349, 15.825091831277861 ], [ 74.485715257956159, 15.824983647298643 ], [ 74.485742502158203, 15.823518321263318 ], [ 74.485650641200735, 15.823330965038521 ], [ 74.485399486952943, 15.823264158030987 ], [ 74.485402016446116, 15.822823478173799 ], [ 74.482419307913247, 15.822065862224141 ], [ 74.481589483800633, 15.823264995747246 ], [ 74.481503186284243, 15.825875099704888 ], [ 74.481362715418797, 15.8261364672412 ], [ 74.481091428079225, 15.826435656340719 ], [ 74.481042156080207, 15.827295278817354 ], [ 74.480997148760494, 15.828232688749079 ], [ 74.481089609991812, 15.828237324579517 ], [ 74.482078793686782, 15.828286917766439 ], [ 74.483693076714104, 15.828597535579481 ], [ 74.489245121316159, 15.829706542719405 ], [ 74.489516729066295, 15.829760792411722 ], [ 74.489895610744597, 15.829836466266116 ], [ 74.490076576716874, 15.829872610583871 ], [ 74.491565000998065, 15.83016988828952 ], [ 74.49169000045228, 15.828309999660096 ], [ 74.491761885410455, 15.828069832974457 ], [ 74.492166700264633, 15.828113655985041 ], [ 74.492251144370428, 15.827369765828925 ], [ 74.493400070524288, 15.827776735846044 ], [ 74.494068093474212, 15.828093082413247 ], [ 74.495179369316119, 15.828320509047506 ], [ 74.496449060365904, 15.828433487396676 ], [ 74.49739601813755, 15.828484293321232 ], [ 74.497328870829037, 15.828708045059466 ], [ 74.498069502414722, 15.828950146405312 ], [ 74.498699085095396, 15.829138170253271 ], [ 74.499758245864598, 15.82946352292562 ], [ 74.499721259586394, 15.828966632888779 ], [ 74.499686355289498, 15.828694081955112 ], [ 74.498867097858422, 15.828417318370617 ] ] ] } },
{ "type": "Feature", "properties": { "KGISWardID": 6750, "KGISWardCode": "0105008", "KGISWardName": " ", "SHAPE.STArea()": 603186.47076979, "SHAPE.STLength()": 4451.1510369879397, "OBJECTID": 14096, "KGISWardNo": "8", "KGISTownCode": "0105", "LGD_WardCode": 25495, "created_user": "SA", "created_date": 1634898537000, "last_edited_user": "SURESHBV1", "last_edited_date": 1692253928000, "_overlap_percent": 27.199591668355676, "_police_station": "Udyambag PS", "_police_feature_index": "73", "_admin_layer": "Ward", "_geometry_clipped": true }, "geometry": { "type": "Polygon", "coordinates": [ [ [ 74.503047027264188, 15.82348061896842 ], [ 74.503014408624551, 15.824204434698469 ], [ 74.502945933581898, 15.825093503883899 ], [ 74.50250545491906, 15.825064892848975 ], [ 74.502601422339879, 15.823822956629909 ], [ 74.502642837502918, 15.823254734200766 ], [ 74.502233494935339, 15.823334163784489 ], [ 74.500974168423085, 15.823806352428891 ], [ 74.499750166045089, 15.82428954740473 ], [ 74.499725384083035, 15.827715997406939 ], [ 74.499723847474627, 15.827757639291379 ], [ 74.499821177412898, 15.827872611138149 ], [ 74.499997545117026, 15.828155014089312 ], [ 74.500190326601043, 15.828468448342514 ], [ 74.50128245848353, 15.827690601322743 ], [ 74.501841705277585, 15.827593219604502 ], [ 74.502317600782689, 15.827480696294673 ], [ 74.502861346459554, 15.827407196001902 ], [ 74.503130134208988, 15.827368943016399 ], [ 74.503181237636014, 15.827145776320368 ], [ 74.503292963798145, 15.825696773459745 ], [ 74.503359071576185, 15.824931514266076 ], [ 74.503397544873565, 15.824352760288477 ], [ 74.503446117316301, 15.823685528760135 ], [ 74.503456968994882, 15.823488520356978 ], [ 74.503047027264188, 15.82348061896842 ] ] ] } }
]
}
