{
"type": "FeatureCollection",
"name": "hoblis_in_police_area.writing_20260805_172659",
"crs": { "type": "name", "properties": { "name": "urn:ogc:def:crs:OGC:1.3:CRS84" } },
"features": [
{ "type": "Feature", "properties": { "OBJECTID": 255, "KGISHobliID": 955, "KGISHobliCode": "130404", "KGISHobliName": "Talya", "BhuCodeHobli": null, "SHAPE.STArea()": 347856822.19516784, "SHAPE.STLength()": 121909.35065479203, "KGISTalukCode": "1304", "created_user": null, "created_date": null, "last_edited_user": "SURESHBV2", "last_edited_date": 1731489219000.0, "_overlap_percent": 99.898461183034954, "_police_station": "Chitrahalli Gate PS", "_police_feature_index": "180", "_admin_layer": "Hobli", "_geometry_clipped": true }, "geometry": { "type": "Polygon", "coordinates": [ [ [ 76.318800766156343, 13.980887143118681 ], [ 76.319118208694121, 13.97989798802708 ], [ 76.320270099602226, 13.976495236499083 ], [ 76.320996548023018, 13.974414327438994 ], [ 76.321093437575271, 13.974263868703101 ], [ 76.321241428072568, 13.9737965283334 ], [ 76.321464006443151, 13.973100184448198 ], [ 76.321756547857731, 13.972072460145091 ], [ 76.3219795554146, 13.971510235581732 ], [ 76.322207839568804, 13.971407967284661 ], [ 76.325287991370672, 13.962849395608094 ], [ 76.326085505603871, 13.960633309954689 ], [ 76.306347183670439, 13.957748953458811 ], [ 76.305291449057691, 13.957562345694855 ], [ 76.304169129064789, 13.957268844006382 ], [ 76.302577163318347, 13.957216551842851 ], [ 76.302146683531106, 13.957210413911712 ], [ 76.30135510455527, 13.956880839966884 ], [ 76.301131816843906, 13.956787873626864 ], [ 76.300817927474469, 13.956655565266113 ], [ 76.300676749569888, 13.956595558165869 ], [ 76.300202237854705, 13.956788852307163 ], [ 76.300104974096826, 13.956437320144985 ], [ 76.300107649636288, 13.956353662805819 ], [ 76.300067204574106, 13.956336471582658 ], [ 76.300068095849639, 13.956313167228059 ], [ 76.300072404482464, 13.956200507210813 ], [ 76.300141928200816, 13.954365662009284 ], [ 76.30018594350534, 13.953185947848617 ], [ 76.300303231773597, 13.950042360432002 ], [ 76.300306753328428, 13.949947971633479 ], [ 76.300334858104961, 13.948178263096946 ], [ 76.30033486498975, 13.948178081945386 ], [ 76.300387894620201, 13.946566105234945 ], [ 76.300435192522073, 13.945976710752555 ], [ 76.300453488420089, 13.945649885144837 ], [ 76.300389852710353, 13.945633100764816 ], [ 76.300364095742381, 13.945623531060001 ], [ 76.299607366550049, 13.945379994854681 ], [ 76.298236381228804, 13.944369229255571 ], [ 76.297891042882043, 13.944118826796515 ], [ 76.297402016824904, 13.943753753744605 ], [ 76.296404467559128, 13.943640633404774 ], [ 76.295932176228831, 13.943587181899973 ], [ 76.295611042849785, 13.943525838479626 ], [ 76.295331313185812, 13.943472646217357 ], [ 76.294344512430897, 13.943255126851831 ], [ 76.294132619311085, 13.943216260600787 ], [ 76.29362284596283, 13.94315195419291 ], [ 76.293549489432138, 13.943133396218899 ], [ 76.293055254309252, 13.94285359931501 ], [ 76.291600307122195, 13.942154688993247 ], [ 76.291497305631893, 13.94210592139865 ], [ 76.290184707366706, 13.941512596765341 ], [ 76.29014300749283, 13.940834744456438 ], [ 76.290060133597407, 13.93846330484909 ], [ 76.29005506706369, 13.938313471941365 ], [ 76.290038599268982, 13.937814757102082 ], [ 76.289995651002215, 13.937743743979329 ], [ 76.289041009583528, 13.935925927184137 ], [ 76.28903949520253, 13.934161223874677 ], [ 76.288995572208364, 13.931191234438051 ], [ 76.288818339689755, 13.931116323006682 ], [ 76.287689726416062, 13.930633432633051 ], [ 76.287386600235521, 13.930502622851606 ], [ 76.285953981174245, 13.929969727938428 ], [ 76.283974565878452, 13.92969288045842 ], [ 76.283619658058583, 13.929629091082669 ], [ 76.279288391279181, 13.928877020746183 ], [ 76.279210403628085, 13.92886020260759 ], [ 76.279159967968596, 13.928849327359414 ], [ 76.279120849987194, 13.92884089225571 ], [ 76.279120571523649, 13.928840832205916 ], [ 76.278787073017128, 13.930235497415744 ], [ 76.278826461343684, 13.931163328931794 ], [ 76.277957506035861, 13.93167496057076 ], [ 76.277354665637844, 13.932486568465366 ], [ 76.27746717982204, 13.932827373081425 ], [ 76.27751131385574, 13.932961054538035 ], [ 76.277573809947484, 13.933150353476973 ], [ 76.278209821114302, 13.93391719230152 ], [ 76.2782575826932, 13.934586659699379 ], [ 76.278160553834482, 13.934721257177836 ], [ 76.277319489499305, 13.935887963697404 ], [ 76.277019128744797, 13.936487501778535 ], [ 76.277125613079306, 13.937288416574692 ], [ 76.277151961828508, 13.937486598881687 ], [ 76.276924099875586, 13.937757400570488 ], [ 76.27682198256683, 13.937878761684289 ], [ 76.276052257495252, 13.938793530780453 ], [ 76.275766504241616, 13.939378640110711 ], [ 76.275317631024947, 13.939691932329021 ], [ 76.274240232235798, 13.93971192453485 ], [ 76.273908583300496, 13.939967195568361 ], [ 76.274024692968069, 13.94059803747588 ], [ 76.274597808388791, 13.941503941446827 ], [ 76.274503582660088, 13.942183720383699 ], [ 76.273858453962617, 13.942435849549229 ], [ 76.273698771390968, 13.942790679084016 ], [ 76.274014377816826, 13.943191498652226 ], [ 76.274161589854927, 13.943378455591866 ], [ 76.274497790221488, 13.943805425210044 ], [ 76.274539754921747, 13.944312278043832 ], [ 76.274816338777811, 13.944731795616519 ], [ 76.274827691637583, 13.944893564740175 ], [ 76.274848220421873, 13.945186079899836 ], [ 76.275144791361058, 13.945677247603028 ], [ 76.275176564472247, 13.945810478742571 ], [ 76.275224065526388, 13.946009659563833 ], [ 76.275270125664321, 13.946202797415138 ], [ 76.275084131809891, 13.947117459226467 ], [ 76.274571729691672, 13.947459786169189 ], [ 76.274386286759025, 13.947796112133306 ], [ 76.274338073724905, 13.947903232907269 ], [ 76.274307827434342, 13.94864022982911 ], [ 76.274300066078069, 13.948829346644271 ], [ 76.274510009284853, 13.949153538614393 ], [ 76.274839138581555, 13.95022097127168 ], [ 76.275105119872279, 13.950492248617692 ], [ 76.274697669052983, 13.950779731140829 ], [ 76.274633407467036, 13.951473037439468 ], [ 76.274420376667706, 13.951973579671032 ], [ 76.274468179496864, 13.952239243943167 ], [ 76.274418375972374, 13.952347474236193 ], [ 76.274419461267854, 13.952404806293465 ], [ 76.273999706153205, 13.95331418506289 ], [ 76.273947743304888, 13.953697077038431 ], [ 76.273196217118553, 13.954318028375289 ], [ 76.272748570545232, 13.955244574822315 ], [ 76.272620346191999, 13.955678854245134 ], [ 76.272838588513437, 13.956187153130562 ], [ 76.273108176380632, 13.956732263344255 ], [ 76.272984010649907, 13.956716596197463 ], [ 76.273082959450747, 13.956811527373018 ], [ 76.272723055385995, 13.956775081344258 ], [ 76.272592198047903, 13.956760528226068 ], [ 76.270036259674683, 13.956543496440482 ], [ 76.269323333666705, 13.959303404506558 ], [ 76.26936032141549, 13.960144947950178 ], [ 76.26860146717695, 13.961337768793483 ], [ 76.268520192023075, 13.961117060760788 ], [ 76.268438037057621, 13.961249703524123 ], [ 76.268016515182751, 13.960147802240382 ], [ 76.268086187707667, 13.959361810987296 ], [ 76.267206337508327, 13.959338509259863 ], [ 76.267075590952885, 13.959161014244401 ], [ 76.266972363876746, 13.959155632179353 ], [ 76.266847027611007, 13.959024513345204 ], [ 76.266597923074002, 13.958961764308686 ], [ 76.26659305170142, 13.958891490309906 ], [ 76.266316740789676, 13.958842623495649 ], [ 76.266209041353846, 13.956708114589199 ], [ 76.266195996830177, 13.956449580590535 ], [ 76.266193913726752, 13.956408292801301 ], [ 76.266180897819098, 13.956150326727878 ], [ 76.264455601589361, 13.955685973374433 ], [ 76.264208279646141, 13.955619413317969 ], [ 76.263859340255792, 13.955544285850204 ], [ 76.263679800599505, 13.95550563407439 ], [ 76.262266129423267, 13.956091535419768 ], [ 76.26063710886234, 13.957276837077401 ], [ 76.260333008259764, 13.958265068677145 ], [ 76.260231420541672, 13.959055731806638 ], [ 76.260341170416936, 13.960367637219386 ], [ 76.26041457463333, 13.960772019978252 ], [ 76.259714854940015, 13.961760077832423 ], [ 76.25903362782033, 13.962532491071862 ], [ 76.258416898156042, 13.963134207539868 ], [ 76.257855278992125, 13.963906675024075 ], [ 76.257956277727075, 13.964302073765371 ], [ 76.258252233421771, 13.96459880982596 ], [ 76.258752855146199, 13.964567245088785 ], [ 76.259092278428454, 13.964625478032403 ], [ 76.259109866349974, 13.96464829894617 ], [ 76.259253373406892, 13.964671095072232 ], [ 76.259713116660123, 13.965255363420088 ], [ 76.259703642063698, 13.965803460986256 ], [ 76.260300904184106, 13.967358205855158 ], [ 76.260954008165058, 13.967655019055291 ], [ 76.261009143075128, 13.967816784427441 ], [ 76.260769672554432, 13.968319852249737 ], [ 76.26126638187354, 13.968580655465965 ], [ 76.261753816352936, 13.968994206981694 ], [ 76.262002088450586, 13.969308814823178 ], [ 76.262406602612671, 13.96995594780741 ], [ 76.262507938899034, 13.970631113600128 ], [ 76.262545714471088, 13.970862026896265 ], [ 76.262748580617767, 13.972242772871549 ], [ 76.263311587673272, 13.972444302344446 ], [ 76.26367799186599, 13.972725779213627 ], [ 76.263763670668496, 13.973220162077419 ], [ 76.264052273528506, 13.974129376084228 ], [ 76.26473095410249, 13.975153189999061 ], [ 76.265481112423856, 13.975230534977964 ], [ 76.267129834668552, 13.975589019124087 ], [ 76.268254537043248, 13.975868905053957 ], [ 76.268300874049359, 13.976120442819063 ], [ 76.268378659934967, 13.976544009291468 ], [ 76.26860451726607, 13.977413577533241 ], [ 76.268766794687764, 13.977773677028003 ], [ 76.268963054897213, 13.978208142077571 ], [ 76.269131165700429, 13.978658306492607 ], [ 76.269208916572751, 13.978866208892939 ], [ 76.269307078075087, 13.979128534993347 ], [ 76.26938049510396, 13.979324621123467 ], [ 76.269419046986712, 13.979427514916186 ], [ 76.269445915687584, 13.979689877300922 ], [ 76.269533307031324, 13.979885493440046 ], [ 76.268650079591964, 13.982310146521504 ], [ 76.268472166376327, 13.982811587674929 ], [ 76.266047895989999, 13.989836635220735 ], [ 76.26404434621594, 13.995642173532827 ], [ 76.261403706720031, 13.995006682654855 ], [ 76.2608843449961, 13.994883408554196 ], [ 76.260022790201845, 13.994688389072341 ], [ 76.25612973060052, 13.993782755015921 ], [ 76.255325359145402, 13.993612179248585 ], [ 76.254970643678149, 13.993540966064916 ], [ 76.253670517990116, 13.993281436757393 ], [ 76.253541448522128, 13.99326147511265 ], [ 76.252746498658894, 13.993114598238986 ], [ 76.251304058124688, 13.99313242809327 ], [ 76.25109151451224, 13.993017736064731 ], [ 76.250313681813239, 13.992598076619458 ], [ 76.25025581106658, 13.992574213389739 ], [ 76.249359786893265, 13.992372224892829 ], [ 76.244159982827696, 13.991755708943959 ], [ 76.244126212269862, 13.991744968682985 ], [ 76.240288148627016, 13.99060969748094 ], [ 76.240286175434662, 13.990609110918442 ], [ 76.239891017863172, 13.99049181339125 ], [ 76.238786094376053, 13.990163824411644 ], [ 76.238605753256152, 13.99011029086677 ], [ 76.237961806117696, 13.989919136316129 ], [ 76.237693334913899, 13.989840913747315 ], [ 76.23583377743914, 13.989287977011905 ], [ 76.235673415407305, 13.989240292363034 ], [ 76.233657828307074, 13.988410919307402 ], [ 76.232533353749616, 13.987957798206741 ], [ 76.23222775572215, 13.987878380983807 ], [ 76.231464144806054, 13.987543451811581 ], [ 76.230938533791004, 13.987312903008705 ], [ 76.22856869772653, 13.986745229148351 ], [ 76.228300727862717, 13.987345044833619 ], [ 76.227078363116973, 13.98931051034095 ], [ 76.226202984940286, 13.99065950739509 ], [ 76.227330313309892, 13.998785255824485 ], [ 76.227435085392145, 13.999521784678507 ], [ 76.227399632969636, 14.000053874063079 ], [ 76.2271695835244, 14.003839656467255 ], [ 76.22709314315793, 14.004994350382621 ], [ 76.22708260234667, 14.005007556825513 ], [ 76.227079124151729, 14.005061667403931 ], [ 76.22663743534325, 14.00562079677773 ], [ 76.225805184112289, 14.006674325140892 ], [ 76.225532938733522, 14.007136778466453 ], [ 76.22317542282623, 14.011141308842651 ], [ 76.223057026994255, 14.012301268671525 ], [ 76.222443707338599, 14.014085552316695 ], [ 76.221412507276739, 14.015432788320739 ], [ 76.220768612584521, 14.016972990455946 ], [ 76.220371492799103, 14.017893890397009 ], [ 76.220351262100124, 14.017943470932835 ], [ 76.219878387308526, 14.01910237800365 ], [ 76.217481777081019, 14.021852231747916 ], [ 76.217120330973131, 14.02171883686607 ], [ 76.217242799846815, 14.022074933477356 ], [ 76.217239761366386, 14.022078378118357 ], [ 76.217252556603043, 14.022115232509925 ], [ 76.216954361487495, 14.022457371127365 ], [ 76.216287848911051, 14.022633377484439 ], [ 76.217320097551266, 14.023988861706499 ], [ 76.21732111217031, 14.023987948972769 ], [ 76.218414974391592, 14.025401055524776 ], [ 76.21943542353651, 14.026715871426232 ], [ 76.219700391598707, 14.027058101419703 ], [ 76.219922686958199, 14.02910712311659 ], [ 76.221707894420106, 14.047235915572328 ], [ 76.221525626158723, 14.047270958569278 ], [ 76.222120759571496, 14.04801801820919 ], [ 76.222376189328131, 14.048331342299518 ], [ 76.222549018414441, 14.048616163653199 ], [ 76.222966417949479, 14.049261239494227 ], [ 76.22391970656922, 14.049399269024933 ], [ 76.22393084489633, 14.049411607460302 ], [ 76.223960399529432, 14.049416026783977 ], [ 76.227272846157632, 14.053009066231766 ], [ 76.227730495772391, 14.053505471248496 ], [ 76.228076322931798, 14.05388058100533 ], [ 76.228133562206537, 14.054564313448296 ], [ 76.2290518568051, 14.054477434193471 ], [ 76.230429293644789, 14.054370307951716 ], [ 76.230449316999298, 14.054518516350011 ], [ 76.230461195726576, 14.05451818717432 ], [ 76.230572430920773, 14.055403164399904 ], [ 76.230757096976063, 14.05540219549426 ], [ 76.230764636148308, 14.055440888512413 ], [ 76.231402060395013, 14.05545147768604 ], [ 76.231706888916491, 14.055587576729932 ], [ 76.231800912570222, 14.05563643829111 ], [ 76.231877228545471, 14.055615365477211 ], [ 76.232280397275076, 14.055504707369488 ], [ 76.23284925617628, 14.055541140866083 ], [ 76.233249972871107, 14.055567236898153 ], [ 76.233597039563193, 14.05558986447075 ], [ 76.233598408261543, 14.055653890062214 ], [ 76.233607934502729, 14.055654360548607 ], [ 76.233603371151247, 14.055886046364765 ], [ 76.233610597881366, 14.056224101619517 ], [ 76.233939397403873, 14.056246006468129 ], [ 76.233932867992166, 14.056451141449219 ], [ 76.234163526726974, 14.056476804298228 ], [ 76.234262085406129, 14.056472168615604 ], [ 76.234483412154049, 14.056461847733237 ], [ 76.234961082108725, 14.056475947352027 ], [ 76.235892223229584, 14.056458184773954 ], [ 76.236126068520747, 14.056448654454273 ], [ 76.236146777487335, 14.056204218468277 ], [ 76.236353191822246, 14.056387244709121 ], [ 76.236450547370922, 14.056422952965857 ], [ 76.236571393886351, 14.056467298087014 ], [ 76.237024207009881, 14.056633450283876 ], [ 76.237528671567077, 14.056672097868852 ], [ 76.237717306853327, 14.056746844099347 ], [ 76.237976431081108, 14.056848711754727 ], [ 76.237969100502113, 14.056897722624155 ], [ 76.23801091244006, 14.056912992655608 ], [ 76.23784400160838, 14.057899005507469 ], [ 76.237891206192003, 14.058078923908566 ], [ 76.238207440795335, 14.058087714788723 ], [ 76.238448030388255, 14.058243176876138 ], [ 76.238602575795852, 14.058230661405254 ], [ 76.238695898217202, 14.058298662418636 ], [ 76.239012165369672, 14.058288504955609 ], [ 76.239008042148441, 14.05834915952463 ], [ 76.239061175153182, 14.05834729343033 ], [ 76.239002155289171, 14.058982559614527 ], [ 76.239252319457606, 14.059044523227108 ], [ 76.239504487381083, 14.059107300119322 ], [ 76.23962927650534, 14.059123677736032 ], [ 76.239925450828395, 14.059162791960102 ], [ 76.240198611440945, 14.059332965793727 ], [ 76.240208429964611, 14.05933908161912 ], [ 76.240865688811184, 14.059486511921579 ], [ 76.24200558932796, 14.059483024161421 ], [ 76.242153417141168, 14.059447423650154 ], [ 76.242446669585206, 14.059376236534501 ], [ 76.243346391017496, 14.059314196638534 ], [ 76.244089152903754, 14.059308022116843 ], [ 76.244224125614053, 14.059316097631585 ], [ 76.244232437886225, 14.059345648310433 ], [ 76.244272070798289, 14.059349148836921 ], [ 76.24433719585852, 14.059718069849469 ], [ 76.24435873835975, 14.059794654870061 ], [ 76.244350773960733, 14.060241710545696 ], [ 76.244324283449885, 14.060569113411427 ], [ 76.244290801409477, 14.060625373126495 ], [ 76.244366398344283, 14.060620296421082 ], [ 76.245610471833572, 14.060517329204973 ], [ 76.245607959971906, 14.060525126549223 ], [ 76.245530802697061, 14.060764040653877 ], [ 76.245243932503087, 14.061789688591437 ], [ 76.245153796802413, 14.062187232284032 ], [ 76.245159936066145, 14.06261284128429 ], [ 76.245732293422137, 14.062702848124763 ], [ 76.245805709135752, 14.062705977881411 ], [ 76.245866385129858, 14.062708616466971 ], [ 76.24610088263934, 14.062704173966846 ], [ 76.246100656997427, 14.062788441572371 ], [ 76.246164284886888, 14.062786499122073 ], [ 76.24616606306752, 14.063184331762194 ], [ 76.246179614682831, 14.063299866915109 ], [ 76.246321283734005, 14.063948744845447 ], [ 76.246274804591096, 14.064111395544858 ], [ 76.246305142165056, 14.064370031206312 ], [ 76.246469413881158, 14.06456204015741 ], [ 76.246685897525879, 14.064929903077177 ], [ 76.247281778780533, 14.065475876390364 ], [ 76.247373711663798, 14.065467858940334 ], [ 76.247696352307216, 14.065421507114774 ], [ 76.248012320228085, 14.065369824088437 ], [ 76.248040689321371, 14.065385618122349 ], [ 76.248058004929021, 14.065382915707723 ], [ 76.24830826292218, 14.065534585397476 ], [ 76.248660166573728, 14.065730502064589 ], [ 76.25145093442687, 14.067433125574906 ], [ 76.251570982625509, 14.067500460838177 ], [ 76.253417310810804, 14.068684971663835 ], [ 76.253523951125914, 14.068753613043732 ], [ 76.253445067971469, 14.068759350806566 ], [ 76.25342810231831, 14.068764363831615 ], [ 76.253503012824297, 14.068814202239182 ], [ 76.253424842077905, 14.068819139871838 ], [ 76.250532523958697, 14.069652167330059 ], [ 76.250332916686546, 14.069707040080848 ], [ 76.24936902409668, 14.070057186376156 ], [ 76.247919343854406, 14.070458236730145 ], [ 76.247498676988329, 14.070571910038698 ], [ 76.246840313692857, 14.0707498160147 ], [ 76.246008313266302, 14.070974639503918 ], [ 76.245881085166687, 14.071026754867045 ], [ 76.245814793595599, 14.071053908968766 ], [ 76.245598125945975, 14.071780045152137 ], [ 76.245529618990858, 14.071783013587478 ], [ 76.245485866332274, 14.071904417941427 ], [ 76.244207611773561, 14.071936952653532 ], [ 76.243666877215816, 14.07194902535066 ], [ 76.243639188310098, 14.071949643523764 ], [ 76.243466399612188, 14.072067930057401 ], [ 76.243412985370824, 14.072842216905673 ], [ 76.243366640738984, 14.07340668964534 ], [ 76.243327602377519, 14.073899793291814 ], [ 76.243290780699979, 14.073913180073685 ], [ 76.243285048450218, 14.073986261848361 ], [ 76.242442429368907, 14.07430129798044 ], [ 76.242412337869169, 14.074312549564217 ], [ 76.242333732822161, 14.074341936636305 ], [ 76.242272032905859, 14.074375768444286 ], [ 76.242262262341754, 14.074377635789793 ], [ 76.241734836041374, 14.074478328096054 ], [ 76.241683757110707, 14.074496812953338 ], [ 76.241379093075309, 14.074607057170251 ], [ 76.241360796453975, 14.074613680920004 ], [ 76.241331204090542, 14.074624389350429 ], [ 76.241261353284742, 14.075473921369802 ], [ 76.24043882618227, 14.086803061410839 ], [ 76.239798350103868, 14.088268201475591 ], [ 76.239066924270745, 14.089613780234799 ], [ 76.237143139461992, 14.094586251507227 ], [ 76.237133964569622, 14.094645680434082 ], [ 76.236911636304441, 14.096008467399278 ], [ 76.236474278471718, 14.098264387007317 ], [ 76.236407839705791, 14.098572336123645 ], [ 76.23607913684512, 14.100319480636012 ], [ 76.236472424382384, 14.100500044584768 ], [ 76.236442044008086, 14.100561855479855 ], [ 76.23637779334959, 14.10069326926388 ], [ 76.236463527073425, 14.100735216629262 ], [ 76.236435973895894, 14.100795899280294 ], [ 76.235148044173087, 14.103632337345326 ], [ 76.234872153843256, 14.104169375243234 ], [ 76.234844432497184, 14.104190865457308 ], [ 76.234629198618663, 14.104143786204569 ], [ 76.233982121099004, 14.104572089761817 ], [ 76.233302204600676, 14.104992035129701 ], [ 76.232621760472654, 14.105423037449656 ], [ 76.231940916411176, 14.105862331618923 ], [ 76.231257308900325, 14.106359680819713 ], [ 76.23056567630455, 14.106842727225496 ], [ 76.229873777668658, 14.10733130211225 ], [ 76.229181745390193, 14.107822638543297 ], [ 76.228489709135246, 14.108313972307274 ], [ 76.227797669839603, 14.108805305207177 ], [ 76.226825457071499, 14.109502319110449 ], [ 76.226698163337616, 14.109642058285656 ], [ 76.226411340959828, 14.109956925320899 ], [ 76.22583975326485, 14.110599022108222 ], [ 76.225256721538898, 14.111237716351065 ], [ 76.22497120261383, 14.111552488513182 ], [ 76.222905460202227, 14.113485323215462 ], [ 76.222527260817316, 14.113746652245585 ], [ 76.221278263075504, 14.114661791141909 ], [ 76.227582233670461, 14.115388938784443 ], [ 76.225915791200279, 14.116796562874043 ], [ 76.225565683831263, 14.117091495748101 ], [ 76.22563492324926, 14.117221830076907 ], [ 76.225423261255244, 14.117405239923094 ], [ 76.22592375271779, 14.118164809792736 ], [ 76.228951047506882, 14.123505688854086 ], [ 76.230047022166346, 14.124292508948061 ], [ 76.231277038034335, 14.125164501547555 ], [ 76.23217725583379, 14.125781713354941 ], [ 76.232127336979943, 14.125944916863595 ], [ 76.232313487231494, 14.12592465908611 ], [ 76.232931889667313, 14.125815948305526 ], [ 76.233473987329859, 14.125711488298451 ], [ 76.234095404165032, 14.1255669488264 ], [ 76.234145492442323, 14.125552564956372 ], [ 76.234156388030286, 14.126096101300336 ], [ 76.234201724457648, 14.126675904007172 ], [ 76.234232919322636, 14.127245105657021 ], [ 76.234269603949713, 14.127797472750196 ], [ 76.234293503174712, 14.128354392897482 ], [ 76.234296511772015, 14.128413842843823 ], [ 76.234340143533942, 14.129028596572814 ], [ 76.234425775205651, 14.130188362915904 ], [ 76.23443641853585, 14.130331111964194 ], [ 76.234459220072964, 14.130635558331218 ], [ 76.234508067263647, 14.131344927045081 ], [ 76.234549823186683, 14.131912788616802 ], [ 76.234589683025959, 14.132391625456595 ], [ 76.234603117079303, 14.132536480918954 ], [ 76.234605476473519, 14.132569634890144 ], [ 76.234613022395806, 14.132675267841842 ], [ 76.23462058161978, 14.132780616866443 ], [ 76.234604840942012, 14.13316539735728 ], [ 76.234600863773167, 14.133520243724911 ], [ 76.23455280759984, 14.135002584485054 ], [ 76.234520783726808, 14.1360892680364 ], [ 76.234464272363837, 14.137470163145778 ], [ 76.232939561379482, 14.138188966867334 ], [ 76.230502931958469, 14.139321807346525 ], [ 76.229155253556186, 14.139353121328742 ], [ 76.229510463416773, 14.142868785256573 ], [ 76.229512189440484, 14.142886052853333 ], [ 76.229523774065314, 14.143001912254483 ], [ 76.229467000305632, 14.142999527838155 ], [ 76.227662206142128, 14.142920959695815 ], [ 76.227540124070771, 14.142920561040425 ], [ 76.226637327056892, 14.143113889366418 ], [ 76.226583071135636, 14.14312549264773 ], [ 76.226587150268927, 14.143152144499846 ], [ 76.226607783589017, 14.143317285907676 ], [ 76.226554759656878, 14.143460718512761 ], [ 76.226912595719099, 14.145960690311233 ], [ 76.226967401050004, 14.147119005757469 ], [ 76.226854732552027, 14.147212352967717 ], [ 76.225926380473624, 14.1479860090878 ], [ 76.225913833939146, 14.148032995516262 ], [ 76.225631998557247, 14.149098843985861 ], [ 76.225604662600318, 14.149188183488944 ], [ 76.225649633532967, 14.150505567685082 ], [ 76.22565314171986, 14.150604741737309 ], [ 76.225654529829356, 14.150616555422927 ], [ 76.22358782647197, 14.150618381080378 ], [ 76.22194325390555, 14.150597016849821 ], [ 76.221928135592961, 14.150596846080285 ], [ 76.222057683358912, 14.151970396366709 ], [ 76.222172224752896, 14.153160879238566 ], [ 76.221626900734719, 14.153296079589651 ], [ 76.221637838876205, 14.153418078316813 ], [ 76.221804199249547, 14.155155453563273 ], [ 76.221820829178526, 14.155352397010402 ], [ 76.221809462109491, 14.155532551817958 ], [ 76.221802470837687, 14.155727822835136 ], [ 76.221797171707507, 14.155943802339683 ], [ 76.221786662626911, 14.156129523258423 ], [ 76.221784891222924, 14.156302137723413 ], [ 76.221783452947548, 14.15647762342117 ], [ 76.22179283429486, 14.156682671988952 ], [ 76.221786557825169, 14.156886003988891 ], [ 76.221786338957898, 14.156893240765173 ], [ 76.221785479702646, 14.157145144539212 ], [ 76.221782760780997, 14.157300983659008 ], [ 76.221785190998148, 14.157478468297475 ], [ 76.221784159508573, 14.157904020682693 ], [ 76.221783388228303, 14.1580094687382 ], [ 76.221782906605313, 14.158099605982001 ], [ 76.221788969056647, 14.158264180998314 ], [ 76.221789643515905, 14.158439721907239 ], [ 76.221807713600739, 14.158684659751748 ], [ 76.222016294231693, 14.158680467301506 ], [ 76.225950077237016, 14.158526497299324 ], [ 76.228693515562568, 14.158385775423563 ], [ 76.228721703094934, 14.158384254328499 ], [ 76.229977778494728, 14.158363947131894 ], [ 76.230790387514958, 14.158347394000746 ], [ 76.232447827217442, 14.158320591235166 ], [ 76.233316329958299, 14.15831021521999 ], [ 76.235921477763029, 14.15873528717243 ], [ 76.23783424465779, 14.158892724380625 ], [ 76.237837441439524, 14.15889299084577 ], [ 76.237840275929344, 14.158885380812206 ], [ 76.238040983316282, 14.158345427338643 ], [ 76.240069758309801, 14.157296969367811 ], [ 76.240334219379733, 14.157160660147053 ], [ 76.240854217832222, 14.156892800484657 ], [ 76.246484601446667, 14.15772246284571 ], [ 76.24647972019811, 14.157811492947788 ], [ 76.246520479625389, 14.157817696254469 ], [ 76.246464610856719, 14.158778984883634 ], [ 76.250781696845962, 14.159917559435177 ], [ 76.251047661862913, 14.159987546408454 ], [ 76.252861647337525, 14.160053860103687 ], [ 76.252862795438404, 14.160053901117912 ], [ 76.253780258805847, 14.159994002218708 ], [ 76.256787290865333, 14.160238146269984 ], [ 76.256880747443944, 14.160246007034495 ], [ 76.257627460980629, 14.160368517000277 ], [ 76.257865354426357, 14.160407671552861 ], [ 76.2594938939055, 14.160676860685303 ], [ 76.259709746200571, 14.160712586282372 ], [ 76.261132071099908, 14.160952527295597 ], [ 76.261840485938365, 14.16108463199993 ], [ 76.262442080288309, 14.161201324775798 ], [ 76.26305536915541, 14.161347734681105 ], [ 76.264660155145279, 14.161731585638881 ], [ 76.26506013166329, 14.161849074634745 ], [ 76.265225608623922, 14.161897702105088 ], [ 76.266521994599742, 14.162279456830126 ], [ 76.266673028298456, 14.162338051866271 ], [ 76.269435543755762, 14.163412275910721 ], [ 76.269585184801556, 14.163470591601127 ], [ 76.272167948438394, 14.164024800714845 ], [ 76.275559981649494, 14.164602316550457 ], [ 76.277681482841402, 14.163482322597662 ], [ 76.277736200567773, 14.163353142379723 ], [ 76.277882064125976, 14.163021732789023 ], [ 76.278799779611575, 14.160994880798885 ], [ 76.279981428521879, 14.158181915881714 ], [ 76.280754417696059, 14.154685843925892 ], [ 76.280928796430956, 14.152921894834281 ], [ 76.280940263990914, 14.152805892674078 ], [ 76.281208986745483, 14.150078575236209 ], [ 76.281661450706409, 14.148508122198818 ], [ 76.281738801528874, 14.148434423131242 ], [ 76.281743229729827, 14.148417605170145 ], [ 76.282565683270249, 14.147630486687065 ], [ 76.282855736708726, 14.147352447555116 ], [ 76.283727958761446, 14.146487784311862 ], [ 76.28415904882624, 14.145442557359761 ], [ 76.284696865303459, 14.144039586361828 ], [ 76.287320292978066, 14.141036015529476 ], [ 76.288715784579651, 14.138357722442898 ], [ 76.290207890871784, 14.136629988957965 ], [ 76.290356155952566, 14.136449483010555 ], [ 76.290565401737908, 14.136547564831567 ], [ 76.290636455016553, 14.136580868542147 ], [ 76.292394061498541, 14.13554509869031 ], [ 76.292679840280243, 14.135375415246992 ], [ 76.293018704221012, 14.135173557861007 ], [ 76.293237997970024, 14.135042925682193 ], [ 76.293310799229587, 14.134986908114259 ], [ 76.293506714873459, 14.134843547677653 ], [ 76.293583829914425, 14.134670953333799 ], [ 76.293784526841264, 14.134210749059029 ], [ 76.294093837419553, 14.133860842864602 ], [ 76.294126635099019, 14.133800654317838 ], [ 76.294361688062381, 14.133349154523248 ], [ 76.294663043906596, 14.132782294334659 ], [ 76.294950409965509, 14.132250990627387 ], [ 76.295198594535776, 14.13182147853151 ], [ 76.295495772049932, 14.131515023891158 ], [ 76.295884912561249, 14.131178176719608 ], [ 76.296250480469467, 14.130857153778505 ], [ 76.296549465356009, 14.13058963646103 ], [ 76.296888116749074, 14.130294052213076 ], [ 76.297203081713434, 14.130019141998224 ], [ 76.297726339411909, 14.129578499074235 ], [ 76.2981061721336, 14.129247200659837 ], [ 76.29936091373601, 14.1281798323493 ], [ 76.299991755922036, 14.127554763987559 ], [ 76.300211022079438, 14.127291080753775 ], [ 76.300258918367589, 14.127249272906763 ], [ 76.301411193396603, 14.126290841219445 ], [ 76.302369747750447, 14.125556279237825 ], [ 76.302455209946231, 14.125422050468114 ], [ 76.302494926617698, 14.125391879206015 ], [ 76.302761005181594, 14.124948406479703 ], [ 76.302995491715208, 14.12451418028254 ], [ 76.304022515609248, 14.122725589180076 ], [ 76.304157525673716, 14.122490463606058 ], [ 76.304184475553186, 14.122443528261245 ], [ 76.304189771728758, 14.122441027896189 ], [ 76.304251654093875, 14.122327781510325 ], [ 76.304277691781422, 14.12228007367764 ], [ 76.304329914440686, 14.122254146365325 ], [ 76.305892572273137, 14.121487419562245 ], [ 76.306914110014802, 14.121044332636213 ], [ 76.306951886078778, 14.121028032034099 ], [ 76.30784613867317, 14.120610386572187 ], [ 76.308509451934867, 14.120338589538873 ], [ 76.309222632596487, 14.120025839395478 ], [ 76.310297125120869, 14.119527808916137 ], [ 76.311908152067886, 14.118796473547352 ], [ 76.312137041547885, 14.119322363712421 ], [ 76.312315440308566, 14.11971935555629 ], [ 76.312601725450989, 14.120317517136238 ], [ 76.313053977277107, 14.121293878273276 ], [ 76.313376524282972, 14.121980166697865 ], [ 76.313403362390943, 14.122037224031388 ], [ 76.313527666249044, 14.122301383462661 ], [ 76.313596571064195, 14.122410227888775 ], [ 76.314568579849109, 14.119551069336309 ], [ 76.314693324759503, 14.119163139160676 ], [ 76.314774828824383, 14.117691317669617 ], [ 76.315415679850858, 14.113857755842364 ], [ 76.315382010900493, 14.113177593275184 ], [ 76.315231108127193, 14.111873580801106 ], [ 76.315230035554933, 14.111865600261849 ], [ 76.313262624507573, 14.111912506967769 ], [ 76.313255406528526, 14.111777255016063 ], [ 76.313174985506137, 14.11178228840749 ], [ 76.312941090789749, 14.108394254033986 ], [ 76.31293802612727, 14.108313225228521 ], [ 76.312697232214845, 14.103574342234017 ], [ 76.312720466402766, 14.103187960605297 ], [ 76.314177805204935, 14.096156580469493 ], [ 76.314151734539038, 14.096151445196503 ], [ 76.314269171140623, 14.095618585654195 ], [ 76.315283433957887, 14.092127795650994 ], [ 76.320126602611367, 14.09109994097863 ], [ 76.322417377358704, 14.09059182463796 ], [ 76.327655202145891, 14.089402429434484 ], [ 76.329975604518651, 14.088855365347539 ], [ 76.330055970731621, 14.088836418150912 ], [ 76.330985026649131, 14.087251927643036 ], [ 76.331814179268747, 14.085839840804939 ], [ 76.335996447745075, 14.080226264287369 ], [ 76.340874787797631, 14.077058819925226 ], [ 76.342235119173253, 14.076176391459203 ], [ 76.346253236577653, 14.073540804780119 ], [ 76.346598326206646, 14.073498816367218 ], [ 76.347344471307864, 14.073568485699319 ], [ 76.347384816913831, 14.073601510135548 ], [ 76.34743537466727, 14.073606105024727 ], [ 76.351053294444384, 14.076557031175327 ], [ 76.351310878636014, 14.076767133284257 ], [ 76.352246905466799, 14.077591261096067 ], [ 76.352568736253062, 14.076082494582243 ], [ 76.352726722728789, 14.076083870689171 ], [ 76.353895537752678, 14.076103773730209 ], [ 76.353990687962479, 14.076105190600789 ], [ 76.354202831584885, 14.076106250089259 ], [ 76.356167819550279, 14.076119972152869 ], [ 76.356195022270271, 14.076106319387154 ], [ 76.359779916119749, 14.074287412154959 ], [ 76.361615586267803, 14.073361269495138 ], [ 76.362766222732901, 14.072780217928162 ], [ 76.363350141942576, 14.072485345572343 ], [ 76.363912384241303, 14.07220141761545 ], [ 76.365028854850323, 14.071637604382081 ], [ 76.365092271319298, 14.07162620287237 ], [ 76.365966158805506, 14.071468842930553 ], [ 76.373418885532814, 14.069642619221009 ], [ 76.374735969514049, 14.06931985314219 ], [ 76.374737970451292, 14.069319750779307 ], [ 76.374773482179364, 14.068246408819761 ], [ 76.37478017904904, 14.067455752379509 ], [ 76.376174841697576, 14.068746479029658 ], [ 76.379613727704012, 14.069070318832273 ], [ 76.386233104057453, 14.068731530322346 ], [ 76.393155540380022, 14.07088010908968 ], [ 76.397580076204221, 14.073222334592343 ], [ 76.404724411797872, 14.078111278029921 ], [ 76.40562640743974, 14.077645234955728 ], [ 76.40593451081142, 14.071935970686011 ], [ 76.405918229906206, 14.07158192500164 ], [ 76.414372698374081, 14.056701357823226 ], [ 76.414966099297615, 14.055641679341514 ], [ 76.416957533360176, 14.051995243922127 ], [ 76.417000096658171, 14.05200942474038 ], [ 76.417032963387058, 14.051950732271285 ], [ 76.421943683959114, 14.053620120619961 ], [ 76.423695960750536, 14.054027801337124 ], [ 76.424986355899989, 14.054323481242559 ], [ 76.426137180910374, 14.054596643264375 ], [ 76.426244009569302, 14.054621991255067 ], [ 76.42665982096841, 14.054767953051469 ], [ 76.426959866070945, 14.054871809962854 ], [ 76.427038381133841, 14.054900531088908 ], [ 76.427654071890984, 14.055124900064401 ], [ 76.428130927710299, 14.05529246143626 ], [ 76.428441603416275, 14.055396693975997 ], [ 76.429198548710175, 14.055646371153969 ], [ 76.430275130506061, 14.055986869720549 ], [ 76.431032504035883, 14.056233974662652 ], [ 76.431546255809394, 14.056406596578654 ], [ 76.431724145119844, 14.056466064300432 ], [ 76.432109703977687, 14.056600881378934 ], [ 76.432684540338371, 14.056833956009127 ], [ 76.433131582341403, 14.057014893878957 ], [ 76.433561602360996, 14.057189523802156 ], [ 76.441035708243248, 14.056791133135606 ], [ 76.441235782772466, 14.056778643119955 ], [ 76.441583731210272, 14.056563371713636 ], [ 76.442897285704873, 14.056524678872503 ], [ 76.444115484245657, 14.056550164627017 ], [ 76.44425700450104, 14.056553336689406 ], [ 76.445164250200364, 14.056628010595572 ], [ 76.445250494233775, 14.056623741535894 ], [ 76.445686031052375, 14.056373943424296 ], [ 76.447487773998091, 14.055603996540432 ], [ 76.447904074865818, 14.054921706410223 ], [ 76.448663867972883, 14.053824857645228 ], [ 76.449051157961435, 14.053286361400204 ], [ 76.449443051033754, 14.053090381078823 ], [ 76.449910307422186, 14.053036872476616 ], [ 76.450872283258576, 14.052906660808537 ], [ 76.451982769181754, 14.053366527879311 ], [ 76.45259363811283, 14.053861939592043 ], [ 76.453676388321199, 14.054689587982915 ], [ 76.45466788078879, 14.054548867468803 ], [ 76.455569047722065, 14.054558079812139 ], [ 76.455910079543585, 14.054764347303514 ], [ 76.456267149647587, 14.055417034087062 ], [ 76.456479814879231, 14.055851883339743 ], [ 76.456717235214057, 14.056038577360267 ], [ 76.45679020632052, 14.056208715534968 ], [ 76.458539686806631, 14.056817131967714 ], [ 76.459068786805915, 14.057128057307013 ], [ 76.459373976474382, 14.057228271811899 ], [ 76.460881248284707, 14.058036873792972 ], [ 76.461247952226955, 14.058229172650677 ], [ 76.461651403122062, 14.057598644067195 ], [ 76.462999471912724, 14.055467831484945 ], [ 76.464208538731981, 14.05355669609035 ], [ 76.465522965594729, 14.051478980477905 ], [ 76.466479408026487, 14.049967106274028 ], [ 76.467426312183918, 14.048470287920193 ], [ 76.46750828432485, 14.048340709593777 ], [ 76.467836405148859, 14.047814807964233 ], [ 76.468428179970516, 14.046866324288557 ], [ 76.468428202887267, 14.046866287992053 ], [ 76.468807431470339, 14.046258464303587 ], [ 76.470242616573941, 14.044064515807502 ], [ 76.472007641702632, 14.041366282928735 ], [ 76.472440927495995, 14.040703899096718 ], [ 76.473705846761519, 14.038718726876963 ], [ 76.474293189963177, 14.037796934530771 ], [ 76.476657667705823, 14.034085978470486 ], [ 76.474669833621277, 14.032844265645698 ], [ 76.472809513902149, 14.03168160174784 ], [ 76.47093271462785, 14.030560944461344 ], [ 76.467719791997297, 14.029671178201346 ], [ 76.467301237359194, 14.030935438756877 ], [ 76.467262947880116, 14.030926102426346 ], [ 76.467258000294535, 14.030941931723916 ], [ 76.465368464886666, 14.030464160403614 ], [ 76.464266801194412, 14.030195535794087 ], [ 76.463863585833494, 14.031564309321919 ], [ 76.462313884293806, 14.031846633975517 ], [ 76.462310618157858, 14.031840819292093 ], [ 76.462268283623743, 14.031848535712442 ], [ 76.461627312646812, 14.030734052097374 ], [ 76.460963808519026, 14.030832584031886 ], [ 76.459792261602047, 14.029281376134191 ], [ 76.459507664704219, 14.028904069940943 ], [ 76.460147621365124, 14.027704736519537 ], [ 76.460276120475015, 14.023579007998803 ], [ 76.460204364674368, 14.022811424167939 ], [ 76.459884528660794, 14.019389998269601 ], [ 76.459258604603278, 14.015012384634341 ], [ 76.458968754420596, 14.012985097444876 ], [ 76.458876042681325, 14.012336703027724 ], [ 76.458826085860863, 14.011987306219643 ], [ 76.458517182473926, 14.00982674050999 ], [ 76.458218267049432, 14.007736062026529 ], [ 76.457797179249965, 14.004790716194714 ], [ 76.45777866750997, 14.004664686034262 ], [ 76.457730372708411, 14.004331210426727 ], [ 76.457615020223329, 14.003755526984001 ], [ 76.457395394096991, 14.002654248189559 ], [ 76.456927592998554, 14.000298557001541 ], [ 76.456496146169528, 13.998127486970125 ], [ 76.454971611072395, 13.996250123063684 ], [ 76.453852308573076, 13.996471401395809 ], [ 76.452442025666514, 13.997339383407972 ], [ 76.448754094688127, 13.999738178656782 ], [ 76.448351032939073, 13.999962558551466 ], [ 76.44695077134871, 14.000871858346924 ], [ 76.44497018484968, 14.00212899287534 ], [ 76.444574349769155, 14.002405686856035 ], [ 76.444204033655026, 14.002611647395092 ], [ 76.441885622442271, 14.004130175633511 ], [ 76.440825309705048, 14.004824652322043 ], [ 76.43955566200745, 14.005618804213388 ], [ 76.438237885388929, 14.006467832296444 ], [ 76.436343454446813, 14.007602536547424 ], [ 76.435021783481062, 14.007205817361465 ], [ 76.431564798117435, 14.004923609435838 ], [ 76.423314329711587, 13.999808480771085 ], [ 76.421574142536684, 13.996647493793603 ], [ 76.419496832502915, 13.992874004213544 ], [ 76.417851041978324, 13.989884288918622 ], [ 76.417267192994913, 13.989177989551536 ], [ 76.424579433504547, 13.977332251790468 ], [ 76.424431807223655, 13.977282101316069 ], [ 76.424608794457072, 13.977075963497251 ], [ 76.424866983818347, 13.977064678918371 ], [ 76.42479226454104, 13.972670124161082 ], [ 76.424730084045933, 13.968926800704118 ], [ 76.424682934958923, 13.9664377844406 ], [ 76.423547302237452, 13.964681340817297 ], [ 76.422744199502972, 13.96342418596875 ], [ 76.421522175389356, 13.961502701354371 ], [ 76.420285660098898, 13.959574545118269 ], [ 76.419016708772716, 13.957636521369288 ], [ 76.418176476524081, 13.956338719540167 ], [ 76.417318308092433, 13.955037718917083 ], [ 76.416477593383362, 13.953726926731205 ], [ 76.413070655062896, 13.956494829136611 ], [ 76.410342113814252, 13.955982952933645 ], [ 76.407300688886266, 13.955404970055506 ], [ 76.406995498795624, 13.955357193349315 ], [ 76.406989607141284, 13.955356830594402 ], [ 76.404933803789319, 13.955260725873959 ], [ 76.404925460571931, 13.955260411580676 ], [ 76.403119803049236, 13.955045353818244 ], [ 76.398750719713533, 13.959270693660359 ], [ 76.398739684461873, 13.959281407728911 ], [ 76.398739648169965, 13.959281400948493 ], [ 76.398739643720674, 13.959281405251396 ], [ 76.398627467323209, 13.959260442200629 ], [ 76.397715793877367, 13.959090074320088 ], [ 76.394877943884254, 13.958600758993514 ], [ 76.394073026233173, 13.95846196467193 ], [ 76.39341029815742, 13.958332704147143 ], [ 76.393137206643772, 13.958285811855632 ], [ 76.389403931740276, 13.957644810437168 ], [ 76.3866917576958, 13.957206141136448 ], [ 76.386465280703177, 13.95716879237979 ], [ 76.383392080084576, 13.956661944690767 ], [ 76.380528908060811, 13.956254046312115 ], [ 76.379431931714706, 13.956108849625325 ], [ 76.379077506917483, 13.956061935907146 ], [ 76.379034599845383, 13.956061092637253 ], [ 76.377417434623723, 13.95602925034318 ], [ 76.376077312928629, 13.95600562346935 ], [ 76.374939281092708, 13.955818686942656 ], [ 76.374869259430781, 13.955807171162842 ], [ 76.374848506908364, 13.955803762086033 ], [ 76.373538385435452, 13.955497755866286 ], [ 76.373478451554334, 13.955475861148495 ], [ 76.37348136778607, 13.95543516323181 ], [ 76.373425105284241, 13.955390365524043 ], [ 76.373308790685726, 13.95529774959568 ], [ 76.37329893889931, 13.955266510617642 ], [ 76.373265185902753, 13.955159484697317 ], [ 76.373251918538685, 13.955272070675891 ], [ 76.373155790448138, 13.956087520681111 ], [ 76.373178045858126, 13.956661385704672 ], [ 76.373461566226169, 13.956901604206196 ], [ 76.373946887989703, 13.957356066293086 ], [ 76.373970591823849, 13.957429001201918 ], [ 76.373990018179981, 13.957447025206742 ], [ 76.374083802340991, 13.957721817914821 ], [ 76.373940648048489, 13.958223201043635 ], [ 76.37344208654072, 13.958753497655954 ], [ 76.372736178601698, 13.959486275939723 ], [ 76.372504170036834, 13.960055144464873 ], [ 76.372231578007558, 13.960489503069974 ], [ 76.371929980453061, 13.960825060068181 ], [ 76.370950362227973, 13.962065612882068 ], [ 76.370568796626898, 13.962281693949009 ], [ 76.370193923802532, 13.963220671580791 ], [ 76.369670954165059, 13.964530586015261 ], [ 76.36970115599695, 13.96462983020715 ], [ 76.36984353015562, 13.964943230350682 ], [ 76.370162838885477, 13.965470950719537 ], [ 76.370156866498561, 13.965486534539567 ], [ 76.370201154734289, 13.96556088154729 ], [ 76.370091955500428, 13.965847215673106 ], [ 76.369965191217588, 13.966179599499867 ], [ 76.369826478465086, 13.96656350744809 ], [ 76.369572849786437, 13.967343832040561 ], [ 76.369783797946965, 13.968148485611286 ], [ 76.369938852940976, 13.968735201611526 ], [ 76.369992516057934, 13.968938257550505 ], [ 76.370141568131032, 13.969494684938638 ], [ 76.370427468207183, 13.9704577628241 ], [ 76.370544923521663, 13.970875679951442 ], [ 76.370685869656867, 13.971052304670149 ], [ 76.37064878376826, 13.971084346265233 ], [ 76.370702855438267, 13.97115292666348 ], [ 76.370134171293458, 13.971644736578702 ], [ 76.369614454648357, 13.97211177707953 ], [ 76.36935718644726, 13.972347175292075 ], [ 76.369191207137391, 13.972489824699741 ], [ 76.369045607905207, 13.972567936677892 ], [ 76.368311095579358, 13.972945834883715 ], [ 76.367952227477645, 13.973122667055087 ], [ 76.367523371352789, 13.973428896870011 ], [ 76.367031086652446, 13.974074609265044 ], [ 76.36684302962118, 13.974506293042612 ], [ 76.36666535452963, 13.974633162845407 ], [ 76.366334130711365, 13.974917397519116 ], [ 76.365604157774328, 13.974627663380534 ], [ 76.365598493925901, 13.974625362971572 ], [ 76.365546806698418, 13.974619605967986 ], [ 76.365451312411778, 13.974637919426653 ], [ 76.364923790364756, 13.974802649379088 ], [ 76.364610009219717, 13.974890000599551 ], [ 76.364546316420885, 13.974907731883231 ], [ 76.364506974688638, 13.975177431021732 ], [ 76.364457098931709, 13.975450149845036 ], [ 76.364480162077854, 13.975455492037334 ], [ 76.364454901066367, 13.975678900941807 ], [ 76.36451211624437, 13.975819726847588 ], [ 76.364592514252209, 13.97601761327005 ], [ 76.364752860900296, 13.976439338643624 ], [ 76.365021551992882, 13.976663673081804 ], [ 76.365031490732008, 13.97667630319455 ], [ 76.365067124762604, 13.976706201997603 ], [ 76.365123660499577, 13.976778281637978 ], [ 76.365262564419112, 13.977162765170824 ], [ 76.365301724195987, 13.977324631932936 ], [ 76.36525918760762, 13.977423611139583 ], [ 76.365166783360664, 13.977698121226718 ], [ 76.365092703421695, 13.977886671631531 ], [ 76.365092981770559, 13.977965461270765 ], [ 76.364619462430909, 13.978559138434472 ], [ 76.363860723846102, 13.978829768426086 ], [ 76.363779060633391, 13.97909776706314 ], [ 76.363764628481917, 13.97915974137352 ], [ 76.364081026788156, 13.979622991666849 ], [ 76.364244669708782, 13.979874449936524 ], [ 76.364398463110007, 13.9801113651418 ], [ 76.364504631789799, 13.980278689709253 ], [ 76.364537877894563, 13.980387210172898 ], [ 76.364605505971923, 13.980735866794562 ], [ 76.364623757019771, 13.980829960930695 ], [ 76.364642314867126, 13.980933856927377 ], [ 76.364668745454949, 13.98108183250157 ], [ 76.364689382968123, 13.981280832845096 ], [ 76.364582916038032, 13.981362543837051 ], [ 76.364317035460502, 13.981588913082932 ], [ 76.363799533602972, 13.982048802510366 ], [ 76.363543535988228, 13.982276097228041 ], [ 76.363128936586108, 13.98264491884334 ], [ 76.363033737903024, 13.982729606041536 ], [ 76.362871147939117, 13.982859579131837 ], [ 76.362348560257658, 13.983118466979489 ], [ 76.361682820672073, 13.982877435682564 ], [ 76.36146911923494, 13.983060993790685 ], [ 76.361149355243839, 13.983565346707453 ], [ 76.361032750168221, 13.98394103827194 ], [ 76.36106352900309, 13.984070079120162 ], [ 76.361053555347212, 13.984078855437794 ], [ 76.361062095564208, 13.984115662817507 ], [ 76.360924378355548, 13.984236211494522 ], [ 76.360805547387713, 13.984340233542758 ], [ 76.360549626786721, 13.984564249997478 ], [ 76.360531653772412, 13.984612073338509 ], [ 76.360343520245067, 13.98511277687548 ], [ 76.36004695618017, 13.986131506496026 ], [ 76.36003245604536, 13.986122105958376 ], [ 76.359789938964326, 13.98597455754706 ], [ 76.359047190548353, 13.985973736536151 ], [ 76.358261234678139, 13.985962450167971 ], [ 76.358252698039379, 13.9859631370482 ], [ 76.358159127373256, 13.98595997061302 ], [ 76.357164823135975, 13.986027203177887 ], [ 76.355764951123788, 13.985911239570674 ], [ 76.355624419098262, 13.985899598433418 ], [ 76.353376254121983, 13.985937408370336 ], [ 76.353186717334466, 13.985973119047735 ], [ 76.352760811382893, 13.986201502631717 ], [ 76.352447414492531, 13.986233377730427 ], [ 76.351871419637177, 13.986291957810534 ], [ 76.351256949882909, 13.986264180469087 ], [ 76.350312249176397, 13.986289669829887 ], [ 76.349875952821421, 13.986299656629917 ], [ 76.349475905604152, 13.986308820079717 ], [ 76.349110438049479, 13.986208139961548 ], [ 76.348493009654163, 13.986115064117511 ], [ 76.347857408644472, 13.986135465435771 ], [ 76.347118145511573, 13.986019960479442 ], [ 76.346648286877411, 13.985946556685901 ], [ 76.345021308891916, 13.985836002088609 ], [ 76.344643279159655, 13.985810306429356 ], [ 76.344352418324334, 13.985790533906457 ], [ 76.343903638289589, 13.985675352554811 ], [ 76.342947832021125, 13.985453593576155 ], [ 76.341825770967162, 13.985193249035531 ], [ 76.338935738281336, 13.984701262694308 ], [ 76.338688576894114, 13.984636119945677 ], [ 76.336109708996432, 13.98437209767741 ], [ 76.334342692278256, 13.984049482110331 ], [ 76.332483249755626, 13.983676613189074 ], [ 76.33239202610244, 13.983660234265171 ], [ 76.330243856086611, 13.98326757684038 ], [ 76.319138985163988, 13.981162003945581 ], [ 76.318830444089485, 13.980943642091594 ], [ 76.318839954614518, 13.980914850498994 ], [ 76.318800766156343, 13.980887143118681 ] ] ] } },
{ "type": "Feature", "properties": { "OBJECTID": 253, "KGISHobliID": 512, "KGISHobliCode": "130402", "KGISHobliName": "Kasaba", "BhuCodeHobli": null, "SHAPE.STArea()": 239026857.16663608, "SHAPE.STLength()": 87450.085044526742, "KGISTalukCode": "1304", "created_user": null, "created_date": null, "last_edited_user": "SURESHBV2", "last_edited_date": 1728904129000.0, "_overlap_percent": 4.0521837139140917, "_police_station": "Chitrahalli Gate PS", "_police_feature_index": "180", "_admin_layer": "Hobli", "_geometry_clipped": true }, "geometry": { "type": "MultiPolygon", "coordinates": [ [ [ [ 76.22709314315793, 14.004994350382621 ], [ 76.2271695835244, 14.003839656467255 ], [ 76.227399632969636, 14.000053874063079 ], [ 76.227435085392145, 13.999521784678507 ], [ 76.227330313309892, 13.998785255824485 ], [ 76.226202984940286, 13.99065950739509 ], [ 76.226186339953188, 13.990685158067183 ], [ 76.227307955116757, 13.998839010530709 ], [ 76.227412401340061, 13.99957677140897 ], [ 76.227377170311954, 14.000110288920247 ], [ 76.227153451545988, 14.00390534972758 ], [ 76.22708260234667, 14.005007556825513 ], [ 76.22709314315793, 14.004994350382621 ] ] ], [ [ [ 76.217242799846815, 14.022074933477356 ], [ 76.217120330973131, 14.02171883686607 ], [ 76.217114141513477, 14.021716552591258 ], [ 76.217239761366386, 14.022078378118357 ], [ 76.217242799846815, 14.022074933477356 ] ] ], [ [ [ 76.221525626158723, 14.047270958569278 ], [ 76.221707894420106, 14.047235915572328 ], [ 76.219922686958199, 14.02910712311659 ], [ 76.219700391598707, 14.027058101419703 ], [ 76.21943542353651, 14.026715871426232 ], [ 76.218414974391592, 14.025401055524776 ], [ 76.21732111217031, 14.023987948972769 ], [ 76.217320097551266, 14.023988861706499 ], [ 76.216287848911051, 14.022633377484439 ], [ 76.216268628711603, 14.022638452973494 ], [ 76.217330547938417, 14.024037762569431 ], [ 76.2173315606248, 14.024036834477073 ], [ 76.218409638687689, 14.02544795471197 ], [ 76.219411050399728, 14.026756349462291 ], [ 76.219671586578897, 14.02709674948167 ], [ 76.219877096342501, 14.029143484579931 ], [ 76.221693784853485, 14.047234869511891 ], [ 76.221510098388151, 14.047268947849121 ], [ 76.222120759571496, 14.04801801820919 ], [ 76.221525626158723, 14.047270958569278 ] ] ], [ [ [ 76.22391970656922, 14.049399269024933 ], [ 76.222966417949479, 14.049261239494227 ], [ 76.222970828312839, 14.049268055550822 ], [ 76.22393084489633, 14.049411607460302 ], [ 76.22391970656922, 14.049399269024933 ] ] ], [ [ [ 76.230429293644789, 14.054370307951716 ], [ 76.2290518568051, 14.054477434193471 ], [ 76.228133562206537, 14.054564313448296 ], [ 76.228137886499795, 14.054615967834341 ], [ 76.229115697412936, 14.054555472762896 ], [ 76.230449316999298, 14.054518516350011 ], [ 76.230429293644789, 14.054370307951716 ] ] ], [ [ [ 76.233597039563193, 14.05558986447075 ], [ 76.233249972871107, 14.055567236898153 ], [ 76.23284925617628, 14.055541140866083 ], [ 76.232280397275076, 14.055504707369488 ], [ 76.231877228545471, 14.055615365477211 ], [ 76.231800912570222, 14.05563643829111 ], [ 76.231706888916491, 14.055587576729932 ], [ 76.231402060395013, 14.05545147768604 ], [ 76.230764636148308, 14.055440888512413 ], [ 76.230757096976063, 14.05540219549426 ], [ 76.230572430920773, 14.055403164399904 ], [ 76.230585191487862, 14.055504686326891 ], [ 76.230772332522236, 14.055503448410244 ], [ 76.230779223203896, 14.055540704641899 ], [ 76.231415590855505, 14.055547089165211 ], [ 76.231717453149912, 14.055676733301452 ], [ 76.231810328576799, 14.055723521485836 ], [ 76.231887126763482, 14.055702222918043 ], [ 76.232293724601959, 14.055589459936176 ], [ 76.232861813759797, 14.055617513526411 ], [ 76.233261580701594, 14.055637254667312 ], [ 76.233598408261543, 14.055653890062214 ], [ 76.233597039563193, 14.05558986447075 ] ] ], [ [ [ 76.237976431081108, 14.056848711754727 ], [ 76.237717306853327, 14.056746844099347 ], [ 76.237528671567077, 14.056672097868852 ], [ 76.237024207009881, 14.056633450283876 ], [ 76.236571393886351, 14.056467298087014 ], [ 76.236450547370922, 14.056422952965857 ], [ 76.236353191822246, 14.056387244709121 ], [ 76.236146777487335, 14.056204218468277 ], [ 76.236126068520747, 14.056448654454273 ], [ 76.235892223229584, 14.056458184773954 ], [ 76.234961082108725, 14.056475947352027 ], [ 76.234483412154049, 14.056461847733237 ], [ 76.234262085406129, 14.056472168615604 ], [ 76.234163526726974, 14.056476804298228 ], [ 76.233932867992166, 14.056451141449219 ], [ 76.233939397403873, 14.056246006468129 ], [ 76.233610597881366, 14.056224101619517 ], [ 76.233603371151247, 14.055886046364765 ], [ 76.233595568368074, 14.05628220129538 ], [ 76.23391923739031, 14.056299898883506 ], [ 76.233908018844403, 14.056503544500217 ], [ 76.23413403399708, 14.056526356338548 ], [ 76.234230727120163, 14.056520584816417 ], [ 76.234447477288114, 14.056507647634978 ], [ 76.234912402169769, 14.056515690510311 ], [ 76.235876344844556, 14.056507607693948 ], [ 76.23611744486233, 14.056500333740043 ], [ 76.236159413619973, 14.056254130130924 ], [ 76.236355000901824, 14.056440633431313 ], [ 76.236452351837514, 14.056477547656435 ], [ 76.236573308395663, 14.056523410041365 ], [ 76.237027110058023, 14.056695485650918 ], [ 76.237537545603573, 14.056740115194129 ], [ 76.237737479545842, 14.056813132924161 ], [ 76.237969100502113, 14.056897722624155 ], [ 76.237976431081108, 14.056848711754727 ] ] ], [ [ [ 76.239012165369672, 14.058288504955609 ], [ 76.238695898217202, 14.058298662418636 ], [ 76.238602575795852, 14.058230661405254 ], [ 76.238448030388255, 14.058243176876138 ], [ 76.238207440795335, 14.058087714788723 ], [ 76.237891206192003, 14.058078923908566 ], [ 76.23784400160838, 14.057899005507469 ], [ 76.237843693512957, 14.057900825557432 ], [ 76.2379066430546, 14.058140348090435 ], [ 76.23823252099838, 14.05814885718803 ], [ 76.238478648358154, 14.058303960891527 ], [ 76.238638572631203, 14.058290993840403 ], [ 76.238733697025467, 14.058358794851538 ], [ 76.239008042148441, 14.05834915952463 ], [ 76.239012165369672, 14.058288504955609 ] ] ], [ [ [ 76.244224125614053, 14.059316097631585 ], [ 76.244089152903754, 14.059308022116843 ], [ 76.243346391017496, 14.059314196638534 ], [ 76.242446669585206, 14.059376236534501 ], [ 76.242153417141168, 14.059447423650154 ], [ 76.24200558932796, 14.059483024161421 ], [ 76.240865688811184, 14.059486511921579 ], [ 76.240208429964611, 14.05933908161912 ], [ 76.240198611440945, 14.059332965793727 ], [ 76.239925450828395, 14.059162791960102 ], [ 76.23962927650534, 14.059123677736032 ], [ 76.239504487381083, 14.059107300119322 ], [ 76.239252319457606, 14.059044523227108 ], [ 76.239002155289171, 14.058982559614527 ], [ 76.238997302473905, 14.059034793375023 ], [ 76.239289682104769, 14.059104433592367 ], [ 76.239546501338978, 14.059165604559778 ], [ 76.239673879091782, 14.059181003388057 ], [ 76.239975940252961, 14.0592175127213 ], [ 76.240249405438291, 14.059385243202003 ], [ 76.240259215100394, 14.05939126053374 ], [ 76.240923401723592, 14.05953006702906 ], [ 76.24208080714989, 14.059511054868638 ], [ 76.242232663984012, 14.059474897516164 ], [ 76.242534282675507, 14.059403081474692 ], [ 76.243429054745178, 14.059336299897076 ], [ 76.244141877427225, 14.059337649673214 ], [ 76.244232437886225, 14.059345648310433 ], [ 76.244224125614053, 14.059316097631585 ] ] ], [ [ [ 76.245607959971906, 14.060525126549223 ], [ 76.245610471833572, 14.060517329204973 ], [ 76.244366398344283, 14.060620296421082 ], [ 76.244290801409477, 14.060625373126495 ], [ 76.244324283449885, 14.060569113411427 ], [ 76.244350773960733, 14.060241710545696 ], [ 76.24435873835975, 14.059794654870061 ], [ 76.24433719585852, 14.059718069849469 ], [ 76.244354828585315, 14.059817955874951 ], [ 76.244297739871939, 14.060247712426623 ], [ 76.244258926471133, 14.06057497898448 ], [ 76.244228870821118, 14.060633295735812 ], [ 76.244305069193786, 14.06063275134875 ], [ 76.245570061076862, 14.060623673258561 ], [ 76.245568037023986, 14.06063091664373 ], [ 76.245530802697061, 14.060764040653877 ], [ 76.245607959971906, 14.060525126549223 ] ] ], [ [ [ 76.24610088263934, 14.062704173966846 ], [ 76.245866385129858, 14.062708616466971 ], [ 76.245805709135752, 14.062705977881411 ], [ 76.245732293422137, 14.062702848124763 ], [ 76.245159936066145, 14.06261284128429 ], [ 76.245161093413316, 14.062693075233691 ], [ 76.245791948595922, 14.062789260739198 ], [ 76.245866189454489, 14.062791705502958 ], [ 76.245927530746314, 14.062793726819786 ], [ 76.246100656997427, 14.062788441572371 ], [ 76.24610088263934, 14.062704173966846 ] ] ], [ [ [ 76.248012320228085, 14.065369824088437 ], [ 76.247696352307216, 14.065421507114774 ], [ 76.247373711663798, 14.065467858940334 ], [ 76.247281778780533, 14.065475876390364 ], [ 76.247302448297816, 14.065494814735448 ], [ 76.24743009599942, 14.065480912584325 ], [ 76.247747540738814, 14.065431369275476 ], [ 76.248040689321371, 14.065385618122349 ], [ 76.248012320228085, 14.065369824088437 ] ] ], [ [ [ 76.253445067971469, 14.068759350806566 ], [ 76.253523951125914, 14.068753613043732 ], [ 76.253417310810804, 14.068684971663835 ], [ 76.251570982625509, 14.067500460838177 ], [ 76.25145093442687, 14.067433125574906 ], [ 76.248660166573728, 14.065730502064589 ], [ 76.24830826292218, 14.065534585397476 ], [ 76.248688142387181, 14.065764812611688 ], [ 76.251462273380042, 14.067465819742074 ], [ 76.251580731078064, 14.067535286746269 ], [ 76.253398177880086, 14.068744454923936 ], [ 76.25342810231831, 14.068764363831615 ], [ 76.253445067971469, 14.068759350806566 ] ] ], [ [ [ 76.245598125945975, 14.071780045152137 ], [ 76.245814793595599, 14.071053908968766 ], [ 76.245788497635232, 14.071064680220239 ], [ 76.245529618990858, 14.071783013587478 ], [ 76.245598125945975, 14.071780045152137 ] ] ], [ [ [ 76.243327602377519, 14.073899793291814 ], [ 76.243366640738984, 14.07340668964534 ], [ 76.243412985370824, 14.072842216905673 ], [ 76.243466399612188, 14.072067930057401 ], [ 76.243431227045534, 14.072092008258339 ], [ 76.243428796449251, 14.07212548796096 ], [ 76.243426546824693, 14.072156468964538 ], [ 76.243369981093892, 14.072935795076448 ], [ 76.243323478791382, 14.073496304562505 ], [ 76.243290780699979, 14.073913180073685 ], [ 76.243327602377519, 14.073899793291814 ] ] ], [ [ [ 76.241331204090542, 14.074624389350429 ], [ 76.241322811172125, 14.07462742645097 ], [ 76.241261353284742, 14.075473921369802 ], [ 76.241331204090542, 14.074624389350429 ] ] ], [ [ [ 76.236474278471718, 14.098264387007317 ], [ 76.236911636304441, 14.096008467399278 ], [ 76.237133964569622, 14.094645680434082 ], [ 76.237143139461992, 14.094586251507227 ], [ 76.237065178473713, 14.094787759894661 ], [ 76.237053100823488, 14.094860117929517 ], [ 76.236821668245938, 14.096246610306508 ], [ 76.236419347081167, 14.098511171314486 ], [ 76.236407839705791, 14.098572336123645 ], [ 76.236474278471718, 14.098264387007317 ] ] ], [ [ [ 76.236442044008086, 14.100561855479855 ], [ 76.236472424382384, 14.100500044584768 ], [ 76.23607913684512, 14.100319480636012 ], [ 76.236039915257734, 14.100527953969737 ], [ 76.23637779334959, 14.10069326926388 ], [ 76.236442044008086, 14.100561855479855 ] ] ], [ [ [ 76.203346667064991, 14.159608696462648 ], [ 76.205304295180426, 14.159546041848685 ], [ 76.205368383938534, 14.159832764996018 ], [ 76.20559446031227, 14.159914562450215 ], [ 76.205959787804275, 14.15989192572121 ], [ 76.206984122354385, 14.159939104084248 ], [ 76.209607377412468, 14.159303144000447 ], [ 76.210925743835958, 14.159026784911946 ], [ 76.211929840959911, 14.158866974982631 ], [ 76.212654350944092, 14.15865425997516 ], [ 76.212860479905174, 14.158671345618773 ], [ 76.212981020033126, 14.158639971259893 ], [ 76.214642817103638, 14.158696343895047 ], [ 76.215319820395635, 14.158721297254418 ], [ 76.217879857727795, 14.158809488220934 ], [ 76.219494466368189, 14.158846949475441 ], [ 76.220153268932165, 14.158923893242134 ], [ 76.221807713600739, 14.158684659751748 ], [ 76.221789643515905, 14.158439721907239 ], [ 76.221788969056647, 14.158264180998314 ], [ 76.221782906605313, 14.158099605982001 ], [ 76.221783388228303, 14.1580094687382 ], [ 76.221784159508573, 14.157904020682693 ], [ 76.221785190998148, 14.157478468297475 ], [ 76.221782760780997, 14.157300983659008 ], [ 76.221785479702646, 14.157145144539212 ], [ 76.221786338957898, 14.156893240765173 ], [ 76.221786557825169, 14.156886003988891 ], [ 76.22179283429486, 14.156682671988952 ], [ 76.221783452947548, 14.15647762342117 ], [ 76.221784891222924, 14.156302137723413 ], [ 76.221786662626911, 14.156129523258423 ], [ 76.221797171707507, 14.155943802339683 ], [ 76.221802470837687, 14.155727822835136 ], [ 76.221809462109491, 14.155532551817958 ], [ 76.221820829178526, 14.155352397010402 ], [ 76.221804199249547, 14.155155453563273 ], [ 76.221637838876205, 14.153418078316813 ], [ 76.221626900734719, 14.153296079589651 ], [ 76.222172224752896, 14.153160879238566 ], [ 76.222057683358912, 14.151970396366709 ], [ 76.221928135592961, 14.150596846080285 ], [ 76.22194325390555, 14.150597016849821 ], [ 76.22358782647197, 14.150618381080378 ], [ 76.225654529829356, 14.150616555422927 ], [ 76.22565314171986, 14.150604741737309 ], [ 76.225649633532967, 14.150505567685082 ], [ 76.225604662600318, 14.149188183488944 ], [ 76.225631998557247, 14.149098843985861 ], [ 76.225913833939146, 14.148032995516262 ], [ 76.225926380473624, 14.1479860090878 ], [ 76.226854732552027, 14.147212352967717 ], [ 76.226967401050004, 14.147119005757469 ], [ 76.226912595719099, 14.145960690311233 ], [ 76.226554759656878, 14.143460718512761 ], [ 76.226607783589017, 14.143317285907676 ], [ 76.226587150268927, 14.143152144499846 ], [ 76.226583071135636, 14.14312549264773 ], [ 76.226637327056892, 14.143113889366418 ], [ 76.227540124070771, 14.142920561040425 ], [ 76.227662206142128, 14.142920959695815 ], [ 76.229467000305632, 14.142999527838155 ], [ 76.229523774065314, 14.143001912254483 ], [ 76.229512189440484, 14.142886052853333 ], [ 76.229510463416773, 14.142868785256573 ], [ 76.229155253556186, 14.139353121328742 ], [ 76.230502931958469, 14.139321807346525 ], [ 76.232939561379482, 14.138188966867334 ], [ 76.234464272363837, 14.137470163145778 ], [ 76.234520783726808, 14.1360892680364 ], [ 76.23455280759984, 14.135002584485054 ], [ 76.234600863773167, 14.133520243724911 ], [ 76.234604840942012, 14.13316539735728 ], [ 76.23462058161978, 14.132780616866443 ], [ 76.234613022395806, 14.132675267841842 ], [ 76.234605476473519, 14.132569634890144 ], [ 76.234603117079303, 14.132536480918954 ], [ 76.234589683025959, 14.132391625456595 ], [ 76.234549823186683, 14.131912788616802 ], [ 76.234508067263647, 14.131344927045081 ], [ 76.234459220072964, 14.130635558331218 ], [ 76.23443641853585, 14.130331111964194 ], [ 76.234425775205651, 14.130188362915904 ], [ 76.234340143533942, 14.129028596572814 ], [ 76.234296511772015, 14.128413842843823 ], [ 76.234293503174712, 14.128354392897482 ], [ 76.234269603949713, 14.127797472750196 ], [ 76.234232919322636, 14.127245105657021 ], [ 76.234201724457648, 14.126675904007172 ], [ 76.234156388030286, 14.126096101300336 ], [ 76.234145492442323, 14.125552564956372 ], [ 76.234095404165032, 14.1255669488264 ], [ 76.233473987329859, 14.125711488298451 ], [ 76.232931889667313, 14.125815948305526 ], [ 76.232313487231494, 14.12592465908611 ], [ 76.232127336979943, 14.125944916863595 ], [ 76.23217725583379, 14.125781713354941 ], [ 76.231277038034335, 14.125164501547555 ], [ 76.230047022166346, 14.124292508948061 ], [ 76.228951047506882, 14.123505688854086 ], [ 76.22592375271779, 14.118164809792736 ], [ 76.225423261255244, 14.117405239923094 ], [ 76.22563492324926, 14.117221830076907 ], [ 76.225565683831263, 14.117091495748101 ], [ 76.225915791200279, 14.116796562874043 ], [ 76.227582233670461, 14.115388938784443 ], [ 76.221278263075504, 14.114661791141909 ], [ 76.221145320728937, 14.114759197813068 ], [ 76.222111596879387, 14.118506793451401 ], [ 76.218570138856435, 14.124937434800115 ], [ 76.218347378081987, 14.125341915773211 ], [ 76.215830691092179, 14.129164309540373 ], [ 76.214752216048211, 14.13079569198133 ], [ 76.2143580378808, 14.130828884041765 ], [ 76.21434881095324, 14.130829661080931 ], [ 76.214344212626202, 14.130850110406818 ], [ 76.214337051897147, 14.130861103170217 ], [ 76.214328535232539, 14.130919829982046 ], [ 76.214170141749705, 14.132012044592415 ], [ 76.214372371016978, 14.133244818441488 ], [ 76.214356939930951, 14.133237514243692 ], [ 76.214203914210785, 14.133293077373114 ], [ 76.210745267502674, 14.134548865115187 ], [ 76.210291468353788, 14.134698032136297 ], [ 76.210063061917936, 14.134387947320453 ], [ 76.21005729315236, 14.134412250858471 ], [ 76.209969835294345, 14.134575615534237 ], [ 76.209871774129411, 14.134758782574142 ], [ 76.209801016558089, 14.134890950710268 ], [ 76.209639108428618, 14.135193379711533 ], [ 76.209386077484751, 14.135666014151136 ], [ 76.205859262118338, 14.139530411668431 ], [ 76.201729219564186, 14.144878380436351 ], [ 76.201745588751933, 14.147149620893716 ], [ 76.201757892678614, 14.147897214636247 ], [ 76.201859698910198, 14.154082504751775 ], [ 76.204178839497132, 14.156400785651428 ], [ 76.202340904833505, 14.158647613902424 ], [ 76.203346667064991, 14.159608696462648 ] ] ] ] } },
{ "type": "Feature", "properties": { "OBJECTID": 248, "KGISHobliID": 494, "KGISHobliCode": "130304", "KGISHobliName": "Kasaba", "BhuCodeHobli": null, "SHAPE.STArea()": 523459597.28598487, "SHAPE.STLength()": 129267.66241153693, "KGISTalukCode": "1303", "created_user": null, "created_date": null, "last_edited_user": "SURESHBV1", "last_edited_date": 1676454502000.0, "_overlap_percent": 0.070475597142743193, "_police_station": "Chitrahalli Gate PS", "_police_feature_index": "180", "_admin_layer": "Hobli", "_geometry_clipped": true }, "geometry": { "type": "MultiPolygon", "coordinates": [ [ [ [ 76.314774828824383, 14.117691317669617 ], [ 76.314693324759503, 14.119163139160676 ], [ 76.314568579849109, 14.119551069336309 ], [ 76.313596571064195, 14.122410227888775 ], [ 76.313527666249044, 14.122301383462661 ], [ 76.313403362390943, 14.122037224031388 ], [ 76.313376524282972, 14.121980166697865 ], [ 76.313053977277107, 14.121293878273276 ], [ 76.312601725450989, 14.120317517136238 ], [ 76.312315440308566, 14.11971935555629 ], [ 76.312137041547885, 14.119322363712421 ], [ 76.311908152067886, 14.118796473547352 ], [ 76.310297125120869, 14.119527808916137 ], [ 76.309222632596487, 14.120025839395478 ], [ 76.308509451934867, 14.120338589538873 ], [ 76.30784613867317, 14.120610386572187 ], [ 76.306951886078778, 14.121028032034099 ], [ 76.306914110014802, 14.121044332636213 ], [ 76.305892572273137, 14.121487419562245 ], [ 76.304329914440686, 14.122254146365325 ], [ 76.304277691781422, 14.12228007367764 ], [ 76.304251654093875, 14.122327781510325 ], [ 76.304280702582361, 14.122398099201195 ], [ 76.305836942379202, 14.121663403249745 ], [ 76.30687405346184, 14.121224026818853 ], [ 76.306912313596499, 14.121207817605276 ], [ 76.307816844356381, 14.120791534713055 ], [ 76.308486078551013, 14.120519186633812 ], [ 76.309204865977733, 14.120204880991949 ], [ 76.310286788377311, 14.119703343300902 ], [ 76.311909717885129, 14.118964029569694 ], [ 76.312133587672605, 14.11948838681519 ], [ 76.31230755688955, 14.119884524136214 ], [ 76.312586131548429, 14.120481806610364 ], [ 76.313023920845993, 14.121456721658888 ], [ 76.313335127735087, 14.12214109681427 ], [ 76.313360975349312, 14.122197938083207 ], [ 76.3134805801987, 14.122460959763506 ], [ 76.313542431938501, 14.122578944883028 ], [ 76.314537718153943, 14.119744487108743 ], [ 76.314674455394922, 14.119355068556599 ], [ 76.314858498994525, 14.117834699071325 ], [ 76.315402828664247, 14.114063808536198 ], [ 76.315419993341052, 14.113944894720413 ], [ 76.315415679850858, 14.113857755842364 ], [ 76.314774828824383, 14.117691317669617 ] ] ], [ [ [ 76.315231108127193, 14.111873580801106 ], [ 76.315382010900493, 14.113177593275184 ], [ 76.315327932563775, 14.112085130934579 ], [ 76.315321730526861, 14.111959837032618 ], [ 76.315316963705683, 14.111863527734499 ], [ 76.315230035554933, 14.111865600261849 ], [ 76.315231108127193, 14.111873580801106 ] ] ], [ [ [ 76.320126602611367, 14.09109994097863 ], [ 76.315283433957887, 14.092127795650994 ], [ 76.314269171140623, 14.095618585654195 ], [ 76.314151734539038, 14.096151445196503 ], [ 76.314177805204935, 14.096156580469493 ], [ 76.312720466402766, 14.103187960605297 ], [ 76.312697232214845, 14.103574342234017 ], [ 76.31293802612727, 14.108313225228521 ], [ 76.312941090789749, 14.108394254033986 ], [ 76.313174985506137, 14.11178228840749 ], [ 76.313255406528526, 14.111777255016063 ], [ 76.313088063740665, 14.108641551997611 ], [ 76.313083947148669, 14.108558315087064 ], [ 76.312841972113119, 14.103666266618685 ], [ 76.312866711560062, 14.10326700952203 ], [ 76.314222663422697, 14.096237932822488 ], [ 76.314196001849737, 14.096232798065765 ], [ 76.314306287014432, 14.09569987355443 ], [ 76.315298667552256, 14.092189912778219 ], [ 76.32018902524689, 14.091097834560234 ], [ 76.322417377358704, 14.09059182463796 ], [ 76.320126602611367, 14.09109994097863 ] ] ], [ [ [ 76.347344471307864, 14.073568485699319 ], [ 76.346598326206646, 14.073498816367218 ], [ 76.346253236577653, 14.073540804780119 ], [ 76.342235119173253, 14.076176391459203 ], [ 76.340874787797631, 14.077058819925226 ], [ 76.335996447745075, 14.080226264287369 ], [ 76.331814179268747, 14.085839840804939 ], [ 76.330985026649131, 14.087251927643036 ], [ 76.330055970731621, 14.088836418150912 ], [ 76.330108065529132, 14.088824136243691 ], [ 76.331018156841481, 14.087253458704561 ], [ 76.331827023970064, 14.085857455261969 ], [ 76.335983388787369, 14.080273111921567 ], [ 76.340890554564055, 14.077096466899148 ], [ 76.342264835137684, 14.076212196181354 ], [ 76.346335255190553, 14.073580032546605 ], [ 76.346683526184393, 14.073537774052252 ], [ 76.347384816913831, 14.073601510135548 ], [ 76.347344471307864, 14.073568485699319 ] ] ], [ [ [ 76.374735969514049, 14.06931985314219 ], [ 76.373418885532814, 14.069642619221009 ], [ 76.365966158805506, 14.071468842930553 ], [ 76.365092271319298, 14.07162620287237 ], [ 76.365028854850323, 14.071637604382081 ], [ 76.363912384241303, 14.07220141761545 ], [ 76.363350141942576, 14.072485345572343 ], [ 76.362766222732901, 14.072780217928162 ], [ 76.361615586267803, 14.073361269495138 ], [ 76.359779916119749, 14.074287412154959 ], [ 76.356195022270271, 14.076106319387154 ], [ 76.356167819550279, 14.076119972152869 ], [ 76.354202831584885, 14.076106250089259 ], [ 76.353990687962479, 14.076105190600789 ], [ 76.353895537752678, 14.076103773730209 ], [ 76.352726722728789, 14.076083870689171 ], [ 76.352568736253062, 14.076082494582243 ], [ 76.352246905466799, 14.077591261096067 ], [ 76.352333950639078, 14.07766790029593 ], [ 76.352681136034946, 14.076114979658579 ], [ 76.35284015406188, 14.076116492733801 ], [ 76.354015388916011, 14.076138930076395 ], [ 76.354110935114562, 14.076140753270563 ], [ 76.354323855778532, 14.076142919268039 ], [ 76.356275350963202, 14.076162760096441 ], [ 76.356302406180802, 14.076148907466676 ], [ 76.359884903877386, 14.074314490125596 ], [ 76.361712330182826, 14.073381985878223 ], [ 76.365085514576108, 14.071646137390299 ], [ 76.365148181902512, 14.071634742814718 ], [ 76.366012405383714, 14.07147760007769 ], [ 76.373829106435565, 14.070056132685115 ], [ 76.374737777191527, 14.069325592055709 ], [ 76.374737970451292, 14.069319750779307 ], [ 76.374735969514049, 14.06931985314219 ] ] ], [ [ [ 76.397580076204221, 14.073222334592343 ], [ 76.393155540380022, 14.07088010908968 ], [ 76.386233104057453, 14.068731530322346 ], [ 76.379613727704012, 14.069070318832273 ], [ 76.383252104469804, 14.069412944674324 ], [ 76.390200621031667, 14.070067088103871 ], [ 76.39852463865509, 14.074926610766529 ], [ 76.402125759197801, 14.077713859442603 ], [ 76.404306521951568, 14.078327193339932 ], [ 76.404724411797872, 14.078111278029921 ], [ 76.397580076204221, 14.073222334592343 ] ] ], [ [ [ 76.40562640743974, 14.077645234955728 ], [ 76.406127572101397, 14.077386293217259 ], [ 76.406186883659842, 14.07742408800306 ], [ 76.40593451081142, 14.071935970686011 ], [ 76.40562640743974, 14.077645234955728 ] ] ], [ [ [ 76.416957533360176, 14.051995243922127 ], [ 76.414966099297615, 14.055641679341514 ], [ 76.417000096658171, 14.05200942474038 ], [ 76.416957533360176, 14.051995243922127 ] ] ], [ [ [ 76.445250494233775, 14.056623741535894 ], [ 76.445164250200364, 14.056628010595572 ], [ 76.44425700450104, 14.056553336689406 ], [ 76.444115484245657, 14.056550164627017 ], [ 76.442897285704873, 14.056524678872503 ], [ 76.441583731210272, 14.056563371713636 ], [ 76.441235782772466, 14.056778643119955 ], [ 76.441035708243248, 14.056791133135606 ], [ 76.433561602360996, 14.057189523802156 ], [ 76.433131582341403, 14.057014893878957 ], [ 76.432684540338371, 14.056833956009127 ], [ 76.432109703977687, 14.056600881378934 ], [ 76.431724145119844, 14.056466064300432 ], [ 76.431546255809394, 14.056406596578654 ], [ 76.431032504035883, 14.056233974662652 ], [ 76.430275130506061, 14.055986869720549 ], [ 76.429198548710175, 14.055646371153969 ], [ 76.428441603416275, 14.055396693975997 ], [ 76.428130927710299, 14.05529246143626 ], [ 76.427654071890984, 14.055124900064401 ], [ 76.427038381133841, 14.054900531088908 ], [ 76.426959866070945, 14.054871809962854 ], [ 76.42665982096841, 14.054767953051469 ], [ 76.426968237292101, 14.054876216078268 ], [ 76.427047356494242, 14.054905450690747 ], [ 76.42767297701424, 14.05513663005808 ], [ 76.428165681975472, 14.055318701862973 ], [ 76.428491606642879, 14.055438608114169 ], [ 76.429271355278146, 14.0557254551625 ], [ 76.430293814398368, 14.056101584584599 ], [ 76.430988010470386, 14.05635695778391 ], [ 76.43146631938491, 14.056530096207895 ], [ 76.431632602533057, 14.056590297155081 ], [ 76.431994984192272, 14.056727166296604 ], [ 76.432591426191337, 14.056952436767988 ], [ 76.433069269857228, 14.057124264733014 ], [ 76.43352908384216, 14.057289599878324 ], [ 76.441086217533226, 14.056893102900737 ], [ 76.441283521161097, 14.056882756340299 ], [ 76.441628574293105, 14.056672235170204 ], [ 76.442923093353187, 14.056647003309735 ], [ 76.444128184931287, 14.056682303564266 ], [ 76.444268586111988, 14.056686416072118 ], [ 76.445164544178269, 14.056765219138825 ], [ 76.445250494233775, 14.056623741535894 ] ] ] ] } },
{ "type": "Feature", "properties": { "OBJECTID": 251, "KGISHobliID": 341, "KGISHobliCode": "130307", "KGISHobliName": "Hireguntanuru", "BhuCodeHobli": null, "SHAPE.STArea()": 231344471.93391481, "SHAPE.STLength()": 100611.11902471626, "KGISTalukCode": "1303", "created_user": null, "created_date": null, "last_edited_user": null, "last_edited_date": null, "_overlap_percent": 0.059900791186372142, "_police_station": "Chitrahalli Gate PS", "_police_feature_index": "180", "_admin_layer": "Hobli", "_geometry_clipped": true }, "geometry": { "type": "MultiPolygon", "coordinates": [ [ [ [ 76.246484601446667, 14.15772246284571 ], [ 76.240854217832222, 14.156892800484657 ], [ 76.240334219379733, 14.157160660147053 ], [ 76.240069758309801, 14.157296969367811 ], [ 76.238040983316282, 14.158345427338643 ], [ 76.237840275929344, 14.158885380812206 ], [ 76.237837441439524, 14.15889299084577 ], [ 76.23783424465779, 14.158892724380625 ], [ 76.235921477763029, 14.15873528717243 ], [ 76.233316329958299, 14.15831021521999 ], [ 76.232447827217442, 14.158320591235166 ], [ 76.230790387514958, 14.158347394000746 ], [ 76.229977778494728, 14.158363947131894 ], [ 76.228721703094934, 14.158384254328499 ], [ 76.228693515562568, 14.158385775423563 ], [ 76.225950077237016, 14.158526497299324 ], [ 76.222016294231693, 14.158680467301506 ], [ 76.221807713600739, 14.158684659751748 ], [ 76.220153268932165, 14.158923893242134 ], [ 76.219494466368189, 14.158846949475441 ], [ 76.217879857727795, 14.158809488220934 ], [ 76.215319820395635, 14.158721297254418 ], [ 76.214642817103638, 14.158696343895047 ], [ 76.212981020033126, 14.158639971259893 ], [ 76.212860479905174, 14.158671345618773 ], [ 76.212654350944092, 14.15865425997516 ], [ 76.211929840959911, 14.158866974982631 ], [ 76.210925743835958, 14.159026784911946 ], [ 76.209607377412468, 14.159303144000447 ], [ 76.206984122354385, 14.159939104084248 ], [ 76.205959787804275, 14.15989192572121 ], [ 76.20559446031227, 14.159914562450215 ], [ 76.205368383938534, 14.159832764996018 ], [ 76.205421265421776, 14.160068486848065 ], [ 76.205596219571049, 14.160133161396351 ], [ 76.205958588249032, 14.160114382454505 ], [ 76.206975026019137, 14.160167942995995 ], [ 76.209583587834388, 14.159544184161623 ], [ 76.210903742861262, 14.159228496214549 ], [ 76.211921788023076, 14.158984867625927 ], [ 76.212661423729131, 14.158744907127531 ], [ 76.21287313286085, 14.158763043042308 ], [ 76.212996843087012, 14.158735627576995 ], [ 76.214694241183253, 14.15883630338754 ], [ 76.215386030521984, 14.158877330887073 ], [ 76.21801433169658, 14.159040192691817 ], [ 76.21968809394177, 14.15918845920212 ], [ 76.220320035599556, 14.159160072162422 ], [ 76.22192012111941, 14.158846739815205 ], [ 76.222123885815577, 14.158837805861404 ], [ 76.226029706996243, 14.158666711152096 ], [ 76.228782892657506, 14.158546050612907 ], [ 76.228811252207109, 14.158544814290359 ], [ 76.230077047320336, 14.158539549982963 ], [ 76.230898685547885, 14.158536128718673 ], [ 76.232518022603514, 14.158460572649918 ], [ 76.233367000534017, 14.158420955472776 ], [ 76.235934593167258, 14.158796367194782 ], [ 76.237858597190325, 14.158968278115395 ], [ 76.23786181260941, 14.15896856437201 ], [ 76.237864684651754, 14.158960874592466 ], [ 76.238068450462777, 14.15841531769618 ], [ 76.240110227613357, 14.157366339383165 ], [ 76.240375741541811, 14.157229927041652 ], [ 76.24089741977788, 14.156961904918679 ], [ 76.24647972019811, 14.157811492947788 ], [ 76.246484601446667, 14.15772246284571 ] ] ], [ [ [ 76.277882064125976, 14.163021732789023 ], [ 76.277736200567773, 14.163353142379723 ], [ 76.277681482841402, 14.163482322597662 ], [ 76.275559981649494, 14.164602316550457 ], [ 76.272167948438394, 14.164024800714845 ], [ 76.269585184801556, 14.163470591601127 ], [ 76.269435543755762, 14.163412275910721 ], [ 76.266673028298456, 14.162338051866271 ], [ 76.266521994599742, 14.162279456830126 ], [ 76.265225608623922, 14.161897702105088 ], [ 76.26506013166329, 14.161849074634745 ], [ 76.264660155145279, 14.161731585638881 ], [ 76.26305536915541, 14.161347734681105 ], [ 76.262442080288309, 14.161201324775798 ], [ 76.261840485938365, 14.16108463199993 ], [ 76.261132071099908, 14.160952527295597 ], [ 76.259709746200571, 14.160712586282372 ], [ 76.2594938939055, 14.160676860685303 ], [ 76.257865354426357, 14.160407671552861 ], [ 76.257627460980629, 14.160368517000277 ], [ 76.256880747443944, 14.160246007034495 ], [ 76.256787290865333, 14.160238146269984 ], [ 76.253780258805847, 14.159994002218708 ], [ 76.252862795438404, 14.160053901117912 ], [ 76.252861647337525, 14.160053860103687 ], [ 76.251047661862913, 14.159987546408454 ], [ 76.250781696845962, 14.159917559435177 ], [ 76.246464610856719, 14.158778984883634 ], [ 76.246459229934842, 14.158871570045996 ], [ 76.250802879611371, 14.16004235427417 ], [ 76.251068135025662, 14.160113847353239 ], [ 76.252879894976246, 14.160189238610933 ], [ 76.252881041259656, 14.160189285962485 ], [ 76.25379821432918, 14.160133959976225 ], [ 76.256799598641464, 14.160391899267502 ], [ 76.256892679899934, 14.160399897587151 ], [ 76.257635477295253, 14.16052315209703 ], [ 76.257872007676724, 14.160562399652541 ], [ 76.259490182998618, 14.160830897249799 ], [ 76.259704699695874, 14.160866491538306 ], [ 76.261119325682799, 14.161105740729147 ], [ 76.261824698336568, 14.161237644471139 ], [ 76.262424376597366, 14.161354231623372 ], [ 76.263036186895249, 14.161500577003871 ], [ 76.264640279268548, 14.161884287924877 ], [ 76.265040636335982, 14.162001688142967 ], [ 76.265206344754432, 14.162050267389898 ], [ 76.266504931151132, 14.16243104507209 ], [ 76.266656198179575, 14.162489430057009 ], [ 76.269425798052865, 14.163558445836815 ], [ 76.269576000589609, 14.163616420461755 ], [ 76.272172094574557, 14.164164077251238 ], [ 76.275589884319942, 14.164729579313036 ], [ 76.277709181273295, 14.163595631953081 ], [ 76.27776187482759, 14.163465648015196 ], [ 76.277901999910199, 14.163132083127987 ], [ 76.278799779611575, 14.160994880798885 ], [ 76.277882064125976, 14.163021732789023 ] ] ], [ [ [ 76.282855736708726, 14.147352447555116 ], [ 76.282565683270249, 14.147630486687065 ], [ 76.281743229729827, 14.148417605170145 ], [ 76.281738801528874, 14.148434423131242 ], [ 76.282490307359851, 14.147718396109685 ], [ 76.282782580035814, 14.147439919423958 ], [ 76.283711873037689, 14.146526785980855 ], [ 76.283727958761446, 14.146487784311862 ], [ 76.282855736708726, 14.147352447555116 ] ] ], [ [ [ 76.288715784579651, 14.138357722442898 ], [ 76.287320292978066, 14.141036015529476 ], [ 76.284696865303459, 14.144039586361828 ], [ 76.28415904882624, 14.145442557359761 ], [ 76.28470007868583, 14.144130768855844 ], [ 76.287351106688433, 14.141109947533071 ], [ 76.288776995313725, 14.138372038785224 ], [ 76.290207890871784, 14.136629988957965 ], [ 76.288715784579651, 14.138357722442898 ] ] ], [ [ [ 76.293784526841264, 14.134210749059029 ], [ 76.293583829914425, 14.134670953333799 ], [ 76.293506714873459, 14.134843547677653 ], [ 76.293310799229587, 14.134986908114259 ], [ 76.293237997970024, 14.135042925682193 ], [ 76.293353439760111, 14.134974157590841 ], [ 76.29356083626466, 14.134851428468924 ], [ 76.293648098352676, 14.134689486305859 ], [ 76.293876205269882, 14.134260229742898 ], [ 76.294093837419553, 14.133860842864602 ], [ 76.293784526841264, 14.134210749059029 ] ] ], [ [ [ 76.302494926617698, 14.125391879206015 ], [ 76.302455209946231, 14.125422050468114 ], [ 76.302369747750447, 14.125556279237825 ], [ 76.301411193396603, 14.126290841219445 ], [ 76.300258918367589, 14.127249272906763 ], [ 76.300211022079438, 14.127291080753775 ], [ 76.299991755922036, 14.127554763987559 ], [ 76.29936091373601, 14.1281798323493 ], [ 76.300048165074884, 14.127595209747268 ], [ 76.300284403270226, 14.127337289806793 ], [ 76.300335344962335, 14.127295758370391 ], [ 76.30155334375587, 14.126302772072922 ], [ 76.302373985886376, 14.125633726744567 ], [ 76.30243984290837, 14.125507299742425 ], [ 76.302474135562875, 14.12547963657506 ], [ 76.302761005181594, 14.124948406479703 ], [ 76.302494926617698, 14.125391879206015 ] ] ], [ [ [ 76.304251654093875, 14.122327781510325 ], [ 76.304189771728758, 14.122441027896189 ], [ 76.304238266710172, 14.122418133044025 ], [ 76.304280702582361, 14.122398099201195 ], [ 76.304251654093875, 14.122327781510325 ] ] ] ] } }
]
}
