{
"type": "FeatureCollection",
"name": "police_station_boundary.writing_20260805_172659",
"crs": { "type": "name", "properties": { "name": "urn:ogc:def:crs:OGC:1.3:CRS84" } },
"features": [
{ "type": "Feature", "properties": { "Shape.STArea()": 153072791.10546449, "Shape.STLength()": 85319.383833641434, "OBJECTID": 950, "KGISPS_BOUNDID": 794, "PS_BOUNDName": "Madhanayakanahally PS", "PS_BOUNDCode": "PSB - 794", "KGISPS_SUB_DIVID": 134, "_source_layer": "Police Station Boundary", "_source_layer_url": "https://kgis.ksrsac.in/kgismaps/rest/services/Home/Home_Department/MapServer/82", "_police_station": "Madhanayakanahally PS" }, "geometry": { "type": "Polygon", "coordinates": [ [ [ 77.45873007323442, 13.162208448659491 ], [ 77.458702413494066, 13.162231095416278 ], [ 77.458658249673078, 13.162248159407278 ], [ 77.457937365658566, 13.162526682218189 ], [ 77.457181785640813, 13.162819788390815 ], [ 77.457180176483149, 13.162819853493321 ], [ 77.457144307822119, 13.162821311904008 ], [ 77.456974819463198, 13.162828207746815 ], [ 77.456055514820406, 13.163147396293866 ], [ 77.455782771512588, 13.163241817091842 ], [ 77.455473519187834, 13.163348880191524 ], [ 77.455400875546658, 13.163374028895339 ], [ 77.455052719721209, 13.163490881127629 ], [ 77.455022658855754, 13.163500972757642 ], [ 77.454864341085866, 13.163556954800571 ], [ 77.454625750140707, 13.163644409655024 ], [ 77.454375290070615, 13.163596637210533 ], [ 77.454341616356501, 13.163590213701058 ], [ 77.454338849707995, 13.163589686312791 ], [ 77.454212107706411, 13.163564328158426 ], [ 77.453669671655987, 13.16347884854463 ], [ 77.453568453126351, 13.163462897290625 ], [ 77.453547273761103, 13.163491316504649 ], [ 77.453441185013418, 13.163633682738226 ], [ 77.453198480925053, 13.163751212960268 ], [ 77.452951504007373, 13.163781132272389 ], [ 77.45229149231082, 13.163869405286933 ], [ 77.451784774031594, 13.164046238851654 ], [ 77.451691241459912, 13.164078877562121 ], [ 77.450802612429101, 13.16438594525844 ], [ 77.450519943023309, 13.164685775774888 ], [ 77.45048604437217, 13.164721733242658 ], [ 77.450165314368959, 13.164533792594545 ], [ 77.449540279385801, 13.164919086107057 ], [ 77.449034364176342, 13.165226639517341 ], [ 77.448340307841221, 13.165629720198613 ], [ 77.448246594987026, 13.165684144201849 ], [ 77.447492416259806, 13.165822591379085 ], [ 77.447034653603282, 13.165904834030032 ], [ 77.4464685496295, 13.166026220351229 ], [ 77.446378077689516, 13.166045618757675 ], [ 77.446352078718704, 13.166051192915322 ], [ 77.445411562263871, 13.166271509782895 ], [ 77.444781345770664, 13.166416905794431 ], [ 77.444705282676026, 13.166422917155234 ], [ 77.444153756609808, 13.16657378977361 ], [ 77.442964768454218, 13.166865573018178 ], [ 77.442416307647719, 13.166673064122479 ], [ 77.44236497623362, 13.166655047876809 ], [ 77.442195791979287, 13.166648919056721 ], [ 77.4421099606068, 13.166643571463213 ], [ 77.440720014382919, 13.166653510071328 ], [ 77.440664898919891, 13.166653905254707 ], [ 77.439999277925281, 13.166633379212549 ], [ 77.439726151495606, 13.166624957603595 ], [ 77.439127213238464, 13.166675157857942 ], [ 77.438549691799153, 13.166614203467898 ], [ 77.437619680015331, 13.166490069311738 ], [ 77.437470364955772, 13.166470139679069 ], [ 77.437346604448706, 13.166429870120393 ], [ 77.43622829727903, 13.166065993562976 ], [ 77.435340284434687, 13.166122228657484 ], [ 77.435305717307159, 13.16612441806166 ], [ 77.435015560819352, 13.165984641524682 ], [ 77.434461225855415, 13.165717601248776 ], [ 77.434176602164442, 13.165737189759913 ], [ 77.433445549932912, 13.165787506066343 ], [ 77.433414827829097, 13.165789622597222 ], [ 77.433365196779931, 13.165793036139185 ], [ 77.432606165966263, 13.165002959668762 ], [ 77.43247095711088, 13.164862219255564 ], [ 77.432384341508822, 13.164625369085213 ], [ 77.4321876239364, 13.164087458109481 ], [ 77.431894786828934, 13.163280359769646 ], [ 77.431894029566379, 13.163278275285398 ], [ 77.431579211820363, 13.162478705808297 ], [ 77.431263230458896, 13.161625520521026 ], [ 77.431249085713944, 13.161534005378364 ], [ 77.43112902770136, 13.160757170741766 ], [ 77.431120375105763, 13.160628976404118 ], [ 77.430946627806136, 13.16010877353475 ], [ 77.43081058527072, 13.159701454970318 ], [ 77.430800275232329, 13.159670582446624 ], [ 77.429809415943481, 13.158913148044929 ], [ 77.429683831044898, 13.158817151713345 ], [ 77.429663794779501, 13.15875183205392 ], [ 77.42955481254549, 13.158396544185564 ], [ 77.428999542345537, 13.157602916670781 ], [ 77.428130598370416, 13.156160261367459 ], [ 77.427164192595356, 13.154555774565312 ], [ 77.427148926137235, 13.154526902058256 ], [ 77.426593639946077, 13.153476770896566 ], [ 77.426119564695099, 13.152580210429067 ], [ 77.425529452713107, 13.151464191914402 ], [ 77.425478891708451, 13.151368571816839 ], [ 77.425091576550173, 13.150779856224736 ], [ 77.425063415377522, 13.150737049049896 ], [ 77.424569128310807, 13.149739499966083 ], [ 77.424210941798307, 13.148954088654275 ], [ 77.42418069497036, 13.148887768540034 ], [ 77.424078107371884, 13.148662820569564 ], [ 77.423897479725369, 13.14826674831829 ], [ 77.423660511251796, 13.147760832956536 ], [ 77.423405030059996, 13.147215405131226 ], [ 77.423354128816896, 13.147106726067753 ], [ 77.423299858531024, 13.147032187987229 ], [ 77.422961393656095, 13.146567298770382 ], [ 77.422496471316137, 13.145928719109969 ], [ 77.422461805752633, 13.145881103669105 ], [ 77.422430712106063, 13.14583839686175 ], [ 77.422359282011186, 13.145539872017684 ], [ 77.422344984993146, 13.14548011437982 ], [ 77.422250441533293, 13.145335116937913 ], [ 77.422095414810002, 13.14509736108131 ], [ 77.4219121349727, 13.144798617325041 ], [ 77.421767819118131, 13.144563382240339 ], [ 77.421748889256264, 13.14453253064697 ], [ 77.421664315493956, 13.144353229337563 ], [ 77.421426442675426, 13.143958453477723 ], [ 77.421071620096754, 13.143394824658737 ], [ 77.420975481415041, 13.143242109969888 ], [ 77.420633319390461, 13.142739393677099 ], [ 77.420618485456998, 13.142717601044154 ], [ 77.420521319953735, 13.142412183241776 ], [ 77.42049262018952, 13.14232196921335 ], [ 77.420457031357358, 13.142210098216808 ], [ 77.420420689304535, 13.142095873370501 ], [ 77.420335176445931, 13.141956827145966 ], [ 77.419966782104922, 13.141357809359315 ], [ 77.419692281372221, 13.140494944868717 ], [ 77.419683406273862, 13.14046705049372 ], [ 77.419604054993314, 13.140044147562724 ], [ 77.419522122473552, 13.139607488145742 ], [ 77.419516116755375, 13.13957548096152 ], [ 77.418919783237911, 13.138434578962837 ], [ 77.418254271661752, 13.137161302409414 ], [ 77.418285013287758, 13.137139656356116 ], [ 77.4182531144682, 13.137102357626016 ], [ 77.417740447646935, 13.136502869996468 ], [ 77.417666907367376, 13.136436735218643 ], [ 77.417433695461256, 13.136164532667422 ], [ 77.41739189902799, 13.136092471157658 ], [ 77.416864795141976, 13.135183680982596 ], [ 77.416809071933343, 13.135091299598322 ], [ 77.416723854832028, 13.134950030412716 ], [ 77.416427630465677, 13.134344826833132 ], [ 77.416138594832901, 13.133754307142235 ], [ 77.416099901310815, 13.133675250760822 ], [ 77.416083530096927, 13.133641807484246 ], [ 77.416032037949947, 13.133556839334789 ], [ 77.41596445411119, 13.133445319238309 ], [ 77.415920822852016, 13.133368326802376 ], [ 77.415856277607261, 13.133298075164328 ], [ 77.415596797430396, 13.132944045888452 ], [ 77.415096797509804, 13.131945281077769 ], [ 77.415094413882073, 13.131940515618897 ], [ 77.415029289810306, 13.131810427820215 ], [ 77.414974113647887, 13.131698020963208 ], [ 77.414756935606889, 13.131220451743085 ], [ 77.414687704854401, 13.131117618712157 ], [ 77.414432306340174, 13.130588964041705 ], [ 77.414391032905613, 13.130524363645579 ], [ 77.414374959801805, 13.130499204631777 ], [ 77.414329250988175, 13.130394875733419 ], [ 77.413849996724366, 13.129462769219959 ], [ 77.413759620072994, 13.129550416689851 ], [ 77.413718717680894, 13.129416936818689 ], [ 77.413379196669453, 13.128308954667467 ], [ 77.413032294006584, 13.127140620182752 ], [ 77.412920562990791, 13.126764321435944 ], [ 77.412891270106769, 13.126674170005318 ], [ 77.412798737386652, 13.126389402986659 ], [ 77.412786737561262, 13.126381228269649 ], [ 77.411177681433259, 13.125284932736591 ], [ 77.41107973713946, 13.125218735662417 ], [ 77.410940865300063, 13.125079243780013 ], [ 77.41091510715205, 13.125053371932664 ], [ 77.410782792584541, 13.124920467641484 ], [ 77.410589429416191, 13.124726241809629 ], [ 77.409426610977562, 13.123558229280528 ], [ 77.409270009340233, 13.123400928944246 ], [ 77.40923877861043, 13.123266502436186 ], [ 77.409210503942205, 13.123144799017222 ], [ 77.409092249009575, 13.122635790142947 ], [ 77.409090171578598, 13.122626852784704 ], [ 77.408246100861334, 13.122204741548803 ], [ 77.408244810398969, 13.122204095846714 ], [ 77.407204494891289, 13.121683837376203 ], [ 77.407203174786844, 13.121683176585 ], [ 77.407081935129014, 13.121622546241412 ], [ 77.406756318549569, 13.121459702965936 ], [ 77.406539675543982, 13.121351361128811 ], [ 77.40610774672092, 13.121141086507974 ], [ 77.406104316780969, 13.121139417203162 ], [ 77.406104030284808, 13.121142564212619 ], [ 77.406088219820646, 13.121316721831963 ], [ 77.405978329276763, 13.121310229015522 ], [ 77.405426474630644, 13.121277627639754 ], [ 77.404637056515242, 13.121011176759994 ], [ 77.404566083597146, 13.120987220106903 ], [ 77.404154057205218, 13.121052737222058 ], [ 77.404142950052929, 13.121001501579133 ], [ 77.404125941652268, 13.120923022269011 ], [ 77.403517371050157, 13.120960307031492 ], [ 77.403472550484224, 13.120960496109005 ], [ 77.403448502543867, 13.120960406255133 ], [ 77.40339168817232, 13.120960192305235 ], [ 77.403390367080775, 13.120960187474974 ], [ 77.403345039613981, 13.12096247658487 ], [ 77.40342721909883, 13.121166357566581 ], [ 77.403452340421268, 13.121228684413651 ], [ 77.403565917293548, 13.121512019866294 ], [ 77.403672110059418, 13.121776942181604 ], [ 77.403707624853865, 13.121865540953594 ], [ 77.403911352926329, 13.123152322073237 ], [ 77.403982083627099, 13.123615115475529 ], [ 77.404061270348777, 13.124106540822389 ], [ 77.404164723792505, 13.124724334023144 ], [ 77.404149864851689, 13.12486223265487 ], [ 77.40411123489632, 13.125402140592911 ], [ 77.404062273908934, 13.126219301866453 ], [ 77.404060017983412, 13.12625701339409 ], [ 77.404016602995981, 13.12666315385437 ], [ 77.403973634191942, 13.127065125714894 ], [ 77.403886201039512, 13.127883078425645 ], [ 77.403772369496835, 13.127884683386956 ], [ 77.403587476559451, 13.127887282092599 ], [ 77.402169992696599, 13.127907240885815 ], [ 77.40163525858776, 13.127914768338547 ], [ 77.401263985108287, 13.127908113784065 ], [ 77.400546851795994, 13.127895259815901 ], [ 77.400531613947223, 13.127889117851671 ], [ 77.399642304394789, 13.127530638592134 ], [ 77.399622087258251, 13.127481572132469 ], [ 77.399180659092778, 13.126410175606127 ], [ 77.399167235846946, 13.126365784824102 ], [ 77.398979259025253, 13.125744177749803 ], [ 77.398938916779912, 13.125486021905482 ], [ 77.398899462113519, 13.125233530231917 ], [ 77.398898569381942, 13.125227796511698 ], [ 77.398797762364822, 13.124579151702182 ], [ 77.398624287280825, 13.123462896175027 ], [ 77.398424365707612, 13.122777901606501 ], [ 77.398235198342007, 13.121659288625432 ], [ 77.398217540781474, 13.121554861163251 ], [ 77.39810230904007, 13.121563830166181 ], [ 77.398117946060452, 13.121427655284744 ], [ 77.398142825107612, 13.121211005607579 ], [ 77.398300865557559, 13.120454659154907 ], [ 77.398253058204986, 13.120200255282882 ], [ 77.398233451212008, 13.120095935412373 ], [ 77.398184086112607, 13.119833264091167 ], [ 77.398091375976293, 13.119296493209323 ], [ 77.398032500478692, 13.118955597157099 ], [ 77.397998591670984, 13.118772829773185 ], [ 77.397938628434758, 13.118471733340996 ], [ 77.397910970350495, 13.118342040853529 ], [ 77.397874856928325, 13.118172702613643 ], [ 77.397802393592997, 13.117832907891614 ], [ 77.397685734891269, 13.117285870306812 ], [ 77.397641364555341, 13.117101485278337 ], [ 77.397507114072198, 13.116542658262569 ], [ 77.397408788601268, 13.116133552498429 ], [ 77.397525405445961, 13.116103865589777 ], [ 77.397559637162061, 13.116095151027963 ], [ 77.39756965518022, 13.116092601887734 ], [ 77.39913118872974, 13.115695032080225 ], [ 77.399622518414915, 13.115569197966781 ], [ 77.400103431471194, 13.115446029787639 ], [ 77.40039553992834, 13.115371215233534 ], [ 77.400499082513008, 13.115339955736466 ], [ 77.400527497659297, 13.115325034366808 ], [ 77.400587251918679, 13.115293657240466 ], [ 77.400609394465732, 13.115282029950263 ], [ 77.400797557029037, 13.115228581730355 ], [ 77.401394091541988, 13.115059137786494 ], [ 77.401884739749505, 13.114002843170514 ], [ 77.401721070354469, 13.113601042990606 ], [ 77.401145927572657, 13.112195710942251 ], [ 77.4012635511681, 13.112063717365462 ], [ 77.401092523050721, 13.11155917037096 ], [ 77.400863158405699, 13.11087423527319 ], [ 77.400682273713429, 13.110336857029081 ], [ 77.400853240464173, 13.110024513649577 ], [ 77.401160971607609, 13.109458407201707 ], [ 77.401161054117864, 13.109458360351621 ], [ 77.401272135435732, 13.109397813579536 ], [ 77.401409849715662, 13.109338637621416 ], [ 77.401409971825899, 13.109338586787887 ], [ 77.401512822198569, 13.109295729505872 ], [ 77.401615659677688, 13.109252877729872 ], [ 77.401670164164585, 13.109215868048389 ], [ 77.401724666781831, 13.109178857471809 ], [ 77.401724737335456, 13.109178813443695 ], [ 77.401765988468014, 13.109153658974405 ], [ 77.401803664709675, 13.10913068646809 ], [ 77.401878420482461, 13.109094116784552 ], [ 77.401878473698233, 13.109094090989029 ], [ 77.402328182334287, 13.108799002199824 ], [ 77.402329679985641, 13.10879801963045 ], [ 77.402330623471826, 13.108797401840896 ], [ 77.402412183513221, 13.108743881290993 ], [ 77.402560774938053, 13.108646849595278 ], [ 77.402601948241326, 13.108619964550739 ], [ 77.402629205656169, 13.108606660392716 ], [ 77.402846354704977, 13.10850067013808 ], [ 77.403419043402238, 13.108217619853596 ], [ 77.403604800428297, 13.108112828214075 ], [ 77.403863123739555, 13.10796024753428 ], [ 77.404083384503522, 13.107866967360534 ], [ 77.404196229041659, 13.107819180130129 ], [ 77.4045293347871, 13.107678108736648 ], [ 77.404724750893962, 13.107595355891069 ], [ 77.404786006504864, 13.107569412525867 ], [ 77.404826917335896, 13.107552087340119 ], [ 77.405228124393986, 13.10738272913375 ], [ 77.405752125098743, 13.107095342092361 ], [ 77.405955277474504, 13.106850002020439 ], [ 77.406048294246531, 13.106808721381732 ], [ 77.406616225851977, 13.106558912136329 ], [ 77.406816791043923, 13.106590365674364 ], [ 77.40708143165746, 13.106360854335737 ], [ 77.407907756016527, 13.105959071980379 ], [ 77.409061191157036, 13.105432867864003 ], [ 77.409941044652655, 13.105032444385106 ], [ 77.410246740571168, 13.104893350650999 ], [ 77.410643391335284, 13.10471255291791 ], [ 77.410742666349449, 13.104667302657775 ], [ 77.411640324182429, 13.104317915841701 ], [ 77.412216822994367, 13.104061588068019 ], [ 77.41243076505431, 13.103966465325581 ], [ 77.412609270772634, 13.103936402059288 ], [ 77.412692744165128, 13.10392234385046 ], [ 77.412786179707439, 13.103906606619329 ], [ 77.412877360532036, 13.103891250982249 ], [ 77.412879616127213, 13.103890866637313 ], [ 77.413697976338653, 13.103751463271962 ], [ 77.414133893267348, 13.103673678746214 ], [ 77.414335822417044, 13.10364202242029 ], [ 77.415538880232702, 13.103424324025545 ], [ 77.415934761113078, 13.103367731266808 ], [ 77.416066131844502, 13.103338302820323 ], [ 77.416173789485015, 13.103314189002425 ], [ 77.416890230743277, 13.103192128207139 ], [ 77.416890565709295, 13.103192069949596 ], [ 77.417096798634716, 13.103155229175755 ], [ 77.417160924138571, 13.103126682147511 ], [ 77.417836145416317, 13.102826096997951 ], [ 77.417909076641919, 13.102785184502357 ], [ 77.417662794942942, 13.101967890030959 ], [ 77.41762152846394, 13.101830946685469 ], [ 77.41742318971859, 13.101172753994911 ], [ 77.417295837427645, 13.100795861321716 ], [ 77.417252418136442, 13.100639935727928 ], [ 77.417252399005633, 13.100639864527849 ], [ 77.417244774837968, 13.100612474808264 ], [ 77.417222124341208, 13.100531139336592 ], [ 77.417057732915865, 13.100107146304266 ], [ 77.41673120146632, 13.09925653721578 ], [ 77.416731132366053, 13.099256351734784 ], [ 77.416703127977172, 13.099181101092229 ], [ 77.416526516269826, 13.098706512675754 ], [ 77.416517967274416, 13.098684366679928 ], [ 77.416304881972607, 13.098132153555561 ], [ 77.41642533427148, 13.098091296766938 ], [ 77.416479685053517, 13.09807286016596 ], [ 77.416584792533584, 13.098037211490457 ], [ 77.416634899929321, 13.098020433781516 ], [ 77.416896884129486, 13.097932743212301 ], [ 77.417319866169592, 13.097793034944237 ], [ 77.417591633576393, 13.097703271450222 ], [ 77.417757099370263, 13.097648619592478 ], [ 77.41775719767395, 13.097648586143139 ], [ 77.417983278324911, 13.097575973447567 ], [ 77.418220526256292, 13.097504411442888 ], [ 77.418260632632808, 13.097492313624382 ], [ 77.418369764821037, 13.097459394984119 ], [ 77.418529106654432, 13.097411331804631 ], [ 77.418718522141575, 13.097338146328287 ], [ 77.418782852067906, 13.097313805018338 ], [ 77.419370285698932, 13.097091556739969 ], [ 77.419877462781315, 13.096899671342506 ], [ 77.419962409437588, 13.096837559073522 ], [ 77.419993817566521, 13.096814594515052 ], [ 77.420047351458194, 13.09677544863384 ], [ 77.420077024265964, 13.096753750851963 ], [ 77.420106695216091, 13.096732052181391 ], [ 77.420081787971014, 13.096699971920925 ], [ 77.420059865129829, 13.096671728970309 ], [ 77.419984932594105, 13.096546923024995 ], [ 77.419888043900357, 13.096385543777368 ], [ 77.419778253140677, 13.096156394731507 ], [ 77.419671974525073, 13.096099839645653 ], [ 77.419670073182459, 13.096098829265699 ], [ 77.419576162620999, 13.095836041446534 ], [ 77.419564683545971, 13.095803926344216 ], [ 77.41946754727212, 13.09553209901283 ], [ 77.4192452849218, 13.095562778903108 ], [ 77.41908356745671, 13.095585100244048 ], [ 77.41899973064595, 13.095408570402304 ], [ 77.41881137961866, 13.09501512308208 ], [ 77.418771820811941, 13.094932488933237 ], [ 77.419053794619828, 13.094785398694029 ], [ 77.419020422256537, 13.094693469687844 ], [ 77.418877920739448, 13.094496417816321 ], [ 77.418872948702017, 13.094465636672858 ], [ 77.41885854199235, 13.094384587194995 ], [ 77.418846345328319, 13.094315963207842 ], [ 77.418846311146609, 13.094315766557388 ], [ 77.418769849081798, 13.094230807715359 ], [ 77.418693422429641, 13.094145882843717 ], [ 77.418693383635286, 13.094145780204368 ], [ 77.418582297057512, 13.093878162571087 ], [ 77.418541196960277, 13.093779149010858 ], [ 77.418387397532925, 13.093408624969687 ], [ 77.418302360405988, 13.093258745834149 ], [ 77.418172878583121, 13.093070396980945 ], [ 77.418172805669585, 13.093070292854309 ], [ 77.418055116985997, 13.092897238637709 ], [ 77.417678500370059, 13.092337285591666 ], [ 77.417528723402754, 13.092124466243794 ], [ 77.417356591440139, 13.091807908746608 ], [ 77.416987707594885, 13.091132315439708 ], [ 77.416832978232591, 13.090925415768584 ], [ 77.417152827577311, 13.090715163733847 ], [ 77.417361011477126, 13.090578309754312 ], [ 77.417690816966399, 13.090412879665603 ], [ 77.418175986590441, 13.090169517182337 ], [ 77.418274578310047, 13.090120068306049 ], [ 77.418489520899186, 13.090014364741821 ], [ 77.419020622504561, 13.089753184362287 ], [ 77.419155227824675, 13.089706325808043 ], [ 77.419464869776235, 13.089598540672727 ], [ 77.419821259207112, 13.089474478549882 ], [ 77.419959418119234, 13.08943561421103 ], [ 77.420132166272097, 13.089387014931871 ], [ 77.420561266897522, 13.089256645142612 ], [ 77.420844977209939, 13.089181258741545 ], [ 77.421128686393018, 13.089105873873375 ], [ 77.421505848257823, 13.089057957155138 ], [ 77.421883009869262, 13.08901003900665 ], [ 77.421806087781462, 13.088777517082347 ], [ 77.421800162902272, 13.088759601382417 ], [ 77.421785877178849, 13.0887164317458 ], [ 77.421780653715558, 13.088701625754569 ], [ 77.421675702208333, 13.088404245460287 ], [ 77.421327236061231, 13.087328046640334 ], [ 77.421307399181913, 13.08710070163281 ], [ 77.42130327188184, 13.087053353510747 ], [ 77.421291053050979, 13.086913280934352 ], [ 77.421394800439359, 13.086877195774143 ], [ 77.421195968340399, 13.086286318615306 ], [ 77.421122759838298, 13.086097196150101 ], [ 77.421103690153259, 13.086047932691388 ], [ 77.421083040585728, 13.085719382881935 ], [ 77.4210735200122, 13.085567892241082 ], [ 77.420883757147891, 13.085338066631987 ], [ 77.420890635597615, 13.085119874814026 ], [ 77.420818043753201, 13.084999309435881 ], [ 77.420888347293754, 13.084926395796204 ], [ 77.420958659912714, 13.084853472119716 ], [ 77.421072178700996, 13.084735736008744 ], [ 77.421409360084496, 13.084386029631714 ], [ 77.421477708712914, 13.084315140081539 ], [ 77.421593631912017, 13.084239979371194 ], [ 77.422027057237329, 13.083958955893962 ], [ 77.422114645094908, 13.08390216601893 ], [ 77.422326938552459, 13.083807276162064 ], [ 77.422565929981999, 13.083784604486963 ], [ 77.423017530649744, 13.083741766160454 ], [ 77.423202347728733, 13.083784183697402 ], [ 77.423557181972043, 13.083865629946159 ], [ 77.423558409075909, 13.083867262854588 ], [ 77.424031023870057, 13.084496091997206 ], [ 77.424314155472743, 13.084734863601939 ], [ 77.424356817316507, 13.084773207218541 ], [ 77.424651726483233, 13.085038279793897 ], [ 77.425092251596524, 13.085008872332242 ], [ 77.425180192293212, 13.085003004945499 ], [ 77.425184811126087, 13.085003859644218 ], [ 77.425675463563351, 13.085094997530211 ], [ 77.42595736138189, 13.085106487460573 ], [ 77.426408793754234, 13.085064834419526 ], [ 77.426671589655982, 13.085007113670608 ], [ 77.426938900995609, 13.084942903493083 ], [ 77.426939008500241, 13.084942869051167 ], [ 77.427234520510552, 13.084847378664357 ], [ 77.42735673342095, 13.084846593979252 ], [ 77.427498460746705, 13.084845683466725 ], [ 77.427742134829515, 13.084765559618685 ], [ 77.428020209093049, 13.084674124000573 ], [ 77.428127530577825, 13.084625159094109 ], [ 77.428817997396237, 13.084310136016642 ], [ 77.42893487365761, 13.084256808083833 ], [ 77.429419641372675, 13.084035630767222 ], [ 77.429643137130924, 13.083899141495442 ], [ 77.429824181587833, 13.083788573864297 ], [ 77.430005225877778, 13.083678007036896 ], [ 77.430069215981689, 13.083486034725345 ], [ 77.430007863766065, 13.083429231033941 ], [ 77.429816586317983, 13.083252116771721 ], [ 77.429563947812909, 13.083018188631934 ], [ 77.429499222210865, 13.082609425964691 ], [ 77.429342108236881, 13.082173763820212 ], [ 77.42928419967717, 13.082008340112706 ], [ 77.429109021489154, 13.081646774693391 ], [ 77.428869496302298, 13.080918230735534 ], [ 77.428713084402744, 13.080420994513963 ], [ 77.428644265596702, 13.080218660878913 ], [ 77.428516419417278, 13.079842773737807 ], [ 77.42846741742926, 13.079738888550835 ], [ 77.428066734895623, 13.078889378203517 ], [ 77.428037053173753, 13.07873728746889 ], [ 77.428001997559889, 13.07855765609377 ], [ 77.427950990117751, 13.078470869967239 ], [ 77.427886722563329, 13.07836151722061 ], [ 77.427606568901425, 13.077546966134003 ], [ 77.42746589025414, 13.07727350834644 ], [ 77.427447967597232, 13.077237778601582 ], [ 77.427368958053719, 13.077080279434576 ], [ 77.427220484692555, 13.076686554922846 ], [ 77.427205526516815, 13.076646891301543 ], [ 77.427140843365621, 13.076271203103802 ], [ 77.42711077289924, 13.076022253358426 ], [ 77.426933455685159, 13.075734820245433 ], [ 77.426908259948618, 13.075693977030305 ], [ 77.426899897059158, 13.07551621946887 ], [ 77.426873470383214, 13.074954589285703 ], [ 77.426869709429397, 13.074874629389923 ], [ 77.426560537073996, 13.073617982885397 ], [ 77.426403124615263, 13.073168892285455 ], [ 77.425851217568464, 13.07147747320723 ], [ 77.425850775686456, 13.071476112117383 ], [ 77.425850697926137, 13.071475888771252 ], [ 77.425626345852265, 13.070828373657909 ], [ 77.425602135441537, 13.070758495786503 ], [ 77.425602027281599, 13.070758179661656 ], [ 77.425506588614411, 13.070482726279238 ], [ 77.425421478897078, 13.070225146230007 ], [ 77.42540141041755, 13.07016439759002 ], [ 77.425306459148857, 13.069736428222171 ], [ 77.425210296844668, 13.069319453493625 ], [ 77.425206570588443, 13.069309080661293 ], [ 77.425053530991022, 13.068882868978028 ], [ 77.424894030189293, 13.068428909657946 ], [ 77.424883387414312, 13.06839896521376 ], [ 77.424872739849249, 13.068369001839395 ], [ 77.424752311790982, 13.068030159988339 ], [ 77.424668078821753, 13.067793157299441 ], [ 77.424628823987561, 13.067682706228794 ], [ 77.423848321189453, 13.067655244452498 ], [ 77.422912872851555, 13.067654601245005 ], [ 77.422769556004013, 13.067651752059344 ], [ 77.42136704086488, 13.067623858460463 ], [ 77.420796651802164, 13.067612511215303 ], [ 77.420375867266372, 13.067750652808094 ], [ 77.420287599916421, 13.067779630416464 ], [ 77.419453369464932, 13.068053499001637 ], [ 77.418600815409704, 13.068347568201872 ], [ 77.417689235604044, 13.068677547376986 ], [ 77.41692935546223, 13.068911731424084 ], [ 77.416722074657571, 13.068992418819791 ], [ 77.416714632258675, 13.069004168511491 ], [ 77.416273721913498, 13.069700497221131 ], [ 77.41545830931129, 13.070988261144043 ], [ 77.415447400236303, 13.071005490685412 ], [ 77.415265747273011, 13.071375259463727 ], [ 77.414788527196279, 13.072346693280004 ], [ 77.414048455737159, 13.072385576928887 ], [ 77.412329732508951, 13.072475874300567 ], [ 77.412251959706765, 13.07247995924522 ], [ 77.41168264064531, 13.072394004271544 ], [ 77.411413399688158, 13.072353357121431 ], [ 77.410711520232539, 13.072247388116638 ], [ 77.410208588562185, 13.072171452834382 ], [ 77.409536795139374, 13.072070023694343 ], [ 77.408459821610336, 13.071907413124908 ], [ 77.408385531676103, 13.071896195398494 ], [ 77.408309184307441, 13.071884668848742 ], [ 77.407231888499382, 13.071644753044234 ], [ 77.406555835583703, 13.071494189842216 ], [ 77.406311827594976, 13.071439846323974 ], [ 77.404706102084788, 13.07136825044728 ], [ 77.404466053598199, 13.071357545698961 ], [ 77.403911177511063, 13.071128321697374 ], [ 77.403792836838065, 13.071079432562911 ], [ 77.402763106689392, 13.071197510629458 ], [ 77.401946530815479, 13.071288791916498 ], [ 77.401335252363936, 13.07135810499315 ], [ 77.401160075560838, 13.071377968220025 ], [ 77.400705303710765, 13.071313083399277 ], [ 77.400426306647418, 13.071273278456843 ], [ 77.399641636582174, 13.071360382554589 ], [ 77.39923210244902, 13.071405842788916 ], [ 77.398557117144961, 13.071480767707737 ], [ 77.398515919329625, 13.071485341885417 ], [ 77.397740377539378, 13.071571428591209 ], [ 77.397727857794337, 13.071572818831603 ], [ 77.397290467385204, 13.071621368246394 ], [ 77.397222057994895, 13.070646205503831 ], [ 77.396908544521878, 13.069827731458298 ], [ 77.396621416641025, 13.069819769969911 ], [ 77.396164979290447, 13.069807113623391 ], [ 77.396063381288243, 13.069804298227698 ], [ 77.395235341726931, 13.06978133770262 ], [ 77.395236063127172, 13.069580140520159 ], [ 77.394962157056653, 13.069664005493932 ], [ 77.394675816635953, 13.069520991245691 ], [ 77.394497505213948, 13.069431932039251 ], [ 77.394162493175187, 13.069271843889091 ], [ 77.394059171600418, 13.069222471777772 ], [ 77.393987443279357, 13.069225249068101 ], [ 77.393048980390773, 13.069261585585849 ], [ 77.392519913801081, 13.069282068274825 ], [ 77.392009706880827, 13.069301824077456 ], [ 77.391217426342521, 13.069332493030826 ], [ 77.38984143367918, 13.069378825106327 ], [ 77.389729558746396, 13.06926524133857 ], [ 77.389151437009232, 13.068678297935408 ], [ 77.388161117655798, 13.067645545530249 ], [ 77.387083170532748, 13.067426421908976 ], [ 77.386897888667193, 13.067374320643744 ], [ 77.38675946288194, 13.067335396643772 ], [ 77.386544778986263, 13.067348453954882 ], [ 77.385682169377603, 13.067400910583501 ], [ 77.38554381688445, 13.067409321762756 ], [ 77.38522668366511, 13.067428606199343 ], [ 77.385184496069485, 13.067431171474714 ], [ 77.385122083770639, 13.067434966173298 ], [ 77.384921192043151, 13.067302801305642 ], [ 77.384677345893238, 13.067142375453951 ], [ 77.38409788855013, 13.066774735868504 ], [ 77.384097572323512, 13.066774534582157 ], [ 77.383980578120557, 13.066455406173841 ], [ 77.383724398332504, 13.065756632735852 ], [ 77.383724197485648, 13.065453430606373 ], [ 77.383724161363602, 13.065400316073671 ], [ 77.383724138134809, 13.065365539170349 ], [ 77.383724111034468, 13.065325078007229 ], [ 77.38392950209186, 13.065267450602073 ], [ 77.383562384314629, 13.06408586637367 ], [ 77.383515974971516, 13.063936500452217 ], [ 77.383263749074416, 13.063124712674652 ], [ 77.383048859747404, 13.062618844599006 ], [ 77.383047833485321, 13.062616012364657 ], [ 77.383025743331487, 13.062554956466851 ], [ 77.382998936420279, 13.062480869537367 ], [ 77.382933206856151, 13.062299212993583 ], [ 77.382764388796247, 13.06184630381021 ], [ 77.382677511859058, 13.061613222582819 ], [ 77.382676836069606, 13.061608973041817 ], [ 77.38258486517536, 13.061028412953133 ], [ 77.382394036141918, 13.059883357947042 ], [ 77.382394005840212, 13.059883177514129 ], [ 77.382185902135376, 13.058923255527519 ], [ 77.382186834200951, 13.058833119418841 ], [ 77.382212908000895, 13.057799771635416 ], [ 77.382220082178875, 13.057520514135113 ], [ 77.382222600849488, 13.057055780328028 ], [ 77.382235137594733, 13.056624945274228 ], [ 77.382235147317914, 13.056624613577631 ], [ 77.382235206502358, 13.056620884938363 ], [ 77.382248394830441, 13.055782104908479 ], [ 77.382324180792423, 13.055780007018994 ], [ 77.38232656906473, 13.055779941642751 ], [ 77.382378975084194, 13.055775279802424 ], [ 77.38325130240483, 13.055697698061623 ], [ 77.384156353273397, 13.055620198443908 ], [ 77.384819640410115, 13.05556472454224 ], [ 77.384820160718292, 13.055564680890146 ], [ 77.385425201669804, 13.055452483231496 ], [ 77.385588712983136, 13.055420264498885 ], [ 77.386264790982324, 13.05518222418209 ], [ 77.386933391239026, 13.054957824586774 ], [ 77.387190058851047, 13.055005121909511 ], [ 77.388784883235488, 13.055299013211853 ], [ 77.389107749938503, 13.05535851025834 ], [ 77.389598551835107, 13.05544895223283 ], [ 77.389875647731969, 13.055460173158929 ], [ 77.39129681296663, 13.055369289763396 ], [ 77.391773632931489, 13.055334771232927 ], [ 77.391824451544835, 13.05533109261968 ], [ 77.391887327733571, 13.055028624003949 ], [ 77.391918798013606, 13.054877242120252 ], [ 77.391924510495727, 13.054849779013002 ], [ 77.391924745169561, 13.054849647633684 ], [ 77.392111565423576, 13.054744942071608 ], [ 77.392297927128496, 13.054640490022937 ], [ 77.392297896646895, 13.054640195745868 ], [ 77.392269988579372, 13.054363373239152 ], [ 77.392261284014097, 13.054277031398197 ], [ 77.393858201910831, 13.053291743007055 ], [ 77.393859066784913, 13.053291209132215 ], [ 77.393876130185674, 13.051035459838443 ], [ 77.393398263979051, 13.050907993077004 ], [ 77.393391048940885, 13.050302995126454 ], [ 77.393370503820108, 13.048579402693392 ], [ 77.393222115584607, 13.047620406515788 ], [ 77.392950002678177, 13.045861785508443 ], [ 77.392693018475782, 13.044335902359688 ], [ 77.392463273319876, 13.04297171533927 ], [ 77.392188288716937, 13.041086889220173 ], [ 77.392177645244217, 13.041013935065179 ], [ 77.391976564618773, 13.039635643486157 ], [ 77.391980563837464, 13.039569737262484 ], [ 77.392027124740508, 13.038802497468138 ], [ 77.392167047154857, 13.038612947620456 ], [ 77.392328692867892, 13.037871041816272 ], [ 77.392368370727567, 13.037857870859193 ], [ 77.3921571720375, 13.037729247701783 ], [ 77.392140409315957, 13.036582205646447 ], [ 77.392103763213356, 13.035637215281294 ], [ 77.39210191922794, 13.034738486179078 ], [ 77.392101836339904, 13.034699364746764 ], [ 77.391982400703824, 13.034418675797538 ], [ 77.391877036546475, 13.034171067003768 ], [ 77.391655089935853, 13.033649467715318 ], [ 77.391656011468925, 13.033629033394353 ], [ 77.391669668322038, 13.033326614130681 ], [ 77.391693585411559, 13.032796901594775 ], [ 77.391703568079919, 13.032575826455357 ], [ 77.391639465576191, 13.032364834269849 ], [ 77.391527490195045, 13.031996270027172 ], [ 77.391416171925115, 13.031629873564492 ], [ 77.391406403428675, 13.031597721220381 ], [ 77.391400080768662, 13.031576908328296 ], [ 77.391309123592563, 13.031277486079192 ], [ 77.391308380570337, 13.031275060562736 ], [ 77.391168098606357, 13.030813143335401 ], [ 77.39112038179077, 13.030656030514946 ], [ 77.391076752824546, 13.030532391081238 ], [ 77.390989538644448, 13.030285237358123 ], [ 77.39108809451136, 13.029334269328817 ], [ 77.391095809174885, 13.029259837134815 ], [ 77.390601351318338, 13.027569343151155 ], [ 77.390748841718278, 13.027398155737004 ], [ 77.390748933845018, 13.026673570986899 ], [ 77.390881411677285, 13.026638488603808 ], [ 77.39093215247766, 13.025846184707964 ], [ 77.390715443566464, 13.025814508696172 ], [ 77.390551628964644, 13.025790565970858 ], [ 77.390127421914642, 13.025728558456002 ], [ 77.390060955720472, 13.025718842074101 ], [ 77.389910868126492, 13.02569690470078 ], [ 77.389766484777326, 13.025775538527032 ], [ 77.389622001409293, 13.025854227423119 ], [ 77.38954368078177, 13.025896881170807 ], [ 77.389319052415445, 13.025866092914386 ], [ 77.389196200276217, 13.025892751282294 ], [ 77.389059243999682, 13.025922472593916 ], [ 77.388989344701145, 13.025965375633207 ], [ 77.388826367817231, 13.026065412273431 ], [ 77.388690038542748, 13.026052328741187 ], [ 77.388575467238027, 13.026041333274458 ], [ 77.38841403911978, 13.026025838054496 ], [ 77.388318911543351, 13.026016708897391 ], [ 77.388275391099214, 13.026012446774674 ], [ 77.388227716202366, 13.026007779289037 ], [ 77.388137592692956, 13.025998955424182 ], [ 77.388103026211937, 13.025995502557457 ], [ 77.388058881389028, 13.025991091643073 ], [ 77.38797349181533, 13.02598256021278 ], [ 77.387798478475219, 13.02613279694266 ], [ 77.387742137806882, 13.026086631926209 ], [ 77.387701077229607, 13.026052984958799 ], [ 77.387447302902601, 13.026242800355678 ], [ 77.387417015528698, 13.026265454287136 ], [ 77.387125014712311, 13.026471905625868 ], [ 77.386794684287736, 13.026565952709754 ], [ 77.386460946989814, 13.026658785685251 ], [ 77.386350797648362, 13.02668942797502 ], [ 77.386239741797397, 13.02672010296725 ], [ 77.385764375257807, 13.026864881359913 ], [ 77.385744299048426, 13.026871361334424 ], [ 77.385412998390237, 13.026978263491447 ], [ 77.385327035139071, 13.027006001840828 ], [ 77.385073934384451, 13.02709373202023 ], [ 77.384867795640616, 13.027165182136757 ], [ 77.384909717083431, 13.027241972138961 ], [ 77.384336745853659, 13.027411600974251 ], [ 77.384019344259201, 13.027527380346958 ], [ 77.38365270373896, 13.027548227871726 ], [ 77.382925101319955, 13.027589595380613 ], [ 77.382482464585053, 13.027614759026486 ], [ 77.382432783898167, 13.027344365689896 ], [ 77.382252914613019, 13.027324719955343 ], [ 77.382225644554666, 13.027321741366817 ], [ 77.382167856309039, 13.027315429128295 ], [ 77.381531030707464, 13.02724587050842 ], [ 77.380957111546479, 13.027187529999125 ], [ 77.380503894778499, 13.02714145915294 ], [ 77.380190919354305, 13.027109642259127 ], [ 77.379978956551113, 13.027120653096741 ], [ 77.378966808182909, 13.027202023417917 ], [ 77.378601006426464, 13.027231791419521 ], [ 77.378456140828106, 13.027550682972464 ], [ 77.378273564843184, 13.027989376531124 ], [ 77.378145416850259, 13.028308138055602 ], [ 77.37808668359061, 13.028451307711808 ], [ 77.377999268203254, 13.028681155839568 ], [ 77.377999249318364, 13.028681204805453 ], [ 77.377913500506139, 13.028906670696873 ], [ 77.377728292272394, 13.029269440918329 ], [ 77.377660111196363, 13.02940298754902 ], [ 77.377357625172934, 13.030029110276123 ], [ 77.377098801067135, 13.029922317659583 ], [ 77.376924481564245, 13.02985039231427 ], [ 77.376876332000094, 13.029566197278454 ], [ 77.376850195261881, 13.029411928206409 ], [ 77.376774371467434, 13.028964405421032 ], [ 77.376759057053306, 13.028874007696988 ], [ 77.376705380969454, 13.028557208371025 ], [ 77.376621483837425, 13.028062024090222 ], [ 77.376653988306558, 13.027864894835322 ], [ 77.376694885297042, 13.027616877447052 ], [ 77.376725542507415, 13.027131424499332 ], [ 77.376837920689709, 13.026340578208885 ], [ 77.376815658214326, 13.02608474066446 ], [ 77.376804516017089, 13.025956683742049 ], [ 77.377085359728866, 13.025326373807212 ], [ 77.377085395811051, 13.025326292155253 ], [ 77.377464230813615, 13.02450986743219 ], [ 77.377490284638029, 13.024074967983598 ], [ 77.377715233197534, 13.023914565037449 ], [ 77.377645709828414, 13.023821033279154 ], [ 77.377627760126188, 13.023698279566544 ], [ 77.377614701350794, 13.023608975262681 ], [ 77.377604276698705, 13.023537672930154 ], [ 77.377600345103474, 13.023510789060056 ], [ 77.377547710117994, 13.023150851222811 ], [ 77.37749896734438, 13.022817511149267 ], [ 77.377474214170334, 13.022724010412222 ], [ 77.377362001228065, 13.022300105257866 ], [ 77.377319899306528, 13.021914871075239 ], [ 77.377278243985202, 13.02153373043185 ], [ 77.37717209154826, 13.021317550841543 ], [ 77.377117648568458, 13.021206683791196 ], [ 77.377285310870576, 13.020746241936765 ], [ 77.377256449035599, 13.020602213423162 ], [ 77.377249612119215, 13.020568092404613 ], [ 77.377149453789826, 13.020068265296835 ], [ 77.377151151935124, 13.019879658242937 ], [ 77.377136855687169, 13.019823730275188 ], [ 77.377119313623552, 13.019755118890071 ], [ 77.377106416000316, 13.019704671776433 ], [ 77.376995133270526, 13.019269395177769 ], [ 77.376992762229079, 13.019177313668152 ], [ 77.376992397890817, 13.0191631707707 ], [ 77.377029607336681, 13.019070969394338 ], [ 77.376995503558916, 13.018944721339309 ], [ 77.376966427257813, 13.018837088537474 ], [ 77.37687410525858, 13.018495334164054 ], [ 77.376835833408194, 13.018231250834621 ], [ 77.376791135307542, 13.017922830546979 ], [ 77.376799381746167, 13.017790806188883 ], [ 77.376820281890133, 13.017456176515205 ], [ 77.376852614871396, 13.017329302144772 ], [ 77.377010667078281, 13.016613839392006 ], [ 77.376806774691801, 13.016610344057709 ], [ 77.376416672960545, 13.016661106770131 ], [ 77.376298482963648, 13.016651143896896 ], [ 77.376051716047925, 13.016633563955715 ], [ 77.375827502701455, 13.016603975619343 ], [ 77.375387095489899, 13.016550461618904 ], [ 77.374932249739615, 13.016493411506504 ], [ 77.373823005675149, 13.016354278131882 ], [ 77.373699890651523, 13.016338835604286 ], [ 77.373480006489842, 13.01631125480465 ], [ 77.372573563963527, 13.016288457942869 ], [ 77.372366856136978, 13.016283317730576 ], [ 77.371833092162319, 13.01627003460694 ], [ 77.370867719577603, 13.016248382487436 ], [ 77.370816665140609, 13.016240589773536 ], [ 77.370851019341984, 13.01612330666101 ], [ 77.370851314247545, 13.016116041969418 ], [ 77.370855225900812, 13.016020100339729 ], [ 77.370866889843896, 13.015734010954199 ], [ 77.370894676734324, 13.015052405176357 ], [ 77.370925799954705, 13.014365988999968 ], [ 77.370951735805718, 13.013793977022646 ], [ 77.370469116084152, 13.012388518508747 ], [ 77.370428598970591, 13.012270523749125 ], [ 77.370397286217298, 13.012179336931547 ], [ 77.370240197282087, 13.011538957960928 ], [ 77.370216812525129, 13.011443628056103 ], [ 77.370216830060215, 13.011443533924471 ], [ 77.370477993840893, 13.009818118851943 ], [ 77.370417505614526, 13.009709765079394 ], [ 77.369960071644783, 13.008890297783696 ], [ 77.369948711277956, 13.008603558328165 ], [ 77.369958048289675, 13.008580249442151 ], [ 77.37032232265814, 13.007670937780873 ], [ 77.370260746246828, 13.007355159150118 ], [ 77.370316417274708, 13.007173256831457 ], [ 77.370627577132495, 13.006156537695249 ], [ 77.370896502199372, 13.00578822924666 ], [ 77.371410311298206, 13.005417934916904 ], [ 77.37206175958643, 13.00543867665921 ], [ 77.372452234393094, 13.004959501984297 ], [ 77.372803416459163, 13.004528551938408 ], [ 77.373052941686637, 13.004222344648957 ], [ 77.372759064539466, 13.004083146005815 ], [ 77.37259698560635, 13.004006374173239 ], [ 77.372430242687955, 13.004221466387806 ], [ 77.372236554579771, 13.003800167330143 ], [ 77.371883818243106, 13.003032917754185 ], [ 77.371597675663551, 13.002553252701675 ], [ 77.371081837137893, 13.001233352233653 ], [ 77.371072819232594, 13.001214469555988 ], [ 77.370737397824598, 13.000512117896267 ], [ 77.370398935133736, 12.999700608353718 ], [ 77.370717181103785, 12.998768098900001 ], [ 77.370920602092838, 12.998313988415156 ], [ 77.370972072626785, 12.998023886710186 ], [ 77.371046468784797, 12.997560152298458 ], [ 77.371107022404587, 12.997182701641295 ], [ 77.371142523487947, 12.996894356855346 ], [ 77.371193781664488, 12.996836031276723 ], [ 77.371218867444824, 12.996807486971584 ], [ 77.371310033590547, 12.996703746665037 ], [ 77.371219869238942, 12.996488393372838 ], [ 77.371298516909988, 12.995654839045287 ], [ 77.371950287022713, 12.995074068817676 ], [ 77.372093702450485, 12.994867397033547 ], [ 77.372204097161585, 12.994708309802093 ], [ 77.372267521171622, 12.99461690981877 ], [ 77.372101417735706, 12.994043945784966 ], [ 77.372070520955816, 12.993937362660333 ], [ 77.371846761738922, 12.993373795236414 ], [ 77.3719233056826, 12.993204387720342 ], [ 77.372070454262854, 12.992878712425167 ], [ 77.372003366225229, 12.992475420750592 ], [ 77.371962886666651, 12.992232082851675 ], [ 77.371945546420449, 12.992127857962101 ], [ 77.371958790203919, 12.992141862544795 ], [ 77.37287558801097, 12.992535060604601 ], [ 77.373927359079318, 12.992986140048332 ], [ 77.375097782764271, 12.993327587369299 ], [ 77.376598819389784, 12.99366854174006 ], [ 77.377506299475286, 12.993874662295113 ], [ 77.378164463989449, 12.993899687247216 ], [ 77.378675435536238, 12.994036606534538 ], [ 77.379354241781186, 12.994337075011366 ], [ 77.379616938090308, 12.994627492213624 ], [ 77.380153002959787, 12.994905199630157 ], [ 77.380943082694685, 12.995314496110158 ], [ 77.381513206361788, 12.995609836345226 ], [ 77.38226038299446, 12.995713054956207 ], [ 77.383080060070967, 12.99556998825609 ], [ 77.383720577264754, 12.995217777699445 ], [ 77.384598793487967, 12.994852989546326 ], [ 77.38476529028766, 12.994544881554701 ], [ 77.385032761900774, 12.994280505704328 ], [ 77.38519368750319, 12.994074423070971 ], [ 77.385369930949579, 12.99395058837017 ], [ 77.385641389651227, 12.993792175144046 ], [ 77.386049205964198, 12.993603028401775 ], [ 77.386729882513194, 12.9932873218129 ], [ 77.387454912262683, 12.993018509270639 ], [ 77.388381607862257, 12.993321122170514 ], [ 77.389585080870432, 12.993271881906098 ], [ 77.390152096770819, 12.993085935930058 ], [ 77.390666280211093, 12.992878628894568 ], [ 77.390908238842371, 12.992920744705497 ], [ 77.391107392007569, 12.993033329942216 ], [ 77.391260656060894, 12.993119973450561 ], [ 77.391415813083071, 12.993545656500956 ], [ 77.391616418136962, 12.99409601680636 ], [ 77.391554321996651, 12.994592039159528 ], [ 77.391441139684332, 12.995056383349842 ], [ 77.391449315171883, 12.995495184004879 ], [ 77.39162984462628, 12.995870615466831 ], [ 77.392033837511036, 12.996176214947555 ], [ 77.392386027597993, 12.996319022389956 ], [ 77.39260173527245, 12.996352431746322 ], [ 77.392725493441489, 12.996351947325973 ], [ 77.392959507434369, 12.996314360446489 ], [ 77.393355117351931, 12.996250816472903 ], [ 77.39380963979329, 12.996207103141796 ], [ 77.394146520558408, 12.996195127863709 ], [ 77.394719891380419, 12.996206198530157 ], [ 77.395277599803435, 12.996316389843287 ], [ 77.395546617015611, 12.996130945030886 ], [ 77.395645576987789, 12.996127212935162 ], [ 77.396091777150502, 12.996096495148649 ], [ 77.396662220750784, 12.99609202117963 ], [ 77.396828952618819, 12.996090713497557 ], [ 77.396983997028101, 12.996094756030612 ], [ 77.39759905380204, 12.996130453169931 ], [ 77.397658112107877, 12.996138839485985 ], [ 77.397672973501116, 12.996137488781871 ], [ 77.397935523916644, 12.996130619682633 ], [ 77.398387790617178, 12.996136736829026 ], [ 77.398689936002128, 12.996140822782287 ], [ 77.399372068374021, 12.996166443920824 ], [ 77.400377688017755, 12.996206369724373 ], [ 77.400483057004863, 12.996203983372611 ], [ 77.402058828609299, 12.99627409545176 ], [ 77.402056799317535, 12.996302409889099 ], [ 77.402019090871704, 12.996828547039293 ], [ 77.401974961311467, 12.997194951160807 ], [ 77.401939469141524, 12.997570940686369 ], [ 77.402108577978851, 12.998485735932979 ], [ 77.402704168803339, 13.001028618053413 ], [ 77.402789809871493, 13.001421606913953 ], [ 77.402924462237976, 13.00203950140329 ], [ 77.402932972313835, 13.00209019591937 ], [ 77.403119527493118, 13.003201574229417 ], [ 77.40338771460911, 13.00498585797186 ], [ 77.403566442958962, 13.005990482473187 ], [ 77.403719598532732, 13.006831367871719 ], [ 77.403782012218727, 13.007203597624494 ], [ 77.403896897964245, 13.007888771313038 ], [ 77.404017298005016, 13.008606480287268 ], [ 77.404192421253143, 13.009333511629777 ], [ 77.404475105408068, 13.010462295246644 ], [ 77.404602167771216, 13.010472542787445 ], [ 77.405628246235167, 13.010555293045197 ], [ 77.406241356245033, 13.010662581557327 ], [ 77.406874848167519, 13.010709507540458 ], [ 77.407667379676269, 13.010725519031419 ], [ 77.409519312837759, 13.010322980177124 ], [ 77.409629137862268, 13.010297053694309 ], [ 77.409703636182343, 13.010256361583982 ], [ 77.409491821977824, 13.009456218248793 ], [ 77.409491364839838, 13.009454491297362 ], [ 77.409737114070282, 13.009359691623835 ], [ 77.409612092476294, 13.008879852044094 ], [ 77.409789302347235, 13.008783119340105 ], [ 77.410029133922464, 13.008568603843475 ], [ 77.410203951185082, 13.008439053714275 ], [ 77.410380662094838, 13.008308099860526 ], [ 77.410755964556756, 13.008087624911791 ], [ 77.410772721990213, 13.00774246420406 ], [ 77.410825644684863, 13.006652352482742 ], [ 77.410894633471145, 13.006109251602185 ], [ 77.410901716745485, 13.005940011049825 ], [ 77.410875542277552, 13.005788199012823 ], [ 77.410832646336573, 13.005449747502301 ], [ 77.410837949165668, 13.005369160557052 ], [ 77.410862490749125, 13.005146963532679 ], [ 77.410876113882551, 13.005023624752987 ], [ 77.410913735698443, 13.005013085913751 ], [ 77.411032795733831, 13.004979731212817 ], [ 77.411059040014209, 13.004972379162274 ], [ 77.411555233422234, 13.004722552070509 ], [ 77.411656794183074, 13.004689767241597 ], [ 77.412437634477058, 13.004250143425088 ], [ 77.413307757034829, 13.003898979454428 ], [ 77.413334105441109, 13.003887076881441 ], [ 77.413722501983855, 13.003711632026388 ], [ 77.414269825112441, 13.003495891047104 ], [ 77.417283173143829, 13.00156702486291 ], [ 77.418417622575944, 13.000840839366868 ], [ 77.418831658164677, 13.000575803404075 ], [ 77.419411265774286, 13.000479810730607 ], [ 77.419507833877134, 13.000477633928609 ], [ 77.419641736596617, 13.000411182565754 ], [ 77.419992996076019, 13.000416173662096 ], [ 77.420120789865067, 13.000411518950328 ], [ 77.420623693731258, 13.000463250461499 ], [ 77.420940201842484, 13.000456357478649 ], [ 77.421012604082648, 13.000459805064834 ], [ 77.421080548311139, 13.000463041219202 ], [ 77.421597633463975, 13.000510670164541 ], [ 77.421122056671607, 12.998932205978049 ], [ 77.421214052911964, 12.998849656104124 ], [ 77.421268434967587, 12.998803163169587 ], [ 77.421493427238346, 12.998610820433242 ], [ 77.422007206709665, 12.998171591680057 ], [ 77.422603778172927, 12.997557196404181 ], [ 77.422846181343957, 12.997307550480855 ], [ 77.422887701761354, 12.997223546679937 ], [ 77.42336736139319, 12.9962531107169 ], [ 77.423448148374916, 12.996241697648671 ], [ 77.423508003188317, 12.996233242052373 ], [ 77.423925587144865, 12.996174247188005 ], [ 77.423903782386063, 12.996046027911659 ], [ 77.423806803595753, 12.995475746884832 ], [ 77.42353165324829, 12.994914592779265 ], [ 77.423534626789433, 12.994902177492532 ], [ 77.423703969416252, 12.994195207794553 ], [ 77.423657844795656, 12.994065536630826 ], [ 77.423385863671527, 12.993300893223827 ], [ 77.423364821309605, 12.993033902759807 ], [ 77.423259460820915, 12.991697055993237 ], [ 77.423221977351091, 12.99122143862772 ], [ 77.42321713923458, 12.991195989463812 ], [ 77.423147583421752, 12.990830028567119 ], [ 77.423127215226089, 12.990722864396545 ], [ 77.423113675897739, 12.989895751352583 ], [ 77.423254390160182, 12.989282635146546 ], [ 77.423306844427046, 12.989120267515496 ], [ 77.423462406907674, 12.988534889754581 ], [ 77.423382435485195, 12.988291019294074 ], [ 77.423345058722603, 12.988162626950658 ], [ 77.423322267648132, 12.988084338118083 ], [ 77.423229678585471, 12.987766284381378 ], [ 77.423161408140729, 12.987449256068643 ], [ 77.423121405949416, 12.987318598559378 ], [ 77.423106643343047, 12.987270376926162 ], [ 77.423074381068773, 12.9870449380642 ], [ 77.423073190183416, 12.987036622137682 ], [ 77.423115259603534, 12.987025597837805 ], [ 77.423101728048835, 12.986877242455448 ], [ 77.423317069751903, 12.986634495642754 ], [ 77.42360262803227, 12.986533585748361 ], [ 77.424725089843065, 12.985547978935584 ], [ 77.424853466022185, 12.985435254365971 ], [ 77.424972198000134, 12.985351463452149 ], [ 77.425162172660734, 12.985173570774529 ], [ 77.425888104234261, 12.984664406302072 ], [ 77.426881224650586, 12.984123491379913 ], [ 77.427457698691711, 12.983809503782682 ], [ 77.428247340417812, 12.983419549966081 ], [ 77.428284742306801, 12.983405685385126 ], [ 77.429803824996014, 12.982842542638723 ], [ 77.430402820961106, 12.982647550747089 ], [ 77.430491290175127, 12.982618751759393 ], [ 77.431384129765803, 12.982355629014268 ], [ 77.431733061837562, 12.982270965076705 ], [ 77.431869795812062, 12.982237788234603 ], [ 77.432986646914642, 12.981966798054472 ], [ 77.433749135933411, 12.981882252850454 ], [ 77.434226636068828, 12.981829306721201 ], [ 77.434526226197136, 12.981796086932047 ], [ 77.434533937583495, 12.981795687624375 ], [ 77.435508060738371, 12.981745233181968 ], [ 77.43564445099301, 12.981738168916261 ], [ 77.436086733890846, 12.98174632203121 ], [ 77.437511686330041, 12.981746372214191 ], [ 77.437875778361757, 12.981745415148875 ], [ 77.43813113437993, 12.981744738480742 ], [ 77.439290728888864, 12.98174168495868 ], [ 77.439448517955, 12.981741267556469 ], [ 77.439622733037609, 12.981695870801053 ], [ 77.439838305594222, 12.98163969602521 ], [ 77.441001295017173, 12.981307240070464 ], [ 77.441780760879809, 12.98108441619325 ], [ 77.441929987475277, 12.981041757355205 ], [ 77.44195890993312, 12.981153437495719 ], [ 77.44228560609433, 12.98177384864702 ], [ 77.442850607727237, 12.982865396361342 ], [ 77.443241485054003, 12.983558791012587 ], [ 77.444610412797672, 12.984628800632434 ], [ 77.446637157078513, 12.986168531605095 ], [ 77.446783644468866, 12.986096538926086 ], [ 77.446799070105371, 12.986088965777951 ], [ 77.446726373524768, 12.98603611547065 ], [ 77.446751799054297, 12.986014294420375 ], [ 77.447140607685881, 12.985436920855451 ], [ 77.447268360508019, 12.985268742446786 ], [ 77.447800413451702, 12.984574759125135 ], [ 77.449515123608734, 12.98376386853462 ], [ 77.449841606509651, 12.983588248550642 ], [ 77.449951850634164, 12.983528946407246 ], [ 77.450382086155813, 12.983285492366603 ], [ 77.451019396423519, 12.982900448913339 ], [ 77.451104573257794, 12.982850916761517 ], [ 77.451105719303698, 12.982850249994684 ], [ 77.451133564234439, 12.982860257745235 ], [ 77.451180910331757, 12.98283346626072 ], [ 77.451774607602601, 12.983046245208952 ], [ 77.452520505838962, 12.983313569587155 ], [ 77.453392775299193, 12.983612625665872 ], [ 77.454156219819779, 12.983874367907202 ], [ 77.455381012928981, 12.984293760373211 ], [ 77.455465751089875, 12.984322775918008 ], [ 77.455566532982317, 12.984357285032379 ], [ 77.456379625917322, 12.984644209874141 ], [ 77.456396915771791, 12.984649938299148 ], [ 77.456408279657438, 12.984653703370311 ], [ 77.457043954042035, 12.984864292900914 ], [ 77.457441208081931, 12.984995896417177 ], [ 77.457456760165954, 12.985001794795402 ], [ 77.457602163953993, 12.985056946600475 ], [ 77.457781325204579, 12.985124902654146 ], [ 77.458519692355978, 12.98540496333181 ], [ 77.458559056917167, 12.985492388575313 ], [ 77.458576772739946, 12.985531758962662 ], [ 77.458590996586238, 12.985563438201012 ], [ 77.458600358878726, 12.985562281657939 ], [ 77.4590371188078, 12.985508331460656 ], [ 77.460019052884249, 12.985378333462512 ], [ 77.460139277562547, 12.985362400146608 ], [ 77.460825695438416, 12.98525575192655 ], [ 77.460871628759548, 12.985249789207144 ], [ 77.46132500024305, 12.985191326671071 ], [ 77.461499157878237, 12.985168872601843 ], [ 77.461721451469799, 12.98514455563441 ], [ 77.462183595789242, 12.985094098645394 ], [ 77.462550751804002, 12.985045830364825 ], [ 77.463146944429255, 12.984924691416042 ], [ 77.463156965778026, 12.98492263850502 ], [ 77.463164271104674, 12.984921339572832 ], [ 77.463759757698668, 12.984822497558017 ], [ 77.463787374345827, 12.984817616042163 ], [ 77.464441734804382, 12.984695399668508 ], [ 77.464543136541749, 12.984661793967913 ], [ 77.464924664684162, 12.984597287362943 ], [ 77.466534067568801, 12.984640765721654 ], [ 77.466548646193615, 12.984641185717795 ], [ 77.466557709409045, 12.984643157898152 ], [ 77.466629631645091, 12.984658812568115 ], [ 77.466671306917775, 12.984667861417501 ], [ 77.467426084530331, 12.985338090933668 ], [ 77.467742906555756, 12.985645961526153 ], [ 77.46801529560878, 12.985874281843202 ], [ 77.468019346905791, 12.98587299651445 ], [ 77.468026704614275, 12.98588372000169 ], [ 77.468277193466776, 12.986339839366181 ], [ 77.468425992504962, 12.98661078806146 ], [ 77.468469745951793, 12.986690457990624 ], [ 77.468553295685851, 12.986665973193226 ], [ 77.469104755915211, 12.98650436231951 ], [ 77.469803495606058, 12.986299588330205 ], [ 77.470833375685487, 12.985735713757679 ], [ 77.470857160923032, 12.985722690242401 ], [ 77.470860447774172, 12.985720315277945 ], [ 77.470868357056602, 12.98571459854036 ], [ 77.471183040173827, 12.986552657807785 ], [ 77.471359015526346, 12.987063046453411 ], [ 77.471507808677771, 12.987630341772027 ], [ 77.471818495671812, 12.988971122030753 ], [ 77.471523521515451, 12.98912779739412 ], [ 77.471634010243804, 12.989300697374443 ], [ 77.47176909296509, 12.989521318016479 ], [ 77.471870686814611, 12.989751047474558 ], [ 77.471921120948394, 12.990130445998288 ], [ 77.471968283976892, 12.990459044087387 ], [ 77.472012163749511, 12.990733853055778 ], [ 77.472038292255164, 12.991131288269408 ], [ 77.472096887207954, 12.991286472353375 ], [ 77.47243683212163, 12.991652692041061 ], [ 77.47252753554865, 12.992178384530595 ], [ 77.472759235329789, 12.99357628791142 ], [ 77.473002316552368, 12.994788821027582 ], [ 77.473208060931753, 12.995828144836558 ], [ 77.473497748892598, 12.997240747564057 ], [ 77.473595224385789, 12.997918852305682 ], [ 77.473646531699757, 12.998495524327339 ], [ 77.473669626548656, 12.998927294661422 ], [ 77.473782739572684, 13.000623917795172 ], [ 77.473874848424657, 13.002159905206945 ], [ 77.474010791265002, 13.003958745084965 ], [ 77.474084143764301, 13.005049243078858 ], [ 77.474154307597374, 13.006092326230734 ], [ 77.474199720609434, 13.006713858539117 ], [ 77.474219472567, 13.006879114335662 ], [ 77.474480889733343, 13.008355454720522 ], [ 77.474673752310721, 13.009329158065924 ], [ 77.474711595039963, 13.009520210655559 ], [ 77.475003690594662, 13.010780355269542 ], [ 77.475272378835868, 13.012169726068384 ], [ 77.475457197591624, 13.01332494760538 ], [ 77.475649222416166, 13.01467295796879 ], [ 77.475723043609463, 13.015573526827255 ], [ 77.475732989313698, 13.015694860506773 ], [ 77.475735034314368, 13.016158154891873 ], [ 77.476390277816208, 13.0161224945799 ], [ 77.476621911343742, 13.016112543583571 ], [ 77.476792788419246, 13.016150675528905 ], [ 77.476912108321031, 13.016248807530101 ], [ 77.476979502054633, 13.016323247777219 ], [ 77.477013522552866, 13.016433698047871 ], [ 77.477059987026664, 13.016600887968917 ], [ 77.477179902163755, 13.016833524482005 ], [ 77.477180297548912, 13.016923194591287 ], [ 77.477180641392394, 13.017000909095945 ], [ 77.477190130149154, 13.017078584107788 ], [ 77.477220904274716, 13.017144212578557 ], [ 77.477263831052127, 13.017200821772727 ], [ 77.477328045061157, 13.017245385293259 ], [ 77.477459689646906, 13.01726699596783 ], [ 77.477470777386287, 13.017302784496367 ], [ 77.47760444491432, 13.017550713909392 ], [ 77.478123797516815, 13.018514016999305 ], [ 77.478372341855945, 13.019068426067429 ], [ 77.47838807446881, 13.019202672058025 ], [ 77.478693213136737, 13.020814769691649 ], [ 77.478751372552793, 13.0210749794735 ], [ 77.478963239092678, 13.022022883632207 ], [ 77.478874886975007, 13.022045488722092 ], [ 77.478554056490168, 13.022127574122113 ], [ 77.478511650153393, 13.022138424192802 ], [ 77.478435894461967, 13.0221578060446 ], [ 77.478433898149248, 13.022263646358349 ], [ 77.478428312227493, 13.022559891320142 ], [ 77.478423982184253, 13.022789520587773 ], [ 77.478420813240049, 13.022957552232796 ], [ 77.478406013255352, 13.023785530237609 ], [ 77.478417365085505, 13.023985446825696 ], [ 77.478438830818391, 13.024363459530761 ], [ 77.478682318284854, 13.026248999154825 ], [ 77.478694851288594, 13.026294005696773 ], [ 77.478697100201103, 13.02630294694776 ], [ 77.478750247360466, 13.026489363652907 ], [ 77.478852463714517, 13.02684017874487 ], [ 77.479105637235818, 13.027709082318959 ], [ 77.479582667414348, 13.029197273582547 ], [ 77.479607299955745, 13.029274119324135 ], [ 77.479494070456113, 13.029371270964889 ], [ 77.479028254920351, 13.029770942050275 ], [ 77.478478669724296, 13.030218918590101 ], [ 77.478191080770216, 13.030488204213755 ], [ 77.477858030604438, 13.030761312683074 ], [ 77.47765242282955, 13.030934945564985 ], [ 77.477285046298789, 13.031173371034702 ], [ 77.47702302950627, 13.031466128165558 ], [ 77.476939071795798, 13.031536952798723 ], [ 77.476983105351522, 13.031621235302206 ], [ 77.477219125785979, 13.032072989293436 ], [ 77.477646357285636, 13.032871892420889 ], [ 77.47789048774807, 13.033328085286291 ], [ 77.478239094005929, 13.033980919523829 ], [ 77.478253151327976, 13.034004501981761 ], [ 77.478267208652966, 13.034028084438411 ], [ 77.478523120432996, 13.034452540877542 ], [ 77.478738271309282, 13.034832211902565 ], [ 77.478841401833989, 13.035067265059944 ], [ 77.479394793195652, 13.035405297982834 ], [ 77.479898434542477, 13.035721218385754 ], [ 77.479998991399, 13.036622629149512 ], [ 77.480031662341034, 13.037184746957349 ], [ 77.480064990269497, 13.037697165747685 ], [ 77.480047491947516, 13.037906268491994 ], [ 77.480747962470431, 13.03849586875028 ], [ 77.481343136286952, 13.039557426480425 ], [ 77.481732844491759, 13.039709544443836 ], [ 77.482174597801219, 13.039882620811857 ], [ 77.482423759131251, 13.040321817707623 ], [ 77.482570325077688, 13.040580168630438 ], [ 77.482351983303644, 13.040736414636546 ], [ 77.482223199891166, 13.040828572748904 ], [ 77.481920022564779, 13.041094625115669 ], [ 77.481664547118811, 13.041177260684004 ], [ 77.481549572633199, 13.041545410811867 ], [ 77.48150714462848, 13.041680213557532 ], [ 77.481490646151045, 13.042028749494863 ], [ 77.481457670553027, 13.042725362183353 ], [ 77.481345500340069, 13.042912785051216 ], [ 77.481063539578955, 13.043112000236729 ], [ 77.480930146476652, 13.043167718752512 ], [ 77.481042518879548, 13.043375362165943 ], [ 77.481057540249111, 13.04341466143878 ], [ 77.481083496630973, 13.043450270769283 ], [ 77.481109418176629, 13.043482294429579 ], [ 77.481142473522311, 13.043496320588714 ], [ 77.481193707713359, 13.043499414437788 ], [ 77.481292303361599, 13.043484125951283 ], [ 77.481762983931162, 13.043372039555367 ], [ 77.482751812840661, 13.043140236096393 ], [ 77.48282498838681, 13.043143119120852 ], [ 77.482850694442973, 13.043153630472405 ], [ 77.482880630318647, 13.043221472655182 ], [ 77.482907123729646, 13.043310862933154 ], [ 77.482926160485547, 13.043385981671737 ], [ 77.482963876138015, 13.043500364421682 ], [ 77.482998364109463, 13.043657808270266 ], [ 77.483035971563027, 13.043761434950435 ], [ 77.483066265519412, 13.04386513179859 ], [ 77.483096094193982, 13.043922217875163 ], [ 77.483118466170836, 13.043965032424136 ], [ 77.483173499906187, 13.043982433378639 ], [ 77.483213727592229, 13.043982047335918 ], [ 77.483498186396901, 13.043900430008032 ], [ 77.483731553966308, 13.043830059875418 ], [ 77.483778951930319, 13.043815261854498 ], [ 77.48386302679549, 13.0438108697504 ], [ 77.483969581153644, 13.04386004721208 ], [ 77.483995538878162, 13.043895656156888 ], [ 77.484028917560522, 13.04394195093473 ], [ 77.48406225952516, 13.043984660065618 ], [ 77.484110194603616, 13.044023643103575 ], [ 77.484150637124273, 13.0440447699039 ], [ 77.484253391156273, 13.044079640638781 ], [ 77.484297382571356, 13.044089976267433 ], [ 77.484359695014533, 13.044103721076372 ], [ 77.484429177745724, 13.044103053960644 ], [ 77.484480483614348, 13.044113318424142 ], [ 77.484520925241199, 13.044134444263547 ], [ 77.484565131554561, 13.044166291922231 ], [ 77.484598474557203, 13.044209000952455 ], [ 77.484631781762431, 13.044248125232102 ], [ 77.484701694327043, 13.044290483093409 ], [ 77.484800792194505, 13.044325388687636 ], [ 77.48496955197632, 13.044377555197874 ], [ 77.485116082746842, 13.044401248059984 ], [ 77.485204029878886, 13.044418332432327 ], [ 77.485277918988075, 13.044622728899309 ], [ 77.485405434356437, 13.044878483734566 ], [ 77.485576720831531, 13.045244380094831 ], [ 77.485871998385207, 13.045818254967742 ], [ 77.48614513056782, 13.046632219212615 ], [ 77.486243754323766, 13.046573505348723 ], [ 77.487505368536333, 13.046253059416227 ], [ 77.487528008935669, 13.046247249081874 ], [ 77.487717552713818, 13.04619860552198 ], [ 77.487724823446896, 13.046196739456454 ], [ 77.48791945710957, 13.046142968258183 ], [ 77.489114923251122, 13.045812695083363 ], [ 77.48911825830065, 13.045811773956961 ], [ 77.48926635628257, 13.045761786154671 ], [ 77.489700339996915, 13.045617568365296 ], [ 77.489831996016562, 13.045556944418081 ], [ 77.490466866245725, 13.045264603810695 ], [ 77.490991941879386, 13.045072073762041 ], [ 77.491521356317136, 13.046700135942686 ], [ 77.491883711620915, 13.047822572846309 ], [ 77.491983394329282, 13.048280589084495 ], [ 77.492071916156007, 13.049814439283411 ], [ 77.492112608395658, 13.050225213346904 ], [ 77.492184073024717, 13.050444547464684 ], [ 77.492238392803927, 13.050611262767417 ], [ 77.492306085156187, 13.050737602099815 ], [ 77.492268246962482, 13.050755433985328 ], [ 77.492465308670589, 13.051570953777473 ], [ 77.492466230790299, 13.051624409190151 ], [ 77.492471824504037, 13.051948737885432 ], [ 77.492480441955323, 13.052448327138215 ], [ 77.492395874898762, 13.053779538100335 ], [ 77.49234266520368, 13.054619171620324 ], [ 77.492335789690671, 13.054630782748575 ], [ 77.492227287486415, 13.054814011067357 ], [ 77.491532157662064, 13.055987872417793 ], [ 77.491138109296415, 13.056664470844456 ], [ 77.491012916784712, 13.056879430595155 ], [ 77.491001805701913, 13.05692019494572 ], [ 77.49099883691251, 13.056968786425056 ], [ 77.491422774996465, 13.058463373555881 ], [ 77.491822257903877, 13.059531368515255 ], [ 77.491945981511634, 13.059862134995855 ], [ 77.491976757256253, 13.059944282156229 ], [ 77.492297116588617, 13.060832119967074 ], [ 77.492308539423192, 13.060863776672981 ], [ 77.492551372133846, 13.061528891130882 ], [ 77.492660348635852, 13.061827122458153 ], [ 77.492709120976713, 13.062075935955498 ], [ 77.492720449615788, 13.062133730707338 ], [ 77.492978233241047, 13.062124422680919 ], [ 77.493056607044792, 13.062121593097983 ], [ 77.492891918661911, 13.062667947931294 ], [ 77.492830519279721, 13.062871642035951 ], [ 77.492746063787791, 13.063263900887922 ], [ 77.49268713011547, 13.063769461950347 ], [ 77.492656844306026, 13.064092471286754 ], [ 77.492670407085967, 13.064836383904165 ], [ 77.492585603106392, 13.06549757744669 ], [ 77.492756777468401, 13.065737809321369 ], [ 77.492771146367872, 13.066296133698385 ], [ 77.492810917012804, 13.067841349271966 ], [ 77.492811506482838, 13.067864258891236 ], [ 77.492822303125365, 13.068033402539042 ], [ 77.492825497644233, 13.068063433652489 ], [ 77.492894582760485, 13.068712897386101 ], [ 77.492989339485149, 13.070385802832371 ], [ 77.493023167591701, 13.070983021468958 ], [ 77.493031629766818, 13.071096772706634 ], [ 77.493040895622499, 13.071216396117844 ], [ 77.493087518493127, 13.071847747102129 ], [ 77.492144220269537, 13.07218572447103 ], [ 77.491074360463443, 13.071885281819377 ], [ 77.488925706932292, 13.072216764442134 ], [ 77.487534362572546, 13.073293945483325 ], [ 77.487492236394573, 13.074154356225467 ], [ 77.487463519447999, 13.07474088466294 ], [ 77.488277078080216, 13.075789491631713 ], [ 77.488269187206328, 13.07581075104898 ], [ 77.488261692100949, 13.075841421983103 ], [ 77.488258288823275, 13.075891176875988 ], [ 77.488258864161409, 13.075948543323484 ], [ 77.488258179894373, 13.076074769204794 ], [ 77.488277480932183, 13.076248611853954 ], [ 77.48829817677742, 13.076366980859467 ], [ 77.488325183985964, 13.076531187520461 ], [ 77.488374147679053, 13.07674490462148 ], [ 77.488451700841495, 13.076891412435904 ], [ 77.488485437023044, 13.076948459219562 ], [ 77.488580257532348, 13.07706611362913 ], [ 77.488584757725263, 13.07707490824219 ], [ 77.488671791012294, 13.077244997951441 ], [ 77.488724694614078, 13.077462501415258 ], [ 77.488751971851357, 13.077653478632012 ], [ 77.488776281403176, 13.077743127610841 ], [ 77.48880018808444, 13.077792619189477 ], [ 77.488837730504244, 13.077840067499382 ], [ 77.48888295983987, 13.077875967294325 ], [ 77.489012126237554, 13.077916794046699 ], [ 77.489274052207477, 13.077967815820065 ], [ 77.489662559548748, 13.077996580414638 ], [ 77.490194648222555, 13.077947462254178 ], [ 77.490504400227834, 13.077904313620801 ], [ 77.490670958201918, 13.07786020534099 ], [ 77.490706750561017, 13.077850726568244 ], [ 77.49088347315444, 13.077770612516888 ], [ 77.491060022805087, 13.077673289372781 ], [ 77.491217199896838, 13.077589539254012 ], [ 77.491294726967226, 13.077539069080999 ], [ 77.49148743809522, 13.077497048890644 ], [ 77.491995675975232, 13.077404172667158 ], [ 77.492089115020732, 13.07738414639662 ], [ 77.492153428793657, 13.077377788334498 ], [ 77.492167198901839, 13.077389129763921 ], [ 77.492191067736243, 13.077434796797107 ], [ 77.492271801883902, 13.077703665858868 ], [ 77.492439317872282, 13.078301027460457 ], [ 77.492503833828977, 13.07850885573637 ], [ 77.492526424419026, 13.078621468532345 ], [ 77.492565235821559, 13.078795121888236 ], [ 77.492563669171389, 13.078833385494223 ], [ 77.492538733033911, 13.078875699256033 ], [ 77.492500046800828, 13.078908583222347 ], [ 77.49247086376316, 13.078916514900847 ], [ 77.492461110769753, 13.078916609078561 ], [ 77.49243579030697, 13.078920678065183 ], [ 77.492363788497613, 13.078938584863192 ], [ 77.492315136961054, 13.078950528997714 ], [ 77.492272414257471, 13.078970065755293 ], [ 77.492241454064711, 13.078995225213633 ], [ 77.492203074267792, 13.079058705698079 ], [ 77.492135665984819, 13.079145414283746 ], [ 77.491967398285681, 13.079290468468004 ], [ 77.491909531555194, 13.079356048858305 ], [ 77.491902056100173, 13.079388631435815 ], [ 77.491892647964534, 13.079423145368004 ], [ 77.491902824556718, 13.079465120100066 ], [ 77.491918679324627, 13.07948982846003 ], [ 77.492020479268646, 13.079525181401049 ], [ 77.49223970345156, 13.079597648073197 ], [ 77.492376690244527, 13.079660741662735 ], [ 77.492364345328468, 13.07967375100786 ], [ 77.492316632161518, 13.07972396801647 ], [ 77.491993752474102, 13.080096725558048 ], [ 77.491839631925799, 13.080264734664183 ], [ 77.491836930435724, 13.08027784423559 ], [ 77.491790407158902, 13.080500180566233 ], [ 77.491757459705539, 13.080543327870352 ], [ 77.491633005715471, 13.080706321611572 ], [ 77.491572681788639, 13.080867804456572 ], [ 77.491553560532111, 13.080919515296845 ], [ 77.491424316675023, 13.081472635013521 ], [ 77.49142405852777, 13.081473728022534 ], [ 77.491336807639698, 13.081461531106353 ], [ 77.491098917972181, 13.081448886422702 ], [ 77.490852184458049, 13.081466209035167 ], [ 77.490453713468796, 13.081550734007843 ], [ 77.490191769473, 13.081571190653161 ], [ 77.489813463573995, 13.081538982861126 ], [ 77.489738997675261, 13.0815337219541 ], [ 77.489255239112055, 13.081499546408754 ], [ 77.489108786841541, 13.081486017889011 ], [ 77.489057121670044, 13.081501457294744 ], [ 77.489033038290088, 13.081531570868902 ], [ 77.489012272469225, 13.081588544978306 ], [ 77.489006342804444, 13.081611907825863 ], [ 77.48899174655071, 13.081669422352283 ], [ 77.488940737970694, 13.081832475682099 ], [ 77.488932676647025, 13.081858244316091 ], [ 77.488833893924038, 13.082220760453442 ], [ 77.48877491802925, 13.082540461833174 ], [ 77.488768226955912, 13.082967230905227 ], [ 77.488755337862287, 13.083505218572189 ], [ 77.488762128341065, 13.084181730026124 ], [ 77.48809079258389, 13.08418108047657 ], [ 77.487865400301146, 13.084168579240345 ], [ 77.487340194387343, 13.084139447242263 ], [ 77.487277368797123, 13.084135962745167 ], [ 77.486225827248688, 13.084089511181634 ], [ 77.485774513221713, 13.083966305574782 ], [ 77.485484508499425, 13.083891049745001 ], [ 77.485046389582408, 13.083757980447432 ], [ 77.484171519164136, 13.083492251754425 ], [ 77.484148001970993, 13.083494691729252 ], [ 77.484011642379173, 13.083508839542155 ], [ 77.483951187754229, 13.083493151314189 ], [ 77.483622675701923, 13.083526366555555 ], [ 77.482787622637247, 13.083610789919769 ], [ 77.482692238195341, 13.083620434582915 ], [ 77.482122388318672, 13.083685100536041 ], [ 77.481763539600308, 13.083702998257065 ], [ 77.481240429060193, 13.083733635114129 ], [ 77.481144051352928, 13.083739279040152 ], [ 77.480952596586548, 13.083750492842444 ], [ 77.479779780832303, 13.083819176958379 ], [ 77.479757573290968, 13.083819320811696 ], [ 77.479172276726729, 13.083823095577609 ], [ 77.47781573317252, 13.084149491869336 ], [ 77.47707251847612, 13.084316224376941 ], [ 77.475636382448499, 13.084638400419468 ], [ 77.475538772577707, 13.08466029733126 ], [ 77.475298352764241, 13.084714231026856 ], [ 77.475228572577009, 13.084713893057108 ], [ 77.475033143779953, 13.0847129452586 ], [ 77.474989501787988, 13.084729585399899 ], [ 77.474624747923954, 13.084868660201593 ], [ 77.474336261193443, 13.084978653909522 ], [ 77.473764033016721, 13.085196832247398 ], [ 77.473313363262648, 13.085200916164238 ], [ 77.472707198410049, 13.085421237374963 ], [ 77.472282933825753, 13.085575440482508 ], [ 77.47189997234679, 13.085714630338501 ], [ 77.471513489431018, 13.086019121790979 ], [ 77.471059233780935, 13.086289224914665 ], [ 77.47043724097, 13.086423196878538 ], [ 77.469918434458009, 13.086534938122611 ], [ 77.469580988934084, 13.086701697925935 ], [ 77.46933092393212, 13.087005087756573 ], [ 77.469203489152832, 13.087424830977946 ], [ 77.468727672421309, 13.087777807217114 ], [ 77.468440683617871, 13.08810073677941 ], [ 77.468352723842628, 13.088452071634466 ], [ 77.468762108192252, 13.08882079273325 ], [ 77.469558449653576, 13.088983148198905 ], [ 77.47003680803931, 13.089205341616028 ], [ 77.470178410494697, 13.089740931232871 ], [ 77.470061693530155, 13.090336107174538 ], [ 77.469959688491912, 13.090856258725079 ], [ 77.469879274205184, 13.091266329002869 ], [ 77.469909241522544, 13.091847831441713 ], [ 77.469924295842944, 13.092139923673097 ], [ 77.470160888826683, 13.092529184690573 ], [ 77.470428555446958, 13.092798037383739 ], [ 77.470614422746252, 13.092927653522466 ], [ 77.470899670890674, 13.092968356424945 ], [ 77.471219689101687, 13.093014021225809 ], [ 77.471552895742093, 13.093061564982186 ], [ 77.47177463005788, 13.093136955835526 ], [ 77.472075019712108, 13.093377854501375 ], [ 77.472388603133538, 13.093629332738359 ], [ 77.472623104916579, 13.093817391109473 ], [ 77.472752479605518, 13.094008357473285 ], [ 77.472830640846453, 13.094492376864221 ], [ 77.472804362380813, 13.094995468853186 ], [ 77.472501754893329, 13.095327419206349 ], [ 77.472355934698953, 13.095658705198874 ], [ 77.472296025804951, 13.096078111030492 ], [ 77.472297633719592, 13.096441367721743 ], [ 77.472299103259076, 13.09677320455113 ], [ 77.472393634390983, 13.097019872662464 ], [ 77.472414908324524, 13.097075384138799 ], [ 77.472316654360228, 13.097059130960728 ], [ 77.472271164633611, 13.097456959266506 ], [ 77.472323362931306, 13.097719483280578 ], [ 77.472326777718237, 13.097729151457782 ], [ 77.472328154170143, 13.097743585293834 ], [ 77.472153671623687, 13.09803612665069 ], [ 77.472275541165416, 13.098695698829742 ], [ 77.472331628237427, 13.09899925065873 ], [ 77.472343992342957, 13.099066166673328 ], [ 77.472376234662903, 13.099379941744225 ], [ 77.472433592541734, 13.099938135810151 ], [ 77.472435007630907, 13.099951911518703 ], [ 77.472208764225698, 13.100005716125871 ], [ 77.471958951958868, 13.100068619018497 ], [ 77.471983744602667, 13.100400404715103 ], [ 77.472048146793711, 13.100622106037568 ], [ 77.472082105864018, 13.100725768254593 ], [ 77.47210466204875, 13.100786510438926 ], [ 77.472141598215345, 13.100822013520256 ], [ 77.472189437097555, 13.100850240894951 ], [ 77.472215221852082, 13.100867922694025 ], [ 77.472245451349465, 13.100964449532713 ], [ 77.472260691403321, 13.101025261874728 ], [ 77.472275895666002, 13.101082488548807 ], [ 77.472309460199867, 13.101146710201334 ], [ 77.472339225301781, 13.101196626067919 ], [ 77.472347435599616, 13.101286192099128 ], [ 77.472325882619572, 13.101325842251171 ], [ 77.472271264416236, 13.101351467378167 ], [ 77.472198250111248, 13.101366510941777 ], [ 77.472150840693075, 13.101381308865857 ], [ 77.472114369787178, 13.101392415844067 ], [ 77.4720673899198, 13.101450239035108 ], [ 77.472049350879985, 13.101475512332101 ], [ 77.472031562420199, 13.1015258843869 ], [ 77.472017146212394, 13.101607600998262 ], [ 77.472101180393381, 13.102025553846193 ], [ 77.472258960914473, 13.102683825139781 ], [ 77.472322289078122, 13.102919879654431 ], [ 77.472394512142515, 13.103069790009776 ], [ 77.472554501997919, 13.103216467498662 ], [ 77.472769095993016, 13.103458242287573 ], [ 77.472838641997072, 13.103584272322367 ], [ 77.47290907246672, 13.103798744152156 ], [ 77.472986627423069, 13.103994023095467 ], [ 77.473100235849856, 13.104136363894002 ], [ 77.473269957100626, 13.104280556664158 ], [ 77.473463849401, 13.104403003023886 ], [ 77.473632748044977, 13.104403771321866 ], [ 77.473931597662357, 13.104412855367592 ], [ 77.474221546173382, 13.10444642273311 ], [ 77.474400341574906, 13.10464441780087 ], [ 77.474678419845333, 13.105015265918086 ], [ 77.474839678895421, 13.105288627499931 ], [ 77.474972696873863, 13.10548157925378 ], [ 77.475038144576914, 13.105624382434717 ], [ 77.475180113419498, 13.105898734903811 ], [ 77.475593966843107, 13.106174259502781 ], [ 77.47611960326816, 13.106301852810105 ], [ 77.476600449832802, 13.106374695094498 ], [ 77.476695485156128, 13.106430196084425 ], [ 77.476784812697844, 13.106521969660795 ], [ 77.476880505448548, 13.106640575612518 ], [ 77.477015947934831, 13.107075542410357 ], [ 77.477013917962424, 13.107481950404832 ], [ 77.476977400965481, 13.107793068882122 ], [ 77.4770128161082, 13.107980981816324 ], [ 77.477077143891378, 13.108153792955576 ], [ 77.477277899046996, 13.108377162909063 ], [ 77.477744827221414, 13.108563801055096 ], [ 77.478092312074651, 13.108679984099805 ], [ 77.478322454939374, 13.108768609553563 ], [ 77.47847451308651, 13.108853204826378 ], [ 77.478581576091543, 13.109038541360999 ], [ 77.478615659788773, 13.109649571169458 ], [ 77.4787371883058, 13.110943507245846 ], [ 77.478847824478095, 13.111436117342034 ], [ 77.479020712913723, 13.111961313568814 ], [ 77.479358371732403, 13.112985790643139 ], [ 77.479378554204104, 13.11310698144629 ], [ 77.479376340884571, 13.113150106903655 ], [ 77.4793721441971, 13.113197404844987 ], [ 77.47934019789831, 13.113222096090096 ], [ 77.479289258109404, 13.113249837920389 ], [ 77.478965976188888, 13.113407856369543 ], [ 77.478776922456035, 13.113525854715688 ], [ 77.47845820230495, 13.11370104039533 ], [ 77.47817937334392, 13.113815392243659 ], [ 77.478042110166328, 13.113876150072445 ], [ 77.477462556241946, 13.113937242728483 ], [ 77.477036331897111, 13.114014478255243 ], [ 77.476745457873974, 13.114072258947003 ], [ 77.476689480551769, 13.114080917163919 ], [ 77.476547183697846, 13.114264954814276 ], [ 77.476477379784825, 13.114290513158096 ], [ 77.476768296063128, 13.115180860670874 ], [ 77.476949116387743, 13.115884323256799 ], [ 77.477072492406791, 13.116331358308434 ], [ 77.477072971232474, 13.11637916424019 ], [ 77.477070222363849, 13.116409072164011 ], [ 77.477039887880011, 13.11642430432949 ], [ 77.47697282338325, 13.116424949615539 ], [ 77.476813976454096, 13.116393608594791 ], [ 77.476743803048521, 13.116388307073299 ], [ 77.476704353140704, 13.116406615680548 ], [ 77.476683313569325, 13.116436699576569 ], [ 77.476677576364906, 13.116472612911586 ], [ 77.476688370484041, 13.116941647325227 ], [ 77.476672824606652, 13.117459344712424 ], [ 77.476689144753252, 13.117627718585354 ], [ 77.47679867750989, 13.117970899346533 ], [ 77.477210187802271, 13.118511976916864 ], [ 77.477310680905532, 13.118683127450536 ], [ 77.477373839035707, 13.118779335042886 ], [ 77.477407516725776, 13.118854312217778 ], [ 77.477448869459707, 13.118965072721583 ], [ 77.477449552034869, 13.119033196389346 ], [ 77.477413725691122, 13.119108842548956 ], [ 77.47740762127998, 13.119117571293472 ], [ 77.477363229984064, 13.119181043909636 ], [ 77.477272423250085, 13.119246461269988 ], [ 77.477148657180535, 13.119308610732395 ], [ 77.4769842208364, 13.119328122342276 ], [ 77.476852528243228, 13.11932938968704 ], [ 77.47679765655576, 13.119329917725304 ], [ 77.476709860560391, 13.119330762574666 ], [ 77.476202601909023, 13.119170763387471 ], [ 77.476141594408517, 13.119160688095027 ], [ 77.475730401362242, 13.11909277549519 ], [ 77.475683659609729, 13.119085055628684 ], [ 77.475215668199723, 13.118908714437065 ], [ 77.475206160724611, 13.118637907183677 ], [ 77.475182174267374, 13.118105649234321 ], [ 77.475169381110732, 13.117741218374814 ], [ 77.475177477474688, 13.117331763921756 ], [ 77.475150368129277, 13.11706010310299 ], [ 77.475153355264837, 13.116749306837075 ], [ 77.475130132481709, 13.116561276498441 ], [ 77.47505490737943, 13.116355817028243 ], [ 77.47496049476625, 13.116060898327675 ], [ 77.474913691742671, 13.115953774624522 ], [ 77.474876632984973, 13.115906320271121 ], [ 77.47478778035584, 13.115862352586825 ], [ 77.474546088750827, 13.115778019123589 ], [ 77.474368444396944, 13.115696058632503 ], [ 77.474291965618676, 13.115669900017934 ], [ 77.474147584167099, 13.115621684413753 ], [ 77.474081476159967, 13.115596024181844 ], [ 77.474015606340643, 13.115594266510403 ], [ 77.473969533506306, 13.115621004788355 ], [ 77.473877722534027, 13.115707945650136 ], [ 77.473739551710679, 13.115792942188857 ], [ 77.473328387405218, 13.115894903720598 ], [ 77.472807454684229, 13.115995529260795 ], [ 77.472349919032169, 13.116094588175928 ], [ 77.47162371080087, 13.116252642535335 ], [ 77.471427214852554, 13.116309988770956 ], [ 77.471017065883416, 13.11646500718906 ], [ 77.470512309927699, 13.116720379011705 ], [ 77.470399165354152, 13.116789410170464 ], [ 77.469620807881839, 13.117264292350375 ], [ 77.468863471680194, 13.117749662222847 ], [ 77.468594391252452, 13.117914679629923 ], [ 77.468382762411764, 13.11801997981286 ], [ 77.468178535948411, 13.118085048033397 ], [ 77.467980144209008, 13.118148148347531 ], [ 77.467806752206855, 13.118174672539327 ], [ 77.467725134377858, 13.118207965882938 ], [ 77.467707727986195, 13.118223431827801 ], [ 77.467694318720348, 13.118248422161685 ], [ 77.467694891220361, 13.118305789317784 ], [ 77.467707169767479, 13.118363044247786 ], [ 77.46771857075835, 13.118452260085709 ], [ 77.467703064819105, 13.118442845129483 ], [ 77.467702311630319, 13.118559409167279 ], [ 77.467182509130964, 13.119111673952567 ], [ 77.466767460526981, 13.119552641219039 ], [ 77.466608980109314, 13.119731205845699 ], [ 77.466271910030244, 13.120090670732949 ], [ 77.46597982693261, 13.12033199537432 ], [ 77.465332151371186, 13.120788980136226 ], [ 77.465427724596708, 13.121024900990953 ], [ 77.465524352062388, 13.121267698209049 ], [ 77.46553213191963, 13.121688488243501 ], [ 77.465496441835043, 13.121880719785219 ], [ 77.465389938996097, 13.122024629844278 ], [ 77.465088195849077, 13.122421637751815 ], [ 77.464800970040102, 13.122619988583645 ], [ 77.464472603992093, 13.122846749164781 ], [ 77.464416949067228, 13.122880076820973 ], [ 77.464405279452649, 13.122932779975654 ], [ 77.464420412777372, 13.122982836651738 ], [ 77.464571849695105, 13.123249126336731 ], [ 77.464681684255424, 13.123501471189057 ], [ 77.465030223606917, 13.124210511934878 ], [ 77.465067568347393, 13.124286650512989 ], [ 77.465107138460922, 13.1243412543442 ], [ 77.465234696041449, 13.124414138767198 ], [ 77.465599941411782, 13.124597100195054 ], [ 77.465776730076257, 13.124714932711516 ], [ 77.466011858999707, 13.124813081373256 ], [ 77.46621982721237, 13.124878023349497 ], [ 77.466366396233269, 13.12490052332717 ], [ 77.466510382232983, 13.124908704812889 ], [ 77.466771074920842, 13.124879909820962 ], [ 77.466919891125102, 13.124883264313601 ], [ 77.466995661871238, 13.124899271623315 ], [ 77.467047092394964, 13.124920292757494 ], [ 77.467081450082901, 13.124941478496165 ], [ 77.467106149144897, 13.124972318653557 ], [ 77.467121187737902, 13.125012813250184 ], [ 77.467148825970682, 13.12509382672966 ], [ 77.467152954127769, 13.125507349011308 ], [ 77.467168584400099, 13.125851434950858 ], [ 77.467234929707345, 13.126144834797923 ], [ 77.46738113593743, 13.12637531375961 ], [ 77.467538654309962, 13.126517234476044 ], [ 77.46763427078173, 13.126566518806664 ], [ 77.467717358132077, 13.126582455623902 ], [ 77.46783174567021, 13.12655745246426 ], [ 77.467919520026655, 13.126554219748432 ], [ 77.467948857722789, 13.126561110325742 ], [ 77.46800604903747, 13.12667052640994 ], [ 77.46800871074656, 13.126706555262622 ], [ 77.468021541516478, 13.126756436679427 ], [ 77.468031560102659, 13.126782636186288 ], [ 77.468039091033035, 13.126804079111363 ], [ 77.468053915067756, 13.12682306048613 ], [ 77.468076127718732, 13.126849142998417 ], [ 77.468117874384447, 13.126877429670644 ], [ 77.468159644917463, 13.126908104973797 ], [ 77.468232538022463, 13.126939774569006 ], [ 77.468268920950223, 13.126954453481257 ], [ 77.468535833043006, 13.127016173093015 ], [ 77.468957793354562, 13.126964990424668 ], [ 77.469395973562399, 13.126879507045347 ], [ 77.469486163017848, 13.126873859921012 ], [ 77.46952279293356, 13.126878289627895 ], [ 77.469549787228615, 13.126894763389831 ], [ 77.469564754710333, 13.126928087318309 ], [ 77.469572477797456, 13.126968651908022 ], [ 77.469577857454965, 13.127018801686578 ], [ 77.469580916642855, 13.127080926203263 ], [ 77.469581537760945, 13.127143074125572 ], [ 77.469574532254086, 13.127174218322894 ], [ 77.469562815968743, 13.127222140649337 ], [ 77.469543997703155, 13.127291647214218 ], [ 77.469527594529012, 13.127358739017204 ], [ 77.469504615842439, 13.127500001199094 ], [ 77.469486323099616, 13.127622093010947 ], [ 77.469474678471968, 13.127677187573424 ], [ 77.469473242814928, 13.12777760330294 ], [ 77.469431822819843, 13.128390987245661 ], [ 77.46928943500663, 13.128788170556762 ], [ 77.468951109006909, 13.129347215668654 ], [ 77.468589004156257, 13.129723613974148 ], [ 77.468271084528652, 13.13012827418453 ], [ 77.467873111188339, 13.130576731811781 ], [ 77.467532701747018, 13.130927820690919 ], [ 77.466983337433035, 13.131237883481903 ], [ 77.466163825958105, 13.131607908818729 ], [ 77.466091589869478, 13.131701832574384 ], [ 77.465989514276473, 13.13173866980221 ], [ 77.465861508343636, 13.131743483288851 ], [ 77.465762768201543, 13.131748015194656 ], [ 77.465667650838739, 13.131748927212747 ], [ 77.465583509188434, 13.131749733962604 ], [ 77.46552153186083, 13.131771843390316 ], [ 77.465349946873928, 13.131809345900081 ], [ 77.465251458077191, 13.131838976435111 ], [ 77.46518951646965, 13.131864671467927 ], [ 77.46509102762144, 13.131894301948661 ], [ 77.465010650880245, 13.131905829583948 ], [ 77.464948458755046, 13.131906425732009 ], [ 77.464820524171557, 13.131918409169591 ], [ 77.464710270994843, 13.131985532178254 ], [ 77.464673779386118, 13.132421138429645 ], [ 77.464580765080512, 13.133122500164708 ], [ 77.464182536961971, 13.133244252556473 ], [ 77.463549872709478, 13.133396137407619 ], [ 77.463547851640513, 13.133397031367171 ], [ 77.463207463206572, 13.133547631090767 ], [ 77.46300098938012, 13.13363327746066 ], [ 77.462942884403105, 13.133676863625126 ], [ 77.462911869580822, 13.133746486898964 ], [ 77.462883889734343, 13.133875843655316 ], [ 77.462824704300104, 13.134055700952473 ], [ 77.462626444081323, 13.13447594421195 ], [ 77.462446980005979, 13.134824290506339 ], [ 77.462215217725941, 13.135309399365825 ], [ 77.462198836176071, 13.135378881565492 ], [ 77.462241203638087, 13.135469316363553 ], [ 77.462275587415903, 13.135492892085535 ], [ 77.462333435598538, 13.13551031514776 ], [ 77.462321631635874, 13.135532405143913 ], [ 77.462544012610621, 13.135641628945253 ], [ 77.462961267149112, 13.135932581199754 ], [ 77.463127374924966, 13.13604840785108 ], [ 77.463231596349061, 13.136104184800777 ], [ 77.463286503048906, 13.136106646600188 ], [ 77.46332948253351, 13.136136116489904 ], [ 77.463372730290288, 13.136192476710926 ], [ 77.463431996999475, 13.136326376959175 ], [ 77.463479194680517, 13.136411983795172 ], [ 77.463648907794251, 13.136797624282254 ], [ 77.464000457096645, 13.137561616376601 ], [ 77.464341442165349, 13.138244431177766 ], [ 77.464446771692209, 13.138451914609503 ], [ 77.464547956157688, 13.1386512320601 ], [ 77.464590612466878, 13.138770349789175 ], [ 77.464603355989752, 13.138825209605978 ], [ 77.464607059861862, 13.138951872867196 ], [ 77.464615259251715, 13.139040243957314 ], [ 77.464618271099411, 13.139097587765727 ], [ 77.464641891848458, 13.139264698872219 ], [ 77.464649925151292, 13.139336337697397 ], [ 77.464657885951567, 13.139400806082438 ], [ 77.464713381581291, 13.139584344449274 ], [ 77.464892634858984, 13.140192211423566 ], [ 77.464987055374564, 13.140609649270534 ], [ 77.46502062329418, 13.140795788470459 ], [ 77.46503102436823, 13.140860233407215 ], [ 77.465004744699002, 13.140915467465666 ], [ 77.46488066621535, 13.14094773458509 ], [ 77.464710294505053, 13.140985226995497 ], [ 77.464397150619646, 13.141063770478741 ], [ 77.463802999137172, 13.141288201116092 ], [ 77.463379615382394, 13.141392663079218 ], [ 77.46310938742694, 13.141445453978308 ], [ 77.462977645885388, 13.141443130633771 ], [ 77.462732239908604, 13.141416796171811 ], [ 77.462497630335776, 13.14137242879702 ], [ 77.462387804444091, 13.141366310017457 ], [ 77.46227062532995, 13.141356675620331 ], [ 77.46198813329319, 13.14128049411598 ], [ 77.461717010908828, 13.141243647832514 ], [ 77.461559873743042, 13.141263081355621 ], [ 77.461340864599478, 13.141315380723187 ], [ 77.460537530290651, 13.141477263814856 ], [ 77.460190365095031, 13.141520031215762 ], [ 77.45974797185653, 13.141552952495589 ], [ 77.459466944684166, 13.141623772330242 ], [ 77.459014682093226, 13.141767947513475 ], [ 77.45878498110622, 13.141849033623252 ], [ 77.458675369097278, 13.141864425615667 ], [ 77.458591079773043, 13.141850888834565 ], [ 77.458455143186171, 13.141794816444451 ], [ 77.458366767510441, 13.141738288081916 ], [ 77.458196654373936, 13.141557039424407 ], [ 77.457852199783673, 13.141137207328111 ], [ 77.457466824021452, 13.140649635700097 ], [ 77.457162918174575, 13.139892348729513 ], [ 77.456977210752299, 13.139614430381448 ], [ 77.456851037665402, 13.139436345476689 ], [ 77.456758933130445, 13.139372680820664 ], [ 77.456575473468106, 13.139320647414797 ], [ 77.45641815813849, 13.13932215096648 ], [ 77.456088644705616, 13.13930019862738 ], [ 77.455828356830196, 13.139248898807269 ], [ 77.45550157488006, 13.139133688846625 ], [ 77.455005753888372, 13.138944790688278 ], [ 77.454682756166449, 13.138804740166448 ], [ 77.454766647464893, 13.140343594544191 ], [ 77.454721573307992, 13.140351667882324 ], [ 77.454665286298706, 13.140333080834735 ], [ 77.454633032453557, 13.14027840651595 ], [ 77.454593913686821, 13.140269217353092 ], [ 77.454552498388182, 13.140274394289484 ], [ 77.454511343611742, 13.140305864574373 ], [ 77.454443432193102, 13.140344761571592 ], [ 77.454377650021598, 13.140352561886852 ], [ 77.454284991451274, 13.140355837455909 ], [ 77.454219186410427, 13.140361246350759 ], [ 77.453515976016504, 13.140535299477076 ], [ 77.453135522726825, 13.140787548489685 ], [ 77.452662574987556, 13.141059804510125 ], [ 77.452514103917466, 13.141092298719959 ], [ 77.452416875334833, 13.141126694552723 ], [ 77.452387892179971, 13.141155657712179 ], [ 77.452237440833414, 13.141479817878544 ], [ 77.452074484572748, 13.141773020055943 ], [ 77.451957037493045, 13.141982118901394 ], [ 77.451895665727875, 13.142188292886756 ], [ 77.451807921674998, 13.142686364863607 ], [ 77.451748231425697, 13.14293913783635 ], [ 77.451702478123565, 13.143244369608498 ], [ 77.451653794988005, 13.14356158283843 ], [ 77.451569000649741, 13.143926951008096 ], [ 77.451411510649223, 13.144340824980263 ], [ 77.451118661129129, 13.145162796077921 ], [ 77.451052576398297, 13.145348282077787 ], [ 77.450716190183527, 13.146170255533075 ], [ 77.450603331127056, 13.146473140508878 ], [ 77.450585632350709, 13.146533073251566 ], [ 77.450607359963215, 13.14657171170815 ], [ 77.450882535299769, 13.146954563912699 ], [ 77.451275557542061, 13.147536499118512 ], [ 77.45186688623059, 13.148436277946669 ], [ 77.452337383332193, 13.149142975495723 ], [ 77.452388263577447, 13.149221587803359 ], [ 77.452780215880722, 13.149827170976327 ], [ 77.452992657460115, 13.150033174188046 ], [ 77.453247468028508, 13.150207043771381 ], [ 77.453594398434518, 13.150445772575223 ], [ 77.454205348429667, 13.150864257029776 ], [ 77.4547120127759, 13.15122098488717 ], [ 77.454917597033997, 13.15135050059326 ], [ 77.455284475503632, 13.151448591253484 ], [ 77.45573687158587, 13.151560804028755 ], [ 77.456045761721995, 13.151653472197689 ], [ 77.456122668012441, 13.151721464948395 ], [ 77.456224323151034, 13.151825078602769 ], [ 77.456315032868261, 13.152054300936639 ], [ 77.456529887615815, 13.152808255862956 ], [ 77.456822128431057, 13.153678008344567 ], [ 77.45686938000955, 13.153829953188112 ], [ 77.456875895002199, 13.153871725204514 ], [ 77.456879271119732, 13.153904562621758 ], [ 77.456846626385087, 13.15399452043361 ], [ 77.456774405088836, 13.154090833664982 ], [ 77.455767862356453, 13.154978988652221 ], [ 77.455568091410143, 13.155127319810751 ], [ 77.455528960991401, 13.155178493108597 ], [ 77.455520498500476, 13.155247302364723 ], [ 77.455515769096991, 13.155384804232259 ], [ 77.455583460388794, 13.15636428061303 ], [ 77.455580695349099, 13.156698983059334 ], [ 77.455540063652663, 13.156905556654646 ], [ 77.455477434520773, 13.157046600273501 ], [ 77.455429543756864, 13.157136703878416 ], [ 77.45536330038766, 13.157221006298458 ], [ 77.455330296802387, 13.157275108929387 ], [ 77.455315707153403, 13.157340988885414 ], [ 77.455319172479633, 13.157382790131031 ], [ 77.455550735769194, 13.158283005870294 ], [ 77.455641638344758, 13.158750629410235 ], [ 77.455811069127975, 13.15962220850745 ], [ 77.456145666938355, 13.160763479380506 ], [ 77.456164705621617, 13.1608380021536 ], [ 77.456186525041289, 13.160885604405692 ], [ 77.456211244303091, 13.16091823754172 ], [ 77.456257038521585, 13.160923775060027 ], [ 77.456314940178757, 13.160920232954377 ], [ 77.457049463059207, 13.160578525888472 ], [ 77.457680943603279, 13.16030055530768 ], [ 77.457817582795428, 13.160242471110726 ], [ 77.457863317279461, 13.160242033114736 ], [ 77.457899905603014, 13.160241682705029 ], [ 77.457943038337078, 13.160286091829116 ], [ 77.457974034884444, 13.160336593895066 ], [ 77.458205799790107, 13.160949938764784 ], [ 77.45865424090286, 13.161996353650517 ], [ 77.45866160858796, 13.162013545506145 ], [ 77.45873007323442, 13.162208448659491 ] ] ] } }
]
}
