{
"type": "FeatureCollection",
"name": "hoblis_in_police_area.writing_20260805_172659",
"crs": { "type": "name", "properties": { "name": "urn:ogc:def:crs:OGC:1.3:CRS84" } },
"features": [
{ "type": "Feature", "properties": { "OBJECTID": 702, "KGISHobliID": 865, "KGISHobliCode": "100301", "KGISHobliName": "Sambrani", "BhuCodeHobli": null, "SHAPE.STArea()": 257995057.84544551, "SHAPE.STLength()": 108591.18579176691, "KGISTalukCode": "1003", "created_user": null, "created_date": null, "last_edited_user": "SURESHBV1", "last_edited_date": 1669620203000.0, "_overlap_percent": 1.7913417761259831, "_police_station": "Dandeli Rural PS", "_police_feature_index": "591", "_admin_layer": "Hobli", "_geometry_clipped": true }, "geometry": { "type": "MultiPolygon", "coordinates": [ [ [ [ 74.72288841789937, 15.306633898864563 ], [ 74.722919672941813, 15.306472090260986 ], [ 74.723387118145737, 15.304063767283253 ], [ 74.723395843947785, 15.303979620911772 ], [ 74.723402459321107, 15.303914381863697 ], [ 74.723807831881103, 15.302436627762518 ], [ 74.724018835759722, 15.301606480989955 ], [ 74.724139624895784, 15.301117046438062 ], [ 74.724095866755732, 15.301011937247738 ], [ 74.724210373875323, 15.301123920029177 ], [ 74.7242171820359, 15.301095887823866 ], [ 74.724172463013772, 15.300993293544842 ], [ 74.722705065156219, 15.297626771929117 ], [ 74.72281401445305, 15.295811780877292 ], [ 74.716747495484171, 15.290671997542743 ], [ 74.714349553090599, 15.290464460398276 ], [ 74.7139099014571, 15.291132052932287 ], [ 74.713795730060696, 15.291173543018623 ], [ 74.713634500632367, 15.291176128625699 ], [ 74.712565456191911, 15.291193269551888 ], [ 74.711099647534496, 15.2912240082448 ], [ 74.709772536984801, 15.291257443247277 ], [ 74.709645196891245, 15.29130179726716 ], [ 74.708531061968245, 15.29177598700166 ], [ 74.707692299887498, 15.292156721699484 ], [ 74.707449041460251, 15.292245649226201 ], [ 74.70633537981854, 15.292111491242981 ], [ 74.70507903316215, 15.291949561432927 ], [ 74.703773058321829, 15.291805390269319 ], [ 74.702467085410902, 15.291661210611037 ], [ 74.70113883778626, 15.291500975875117 ], [ 74.700322943939838, 15.291390605014469 ], [ 74.700248393559193, 15.29138052042847 ], [ 74.700054334227744, 15.291360580245856 ], [ 74.699722934257053, 15.29132652909901 ], [ 74.699544896931187, 15.291373006251598 ], [ 74.698898853779895, 15.29158206838793 ], [ 74.6982578055337, 15.29186015801703 ], [ 74.698301360840233, 15.291491258143761 ], [ 74.698455126425671, 15.287451414978152 ], [ 74.698447535128437, 15.286250186802157 ], [ 74.698425183003209, 15.286222970735388 ], [ 74.698398833470492, 15.286162400145974 ], [ 74.69838409210503, 15.286096596954254 ], [ 74.698375651667121, 15.286014540398643 ], [ 74.698345772428752, 15.28589384673568 ], [ 74.698343831667813, 15.285790080000988 ], [ 74.698326673811465, 15.285727860069974 ], [ 74.698345246280851, 15.285509477040438 ], [ 74.698303637372575, 15.285230280729639 ], [ 74.698446592886484, 15.284399419110041 ], [ 74.698541679142664, 15.283464206173402 ], [ 74.698793373528488, 15.282430903061767 ], [ 74.698794725711423, 15.282260745298544 ], [ 74.698638433603818, 15.28186198719008 ], [ 74.698793296162862, 15.282259998406055 ], [ 74.698790563847311, 15.282428718618865 ], [ 74.698523246767394, 15.283450563964385 ], [ 74.698416550843007, 15.284381008459304 ], [ 74.698264265161185, 15.285209406500183 ], [ 74.698303996627885, 15.285489027018173 ], [ 74.698283608163749, 15.285707210505377 ], [ 74.698300487234249, 15.285769627155343 ], [ 74.698301729367913, 15.285873430016492 ], [ 74.698331090202871, 15.285994482814084 ], [ 74.698339084314341, 15.28607665449327 ], [ 74.698353554360551, 15.286142642660518 ], [ 74.698379779547125, 15.286203530422897 ], [ 74.698402175997032, 15.286231008739637 ], [ 74.698404154206486, 15.287432985171595 ], [ 74.698245704351649, 15.291474187151284 ], [ 74.698202335575829, 15.291842851297069 ], [ 74.697538556291505, 15.297612593152355 ], [ 74.696949128011397, 15.29882607803088 ], [ 74.700522780204381, 15.29880151374754 ], [ 74.700579140461684, 15.298918719243504 ], [ 74.700711037310199, 15.299192424920065 ], [ 74.700714245655192, 15.299193468913625 ], [ 74.700716215574673, 15.29919946294175 ], [ 74.700720040396561, 15.299211110002778 ], [ 74.700749354224016, 15.299271981903354 ], [ 74.700750246970799, 15.299272048889787 ], [ 74.700763501314228, 15.299275614260997 ], [ 74.700867388361274, 15.299497568530324 ], [ 74.70090996141623, 15.299588523386396 ], [ 74.701008900264583, 15.29979707509826 ], [ 74.701189582218376, 15.300177919911496 ], [ 74.701235361370678, 15.300271507729766 ], [ 74.701347674560196, 15.300478987725274 ], [ 74.70175218353576, 15.301260070125112 ], [ 74.702133070577119, 15.30195207217422 ], [ 74.702437917054922, 15.302306205110469 ], [ 74.703205296589317, 15.303257531581179 ], [ 74.70400317304221, 15.30422965729513 ], [ 74.704765177601615, 15.305186515236519 ], [ 74.704817660298758, 15.3052496627667 ], [ 74.705544271138265, 15.30611048883188 ], [ 74.705822783387163, 15.306265458958832 ], [ 74.705842127648026, 15.306276221354793 ], [ 74.705997354826138, 15.306382473207371 ], [ 74.706908686025841, 15.307006268848777 ], [ 74.708232968490947, 15.307932992187343 ], [ 74.709479548653434, 15.308732191904324 ], [ 74.7107870995263, 15.309531850593169 ], [ 74.712103789313389, 15.310367576678075 ], [ 74.713102122863177, 15.311012340265739 ], [ 74.713188068104586, 15.311051565013059 ], [ 74.713121661172863, 15.311078570726886 ], [ 74.713140134363741, 15.311086893139745 ], [ 74.713469804694569, 15.310946220289681 ], [ 74.71419599693958, 15.310584703565178 ], [ 74.714895853071553, 15.309969080321444 ], [ 74.714940365689515, 15.30993242024245 ], [ 74.716907969106387, 15.30835196605878 ], [ 74.717802771505021, 15.307662848020376 ], [ 74.718437574019035, 15.307751576314519 ], [ 74.720442273163712, 15.308001935849726 ], [ 74.722000287153804, 15.308839734790665 ], [ 74.722846885682557, 15.306767300899322 ], [ 74.72288841789937, 15.306633898864563 ] ] ], [ [ [ 74.697048536901562, 15.278590374008187 ], [ 74.697841494768156, 15.279113119303743 ], [ 74.69845831071504, 15.279301390043262 ], [ 74.698631665800605, 15.279397737501048 ], [ 74.698622788147148, 15.279385507322967 ], [ 74.698443413621476, 15.279284900185308 ], [ 74.697821651567835, 15.279091168359857 ], [ 74.697027792212339, 15.278564076847696 ], [ 74.697048536901562, 15.278590374008187 ] ] ], [ [ [ 74.691478620927384, 15.276036606238115 ], [ 74.691867052116308, 15.27641991784872 ], [ 74.692377294355651, 15.276637631304197 ], [ 74.692861077191907, 15.276486908046255 ], [ 74.693992881251475, 15.276135211052262 ], [ 74.695291831710747, 15.2760147441558 ], [ 74.696381927786064, 15.276271057279965 ], [ 74.69683373388095, 15.276740711830959 ], [ 74.696827641215776, 15.276720278407733 ], [ 74.696354370539638, 15.276225136469371 ], [ 74.695255963378713, 15.275961646998102 ], [ 74.693945341139667, 15.276075226665956 ], [ 74.692802962441533, 15.276420650817476 ], [ 74.69231483853666, 15.276568243457156 ], [ 74.69180043950557, 15.276346943045066 ], [ 74.691471794766898, 15.276022943614802 ], [ 74.691478620927384, 15.276036606238115 ] ] ], [ [ [ 74.684884471147271, 15.237108047390935 ], [ 74.684825741603987, 15.237416274575956 ], [ 74.6849072342944, 15.237002190262903 ], [ 74.685761896670002, 15.233006871559857 ], [ 74.684884471147271, 15.237108047390935 ] ] ], [ [ [ 74.687847917896505, 15.223255278581119 ], [ 74.687848804184071, 15.223251135423071 ], [ 74.687967839693641, 15.222447581554349 ], [ 74.687847917896505, 15.223255278581119 ] ] ], [ [ [ 74.689027566257906, 15.204416457913521 ], [ 74.688038427999629, 15.205452966833674 ], [ 74.684899478787699, 15.209617341703956 ], [ 74.684706251867169, 15.209873684496248 ], [ 74.68236144561827, 15.212890394255913 ], [ 74.679847212274424, 15.215669190896179 ], [ 74.680773094002816, 15.21632964491207 ], [ 74.680884998352525, 15.216424802198953 ], [ 74.682172319311988, 15.215279017444226 ], [ 74.682610555616421, 15.214456038820124 ], [ 74.68290146434488, 15.213642518976645 ], [ 74.683359983710332, 15.212732781481805 ], [ 74.685978875731863, 15.210110718473809 ], [ 74.689446758071099, 15.205374708608145 ], [ 74.688912263169954, 15.203785643413006 ], [ 74.688788154738859, 15.20373477271356 ], [ 74.689027566257906, 15.204416457913521 ] ] ], [ [ [ 74.671830524064831, 15.196760425420571 ], [ 74.67800184569009, 15.199314694323601 ], [ 74.678108698760482, 15.199357359673472 ], [ 74.671888148577395, 15.196648691047189 ], [ 74.66528456805419, 15.185878500790622 ], [ 74.664983584289104, 15.185996319710295 ], [ 74.664978093286607, 15.185998468951688 ], [ 74.671830524064831, 15.196760425420571 ] ] ] ] } },
{ "type": "Feature", "properties": { "OBJECTID": 205, "KGISHobliID": 216, "KGISHobliCode": "101203", "KGISHobliName": "Dandeli", "BhuCodeHobli": null, "SHAPE.STArea()": 277231280.27865911, "SHAPE.STLength()": 139321.09077703915, "KGISTalukCode": "1012", "created_user": null, "created_date": null, "last_edited_user": "SURESHBV1", "last_edited_date": 1669620212000.0, "_overlap_percent": 40.766145156652286, "_police_station": "Dandeli Rural PS", "_police_feature_index": "591", "_admin_layer": "Hobli", "_geometry_clipped": true }, "geometry": { "type": "MultiPolygon", "coordinates": [ [ [ [ 74.709827126034497, 15.312803197106192 ], [ 74.710361101873701, 15.312635091895727 ], [ 74.710642254253727, 15.312421217013476 ], [ 74.710933217998175, 15.312473873237218 ], [ 74.711177005071335, 15.312351141983084 ], [ 74.711381374993394, 15.312295985347671 ], [ 74.71283990345006, 15.311209026108584 ], [ 74.712845527783998, 15.311212571029744 ], [ 74.713140134363741, 15.311086893139745 ], [ 74.713121661172863, 15.311078570726886 ], [ 74.712897572429355, 15.311169700919505 ], [ 74.712891892267507, 15.311166109819451 ], [ 74.711466867259176, 15.312208405507496 ], [ 74.711266364119908, 15.312258183373995 ], [ 74.711028183396223, 15.312373922527858 ], [ 74.710741914409169, 15.312313976514654 ], [ 74.71046904960123, 15.312518690291075 ], [ 74.709949379684929, 15.31266980663024 ], [ 74.708909365765166, 15.313073311573469 ], [ 74.708832904506878, 15.31321352235671 ], [ 74.709827126034497, 15.312803197106192 ] ] ], [ [ [ 74.698931066546677, 15.317811818871355 ], [ 74.699523161275749, 15.318180042915017 ], [ 74.700009925965645, 15.318411573501788 ], [ 74.70002158117579, 15.318417040790475 ], [ 74.701173866356328, 15.318520672306887 ], [ 74.701326962050388, 15.318533098425657 ], [ 74.702215647738356, 15.318568212107945 ], [ 74.702422153980422, 15.318576036325226 ], [ 74.702497167132719, 15.31855623544612 ], [ 74.70285204367309, 15.318462177205197 ], [ 74.703554842332679, 15.318382827717558 ], [ 74.70420624656802, 15.318545675262005 ], [ 74.704449958325469, 15.318659482335253 ], [ 74.704533932821874, 15.318698762046811 ], [ 74.704703579858077, 15.318793449819264 ], [ 74.704933810599542, 15.318927966557732 ], [ 74.705488098218211, 15.319017178062362 ], [ 74.70593653852319, 15.319264462349032 ], [ 74.706293996281389, 15.319622913862737 ], [ 74.706484385180303, 15.319565864805883 ], [ 74.706536115844273, 15.319594256893483 ], [ 74.706938126668945, 15.319683270216917 ], [ 74.707024665065774, 15.319696901608276 ], [ 74.707264553390672, 15.319734666008381 ], [ 74.708205998402363, 15.319882839580146 ], [ 74.709562924735636, 15.320063645641563 ], [ 74.709599031154227, 15.320060301783135 ], [ 74.708268967507976, 15.31987103667233 ], [ 74.707318053322936, 15.319711410645276 ], [ 74.707074269916106, 15.319670488645132 ], [ 74.706986161604803, 15.319655698887081 ], [ 74.706575430443593, 15.319560728019058 ], [ 74.706522326313447, 15.319531255560811 ], [ 74.706327604240968, 15.319587364129994 ], [ 74.705959102324996, 15.31921866567968 ], [ 74.705499679607726, 15.318963684033461 ], [ 74.704936357036075, 15.318872453556395 ], [ 74.70470466821979, 15.318736126720163 ], [ 74.704534559253943, 15.31864072230117 ], [ 74.704450475858934, 15.318601392721209 ], [ 74.704207534319707, 15.318487756636893 ], [ 74.703564512633903, 15.318327349499699 ], [ 74.702871446051503, 15.31841330727524 ], [ 74.70252130629423, 15.318512149953463 ], [ 74.70244738342798, 15.318533018211177 ], [ 74.702245254406975, 15.318526634636081 ], [ 74.701375851358478, 15.318499178239396 ], [ 74.701225650925764, 15.31848873326315 ], [ 74.700086817119725, 15.318409534025479 ], [ 74.700075248267808, 15.318404259426536 ], [ 74.699589484721542, 15.318182668951252 ], [ 74.698991605936996, 15.317830698192536 ], [ 74.698626213312579, 15.317644052813302 ], [ 74.698931066546677, 15.317811818871355 ] ] ], [ [ [ 74.657824001219979, 15.325573107957881 ], [ 74.664365323249442, 15.319862028741406 ], [ 74.665488407618739, 15.318850450847862 ], [ 74.668521954051499, 15.315920620951713 ], [ 74.668998163786441, 15.315847730634211 ], [ 74.669026646467699, 15.315966208791254 ], [ 74.671049671890543, 15.315948879818974 ], [ 74.672174663481258, 15.315844194336886 ], [ 74.690998783743453, 15.31579250179756 ], [ 74.691231473936526, 15.315788966552589 ], [ 74.69145813699356, 15.315785489647192 ], [ 74.691473655478248, 15.315824261110235 ], [ 74.691475377116419, 15.31583305301324 ], [ 74.691488625016234, 15.315900724977645 ], [ 74.691492112981706, 15.315915149063635 ], [ 74.691507136129474, 15.315977286853075 ], [ 74.691653824146101, 15.315973733704126 ], [ 74.693099826611714, 15.316053144523393 ], [ 74.693924874215824, 15.316156089663931 ], [ 74.693159647720748, 15.316047058983479 ], [ 74.691729866659145, 15.315947574897315 ], [ 74.69158483408458, 15.315949165801547 ], [ 74.691570483451486, 15.315887051547065 ], [ 74.691567151971142, 15.315872633102652 ], [ 74.691554597943622, 15.315805029002298 ], [ 74.691552966648018, 15.315796246265375 ], [ 74.691537937299415, 15.315757412196573 ], [ 74.691441630787907, 15.315508582309278 ], [ 74.69158250368433, 15.314855260680476 ], [ 74.691932561189134, 15.313986675939123 ], [ 74.692833052720744, 15.313133849089787 ], [ 74.692866388928749, 15.312628263684157 ], [ 74.692814439204838, 15.312467707889763 ], [ 74.692697636059947, 15.31210672096115 ], [ 74.693111075314761, 15.311292820725086 ], [ 74.693520742440015, 15.31095128713485 ], [ 74.693672522271498, 15.310429695124057 ], [ 74.69350073470882, 15.309460375305644 ], [ 74.693306493913951, 15.309304031001306 ], [ 74.692759276277783, 15.309385097760169 ], [ 74.69229453223835, 15.309358410093546 ], [ 74.69247860423792, 15.309061601202336 ], [ 74.692923180291913, 15.308344736082626 ], [ 74.693026254353128, 15.308066511951219 ], [ 74.693547055737397, 15.307656323298756 ], [ 74.694072988877579, 15.307242091902493 ], [ 74.694202901430302, 15.306960405969026 ], [ 74.694236387567187, 15.306263678097437 ], [ 74.694143738805337, 15.305875769405542 ], [ 74.69428561434637, 15.305594172965927 ], [ 74.694900496515928, 15.304836990596998 ], [ 74.695053239070575, 15.304387972355025 ], [ 74.695472396246259, 15.303155744234767 ], [ 74.695613908960468, 15.303118259014488 ], [ 74.695869773037913, 15.303050483168199 ], [ 74.696164974007658, 15.303052699778881 ], [ 74.696464563009656, 15.303004613094695 ], [ 74.69710219721658, 15.302650263260032 ], [ 74.697457059795127, 15.302485161672445 ], [ 74.69801751415207, 15.30222440983804 ], [ 74.698250925714035, 15.302115812090852 ], [ 74.698611308261263, 15.301948140333936 ], [ 74.698844438222068, 15.301729177756481 ], [ 74.699150880323018, 15.301321030066369 ], [ 74.6995815695376, 15.300840244416635 ], [ 74.699736607071003, 15.30040772709749 ], [ 74.699886700223587, 15.300095211667465 ], [ 74.700270806161967, 15.299451442667966 ], [ 74.70053565843169, 15.299255947436665 ], [ 74.700749354224016, 15.299271981903354 ], [ 74.700720040396561, 15.299211110002778 ], [ 74.700716215574673, 15.29919946294175 ], [ 74.700714245655192, 15.299193468913625 ], [ 74.700711037310199, 15.299192424920065 ], [ 74.700579140461684, 15.298918719243504 ], [ 74.700522780204381, 15.29880151374754 ], [ 74.696949128011397, 15.29882607803088 ], [ 74.697538556291505, 15.297612593152355 ], [ 74.698202335575829, 15.291842851297069 ], [ 74.698245704351649, 15.291474187151284 ], [ 74.698404154206486, 15.287432985171595 ], [ 74.698402175997032, 15.286231008739637 ], [ 74.698379779547125, 15.286203530422897 ], [ 74.698353554360551, 15.286142642660518 ], [ 74.698339084314341, 15.28607665449327 ], [ 74.698331090202871, 15.285994482814084 ], [ 74.698301729367913, 15.285873430016492 ], [ 74.698300487234249, 15.285769627155343 ], [ 74.698283608163749, 15.285707210505377 ], [ 74.698303996627885, 15.285489027018173 ], [ 74.698264265161185, 15.285209406500183 ], [ 74.698416550843007, 15.284381008459304 ], [ 74.698523246767394, 15.283450563964385 ], [ 74.698790563847311, 15.282428718618865 ], [ 74.698793296162862, 15.282259998406055 ], [ 74.698638433603818, 15.28186198719008 ], [ 74.69855130938879, 15.281639701575516 ], [ 74.698550010785155, 15.281188053770762 ], [ 74.698710109583573, 15.280652969527955 ], [ 74.698884437045194, 15.280070324735654 ], [ 74.698878081608271, 15.279737208874275 ], [ 74.698631665800605, 15.279397737501048 ], [ 74.69845831071504, 15.279301390043262 ], [ 74.697841494768156, 15.279113119303743 ], [ 74.697048536901562, 15.278590374008187 ], [ 74.697027792212339, 15.278564076847696 ], [ 74.697022397022479, 15.278560494652993 ], [ 74.696737967240779, 15.278199123025992 ], [ 74.696723175856363, 15.277697606269637 ], [ 74.696860755707021, 15.277320307015168 ], [ 74.696908543042866, 15.276991604867634 ], [ 74.69683373388095, 15.276740711830959 ], [ 74.696381927786064, 15.276271057279965 ], [ 74.695291831710747, 15.2760147441558 ], [ 74.693992881251475, 15.276135211052262 ], [ 74.692861077191907, 15.276486908046255 ], [ 74.692377294355651, 15.276637631304197 ], [ 74.691867052116308, 15.27641991784872 ], [ 74.691478620927384, 15.276036606238115 ], [ 74.691471794766898, 15.276022943614802 ], [ 74.691409088693433, 15.275961123875479 ], [ 74.691107120551663, 15.275358540752164 ], [ 74.690813949902008, 15.274874195334339 ], [ 74.690574829933539, 15.274328805931217 ], [ 74.690331937789324, 15.273945666193557 ], [ 74.690059266739496, 15.273644258092839 ], [ 74.689765420301569, 15.273319441495961 ], [ 74.689644750750944, 15.273111729783475 ], [ 74.689654790580121, 15.272464222086752 ], [ 74.689548120204933, 15.271796929419851 ], [ 74.689241331837636, 15.271189583372021 ], [ 74.688730686237363, 15.270500342566521 ], [ 74.688693094483654, 15.27032989204573 ], [ 74.6885504312027, 15.270084401630418 ], [ 74.688256848083213, 15.269601223090989 ], [ 74.688163273984372, 15.269332072873972 ], [ 74.688175902151428, 15.268829175150808 ], [ 74.68798808465678, 15.268628668722025 ], [ 74.687673859555716, 15.268293216974522 ], [ 74.687375557744275, 15.268151328214985 ], [ 74.687355647887756, 15.268141859937616 ], [ 74.687076363705174, 15.267496768285682 ], [ 74.6865898378867, 15.266775856224756 ], [ 74.686150291097931, 15.266172727727357 ], [ 74.685885750639287, 15.266142409200404 ], [ 74.685857490893596, 15.266139170927755 ], [ 74.685343378632382, 15.266095865398222 ], [ 74.684822951202364, 15.266040169208674 ], [ 74.684507685822268, 15.266021204523405 ], [ 74.684164021692567, 15.265992384586026 ], [ 74.683504007179565, 15.265926809439563 ], [ 74.682844613010673, 15.265871397913681 ], [ 74.682178594058797, 15.265798509858918 ], [ 74.68151335085895, 15.265738327913244 ], [ 74.680848263493061, 15.265680685617022 ], [ 74.680442110796136, 15.26562992821272 ], [ 74.679920427525985, 15.26558302562607 ], [ 74.679427386054542, 15.265550306365489 ], [ 74.678535415385227, 15.265461225648753 ], [ 74.677643446471734, 15.265372141397942 ], [ 74.676751774564295, 15.265287907189631 ], [ 74.675860104371921, 15.265203669448994 ], [ 74.674969321521615, 15.265133988910515 ], [ 74.674087346042981, 15.265034579447731 ], [ 74.673205371465755, 15.264935166530277 ], [ 74.672324137056719, 15.264847884111571 ], [ 74.671442904377614, 15.264760599147767 ], [ 74.670561229372396, 15.264666030359614 ], [ 74.66967815586014, 15.264580143444963 ], [ 74.668620351677035, 15.26493847644303 ], [ 74.661614236995575, 15.267233102620976 ], [ 74.659550394799609, 15.267916431183671 ], [ 74.658029297335673, 15.268406851322906 ], [ 74.657491898936911, 15.268407635468289 ], [ 74.657266923558296, 15.268490130362194 ], [ 74.660716470742685, 15.278415365235398 ], [ 74.66324396711218, 15.28600234367495 ], [ 74.662116975162377, 15.28538841740748 ], [ 74.659022822887707, 15.283669587332593 ], [ 74.65640228859894, 15.282226680565953 ], [ 74.650069879321265, 15.278852938120442 ], [ 74.649851934789638, 15.278789516734832 ], [ 74.648019690440435, 15.277823994282606 ], [ 74.648016512610511, 15.277822323962955 ], [ 74.645605829562072, 15.276421880480832 ], [ 74.644396340879155, 15.275750038124125 ], [ 74.641012882920265, 15.273955126714434 ], [ 74.640336588890989, 15.274674047649457 ], [ 74.638135988814156, 15.27736943612895 ], [ 74.636672226407569, 15.278921360422549 ], [ 74.633695826311538, 15.282244359653806 ], [ 74.630548311914552, 15.285712809505284 ], [ 74.627978340554733, 15.288519371880289 ], [ 74.625546810624044, 15.291127187242552 ], [ 74.625445737628567, 15.291097620064487 ], [ 74.623958281731987, 15.29042745543938 ], [ 74.622877734670467, 15.289813743484892 ], [ 74.622276527960295, 15.289536292938962 ], [ 74.609254266273524, 15.283877469566018 ], [ 74.608603049580438, 15.283568955230299 ], [ 74.606168183749446, 15.282405439935678 ], [ 74.605608980143714, 15.282255285919613 ], [ 74.605173019084276, 15.281422953280044 ], [ 74.605128431221686, 15.280793320936249 ], [ 74.60551927336563, 15.277795253915203 ], [ 74.605540360409748, 15.277262958465643 ], [ 74.605458873760114, 15.277068695868808 ], [ 74.602898977346868, 15.275513118714814 ], [ 74.602716466665441, 15.275062371526964 ], [ 74.602442598203993, 15.27438601205759 ], [ 74.602445385408046, 15.274347602556331 ], [ 74.602500706474871, 15.272397541268075 ], [ 74.602513712801283, 15.271655159053623 ], [ 74.602491185576696, 15.271664279311524 ], [ 74.602398932467509, 15.271796204772087 ], [ 74.60239819281388, 15.272282984848374 ], [ 74.602397767241939, 15.272563390617531 ], [ 74.602365583375231, 15.274511064530707 ], [ 74.602363183802481, 15.27454936351592 ], [ 74.602641438415361, 15.275223488727812 ], [ 74.602826422875609, 15.275672182664973 ], [ 74.605380699402431, 15.277211076770374 ], [ 74.605462370284883, 15.277402931242573 ], [ 74.605442879958275, 15.277929435224111 ], [ 74.605058089916767, 15.280893908903543 ], [ 74.605101757648157, 15.281514440046328 ], [ 74.605531620554288, 15.28232949049692 ], [ 74.606111171948655, 15.283024611247864 ], [ 74.606704243977958, 15.283531080568366 ], [ 74.606978268207982, 15.283765704400151 ], [ 74.604767251398115, 15.287326781958184 ], [ 74.604452776509916, 15.28827059539859 ], [ 74.60580571121875, 15.290983508483505 ], [ 74.605408223742018, 15.292501699346735 ], [ 74.604786622311607, 15.293648902665209 ], [ 74.604475537608181, 15.293636194091423 ], [ 74.602669139422389, 15.29357376154527 ], [ 74.60210009195977, 15.29356024797398 ], [ 74.602058163385891, 15.293559361556873 ], [ 74.598388994233176, 15.293518237705689 ], [ 74.595827601829228, 15.293531279497609 ], [ 74.590911521946367, 15.293624174314402 ], [ 74.588012108818603, 15.29371840355283 ], [ 74.586439713998672, 15.293766010575339 ], [ 74.584291457690085, 15.293816581494386 ], [ 74.582359113866104, 15.293865318014781 ], [ 74.582160051112098, 15.29367035708257 ], [ 74.581669000765999, 15.293641048015887 ], [ 74.581393835333856, 15.293574269951105 ], [ 74.581219062793707, 15.294145929885557 ], [ 74.580541438062653, 15.293929006442379 ], [ 74.58033648266165, 15.293849271228941 ], [ 74.580179424576855, 15.293893381356783 ], [ 74.579956218101486, 15.293899140983674 ], [ 74.579898904700556, 15.293931701365038 ], [ 74.579817560515693, 15.293903428196007 ], [ 74.5796284066749, 15.293817855445292 ], [ 74.579588096067212, 15.293799722565074 ], [ 74.579440892468028, 15.293744809815163 ], [ 74.579351251999256, 15.293711956197043 ], [ 74.579297424153182, 15.293537168106338 ], [ 74.579143903222985, 15.293771885549544 ], [ 74.578967464643256, 15.293781041969913 ], [ 74.578899088271555, 15.293714400282692 ], [ 74.578701948121321, 15.293703340322574 ], [ 74.578701898418316, 15.29358324609729 ], [ 74.578539466255535, 15.293542826301195 ], [ 74.578667395261974, 15.29329577377265 ], [ 74.578552277602057, 15.293244830088843 ], [ 74.578536439435112, 15.29325423522228 ], [ 74.578405124365304, 15.293332294616404 ], [ 74.578054845886342, 15.293068901215308 ], [ 74.576401057623769, 15.293589738461581 ], [ 74.576191897575271, 15.293667544013562 ], [ 74.573296102461427, 15.29480552404979 ], [ 74.571971048179563, 15.295335920855893 ], [ 74.57148747946033, 15.296123906760819 ], [ 74.570896303734159, 15.297137587792994 ], [ 74.569405948667693, 15.29964022535443 ], [ 74.56837758702595, 15.301290604928647 ], [ 74.568010640818002, 15.301887931015187 ], [ 74.567310873888971, 15.303013961661916 ], [ 74.566553910760405, 15.304283873899577 ], [ 74.564885574231198, 15.307095519605326 ], [ 74.564507898540782, 15.307704765379428 ], [ 74.565414249049638, 15.308061328493574 ], [ 74.566178654859598, 15.309135263479192 ], [ 74.571271910786919, 15.316254938180082 ], [ 74.571442883849812, 15.316433245138857 ], [ 74.572153235111742, 15.317393666808602 ], [ 74.572141049009232, 15.317413220710572 ], [ 74.572145789688449, 15.31741962935917 ], [ 74.572113165595184, 15.317471693677051 ], [ 74.575583884875201, 15.318319326431592 ], [ 74.578658975668134, 15.319063959864899 ], [ 74.581902535697111, 15.3198270513626 ], [ 74.586787970557452, 15.321003748249051 ], [ 74.586871644158137, 15.321024251941113 ], [ 74.593481412673285, 15.322568539354366 ], [ 74.595541482773271, 15.322006249000284 ], [ 74.59603398558086, 15.321871819521574 ], [ 74.596327191308063, 15.321994505741353 ], [ 74.596548934456038, 15.322087268664484 ], [ 74.596583074875383, 15.322107584917694 ], [ 74.596644396375922, 15.322133116845164 ], [ 74.596894944645896, 15.32227638258521 ], [ 74.59681789651421, 15.322477132324757 ], [ 74.59699328342262, 15.322571245023113 ], [ 74.599340206887859, 15.323818047178452 ], [ 74.59975410255592, 15.324153764426958 ], [ 74.600145911685075, 15.32447105877989 ], [ 74.600907961731792, 15.32508813473366 ], [ 74.601139499591483, 15.325429804228111 ], [ 74.601154287032003, 15.325530415748451 ], [ 74.601247687777544, 15.32566569861727 ], [ 74.601342069613892, 15.326131512368818 ], [ 74.601223630217504, 15.327060716385169 ], [ 74.60104598669102, 15.327727097663857 ], [ 74.599439041543306, 15.328859108011303 ], [ 74.598992583607441, 15.329344477094326 ], [ 74.599017983028716, 15.329424815340278 ], [ 74.60055777425147, 15.330557408783147 ], [ 74.600516933706373, 15.330659709541898 ], [ 74.601002249627101, 15.33102325901619 ], [ 74.600841577735039, 15.331565265479028 ], [ 74.600484340473415, 15.332770342868418 ], [ 74.600474788097756, 15.332802546182586 ], [ 74.600907884441099, 15.333222832456451 ], [ 74.601281635760955, 15.333570665872898 ], [ 74.601529396718405, 15.334531347565528 ], [ 74.601410162881749, 15.335185645862689 ], [ 74.601351934792078, 15.335505134942013 ], [ 74.601409205189867, 15.335578004753492 ], [ 74.601643239915859, 15.335655257102747 ], [ 74.601819211909074, 15.335626900955404 ], [ 74.602248230019285, 15.335974775609142 ], [ 74.60226351853666, 15.335971810975867 ], [ 74.602870751781751, 15.336445643945471 ], [ 74.603230768291411, 15.336726576079963 ], [ 74.60382816970214, 15.337536116269042 ], [ 74.604105731889291, 15.337808174518736 ], [ 74.604285647949425, 15.338054528201646 ], [ 74.604363837215786, 15.338334917153478 ], [ 74.604547626990282, 15.338661393193176 ], [ 74.604724524303847, 15.338798561215325 ], [ 74.604619181665257, 15.33922559625405 ], [ 74.604700289052573, 15.339662338618703 ], [ 74.605005346176512, 15.339860650829637 ], [ 74.605190729228539, 15.33984378799622 ], [ 74.605748809786334, 15.339617072774399 ], [ 74.605860091538901, 15.33979623792437 ], [ 74.606052274766185, 15.339714211988884 ], [ 74.606328402190314, 15.340152500393538 ], [ 74.606789669721906, 15.341364705511232 ], [ 74.607772398389798, 15.34195000315637 ], [ 74.608409664372104, 15.342962640023753 ], [ 74.608250491154024, 15.343821517727536 ], [ 74.608549101422312, 15.344450545303769 ], [ 74.609216659404041, 15.344873611181741 ], [ 74.609362702478606, 15.345575166704659 ], [ 74.609406805994794, 15.346613691123801 ], [ 74.609932133077947, 15.34712791259285 ], [ 74.610727147040592, 15.347453683179085 ], [ 74.611467104243374, 15.347751879286058 ], [ 74.611733497610814, 15.347588385112349 ], [ 74.620579455925764, 15.34215908226256 ], [ 74.622633361457645, 15.336864324823948 ], [ 74.623489323827982, 15.334653922685089 ], [ 74.623664494521805, 15.33437182257625 ], [ 74.626910390162678, 15.335218622243337 ], [ 74.633902393106638, 15.336558689262496 ], [ 74.634874350375284, 15.336744955805322 ], [ 74.642589497479207, 15.338223314810199 ], [ 74.64925543839243, 15.339437624382027 ], [ 74.65204217267204, 15.340028357201117 ], [ 74.654089991234116, 15.34046243017819 ], [ 74.657824001219979, 15.325573107957881 ] ] ], [ [ [ 74.674696312140711, 15.34525373725714 ], [ 74.674017208870382, 15.345032347923745 ], [ 74.671602697644531, 15.344245747006173 ], [ 74.671275182522336, 15.344151416451959 ], [ 74.670694098777702, 15.343984947985975 ], [ 74.670508095606522, 15.343932012404482 ], [ 74.670313431580567, 15.343876853391297 ], [ 74.668741967748659, 15.343432498422702 ], [ 74.668505989953331, 15.343362210884012 ], [ 74.668373061712998, 15.343401324669673 ], [ 74.667469766870312, 15.343716493196103 ], [ 74.666919611411785, 15.343905423190439 ], [ 74.665278658359739, 15.343090620089379 ], [ 74.664534088804047, 15.343051007050901 ], [ 74.660527839839403, 15.341664045630813 ], [ 74.657596141625788, 15.3406482176048 ], [ 74.656475444046464, 15.340204598380488 ], [ 74.654277726881148, 15.340633583499621 ], [ 74.654245010864997, 15.340767787952176 ], [ 74.654261865811407, 15.340908461091214 ], [ 74.652408607364592, 15.352235478258516 ], [ 74.653275509632962, 15.353622252945851 ], [ 74.653208459200656, 15.354416261966731 ], [ 74.658906192355232, 15.365566075084748 ], [ 74.665085505113538, 15.368744097829588 ], [ 74.666057514094433, 15.367824393624172 ], [ 74.666389271240604, 15.367520935234385 ], [ 74.667215136042941, 15.366765777794875 ], [ 74.668017242631947, 15.36603233662739 ], [ 74.668742663139369, 15.365369010130284 ], [ 74.669234022718058, 15.364919704946539 ], [ 74.669424473586602, 15.364896945234396 ], [ 74.671288893662961, 15.364726857278066 ], [ 74.671331042156638, 15.36456940687447 ], [ 74.671776706178804, 15.361933832441963 ], [ 74.67220608903483, 15.359383220515046 ], [ 74.672809965077349, 15.355795971081681 ], [ 74.67333943523883, 15.35265050069286 ], [ 74.674384853353843, 15.34589923815089 ], [ 74.674597199986934, 15.345547619366785 ], [ 74.674758934531908, 15.345299207171442 ], [ 74.67476307546994, 15.345292846975941 ], [ 74.674696312140711, 15.34525373725714 ] ] ], [ [ [ 74.596524361728925, 15.256802555903768 ], [ 74.5960925503704, 15.256732262822734 ], [ 74.596103443115339, 15.25675112781304 ], [ 74.596797909681385, 15.256848507852323 ], [ 74.596970708191691, 15.256872737224738 ], [ 74.596524361728925, 15.256802555903768 ] ] ], [ [ [ 74.617655463925146, 15.227192386968579 ], [ 74.617711517986677, 15.230127887879027 ], [ 74.617752334681441, 15.231791656370614 ], [ 74.617796666630483, 15.23349010866211 ], [ 74.617798342545441, 15.233524771488653 ], [ 74.617895700425876, 15.234353056197493 ], [ 74.617999085230423, 15.235232608264711 ], [ 74.618227947224327, 15.236094109086817 ], [ 74.618344265607078, 15.236118339398878 ], [ 74.619131267107974, 15.235413950966835 ], [ 74.619473115703386, 15.235968401162927 ], [ 74.619929397020357, 15.236738119564727 ], [ 74.620634617111207, 15.237814534339252 ], [ 74.620895080357286, 15.238238288447695 ], [ 74.621357645669448, 15.23899725056107 ], [ 74.621829622082885, 15.239740084222554 ], [ 74.622265612338211, 15.24047064486766 ], [ 74.622348486800462, 15.240519920500523 ], [ 74.62287245766278, 15.241307424510172 ], [ 74.625755135006969, 15.241242468695383 ], [ 74.627967496609756, 15.242367330618251 ], [ 74.62951894425612, 15.243545328222343 ], [ 74.632214327600906, 15.24435328027657 ], [ 74.634204471290886, 15.24455143847959 ], [ 74.634705789026057, 15.244608552493325 ], [ 74.635721148782181, 15.244669151991372 ], [ 74.636738241213294, 15.244699967259226 ], [ 74.636889889371716, 15.245436143532364 ], [ 74.637755393765261, 15.245137489073372 ], [ 74.638242035047597, 15.244972498683614 ], [ 74.63875675332622, 15.244680680878496 ], [ 74.639540265735064, 15.244230688673159 ], [ 74.640339857625648, 15.243359048267983 ], [ 74.640814293900263, 15.242792596707082 ], [ 74.641475843023187, 15.241975978024437 ], [ 74.641929268621098, 15.241415719524923 ], [ 74.642171346498372, 15.24123680221933 ], [ 74.642603615318407, 15.240823293605978 ], [ 74.64283828393198, 15.240619180368334 ], [ 74.642971965759614, 15.240484292365913 ], [ 74.643769830276483, 15.239766171171455 ], [ 74.644559169053608, 15.239041888399543 ], [ 74.644752446399124, 15.238855819129224 ], [ 74.645171850948287, 15.238580163894607 ], [ 74.645579984411739, 15.238332741024237 ], [ 74.646368758121469, 15.237846132947872 ], [ 74.646599035610677, 15.237691757071058 ], [ 74.647587732508796, 15.23702553548569 ], [ 74.648466335909959, 15.236445107808565 ], [ 74.648720008491225, 15.236320860719841 ], [ 74.649292036641526, 15.236016591259565 ], [ 74.649644532967258, 15.235834779452075 ], [ 74.649810906613297, 15.23574953290572 ], [ 74.649826239716248, 15.235788768077489 ], [ 74.650233699548835, 15.235638223975867 ], [ 74.652236625200814, 15.238433444248274 ], [ 74.656631542150905, 15.244488612479683 ], [ 74.657193151117227, 15.245417569228469 ], [ 74.657242271415427, 15.245843380767587 ], [ 74.657280457997473, 15.245982600111123 ], [ 74.657746303076067, 15.246559930986617 ], [ 74.661539889580908, 15.260313462514951 ], [ 74.661727786277339, 15.26099147962789 ], [ 74.66229494575019, 15.260257133461673 ], [ 74.66448578967389, 15.257353250777175 ], [ 74.666061935838798, 15.255279248717093 ], [ 74.669873766946665, 15.249997450466536 ], [ 74.672423924779508, 15.244964090739574 ], [ 74.673302242237284, 15.242806027327482 ], [ 74.6733198786158, 15.242773985801659 ], [ 74.67330402381144, 15.242766721863836 ], [ 74.673045213545251, 15.242644322620114 ], [ 74.673139500133402, 15.242324031192934 ], [ 74.673200080297164, 15.242384808297759 ], [ 74.673303534477981, 15.242431088312633 ], [ 74.673538311438122, 15.242550165936583 ], [ 74.673699909415163, 15.242617216827698 ], [ 74.674175690564212, 15.242670338887917 ], [ 74.675056792833587, 15.242553774205076 ], [ 74.67548153526046, 15.242487361173954 ], [ 74.675933506741771, 15.242365193384483 ], [ 74.676799549972685, 15.242145099732801 ], [ 74.677202978330442, 15.242087931414652 ], [ 74.677292125809117, 15.242111232350966 ], [ 74.677373781092442, 15.242158758454089 ], [ 74.677431740571151, 15.242320049327761 ], [ 74.677501587703844, 15.2425328533888 ], [ 74.677547549317239, 15.242654625445924 ], [ 74.677646760756758, 15.24291748414981 ], [ 74.677647693792224, 15.242919956370589 ], [ 74.677734496642913, 15.243123761876532 ], [ 74.677807000353326, 15.243308310478389 ], [ 74.677958951533867, 15.243574481385217 ], [ 74.678068502719455, 15.243720781237654 ], [ 74.678225774380664, 15.243860340745471 ], [ 74.678486257043161, 15.244042179560383 ], [ 74.678642889648287, 15.244099473718645 ], [ 74.679260611706397, 15.244112360017139 ], [ 74.67960241984521, 15.244120933493599 ], [ 74.679781312231754, 15.244112720168893 ], [ 74.680146326130725, 15.243999526763584 ], [ 74.680541861131985, 15.243884588810685 ], [ 74.681176599151954, 15.243745945748877 ], [ 74.681532188517195, 15.243693508786695 ], [ 74.682174701081365, 15.243610624701736 ], [ 74.682410855991165, 15.243536908463639 ], [ 74.682755407386168, 15.24344696035817 ], [ 74.682944575343555, 15.243391987661145 ], [ 74.683187254515133, 15.243281765365987 ], [ 74.683395374698719, 15.24315498806147 ], [ 74.683505749907241, 15.243087751836944 ], [ 74.683686562051761, 15.243027466937296 ], [ 74.683721713756071, 15.243026105183754 ], [ 74.683745641484549, 15.24290452773999 ], [ 74.684825741603987, 15.237416274575956 ], [ 74.684884471147271, 15.237108047390935 ], [ 74.685761896670002, 15.233006871559857 ], [ 74.687847917896505, 15.223255278581119 ], [ 74.687967839693641, 15.222447581554349 ], [ 74.680669922094225, 15.216616231613703 ], [ 74.680884998352525, 15.216424802198953 ], [ 74.680773094002816, 15.21632964491207 ], [ 74.679847212274424, 15.215669190896179 ], [ 74.68236144561827, 15.212890394255913 ], [ 74.684706251867169, 15.209873684496248 ], [ 74.684899478787699, 15.209617341703956 ], [ 74.688038427999629, 15.205452966833674 ], [ 74.689027566257906, 15.204416457913521 ], [ 74.688788154738859, 15.20373477271356 ], [ 74.678109477498182, 15.199357698766049 ], [ 74.678108698760482, 15.199357359673472 ], [ 74.67800184569009, 15.199314694323601 ], [ 74.671830524064831, 15.196760425420571 ], [ 74.664978093286607, 15.185998468951688 ], [ 74.653463941266338, 15.190505240189601 ], [ 74.650689397751705, 15.191674401505407 ], [ 74.650646548859228, 15.191707904898728 ], [ 74.637968187589848, 15.196913567755152 ], [ 74.627847491994487, 15.201240136253961 ], [ 74.627723478315573, 15.201293148580309 ], [ 74.626600003004327, 15.201773387692739 ], [ 74.626473777500181, 15.201830112358595 ], [ 74.62622355919855, 15.20167438411805 ], [ 74.626092723001051, 15.195503137401639 ], [ 74.625988089524697, 15.19056827264604 ], [ 74.625904674163436, 15.186634333379436 ], [ 74.625872946513411, 15.186619777243648 ], [ 74.6248158259517, 15.176862265198015 ], [ 74.623690406984139, 15.165137286921675 ], [ 74.623651011060048, 15.164726835199728 ], [ 74.623604106028566, 15.164820128184591 ], [ 74.623652843166525, 15.165327487840999 ], [ 74.624600141392847, 15.177025991442072 ], [ 74.625496447352262, 15.186720111350969 ], [ 74.625527523974299, 15.186734821960636 ], [ 74.625556813227988, 15.190643044723686 ], [ 74.62558527629794, 15.195549781259325 ], [ 74.625588928804788, 15.201696552375287 ], [ 74.625827073429036, 15.201854708606584 ], [ 74.625808642474695, 15.20195042470618 ], [ 74.624069125900917, 15.209368478536994 ], [ 74.62251254401356, 15.213150640057687 ], [ 74.621963500086721, 15.214479287719772 ], [ 74.620137926753301, 15.218839267932422 ], [ 74.620070500056642, 15.219000205527085 ], [ 74.618663019335884, 15.222321818772869 ], [ 74.618493943375157, 15.22272082577231 ], [ 74.618303834533606, 15.223169466564631 ], [ 74.617902754016356, 15.224115974913531 ], [ 74.617414222173082, 15.225286506499893 ], [ 74.6173630117069, 15.226098419932312 ], [ 74.617345124786397, 15.226387986717262 ], [ 74.617655463925146, 15.227192386968579 ] ] ], [ [ [ 74.627441958157164, 15.157217390669874 ], [ 74.627137049639458, 15.157793187910039 ], [ 74.625034426303614, 15.161975255394855 ], [ 74.627209654229361, 15.157814838886477 ], [ 74.627505307897692, 15.157249335646457 ], [ 74.627561766191491, 15.154292984667148 ], [ 74.627441958157164, 15.157217390669874 ] ] ], [ [ [ 74.704765177601615, 15.305186515236519 ], [ 74.70400317304221, 15.30422965729513 ], [ 74.703205296589317, 15.303257531581179 ], [ 74.702437917054922, 15.302306205110469 ], [ 74.702133070577119, 15.30195207217422 ], [ 74.70175218353576, 15.301260070125112 ], [ 74.701347674560196, 15.300478987725274 ], [ 74.701235361370678, 15.300271507729766 ], [ 74.701189582218376, 15.300177919911496 ], [ 74.701225401659087, 15.300253420800876 ], [ 74.701333660413042, 15.300459392793734 ], [ 74.701722620102984, 15.301234625829073 ], [ 74.702096744465493, 15.301923343409925 ], [ 74.7024009977996, 15.302276596832069 ], [ 74.703170240757416, 15.303228726018375 ], [ 74.703974762497737, 15.304204595439026 ], [ 74.70474827723757, 15.305167463679776 ], [ 74.704817660298758, 15.3052496627667 ], [ 74.704765177601615, 15.305186515236519 ] ] ] ] } },
{ "type": "Feature", "properties": { "OBJECTID": 700, "KGISHobliID": 945, "KGISHobliCode": "100201", "KGISHobliName": "Supa", "BhuCodeHobli": null, "SHAPE.STArea()": 573427283.88790572, "SHAPE.STLength()": 147778.74510799357, "KGISTalukCode": "1002", "created_user": null, "created_date": null, "last_edited_user": "SURESHBV", "last_edited_date": 1651303240000.0, "_overlap_percent": 18.045688529156024, "_police_station": "Dandeli Rural PS", "_police_feature_index": "591", "_admin_layer": "Hobli", "_geometry_clipped": true }, "geometry": { "type": "MultiPolygon", "coordinates": [ [ [ [ 74.627137049639458, 15.157793187910039 ], [ 74.627441958157164, 15.157217390669874 ], [ 74.627561766191491, 15.154292984667148 ], [ 74.627709121208397, 15.146576967776523 ], [ 74.628355478762742, 15.141304271094164 ], [ 74.627811794300825, 15.141199032264156 ], [ 74.622953286037358, 15.140258530922248 ], [ 74.619783222160322, 15.139670882547694 ], [ 74.614077076316079, 15.138527356255299 ], [ 74.613666539758768, 15.138445078007813 ], [ 74.613657040004341, 15.138438684279501 ], [ 74.613437931354724, 15.1382912042531 ], [ 74.613195064363055, 15.138237748883887 ], [ 74.613172015722213, 15.138222627315448 ], [ 74.613003984704022, 15.138112381761118 ], [ 74.612799802914537, 15.13797841759304 ], [ 74.612795970687927, 15.137933520047456 ], [ 74.612454329023862, 15.137670485597917 ], [ 74.609543561754236, 15.135693000473717 ], [ 74.597208260494384, 15.126523554215233 ], [ 74.593770838140983, 15.124040959191969 ], [ 74.593768163300467, 15.124039029570691 ], [ 74.593763091520756, 15.124049539581158 ], [ 74.593744545745594, 15.124070059003738 ], [ 74.592757659580158, 15.125162210586311 ], [ 74.587322480814237, 15.132179889071988 ], [ 74.584531885677407, 15.135922163825359 ], [ 74.582614454796612, 15.138442849637023 ], [ 74.580935989343047, 15.140711889797521 ], [ 74.578760933985563, 15.143192559110567 ], [ 74.577949391997109, 15.144110784473359 ], [ 74.57749842476106, 15.144743694572217 ], [ 74.576635102059782, 15.145776800950328 ], [ 74.575054113036288, 15.147614768547987 ], [ 74.573259799271383, 15.149716089816996 ], [ 74.571479631295219, 15.151753757411328 ], [ 74.569458810861676, 15.154137552024672 ], [ 74.568934556196169, 15.154980565490863 ], [ 74.567409272524955, 15.15776112544037 ], [ 74.565085239922411, 15.161985530889142 ], [ 74.564622683277776, 15.162792055280942 ], [ 74.563009005749706, 15.165784179809609 ], [ 74.56195296471995, 15.167742268331065 ], [ 74.558754114498981, 15.177508685794839 ], [ 74.560884919878973, 15.193836765591287 ], [ 74.5602748561314, 15.194350171391127 ], [ 74.56019511117249, 15.194345701314306 ], [ 74.559097580616097, 15.195061587880543 ], [ 74.557131231018374, 15.196446068724402 ], [ 74.555283808685118, 15.197760316811101 ], [ 74.552799425401034, 15.199501614313162 ], [ 74.551789170557768, 15.201033589898294 ], [ 74.550712056602052, 15.202768446752824 ], [ 74.550182892970895, 15.203633502270925 ], [ 74.550086821156867, 15.203790555418045 ], [ 74.548991543361538, 15.206285478145022 ], [ 74.548577421764449, 15.207236916153061 ], [ 74.548163337130958, 15.208183633087589 ], [ 74.547871290274202, 15.208792350339259 ], [ 74.5476291522222, 15.209368151367233 ], [ 74.5473159138852, 15.210113020501792 ], [ 74.548202859119485, 15.211374300973722 ], [ 74.549114088695973, 15.212667102369842 ], [ 74.55024766827556, 15.214333778691392 ], [ 74.55152174795829, 15.216132245663912 ], [ 74.552780253547525, 15.217931875310038 ], [ 74.554076322334836, 15.219808459396992 ], [ 74.5552321341153, 15.221491457073942 ], [ 74.556467376464482, 15.223230353273994 ], [ 74.558229474427819, 15.225559197185705 ], [ 74.558363402449885, 15.225474209189084 ], [ 74.558167966410693, 15.226049614600999 ], [ 74.557260232795741, 15.227155660119099 ], [ 74.556833080654783, 15.227713696574336 ], [ 74.556550788401594, 15.228135990070141 ], [ 74.55610073787048, 15.228717833062282 ], [ 74.555787957493365, 15.229116447033713 ], [ 74.555406518298952, 15.229583668252218 ], [ 74.555025109228069, 15.230131906217567 ], [ 74.554575050190223, 15.23071374763169 ], [ 74.554185904832309, 15.231180056251434 ], [ 74.553873128481669, 15.231442034500036 ], [ 74.553529847976051, 15.231817812462859 ], [ 74.553056938618141, 15.232214559753841 ], [ 74.55263740800126, 15.232543421857557 ], [ 74.552225385218406, 15.232895492284358 ], [ 74.551866846818683, 15.233201416794403 ], [ 74.551386277976903, 15.233541073210667 ], [ 74.550951465354473, 15.233904246566997 ], [ 74.550638779862027, 15.234188522979107 ], [ 74.55053952837784, 15.234313339644643 ], [ 74.550493830699168, 15.234485169844326 ], [ 74.550463325275103, 15.234784437913172 ], [ 74.550531993313683, 15.235153676856282 ], [ 74.550631119564912, 15.235465290096274 ], [ 74.550699740956588, 15.235822952142096 ], [ 74.550844709873289, 15.236215957293998 ], [ 74.551043050878803, 15.236609678420978 ], [ 74.551187904526941, 15.236864357093079 ], [ 74.551477798083965, 15.237419447418551 ], [ 74.551752474637681, 15.237850204157271 ], [ 74.551935559972762, 15.238242388769184 ], [ 74.552141510672612, 15.238681903127169 ], [ 74.552263612839027, 15.238994550544646 ], [ 74.552438966420468, 15.239457245697702 ], [ 74.552584025009594, 15.239941714771138 ], [ 74.552667889358261, 15.240438391657815 ], [ 74.552782336228077, 15.24104880027715 ], [ 74.55284339281927, 15.241694344405367 ], [ 74.552911917720067, 15.242317083490605 ], [ 74.552950053609507, 15.242938728645163 ], [ 74.552965383655163, 15.243387987276174 ], [ 74.552950068234892, 15.243916323453675 ], [ 74.552950167185699, 15.244377596761245 ], [ 74.55285858122997, 15.244929027541977 ], [ 74.552820379352241, 15.245480042968955 ], [ 74.552744178769373, 15.245984454189214 ], [ 74.552606768853749, 15.246502482625431 ], [ 74.552477130273218, 15.24706404971238 ], [ 74.552362731561445, 15.24751112556585 ], [ 74.552294065458497, 15.247866827799859 ], [ 74.552210096443176, 15.24829325992002 ], [ 74.55217960471299, 15.248590836363203 ], [ 74.552118558325716, 15.248889292047304 ], [ 74.552019402133041, 15.249187722246264 ], [ 74.551866878169463, 15.249670058415223 ], [ 74.551737119632946, 15.250059138081898 ], [ 74.551599896563147, 15.250976617816825 ], [ 74.551516004345302, 15.251646954724833 ], [ 74.551424364206085, 15.252439464096682 ], [ 74.551348148343806, 15.252843658144419 ], [ 74.551195530968471, 15.25330256240532 ], [ 74.551142077174035, 15.253496064781322 ], [ 74.551096429195084, 15.253644746793164 ], [ 74.550982013532561, 15.253772544355636 ], [ 74.550821700379743, 15.253943160229486 ], [ 74.55052429073163, 15.254239976456436 ], [ 74.550249591178712, 15.254501126700946 ], [ 74.549959793592706, 15.254809014265513 ], [ 74.54950202498371, 15.255230711234594 ], [ 74.549166365507986, 15.255526367428663 ], [ 74.548853550887287, 15.255787487149121 ], [ 74.548571406719404, 15.256118300234093 ], [ 74.548174667196122, 15.25656363943536 ], [ 74.547800868722319, 15.25699674404153 ], [ 74.547388923500819, 15.257349646183647 ], [ 74.547320304905199, 15.257412322113456 ], [ 74.547083860397194, 15.257622117857455 ], [ 74.546641318667554, 15.257963760652629 ], [ 74.546099699684675, 15.258441507085484 ], [ 74.545893783236366, 15.258703493301232 ], [ 74.545596290846149, 15.25890770764134 ], [ 74.545306394549854, 15.259191875500777 ], [ 74.54510036708956, 15.259466562085631 ], [ 74.54486393099026, 15.259775441329969 ], [ 74.544764772723397, 15.260038577888118 ], [ 74.544719009597898, 15.260418174848414 ], [ 74.544726679063061, 15.260517418328959 ], [ 74.545969965162698, 15.260479344378959 ], [ 74.546724308583904, 15.260687536341083 ], [ 74.547241823786678, 15.260796294615922 ], [ 74.547919017335133, 15.260928884250406 ], [ 74.548699789754409, 15.261658508133916 ], [ 74.549112248088576, 15.261720654318113 ], [ 74.549855724360157, 15.261829751546307 ], [ 74.550599673398608, 15.261920565013085 ], [ 74.552126976854495, 15.262140620621647 ], [ 74.552680411086698, 15.262325019159038 ], [ 74.553555702104831, 15.26262737789051 ], [ 74.554456528402511, 15.262981652778093 ], [ 74.555358975310099, 15.263367858462408 ], [ 74.55721769096489, 15.264092065967343 ], [ 74.55767209479724, 15.265051522035677 ], [ 74.557923614221536, 15.265197412072929 ], [ 74.558668809752362, 15.265619319381068 ], [ 74.559423316314138, 15.266059272606372 ], [ 74.560237597747786, 15.265602558938644 ], [ 74.560935514592444, 15.265205705715783 ], [ 74.561628659596579, 15.264804395554965 ], [ 74.562324244923403, 15.264403024650964 ], [ 74.562965136169367, 15.264512237388306 ], [ 74.564809420270606, 15.26484564509618 ], [ 74.564947077200273, 15.264196478804767 ], [ 74.565076377794213, 15.263587053947461 ], [ 74.565205675734632, 15.26297762805536 ], [ 74.565339686245068, 15.262374942044643 ], [ 74.565482014710312, 15.261686416122549 ], [ 74.565712683352942, 15.260748419502573 ], [ 74.56610996708099, 15.259217429142774 ], [ 74.566454006302763, 15.257905551561809 ], [ 74.566695887154651, 15.257572066405896 ], [ 74.567130363306759, 15.256969070445493 ], [ 74.567562452819587, 15.256363846720795 ], [ 74.567996923967073, 15.25576084888765 ], [ 74.568438725698115, 15.25515767527255 ], [ 74.568880525815672, 15.254554500691096 ], [ 74.570075321596704, 15.254211998419414 ], [ 74.571941732283392, 15.253692076244128 ], [ 74.572480267290445, 15.253885916568203 ], [ 74.573472301454728, 15.254208250202621 ], [ 74.574185474555364, 15.255294094456181 ], [ 74.5741450423522, 15.255913850961443 ], [ 74.574015277392121, 15.257250738080664 ], [ 74.573900217930657, 15.258522616028875 ], [ 74.573788629955402, 15.259695047877791 ], [ 74.573654420223107, 15.260823817344271 ], [ 74.57352362306743, 15.262009768011424 ], [ 74.573384466287735, 15.263134181692458 ], [ 74.573295708740645, 15.263751433470587 ], [ 74.573220692352137, 15.264273057856178 ], [ 74.57307657000112, 15.265413677169851 ], [ 74.572891174237867, 15.267154791451603 ], [ 74.572758219590327, 15.268427646778351 ], [ 74.572604407093891, 15.269654938047891 ], [ 74.572667239439738, 15.271679622604184 ], [ 74.571159138934604, 15.273341731591289 ], [ 74.571119454963593, 15.273409399181318 ], [ 74.57028383324203, 15.274782096600303 ], [ 74.569419036719466, 15.27624218321712 ], [ 74.568515096319629, 15.277792371540773 ], [ 74.567873723796808, 15.278869154535744 ], [ 74.56717982333241, 15.279990702423156 ], [ 74.566769222966428, 15.280660490376189 ], [ 74.566689002141445, 15.280921752049617 ], [ 74.566116999837092, 15.281429197481359 ], [ 74.568240457104778, 15.283401723392096 ], [ 74.572336577555447, 15.287187008005214 ], [ 74.575876901721529, 15.290386398818056 ], [ 74.577568026754818, 15.291952440779463 ], [ 74.577906729051932, 15.292227404265931 ], [ 74.578014448161255, 15.292241351191368 ], [ 74.578006523579489, 15.292992520370587 ], [ 74.576401057623769, 15.293589738461581 ], [ 74.578054845886342, 15.293068901215308 ], [ 74.578405124365304, 15.293332294616404 ], [ 74.578536439435112, 15.29325423522228 ], [ 74.578552277602057, 15.293244830088843 ], [ 74.578667395261974, 15.29329577377265 ], [ 74.578539466255535, 15.293542826301195 ], [ 74.578701898418316, 15.29358324609729 ], [ 74.578701948121321, 15.293703340322574 ], [ 74.578899088271555, 15.293714400282692 ], [ 74.578967464643256, 15.293781041969913 ], [ 74.579143903222985, 15.293771885549544 ], [ 74.579297424153182, 15.293537168106338 ], [ 74.579351251999256, 15.293711956197043 ], [ 74.579440892468028, 15.293744809815163 ], [ 74.579588096067212, 15.293799722565074 ], [ 74.5796284066749, 15.293817855445292 ], [ 74.579817560515693, 15.293903428196007 ], [ 74.579898904700556, 15.293931701365038 ], [ 74.579956218101486, 15.293899140983674 ], [ 74.580179424576855, 15.293893381356783 ], [ 74.58033648266165, 15.293849271228941 ], [ 74.580541438062653, 15.293929006442379 ], [ 74.581219062793707, 15.294145929885557 ], [ 74.581393835333856, 15.293574269951105 ], [ 74.581669000765999, 15.293641048015887 ], [ 74.582160051112098, 15.29367035708257 ], [ 74.582359113866104, 15.293865318014781 ], [ 74.584291457690085, 15.293816581494386 ], [ 74.586439713998672, 15.293766010575339 ], [ 74.588012108818603, 15.29371840355283 ], [ 74.590911521946367, 15.293624174314402 ], [ 74.595827601829228, 15.293531279497609 ], [ 74.598388994233176, 15.293518237705689 ], [ 74.602058163385891, 15.293559361556873 ], [ 74.60210009195977, 15.29356024797398 ], [ 74.602669139422389, 15.29357376154527 ], [ 74.604475537608181, 15.293636194091423 ], [ 74.604786622311607, 15.293648902665209 ], [ 74.605408223742018, 15.292501699346735 ], [ 74.60580571121875, 15.290983508483505 ], [ 74.604452776509916, 15.28827059539859 ], [ 74.604767251398115, 15.287326781958184 ], [ 74.606978268207982, 15.283765704400151 ], [ 74.606704243977958, 15.283531080568366 ], [ 74.606111171948655, 15.283024611247864 ], [ 74.605531620554288, 15.28232949049692 ], [ 74.605101757648157, 15.281514440046328 ], [ 74.605058089916767, 15.280893908903543 ], [ 74.605442879958275, 15.277929435224111 ], [ 74.605462370284883, 15.277402931242573 ], [ 74.605380699402431, 15.277211076770374 ], [ 74.602826422875609, 15.275672182664973 ], [ 74.602641438415361, 15.275223488727812 ], [ 74.602363183802481, 15.27454936351592 ], [ 74.602365583375231, 15.274511064530707 ], [ 74.602397767241939, 15.272563390617531 ], [ 74.60239819281388, 15.272282984848374 ], [ 74.602398932467509, 15.271796204772087 ], [ 74.602491185576696, 15.271664279311524 ], [ 74.602513712801283, 15.271655159053623 ], [ 74.602514073132383, 15.271634591877953 ], [ 74.602212569763438, 15.270491331169854 ], [ 74.600818336287958, 15.268779947480441 ], [ 74.598080136994668, 15.265418802106986 ], [ 74.597920407161439, 15.264390018870712 ], [ 74.59822083271807, 15.262789835997312 ], [ 74.598212805044227, 15.262545406496377 ], [ 74.598155311908172, 15.261613362412355 ], [ 74.59815228086569, 15.261564230935269 ], [ 74.597948799875439, 15.261174491306042 ], [ 74.596860968441192, 15.258862674613725 ], [ 74.595947509727068, 15.257293135950267 ], [ 74.596061049741692, 15.256745183295919 ], [ 74.596103443115339, 15.25675112781304 ], [ 74.5960925503704, 15.256732262822734 ], [ 74.596524361728925, 15.256802555903768 ], [ 74.596970708191691, 15.256872737224738 ], [ 74.597432741699095, 15.256937522400825 ], [ 74.597326294439569, 15.256645390253135 ], [ 74.597326162892315, 15.256645026575598 ], [ 74.597328744897766, 15.256328943901124 ], [ 74.597328820509389, 15.256319561463261 ], [ 74.597480406857542, 15.25603278900453 ], [ 74.597683357309535, 15.255912041264995 ], [ 74.598063962786398, 15.255685598075567 ], [ 74.598078840725066, 15.255676746640125 ], [ 74.5994648601732, 15.254559652643705 ], [ 74.599951874783343, 15.254167127026605 ], [ 74.601976564505563, 15.252535228722511 ], [ 74.602690024478463, 15.251820008782426 ], [ 74.602896265715714, 15.251247407125767 ], [ 74.60449711236852, 15.248302921237055 ], [ 74.60477400236276, 15.247691815896408 ], [ 74.60477851415142, 15.247681858120217 ], [ 74.605225208002054, 15.246593223481831 ], [ 74.605335795759657, 15.246265214498349 ], [ 74.605850842835551, 15.244737558358695 ], [ 74.605966535062677, 15.243884242159144 ], [ 74.605998664625545, 15.243647266499236 ], [ 74.606348691993148, 15.243047794294789 ], [ 74.606743945476936, 15.242538810113839 ], [ 74.606822735212035, 15.242400829256997 ], [ 74.607047578986567, 15.242007060870145 ], [ 74.607164765803418, 15.241740558159284 ], [ 74.6071850232412, 15.241683354171075 ], [ 74.60723555539785, 15.241540654096468 ], [ 74.607330127627236, 15.241228911066383 ], [ 74.607364296251262, 15.240997525021951 ], [ 74.607379344499833, 15.240895614829872 ], [ 74.607419739167128, 15.240804681160348 ], [ 74.607566948726031, 15.240473284817208 ], [ 74.608853725919857, 15.239225629683947 ], [ 74.609109328851233, 15.238944360900863 ], [ 74.609759110302804, 15.238229320738903 ], [ 74.61062868375133, 15.237421936772035 ], [ 74.610686065439893, 15.237368658141619 ], [ 74.611658944964375, 15.236529546573626 ], [ 74.612054782487618, 15.236250121450208 ], [ 74.612376007761071, 15.2360233645393 ], [ 74.61270872082396, 15.235826344273191 ], [ 74.611128039015213, 15.231962431555662 ], [ 74.610846855413641, 15.230239288535255 ], [ 74.61197058432704, 15.228383758603899 ], [ 74.61397606864135, 15.227108776854024 ], [ 74.615402668411321, 15.223875419454666 ], [ 74.615844176128647, 15.224906704009673 ], [ 74.616242397625754, 15.225404026739207 ], [ 74.616668632420328, 15.225743835860291 ], [ 74.617345124786397, 15.226387986717262 ], [ 74.6173630117069, 15.226098419932312 ], [ 74.617414222173082, 15.225286506499893 ], [ 74.617902754016356, 15.224115974913531 ], [ 74.618303834533606, 15.223169466564631 ], [ 74.618493943375157, 15.22272082577231 ], [ 74.618663019335884, 15.222321818772869 ], [ 74.620070500056642, 15.219000205527085 ], [ 74.620137926753301, 15.218839267932422 ], [ 74.621963500086721, 15.214479287719772 ], [ 74.62251254401356, 15.213150640057687 ], [ 74.624069125900917, 15.209368478536994 ], [ 74.625808642474695, 15.20195042470618 ], [ 74.625827073429036, 15.201854708606584 ], [ 74.625588928804788, 15.201696552375287 ], [ 74.62558527629794, 15.195549781259325 ], [ 74.625556813227988, 15.190643044723686 ], [ 74.625527523974299, 15.186734821960636 ], [ 74.625496447352262, 15.186720111350969 ], [ 74.624600141392847, 15.177025991442072 ], [ 74.623652843166525, 15.165327487840999 ], [ 74.623604106028566, 15.164820128184591 ], [ 74.623651011060048, 15.164726835199728 ], [ 74.623642446512136, 15.16463760430795 ], [ 74.625034426303614, 15.161975255394855 ], [ 74.627137049639458, 15.157793187910039 ] ] ], [ [ [ 74.617999085230423, 15.235232608264711 ], [ 74.617895700425876, 15.234353056197493 ], [ 74.617798342545441, 15.233524771488653 ], [ 74.617796666630483, 15.23349010866211 ], [ 74.617752334681441, 15.231791656370614 ], [ 74.617711517986677, 15.230127887879027 ], [ 74.617655463925146, 15.227192386968579 ], [ 74.617345124786397, 15.226387986717262 ], [ 74.616789715030691, 15.232322514177241 ], [ 74.616618713365597, 15.234195906742302 ], [ 74.616618345442063, 15.234232989938567 ], [ 74.616642096346183, 15.234949039929139 ], [ 74.616683006082596, 15.23618244196641 ], [ 74.616904769935502, 15.236073558851555 ], [ 74.617652197561711, 15.236009277427341 ], [ 74.617769951593431, 15.2360031402491 ], [ 74.618027382289696, 15.23605232935399 ], [ 74.618227947224327, 15.236094109086817 ], [ 74.617999085230423, 15.235232608264711 ] ] ], [ [ [ 74.564885574231198, 15.307095519605326 ], [ 74.566553910760405, 15.304283873899577 ], [ 74.567310873888971, 15.303013961661916 ], [ 74.568010640818002, 15.301887931015187 ], [ 74.56837758702595, 15.301290604928647 ], [ 74.567990222576469, 15.301912271810465 ], [ 74.567290357453984, 15.303024337834081 ], [ 74.566533800775218, 15.304279978135556 ], [ 74.564868804529894, 15.307064921077826 ], [ 74.564477571715329, 15.307692834644884 ], [ 74.564507898540782, 15.307704765379428 ], [ 74.564885574231198, 15.307095519605326 ] ] ], [ [ [ 74.572153235111742, 15.317393666808602 ], [ 74.571442883849812, 15.316433245138857 ], [ 74.571271910786919, 15.316254938180082 ], [ 74.566178654859598, 15.309135263479192 ], [ 74.571264386311853, 15.316280349064517 ], [ 74.571435235578363, 15.316459072570456 ], [ 74.572141049009232, 15.317413220710572 ], [ 74.572153235111742, 15.317393666808602 ] ] ], [ [ [ 74.575583884875201, 15.318319326431592 ], [ 74.572113165595184, 15.317471693677051 ], [ 74.572098459540967, 15.317495162855961 ], [ 74.57558771835015, 15.318341404917351 ], [ 74.578658975668134, 15.319063959864899 ], [ 74.575583884875201, 15.318319326431592 ] ] ], [ [ [ 74.601139499591483, 15.325429804228111 ], [ 74.600907961731792, 15.32508813473366 ], [ 74.600145911685075, 15.32447105877989 ], [ 74.59975410255592, 15.324153764426958 ], [ 74.599340206887859, 15.323818047178452 ], [ 74.59699328342262, 15.322571245023113 ], [ 74.59681789651421, 15.322477132324757 ], [ 74.596894944645896, 15.32227638258521 ], [ 74.596644396375922, 15.322133116845164 ], [ 74.596583074875383, 15.322107584917694 ], [ 74.596807556532085, 15.322241169280947 ], [ 74.59674135049562, 15.322451769500258 ], [ 74.596924213000676, 15.322554692421045 ], [ 74.599357464800534, 15.323924345242709 ], [ 74.599790501387943, 15.324288093331599 ], [ 74.600199686484203, 15.324631834068843 ], [ 74.600995318229252, 15.325300163242819 ], [ 74.601154287032003, 15.325530415748451 ], [ 74.601139499591483, 15.325429804228111 ] ] ], [ [ [ 74.60055777425147, 15.330557408783147 ], [ 74.599017983028716, 15.329424815340278 ], [ 74.599064394444127, 15.329571614421534 ], [ 74.600516933706373, 15.330659709541898 ], [ 74.60055777425147, 15.330557408783147 ] ] ], [ [ [ 74.601819211909074, 15.335626900955404 ], [ 74.601643239915859, 15.335655257102747 ], [ 74.601409205189867, 15.335578004753492 ], [ 74.601638920594269, 15.335870290451846 ], [ 74.602092663036473, 15.336004941977967 ], [ 74.602248230019285, 15.335974775609142 ], [ 74.601819211909074, 15.335626900955404 ] ] ], [ [ [ 74.605748809786334, 15.339617072774399 ], [ 74.605190729228539, 15.33984378799622 ], [ 74.605005346176512, 15.339860650829637 ], [ 74.605193617503019, 15.339983042670664 ], [ 74.605503397699351, 15.339948478815963 ], [ 74.605860091538901, 15.33979623792437 ], [ 74.605748809786334, 15.339617072774399 ] ] ] ] } },
{ "type": "Feature", "properties": { "OBJECTID": 703, "KGISHobliID": 296, "KGISHobliCode": "100302", "KGISHobliName": "Haliyala", "BhuCodeHobli": null, "SHAPE.STArea()": 119046407.72227676, "SHAPE.STLength()": 57843.661240173504, "KGISTalukCode": "1003", "created_user": null, "created_date": null, "last_edited_user": "SURESHBV1", "last_edited_date": 1658998727000.0, "_overlap_percent": 16.32368090643196, "_police_station": "Dandeli Rural PS", "_police_feature_index": "591", "_admin_layer": "Hobli", "_geometry_clipped": true }, "geometry": { "type": "MultiPolygon", "coordinates": [ [ [ [ 74.672809965077349, 15.355795971081681 ], [ 74.67220608903483, 15.359383220515046 ], [ 74.671776706178804, 15.361933832441963 ], [ 74.671331042156638, 15.36456940687447 ], [ 74.671288893662961, 15.364726857278066 ], [ 74.669424473586602, 15.364896945234396 ], [ 74.669234022718058, 15.364919704946539 ], [ 74.668742663139369, 15.365369010130284 ], [ 74.668017242631947, 15.36603233662739 ], [ 74.667215136042941, 15.366765777794875 ], [ 74.666389271240604, 15.367520935234385 ], [ 74.666057514094433, 15.367824393624172 ], [ 74.665085505113538, 15.368744097829588 ], [ 74.665361632224247, 15.368886110100632 ], [ 74.666477575689925, 15.367782209169201 ], [ 74.666791952462845, 15.367481371297131 ], [ 74.669487252626979, 15.364902084023695 ], [ 74.669669531710099, 15.364880678951618 ], [ 74.671455020663913, 15.364724391816807 ], [ 74.671494111573608, 15.364567184590623 ], [ 74.671902199411065, 15.361932104166815 ], [ 74.67333943523883, 15.35265050069286 ], [ 74.672809965077349, 15.355795971081681 ] ] ], [ [ [ 74.656475444046464, 15.340204598380488 ], [ 74.657596141625788, 15.3406482176048 ], [ 74.660527839839403, 15.341664045630813 ], [ 74.664534088804047, 15.343051007050901 ], [ 74.665278658359739, 15.343090620089379 ], [ 74.666919611411785, 15.343905423190439 ], [ 74.667469766870312, 15.343716493196103 ], [ 74.668373061712998, 15.343401324669673 ], [ 74.668505989953331, 15.343362210884012 ], [ 74.668741967748659, 15.343432498422702 ], [ 74.670313431580567, 15.343876853391297 ], [ 74.670508095606522, 15.343932012404482 ], [ 74.670694098777702, 15.343984947985975 ], [ 74.671275182522336, 15.344151416451959 ], [ 74.671602697644531, 15.344245747006173 ], [ 74.674017208870382, 15.345032347923745 ], [ 74.674696312140711, 15.34525373725714 ], [ 74.67476307546994, 15.345292846975941 ], [ 74.675390208635818, 15.344329613644829 ], [ 74.676963365574224, 15.344332177053243 ], [ 74.690657234395346, 15.344354022771425 ], [ 74.697976842719726, 15.344232312064525 ], [ 74.698054291496874, 15.344402476973093 ], [ 74.698072836632818, 15.344219400563299 ], [ 74.698077949928106, 15.344063568640173 ], [ 74.698089589895275, 15.344054004711527 ], [ 74.698112023927763, 15.343832527141695 ], [ 74.699380357962568, 15.342719722023196 ], [ 74.700113581205656, 15.342345282912506 ], [ 74.700319384496296, 15.341555062021405 ], [ 74.701157333550157, 15.340611254262843 ], [ 74.701846944132484, 15.339219650595119 ], [ 74.704198989521103, 15.335542941006064 ], [ 74.705285274702149, 15.331415304835618 ], [ 74.706566246597021, 15.331319067576864 ], [ 74.709411281236996, 15.329686309587496 ], [ 74.71002939710327, 15.329331565679023 ], [ 74.71017984724493, 15.3292452200127 ], [ 74.71027955896237, 15.329236466742813 ], [ 74.710819105368515, 15.329334017227046 ], [ 74.711191514574281, 15.32940134731156 ], [ 74.712256392320427, 15.329593872953154 ], [ 74.713737368998167, 15.329861617536263 ], [ 74.716026403419107, 15.330275431259103 ], [ 74.716221333935408, 15.330310669931535 ], [ 74.716680167391374, 15.33036870364378 ], [ 74.717099278743703, 15.330410588831109 ], [ 74.717281727518497, 15.330428821168544 ], [ 74.718101892878551, 15.330516625967809 ], [ 74.718481793369875, 15.330557296410255 ], [ 74.718674879940082, 15.330577966689022 ], [ 74.719110147962184, 15.330499955793984 ], [ 74.719737629312846, 15.330715265067036 ], [ 74.719828208415635, 15.330750211397012 ], [ 74.720060989086335, 15.33081434092435 ], [ 74.720251954240481, 15.330866949484895 ], [ 74.720699527473911, 15.331132284301146 ], [ 74.720714290087173, 15.331139027365172 ], [ 74.721102763143463, 15.331363688523894 ], [ 74.721205619896779, 15.331377955986667 ], [ 74.721539166230627, 15.331587134933617 ], [ 74.721645610970782, 15.331751855799522 ], [ 74.721837442295282, 15.331859824062422 ], [ 74.721934733395543, 15.331893497721444 ], [ 74.722427708378021, 15.331655643646947 ], [ 74.72269117735685, 15.3315402044575 ], [ 74.722924681500103, 15.331514069666005 ], [ 74.723429839047185, 15.331457527777619 ], [ 74.723641119663682, 15.33138943223735 ], [ 74.723642983654031, 15.331326459444286 ], [ 74.723650609342968, 15.331068752484871 ], [ 74.723788078228381, 15.330811300190211 ], [ 74.723809488338958, 15.330787230937904 ], [ 74.723984447481484, 15.330616333374607 ], [ 74.724407489936141, 15.330269787588668 ], [ 74.724809340845624, 15.330070565735094 ], [ 74.724905511935688, 15.33002011771398 ], [ 74.725052431437305, 15.329943046189834 ], [ 74.725060948228347, 15.329895950103801 ], [ 74.725081995743807, 15.329898935094178 ], [ 74.725120260269946, 15.329698008077498 ], [ 74.725116375724312, 15.329496821232238 ], [ 74.725230334609307, 15.32935355150097 ], [ 74.725485251772454, 15.3292866488052 ], [ 74.725495445234117, 15.32912754916355 ], [ 74.725534176262514, 15.329122702941508 ], [ 74.725526152824941, 15.329023861847375 ], [ 74.725698152506425, 15.328886311927924 ], [ 74.725781906387795, 15.328860252296661 ], [ 74.725806871528121, 15.328799368240718 ], [ 74.725908103795973, 15.328718412123198 ], [ 74.726084166760145, 15.328509205281057 ], [ 74.72608854658526, 15.328443805337919 ], [ 74.726107022632945, 15.328430438459705 ], [ 74.726093324529629, 15.328372428055134 ], [ 74.726093633297296, 15.328367821203269 ], [ 74.726090290290941, 15.328359575440393 ], [ 74.726033811763841, 15.328120386738007 ], [ 74.726020683497808, 15.32806478099609 ], [ 74.72603403152921, 15.328041063261251 ], [ 74.726045505512246, 15.328020674789791 ], [ 74.726195531234566, 15.327936978415662 ], [ 74.72634619824079, 15.327852923801238 ], [ 74.726348232357509, 15.327604811177707 ], [ 74.726373095668848, 15.327557509031873 ], [ 74.72625386845526, 15.327448854324123 ], [ 74.726462667417607, 15.327328894500335 ], [ 74.726556140504997, 15.327108133991581 ], [ 74.726614793404636, 15.326981264635505 ], [ 74.726885327974216, 15.326953963972411 ], [ 74.727194083333913, 15.326679850293488 ], [ 74.727313786711917, 15.326573576285108 ], [ 74.727409807405621, 15.326571356423981 ], [ 74.727912999727536, 15.326727045444986 ], [ 74.727908078525886, 15.326682096337281 ], [ 74.727815208567279, 15.325833855600711 ], [ 74.727787684838177, 15.325372400877546 ], [ 74.727473730783259, 15.325522389585323 ], [ 74.72753819753602, 15.3251776219553 ], [ 74.727411243432826, 15.325055414286661 ], [ 74.727287552795417, 15.324403531586205 ], [ 74.727271493247059, 15.324226075662333 ], [ 74.727164593489746, 15.324094141747242 ], [ 74.727058937615439, 15.323939154151899 ], [ 74.726873002542703, 15.323666405830179 ], [ 74.726661687309388, 15.323143318668471 ], [ 74.726596008339456, 15.322922737541814 ], [ 74.726553132272414, 15.322771856951405 ], [ 74.726437722546564, 15.322365725850915 ], [ 74.726180091652864, 15.32146358140141 ], [ 74.726179295996957, 15.321460794026478 ], [ 74.726013860158929, 15.321043755021067 ], [ 74.72597751342623, 15.320952128119014 ], [ 74.72598280153214, 15.320453027266067 ], [ 74.725877747842617, 15.320161743109583 ], [ 74.725690234807942, 15.319825417265253 ], [ 74.725685558617783, 15.31944714820915 ], [ 74.72567084914219, 15.319095668522387 ], [ 74.725670748867202, 15.3190932689488 ], [ 74.725643175102491, 15.319089504827282 ], [ 74.725157368177008, 15.318981325842307 ], [ 74.724681240595729, 15.318781999413643 ], [ 74.724518483889071, 15.318854200930046 ], [ 74.724370473856965, 15.318811652836819 ], [ 74.72413821275407, 15.318886088222392 ], [ 74.724130828954756, 15.318888454146807 ], [ 74.723984025910937, 15.318866783590613 ], [ 74.723829365191776, 15.318789067837479 ], [ 74.72377291862918, 15.318760703723154 ], [ 74.723651710636432, 15.318610933584248 ], [ 74.723758813118351, 15.317841456326505 ], [ 74.72393280936042, 15.317645659562583 ], [ 74.724136615381411, 15.317411735171273 ], [ 74.724301223420809, 15.31119782241025 ], [ 74.723029216204623, 15.309244114270127 ], [ 74.722622379157713, 15.309037374576972 ], [ 74.722270020175458, 15.308858319032797 ], [ 74.722161937473544, 15.30880302176649 ], [ 74.722846885682557, 15.306767300899322 ], [ 74.722000287153804, 15.308839734790665 ], [ 74.720442273163712, 15.308001935849726 ], [ 74.718437574019035, 15.307751576314519 ], [ 74.717802771505021, 15.307662848020376 ], [ 74.716907969106387, 15.30835196605878 ], [ 74.714940365689515, 15.30993242024245 ], [ 74.714895853071553, 15.309969080321444 ], [ 74.71419599693958, 15.310584703565178 ], [ 74.713469804694569, 15.310946220289681 ], [ 74.713140134363741, 15.311086893139745 ], [ 74.712845527783998, 15.311212571029744 ], [ 74.71283990345006, 15.311209026108584 ], [ 74.711381374993394, 15.312295985347671 ], [ 74.711177005071335, 15.312351141983084 ], [ 74.710933217998175, 15.312473873237218 ], [ 74.710642254253727, 15.312421217013476 ], [ 74.710361101873701, 15.312635091895727 ], [ 74.709827126034497, 15.312803197106192 ], [ 74.708832904506878, 15.31321352235671 ], [ 74.708454884325079, 15.313906716622148 ], [ 74.707720369000228, 15.315786815352144 ], [ 74.707334481339529, 15.31680304066799 ], [ 74.707112665187069, 15.317372061058022 ], [ 74.707110935561417, 15.317454895783698 ], [ 74.7071037977815, 15.317796523808974 ], [ 74.707117352158747, 15.318528674980824 ], [ 74.707156786842518, 15.318553248217995 ], [ 74.707154942524127, 15.318723203333375 ], [ 74.708052488425935, 15.319331245368113 ], [ 74.70966616159204, 15.3198666309356 ], [ 74.71005377663019, 15.319995231653232 ], [ 74.710078264027985, 15.32002463812537 ], [ 74.709794777940346, 15.320048345056593 ], [ 74.709622835945453, 15.3200636891522 ], [ 74.709599031154227, 15.320060301783135 ], [ 74.709562924735636, 15.320063645641563 ], [ 74.708205998402363, 15.319882839580146 ], [ 74.707264553390672, 15.319734666008381 ], [ 74.707024665065774, 15.319696901608276 ], [ 74.706938126668945, 15.319683270216917 ], [ 74.706536115844273, 15.319594256893483 ], [ 74.706484385180303, 15.319565864805883 ], [ 74.706293996281389, 15.319622913862737 ], [ 74.70593653852319, 15.319264462349032 ], [ 74.705488098218211, 15.319017178062362 ], [ 74.704933810599542, 15.318927966557732 ], [ 74.704703579858077, 15.318793449819264 ], [ 74.704533932821874, 15.318698762046811 ], [ 74.704449958325469, 15.318659482335253 ], [ 74.70420624656802, 15.318545675262005 ], [ 74.703554842332679, 15.318382827717558 ], [ 74.70285204367309, 15.318462177205197 ], [ 74.702497167132719, 15.31855623544612 ], [ 74.702422153980422, 15.318576036325226 ], [ 74.702215647738356, 15.318568212107945 ], [ 74.701326962050388, 15.318533098425657 ], [ 74.701173866356328, 15.318520672306887 ], [ 74.70002158117579, 15.318417040790475 ], [ 74.700009925965645, 15.318411573501788 ], [ 74.699523161275749, 15.318180042915017 ], [ 74.698931066546677, 15.317811818871355 ], [ 74.698626213312579, 15.317644052813302 ], [ 74.698292413331686, 15.317473545200773 ], [ 74.697985333600798, 15.317293361837557 ], [ 74.697114689787071, 15.316782492991715 ], [ 74.696662242203502, 15.316517010915458 ], [ 74.696519254815499, 15.316623325423961 ], [ 74.69649954555733, 15.316637980120699 ], [ 74.695847216587609, 15.31647824529896 ], [ 74.695532753006404, 15.316410357800727 ], [ 74.695091664734306, 15.316322335821106 ], [ 74.693924874215824, 15.316156089663931 ], [ 74.693099826611714, 15.316053144523393 ], [ 74.691653824146101, 15.315973733704126 ], [ 74.691507136129474, 15.315977286853075 ], [ 74.691492112981706, 15.315915149063635 ], [ 74.691488625016234, 15.315900724977645 ], [ 74.691475377116419, 15.31583305301324 ], [ 74.691473655478248, 15.315824261110235 ], [ 74.69145813699356, 15.315785489647192 ], [ 74.691231473936526, 15.315788966552589 ], [ 74.690998783743453, 15.31579250179756 ], [ 74.672174663481258, 15.315844194336886 ], [ 74.671049671890543, 15.315948879818974 ], [ 74.669026646467699, 15.315966208791254 ], [ 74.668998163786441, 15.315847730634211 ], [ 74.668521954051499, 15.315920620951713 ], [ 74.665488407618739, 15.318850450847862 ], [ 74.664365323249442, 15.319862028741406 ], [ 74.657824001219979, 15.325573107957881 ], [ 74.654089991234116, 15.34046243017819 ], [ 74.654308175912377, 15.340508678451645 ], [ 74.654277726881148, 15.340633583499621 ], [ 74.656475444046464, 15.340204598380488 ] ] ], [ [ [ 74.724095866755732, 15.301011937247738 ], [ 74.724139624895784, 15.301117046438062 ], [ 74.724018835759722, 15.301606480989955 ], [ 74.723807831881103, 15.302436627762518 ], [ 74.723402459321107, 15.303914381863697 ], [ 74.723395843947785, 15.303979620911772 ], [ 74.723387118145737, 15.304063767283253 ], [ 74.722919672941813, 15.306472090260986 ], [ 74.72288841789937, 15.306633898864563 ], [ 74.722846885682557, 15.306767300899322 ], [ 74.722899088986054, 15.306626237274987 ], [ 74.722940578668258, 15.306456428407699 ], [ 74.723535561380345, 15.30402158338814 ], [ 74.723539633144014, 15.303937640101498 ], [ 74.723542800776485, 15.30387260020667 ], [ 74.72390001496322, 15.302401775001528 ], [ 74.72409969049248, 15.301579652422165 ], [ 74.724210373875323, 15.301123920029177 ], [ 74.724095866755732, 15.301011937247738 ] ] ] ] } }
]
}
