{
"type": "FeatureCollection",
"name": "wards_in_police_area.writing_20260805_172659",
"crs": { "type": "name", "properties": { "name": "urn:ogc:def:crs:OGC:1.3:CRS84" } },
"features": [
{ "type": "Feature", "properties": { "KGISWardID": 6482, "KGISWardCode": "2605065", "KGISWardName": "Srirampura", "SHAPE.STArea()": 1451539.933403485, "SHAPE.STLength()": 5812.1541281778309, "OBJECTID": 20170, "KGISWardNo": "65", "KGISTownCode": "2605", "LGD_WardCode": 28870, "created_user": "SA", "created_date": 1634898537000, "last_edited_user": "SURESHBV1", "last_edited_date": 1692254057000, "_overlap_percent": 17.587251797027402, "_police_station": "Ashokpuram PS", "_police_feature_index": "314", "_admin_layer": "Ward", "_geometry_clipped": true }, "geometry": { "type": "Polygon", "coordinates": [ [ [ 76.628104414356017, 12.264200724105166 ], [ 76.628039430797571, 12.264214340394391 ], [ 76.628842122644954, 12.268180142354993 ], [ 76.629061048280775, 12.268227774109251 ], [ 76.629573444201498, 12.269973281735394 ], [ 76.629969164157316, 12.270878974579347 ], [ 76.630040277572959, 12.270809179449166 ], [ 76.630536396081041, 12.270330737034673 ], [ 76.630598927322055, 12.27027269974511 ], [ 76.630639203000769, 12.270235318954738 ], [ 76.630795083086596, 12.270090641451088 ], [ 76.63082296691374, 12.270064761658324 ], [ 76.631060653632815, 12.269810826976363 ], [ 76.631233901960158, 12.269625736297586 ], [ 76.631303286132862, 12.269548828078483 ], [ 76.631375705365286, 12.269474143664754 ], [ 76.631555228334435, 12.269289003731961 ], [ 76.632004046121068, 12.268839734919444 ], [ 76.632053738896133, 12.268790761236643 ], [ 76.632671514234715, 12.268181921973513 ], [ 76.632925080332157, 12.267932022686795 ], [ 76.632930654419496, 12.267923680051645 ], [ 76.63293816685345, 12.267909031422457 ], [ 76.632946751543045, 12.26788490897172 ], [ 76.632950443922496, 12.267869533695917 ], [ 76.632951918202977, 12.267856532842432 ], [ 76.632950643229023, 12.267846973565716 ], [ 76.632874587570939, 12.267559586989037 ], [ 76.632836321216189, 12.267404016741647 ], [ 76.632812259345911, 12.267288022406586 ], [ 76.632805454046704, 12.267252416102396 ], [ 76.632782691724799, 12.267121459395755 ], [ 76.63277072319768, 12.267040754199313 ], [ 76.632756357556957, 12.26691767903678 ], [ 76.632734781450594, 12.266676326925849 ], [ 76.632702809589915, 12.266162880257445 ], [ 76.632698333545122, 12.26609099399646 ], [ 76.632692832363404, 12.266002646847268 ], [ 76.632683517192774, 12.265853047587647 ], [ 76.632656765042299, 12.265367843721325 ], [ 76.632650477002713, 12.265253802758904 ], [ 76.632599320696272, 12.265255752641909 ], [ 76.632481081284496, 12.265199620443651 ], [ 76.632477169747901, 12.265197763444913 ], [ 76.632464489431456, 12.265190422652315 ], [ 76.632175607078139, 12.265023200373605 ], [ 76.632170445848288, 12.26502021269191 ], [ 76.632168165954468, 12.265019116170334 ], [ 76.631995086799165, 12.264935880567085 ], [ 76.631945609565093, 12.264912088379926 ], [ 76.631815201274293, 12.264849374051728 ], [ 76.631225308391507, 12.264601980343022 ], [ 76.631203109818799, 12.2645926702804 ], [ 76.631116353120632, 12.264556285714598 ], [ 76.631023582395244, 12.264519779600558 ], [ 76.630824593898083, 12.264441474862737 ], [ 76.630112058330681, 12.264161080954487 ], [ 76.629090428537083, 12.263894166234586 ], [ 76.628914336466025, 12.263937634679669 ], [ 76.628104414356017, 12.264200724105166 ] ] ] } },
{ "type": "Feature", "properties": { "KGISWardID": 6475, "KGISWardCode": "2605062", "KGISWardName": "Vishweshwaranagara", "SHAPE.STArea()": 3515115.13735737, "SHAPE.STLength()": 12420.92387563714, "OBJECTID": 20167, "KGISWardNo": "62", "KGISTownCode": "2605", "LGD_WardCode": 28867, "created_user": "SA", "created_date": 1634898537000, "last_edited_user": "SURESHBV1", "last_edited_date": 1692254057000, "_overlap_percent": 0.019530105582004163, "_police_station": "Ashokpuram PS", "_police_feature_index": "314", "_admin_layer": "Ward", "_geometry_clipped": true }, "geometry": { "type": "MultiPolygon", "coordinates": [ [ [ [ 76.638735748802091, 12.272082961356297 ], [ 76.638771719168787, 12.272157133129703 ], [ 76.638830350334473, 12.272288461952229 ], [ 76.639123159421729, 12.272944321363362 ], [ 76.639178989313066, 12.272917619774963 ], [ 76.638472973670019, 12.271501225425201 ], [ 76.638375731605649, 12.271300901670145 ], [ 76.638735748802091, 12.272082961356297 ] ] ], [ [ [ 76.637538355542603, 12.269575863041707 ], [ 76.63737632375809, 12.26924206906353 ], [ 76.637344159964371, 12.269198528427856 ], [ 76.637538355542603, 12.269575863041707 ] ] ], [ [ [ 76.634852361427875, 12.266628660019109 ], [ 76.63486727062535, 12.266638489619922 ], [ 76.634930011081678, 12.266682505588895 ], [ 76.635072187857887, 12.266782253869515 ], [ 76.635149584125628, 12.266836552419429 ], [ 76.634846704613025, 12.266584505769387 ], [ 76.634852361427875, 12.266628660019109 ] ] ] ] } },
{ "type": "Feature", "properties": { "KGISWardID": 6479, "KGISWardCode": "2605064", "KGISWardName": "Aravindanagara", "SHAPE.STArea()": 1142794.885705115, "SHAPE.STLength()": 6068.4550152694319, "OBJECTID": 20169, "KGISWardNo": "64", "KGISTownCode": "2605", "LGD_WardCode": 28869, "created_user": "SA", "created_date": 1634898537000, "last_edited_user": "SURESHBV1", "last_edited_date": 1692254057000, "_overlap_percent": 35.984759722838156, "_police_station": "Ashokpuram PS", "_police_feature_index": "314", "_admin_layer": "Ward", "_geometry_clipped": true }, "geometry": { "type": "Polygon", "coordinates": [ [ [ 76.630297045998958, 12.279901822408387 ], [ 76.63043408131746, 12.279947212895538 ], [ 76.630477728401658, 12.279961670818757 ], [ 76.630513197817052, 12.279973419364607 ], [ 76.630763986213651, 12.279946420149978 ], [ 76.630912266885844, 12.279944679250223 ], [ 76.631013093993602, 12.279943574350895 ], [ 76.631445724040162, 12.279938830550456 ], [ 76.631460804030269, 12.279938665683876 ], [ 76.631601977833483, 12.279960469447539 ], [ 76.631824354851588, 12.280031146844953 ], [ 76.63183835928038, 12.280035597783407 ], [ 76.632068497753693, 12.280141366595778 ], [ 76.63207982634917, 12.280146572926913 ], [ 76.632182917590782, 12.28022243831464 ], [ 76.632236193724353, 12.280261642978664 ], [ 76.632280645442989, 12.280259873799588 ], [ 76.632295556428005, 12.28025928140357 ], [ 76.632542254941455, 12.280264480439278 ], [ 76.63357314303785, 12.280286209097927 ], [ 76.633577950356951, 12.280286310594997 ], [ 76.633726741856705, 12.280289446614082 ], [ 76.634132625993587, 12.280298000173685 ], [ 76.634149372998763, 12.280298353135542 ], [ 76.634248728814072, 12.280300446870568 ], [ 76.634299322862972, 12.28030151356861 ], [ 76.634295391341752, 12.280247002413706 ], [ 76.634239081033144, 12.279466287559911 ], [ 76.633933154567544, 12.279464544905251 ], [ 76.633796596555513, 12.279463766774953 ], [ 76.633487217786325, 12.278382947670037 ], [ 76.633278806838675, 12.278240703868521 ], [ 76.633257301904095, 12.278237946588231 ], [ 76.633206776914008, 12.278231470700202 ], [ 76.632705068775508, 12.27746753870894 ], [ 76.632678856422942, 12.277427625843217 ], [ 76.63250616763689, 12.277164677183849 ], [ 76.632373897295011, 12.277171690304069 ], [ 76.63224014011152, 12.277178781827949 ], [ 76.632203227136728, 12.276665625289198 ], [ 76.632191464738071, 12.276502104885358 ], [ 76.632179338549804, 12.276333543314434 ], [ 76.63215120335056, 12.276078914723957 ], [ 76.63214771727678, 12.276047370155723 ], [ 76.63211940308635, 12.275791126291452 ], [ 76.631936192658131, 12.27480224677652 ], [ 76.631899103714886, 12.274602057864392 ], [ 76.631895162011432, 12.274587415995795 ], [ 76.631875342544191, 12.274513802326592 ], [ 76.63178652659488, 12.274183904032331 ], [ 76.631744013826676, 12.27402599330156 ], [ 76.631753892965222, 12.273883790053329 ], [ 76.631479754998637, 12.27344796157133 ], [ 76.631487857005368, 12.273434681697669 ], [ 76.631491765578616, 12.273428273577087 ], [ 76.631497679862633, 12.27341857837529 ], [ 76.631506590877123, 12.273403971153783 ], [ 76.631705653927568, 12.2733464665846 ], [ 76.63180240101785, 12.273318519559339 ], [ 76.631931987402041, 12.273281084851369 ], [ 76.631965969049489, 12.273270959411297 ], [ 76.632011881341995, 12.273257279851157 ], [ 76.632132950751071, 12.273226199271052 ], [ 76.632528842367336, 12.2731390840652 ], [ 76.632592558882351, 12.273128396289193 ], [ 76.632669355101029, 12.273120132791785 ], [ 76.632710229446232, 12.273117547913413 ], [ 76.632757347407008, 12.27311456784579 ], [ 76.633010331386117, 12.27309219986347 ], [ 76.633037934092698, 12.273089759120724 ], [ 76.632805451260339, 12.272462102371758 ], [ 76.632635959758503, 12.271959398424816 ], [ 76.632599835741459, 12.27185225641516 ], [ 76.632313699619445, 12.271003583283145 ], [ 76.632192621444716, 12.270656921078764 ], [ 76.632166178997139, 12.270572781957165 ], [ 76.632157758631976, 12.270545988269541 ], [ 76.63197804379071, 12.269974144374096 ], [ 76.631956303603161, 12.26997785541819 ], [ 76.631941473352853, 12.269937271624848 ], [ 76.63162350894882, 12.270013370208456 ], [ 76.631382074734901, 12.270071151961758 ], [ 76.631355296430584, 12.270077560610561 ], [ 76.631329625634478, 12.269816598126217 ], [ 76.631325491626967, 12.269774570234084 ], [ 76.631322607801025, 12.269745248551615 ], [ 76.631303762677035, 12.269553672412139 ], [ 76.631303286132862, 12.269548828078483 ], [ 76.631233901960158, 12.269625736297586 ], [ 76.631060653632815, 12.269810826976363 ], [ 76.63082296691374, 12.270064761658324 ], [ 76.630795083086596, 12.270090641451088 ], [ 76.630639203000769, 12.270235318954738 ], [ 76.630598927322055, 12.27027269974511 ], [ 76.630536396081041, 12.270330737034673 ], [ 76.630040277572959, 12.270809179449166 ], [ 76.629969164157316, 12.270878974579347 ], [ 76.630085295079766, 12.271144765939837 ], [ 76.628068539667112, 12.273060040788661 ], [ 76.627988159971736, 12.273242603879646 ], [ 76.628066840700214, 12.273587397774714 ], [ 76.630174649208058, 12.279851144986704 ], [ 76.63017907570071, 12.27989491795212 ], [ 76.630297045998958, 12.279901822408387 ] ] ] } },
{ "type": "Feature", "properties": { "KGISWardID": 6471, "KGISWardCode": "2605060", "KGISWardName": "Ashokapuram", "SHAPE.STArea()": 1429451.961560295, "SHAPE.STLength()": 6826.4657068378956, "OBJECTID": 20165, "KGISWardNo": "60", "KGISTownCode": "2605", "LGD_WardCode": 28865, "created_user": "SA", "created_date": 1634898537000, "last_edited_user": "SURESHBV1", "last_edited_date": 1692254057000, "_overlap_percent": 64.692401184739694, "_police_station": "Ashokpuram PS", "_police_feature_index": "314", "_admin_layer": "Ward", "_geometry_clipped": true }, "geometry": { "type": "Polygon", "coordinates": [ [ [ 76.635072187857887, 12.266782253869515 ], [ 76.634930011081678, 12.266682505588895 ], [ 76.63486727062535, 12.266638489619922 ], [ 76.634852361427875, 12.266628660019109 ], [ 76.634869849318136, 12.266795075034356 ], [ 76.634876503101069, 12.266858391986165 ], [ 76.634915660375384, 12.267231014844993 ], [ 76.634937648316154, 12.267412561909577 ], [ 76.635036526400299, 12.268228969415347 ], [ 76.635105988574978, 12.268834547036386 ], [ 76.635125114143889, 12.269001276734338 ], [ 76.635192672682578, 12.269544768246936 ], [ 76.635236298751366, 12.269888061593063 ], [ 76.635254948177447, 12.270011542986829 ], [ 76.635276537368171, 12.270123722405582 ], [ 76.635316519884384, 12.270315324559398 ], [ 76.635318695399363, 12.270329589097601 ], [ 76.635363588324864, 12.270570197626904 ], [ 76.635403362824775, 12.270867499281771 ], [ 76.635514011583638, 12.271811677210138 ], [ 76.635593357824476, 12.272475106314081 ], [ 76.63568425719393, 12.27319808134561 ], [ 76.635875825717235, 12.274813599733818 ], [ 76.636050024152453, 12.276241058096138 ], [ 76.636218823612055, 12.277688828189364 ], [ 76.63622501138947, 12.277745452876335 ], [ 76.636283217666687, 12.278278165798504 ], [ 76.63629374692367, 12.278481793739566 ], [ 76.636298639953907, 12.278576425976459 ], [ 76.636312527011, 12.278749219785659 ], [ 76.636335248735406, 12.279031954723569 ], [ 76.636402219982401, 12.279607838174622 ], [ 76.636416744878176, 12.279717499409964 ], [ 76.636465101930739, 12.280109773084353 ], [ 76.63656769863195, 12.280942025393362 ], [ 76.636572034907232, 12.280966754137461 ], [ 76.636203593677408, 12.281011051628482 ], [ 76.636148759662262, 12.281200968857586 ], [ 76.636079673963621, 12.281466366110457 ], [ 76.636020213960208, 12.281694783573702 ], [ 76.636014156616071, 12.281713753684388 ], [ 76.636009164040303, 12.281726372378108 ], [ 76.635999081665759, 12.281746288599599 ], [ 76.635985104554905, 12.281769790686914 ], [ 76.635966854994351, 12.281796447888542 ], [ 76.635959942762454, 12.281806046092678 ], [ 76.635954757631083, 12.281813684991024 ], [ 76.63590345916262, 12.281889245331723 ], [ 76.635892567899845, 12.281906938969771 ], [ 76.635875335682869, 12.281943229258195 ], [ 76.635867868177343, 12.281961599411645 ], [ 76.635857728322392, 12.28199557561843 ], [ 76.63585303467373, 12.282025931379897 ], [ 76.635853000562591, 12.282059395220225 ], [ 76.635853857958494, 12.282084351775779 ], [ 76.635868885873464, 12.282620925851342 ], [ 76.635904180212492, 12.282973538547909 ], [ 76.636062795580813, 12.284310374822311 ], [ 76.636168833341443, 12.285173715187881 ], [ 76.636183306303835, 12.285291548681778 ], [ 76.636196112926797, 12.285371645439476 ], [ 76.636200805977694, 12.285414074734128 ], [ 76.636217296902544, 12.285563165816935 ], [ 76.637107132013213, 12.285461550709835 ], [ 76.637145061575168, 12.285782201351276 ], [ 76.637164325183591, 12.285945056025794 ], [ 76.637214538254909, 12.28638998673563 ], [ 76.637215569168148, 12.286399121635506 ], [ 76.637215628895291, 12.28639911766234 ], [ 76.637249030197339, 12.286396902901558 ], [ 76.637471779627901, 12.286382130956129 ], [ 76.637861425163351, 12.286356291688968 ], [ 76.638363266636702, 12.286323010437279 ], [ 76.638374392444291, 12.286406930960188 ], [ 76.638562448561885, 12.287825347173039 ], [ 76.640122156244018, 12.287646702037309 ], [ 76.640015317951153, 12.286840663224845 ], [ 76.64086258501932, 12.286743740905639 ], [ 76.641029830793912, 12.286723700425746 ], [ 76.641047389337388, 12.286721595550373 ], [ 76.641814685094644, 12.286629648928352 ], [ 76.641725823062629, 12.286012282568345 ], [ 76.641711318274233, 12.285911511589706 ], [ 76.642679142790627, 12.285786707260995 ], [ 76.64269928306274, 12.285977116407302 ], [ 76.64270068643448, 12.285990099078655 ], [ 76.64270625894352, 12.286041647626222 ], [ 76.642774268444612, 12.286670772758477 ], [ 76.642817625079857, 12.287071845158978 ], [ 76.642861751289431, 12.287446843038682 ], [ 76.642959600802314, 12.288118410585749 ], [ 76.643033365907982, 12.288108924347558 ], [ 76.643298512570382, 12.288074824451114 ], [ 76.643277265432857, 12.287955300406569 ], [ 76.643504588705156, 12.287922495930342 ], [ 76.643939540978835, 12.287859728415212 ], [ 76.643952061252534, 12.287858426918875 ], [ 76.643559316193674, 12.286851340499897 ], [ 76.642682212127596, 12.285345395736167 ], [ 76.640562496512871, 12.281616325760876 ], [ 76.640269671884894, 12.28064795013678 ], [ 76.639792254484959, 12.277491297695816 ], [ 76.639570787872103, 12.27490841742747 ], [ 76.639278232092735, 12.273116718638802 ], [ 76.639178989313066, 12.272917619774963 ], [ 76.639123159421729, 12.272944321363362 ], [ 76.638830350334473, 12.272288461952229 ], [ 76.638771719168787, 12.272157133129703 ], [ 76.638735748802091, 12.272082961356297 ], [ 76.638375731605649, 12.271300901670145 ], [ 76.637538355542603, 12.269575863041707 ], [ 76.637344159964371, 12.269198528427856 ], [ 76.636316986273073, 12.267808027175123 ], [ 76.635149584125628, 12.266836552419429 ], [ 76.635072187857887, 12.266782253869515 ] ] ] } },
{ "type": "Feature", "properties": { "KGISWardID": 6470, "KGISWardCode": "2605059", "KGISWardName": "Kuvempu Nagara M Block", "SHAPE.STArea()": 639250.12350977503, "SHAPE.STLength()": 5291.8440706006395, "OBJECTID": 20164, "KGISWardNo": "59", "KGISTownCode": "2605", "LGD_WardCode": 28864, "created_user": "SA", "created_date": 1634898537000, "last_edited_user": "SURESHBV1", "last_edited_date": 1692254057000, "_overlap_percent": 10.114905620208642, "_police_station": "Ashokpuram PS", "_police_feature_index": "314", "_admin_layer": "Ward", "_geometry_clipped": true }, "geometry": { "type": "Polygon", "coordinates": [ [ [ 76.631559436007507, 12.281818899555256 ], [ 76.631544192343611, 12.28171045889451 ], [ 76.631520395253219, 12.281541162324956 ], [ 76.631505226592608, 12.281441754727998 ], [ 76.631482259278201, 12.28130477607851 ], [ 76.63153611917059, 12.281294128958383 ], [ 76.6316793013969, 12.281265516252418 ], [ 76.631696160672547, 12.281262146983956 ], [ 76.631781717890689, 12.281249420706789 ], [ 76.631910086550775, 12.281241853233565 ], [ 76.632058350822618, 12.281237049024483 ], [ 76.632553346195778, 12.281216245575411 ], [ 76.632628834582221, 12.281208541038307 ], [ 76.632703208615169, 12.281200948891302 ], [ 76.632747568051428, 12.281193432636726 ], [ 76.632762147607608, 12.281190961898208 ], [ 76.632797871273056, 12.281183974431331 ], [ 76.632831994550486, 12.281176541798914 ], [ 76.632887091293668, 12.281166585826838 ], [ 76.632907834991002, 12.281163472654173 ], [ 76.632944143211432, 12.28116124387145 ], [ 76.633129603853874, 12.281160818552648 ], [ 76.633167004161976, 12.281163365302765 ], [ 76.633199203791676, 12.281168359414918 ], [ 76.633219408826051, 12.281172552718267 ], [ 76.633257984646747, 12.281182817891397 ], [ 76.633295298186852, 12.281195440945947 ], [ 76.633458346661726, 12.281256241213791 ], [ 76.633693684125546, 12.28135888038215 ], [ 76.633804493388439, 12.281410771447758 ], [ 76.634018773538671, 12.281534336605331 ], [ 76.63405305084774, 12.28155410195901 ], [ 76.634079345561602, 12.28156926485342 ], [ 76.634148865168186, 12.281609352961171 ], [ 76.634259324613311, 12.281673049218602 ], [ 76.634310597640948, 12.281702615333888 ], [ 76.634318220321049, 12.280818209997811 ], [ 76.634299322862972, 12.28030151356861 ], [ 76.634248728814072, 12.280300446870568 ], [ 76.634149372998763, 12.280298353135542 ], [ 76.634132625993587, 12.280298000173685 ], [ 76.633726741856705, 12.280289446614082 ], [ 76.633577950356951, 12.280286310594997 ], [ 76.63357314303785, 12.280286209097927 ], [ 76.632542254941455, 12.280264480439278 ], [ 76.632295556428005, 12.28025928140357 ], [ 76.632280645442989, 12.280259873799588 ], [ 76.632236193724353, 12.280261642978664 ], [ 76.632182917590782, 12.28022243831464 ], [ 76.63207982634917, 12.280146572926913 ], [ 76.632068497753693, 12.280141366595778 ], [ 76.63183835928038, 12.280035597783407 ], [ 76.631824354851588, 12.280031146844953 ], [ 76.631601977833483, 12.279960469447539 ], [ 76.631460804030269, 12.279938665683876 ], [ 76.631445724040162, 12.279938830550456 ], [ 76.631013093993602, 12.279943574350895 ], [ 76.630912266885844, 12.279944679250223 ], [ 76.630763986213651, 12.279946420149978 ], [ 76.630513197817052, 12.279973419364607 ], [ 76.630477728401658, 12.279961670818757 ], [ 76.63043408131746, 12.279947212895538 ], [ 76.630297045998958, 12.279901822408387 ], [ 76.63017907570071, 12.27989491795212 ], [ 76.630384098324114, 12.281922357941227 ], [ 76.631559436007507, 12.281818899555256 ] ] ] } },
{ "type": "Feature", "properties": { "KGISWardID": 6447, "KGISWardCode": "2605048", "KGISWardName": "Jayanagara", "SHAPE.STArea()": 1248642.257479615, "SHAPE.STLength()": 8284.2723338554133, "OBJECTID": 20153, "KGISWardNo": "48", "KGISTownCode": "2605", "LGD_WardCode": 28853, "created_user": "SA", "created_date": 1634898537000, "last_edited_user": "SURESHBV1", "last_edited_date": 1692254057000, "_overlap_percent": 99.720527619299702, "_police_station": "Ashokpuram PS", "_police_feature_index": "314", "_admin_layer": "Ward", "_geometry_clipped": true }, "geometry": { "type": "Polygon", "coordinates": [ [ [ 76.632744914960568, 12.265250203880539 ], [ 76.632694556320331, 12.265252122815232 ], [ 76.632650477002713, 12.265253802758904 ], [ 76.632656765042299, 12.265367843721325 ], [ 76.632683517192774, 12.265853047587647 ], [ 76.632692832363404, 12.266002646847268 ], [ 76.632698333545122, 12.26609099399646 ], [ 76.632702809589915, 12.266162880257445 ], [ 76.632734781450594, 12.266676326925849 ], [ 76.632756357556957, 12.26691767903678 ], [ 76.63277072319768, 12.267040754199313 ], [ 76.632782691724799, 12.267121459395755 ], [ 76.632805454046704, 12.267252416102396 ], [ 76.632812259345911, 12.267288022406586 ], [ 76.632836321216189, 12.267404016741647 ], [ 76.632874587570939, 12.267559586989037 ], [ 76.632950643229023, 12.267846973565716 ], [ 76.632951918202977, 12.267856532842432 ], [ 76.632950443922496, 12.267869533695917 ], [ 76.632946751543045, 12.26788490897172 ], [ 76.63293816685345, 12.267909031422457 ], [ 76.632930654419496, 12.267923680051645 ], [ 76.632925080332157, 12.267932022686795 ], [ 76.632671514234715, 12.268181921973513 ], [ 76.632053738896133, 12.268790761236643 ], [ 76.632004046121068, 12.268839734919444 ], [ 76.631555228334435, 12.269289003731961 ], [ 76.631375705365286, 12.269474143664754 ], [ 76.631303286132862, 12.269548828078483 ], [ 76.631303762677035, 12.269553672412139 ], [ 76.631322607801025, 12.269745248551615 ], [ 76.631325491626967, 12.269774570234084 ], [ 76.631329625634478, 12.269816598126217 ], [ 76.631355296430584, 12.270077560610561 ], [ 76.631382074734901, 12.270071151961758 ], [ 76.63162350894882, 12.270013370208456 ], [ 76.631941473352853, 12.269937271624848 ], [ 76.631956303603161, 12.26997785541819 ], [ 76.63197804379071, 12.269974144374096 ], [ 76.632157758631976, 12.270545988269541 ], [ 76.632166178997139, 12.270572781957165 ], [ 76.632192621444716, 12.270656921078764 ], [ 76.632313699619445, 12.271003583283145 ], [ 76.632599835741459, 12.27185225641516 ], [ 76.632635959758503, 12.271959398424816 ], [ 76.632805451260339, 12.272462102371758 ], [ 76.633037934092698, 12.273089759120724 ], [ 76.633010331386117, 12.27309219986347 ], [ 76.632757347407008, 12.27311456784579 ], [ 76.632710229446232, 12.273117547913413 ], [ 76.632669355101029, 12.273120132791785 ], [ 76.632592558882351, 12.273128396289193 ], [ 76.632528842367336, 12.2731390840652 ], [ 76.632132950751071, 12.273226199271052 ], [ 76.632011881341995, 12.273257279851157 ], [ 76.631965969049489, 12.273270959411297 ], [ 76.631931987402041, 12.273281084851369 ], [ 76.63180240101785, 12.273318519559339 ], [ 76.631705653927568, 12.2733464665846 ], [ 76.631506590877123, 12.273403971153783 ], [ 76.631497679862633, 12.27341857837529 ], [ 76.631491765578616, 12.273428273577087 ], [ 76.631487857005368, 12.273434681697669 ], [ 76.631479754998637, 12.27344796157133 ], [ 76.631753892965222, 12.273883790053329 ], [ 76.631744013826676, 12.27402599330156 ], [ 76.63178652659488, 12.274183904032331 ], [ 76.631875342544191, 12.274513802326592 ], [ 76.631895162011432, 12.274587415995795 ], [ 76.631899103714886, 12.274602057864392 ], [ 76.631936192658131, 12.27480224677652 ], [ 76.63211940308635, 12.275791126291452 ], [ 76.63214771727678, 12.276047370155723 ], [ 76.63215120335056, 12.276078914723957 ], [ 76.632179338549804, 12.276333543314434 ], [ 76.632191464738071, 12.276502104885358 ], [ 76.632203227136728, 12.276665625289198 ], [ 76.63224014011152, 12.277178781827949 ], [ 76.632373897295011, 12.277171690304069 ], [ 76.63250616763689, 12.277164677183849 ], [ 76.632678856422942, 12.277427625843217 ], [ 76.632705068775508, 12.27746753870894 ], [ 76.633206776914008, 12.278231470700202 ], [ 76.633257301904095, 12.278237946588231 ], [ 76.633278806838675, 12.278240703868521 ], [ 76.633487217786325, 12.278382947670037 ], [ 76.633796596555513, 12.279463766774953 ], [ 76.633933154567544, 12.279464544905251 ], [ 76.634239081033144, 12.279466287559911 ], [ 76.634295391341752, 12.280247002413706 ], [ 76.634299322862972, 12.28030151356861 ], [ 76.634318220321049, 12.280818209997811 ], [ 76.634310597640948, 12.281702615333888 ], [ 76.634300096274444, 12.281755648732162 ], [ 76.634286990419085, 12.281825170966437 ], [ 76.634279531674593, 12.281856894681448 ], [ 76.634269209660118, 12.281883582217997 ], [ 76.634260459860798, 12.281901532410021 ], [ 76.634249479088112, 12.281919934349245 ], [ 76.634221824634366, 12.281953307235225 ], [ 76.634154002290614, 12.282020092427521 ], [ 76.634112218010088, 12.282053000011043 ], [ 76.633919477093414, 12.282187314234495 ], [ 76.633904556657669, 12.282197712298442 ], [ 76.633176390867703, 12.282705141621475 ], [ 76.632871485823273, 12.282934055411033 ], [ 76.632863013011431, 12.282949539660374 ], [ 76.632853468004285, 12.28297167458639 ], [ 76.63284720896192, 12.282999716434727 ], [ 76.632845925944636, 12.283009297277056 ], [ 76.632846235794176, 12.283036734959945 ], [ 76.632850250596917, 12.283095836090618 ], [ 76.6328574163079, 12.283164730271482 ], [ 76.632886221836387, 12.283371466850861 ], [ 76.632971456200977, 12.283958366341812 ], [ 76.632981903153109, 12.284030298210755 ], [ 76.633091214716501, 12.284782978386302 ], [ 76.633130552044477, 12.285053839413848 ], [ 76.633246446947638, 12.285874796855458 ], [ 76.633182595207714, 12.285880882863276 ], [ 76.633319351596128, 12.287166015218183 ], [ 76.633423522550643, 12.288133212763363 ], [ 76.63352162487007, 12.288842327445144 ], [ 76.633542918364739, 12.288967807026976 ], [ 76.63355152856677, 12.289056920031017 ], [ 76.633557052360686, 12.289114092933463 ], [ 76.633561075678202, 12.289155739838087 ], [ 76.63356487311637, 12.289195045869851 ], [ 76.633567482764278, 12.289270226338521 ], [ 76.633563338045306, 12.289754107250376 ], [ 76.633577602968316, 12.290488780612206 ], [ 76.633563216771904, 12.29187897212239 ], [ 76.633624226823287, 12.291873965001631 ], [ 76.633683651917252, 12.29186908756086 ], [ 76.633678261546464, 12.292234628146646 ], [ 76.633669994746654, 12.292361515378296 ], [ 76.63366972232231, 12.292363994822656 ], [ 76.633660737615727, 12.2924457811995 ], [ 76.633644149391998, 12.292596770396859 ], [ 76.633628931150909, 12.292719218091039 ], [ 76.633599528033173, 12.292943140324558 ], [ 76.633520328273377, 12.293433403025407 ], [ 76.633274894240841, 12.29465935880061 ], [ 76.633206331653639, 12.2950540159977 ], [ 76.633159161679927, 12.295325534153108 ], [ 76.633139868864959, 12.295436805820042 ], [ 76.633101035902612, 12.295668429332606 ], [ 76.633064411068474, 12.295928644399364 ], [ 76.633058680730159, 12.295981734286677 ], [ 76.633048955632617, 12.296071827262818 ], [ 76.633042952205315, 12.296127439085499 ], [ 76.633041116798609, 12.296150138212553 ], [ 76.633035028177005, 12.29622545195233 ], [ 76.633030869749462, 12.296276891724984 ], [ 76.633588227848264, 12.296252299971194 ], [ 76.633624398604084, 12.296250703556488 ], [ 76.634144669417481, 12.296227748727768 ], [ 76.634237393972953, 12.296220325361354 ], [ 76.634848294030405, 12.296157090435608 ], [ 76.635421686050435, 12.2960858992168 ], [ 76.635498674616244, 12.296076340299855 ], [ 76.635643677139754, 12.296058337345631 ], [ 76.635683313158765, 12.2960529611835 ], [ 76.636676711184379, 12.295917761146793 ], [ 76.637324681268254, 12.29582478854797 ], [ 76.637481315175677, 12.295805447642335 ], [ 76.637540465786699, 12.295798143719376 ], [ 76.637737330096598, 12.295773834900301 ], [ 76.638061188999743, 12.295733844335203 ], [ 76.638074791141719, 12.295732265883824 ], [ 76.63809752043143, 12.29552013173603 ], [ 76.638119977433647, 12.295258096749908 ], [ 76.638140589049669, 12.294926088404599 ], [ 76.638144743680186, 12.29465435663214 ], [ 76.638140949675645, 12.294395157338325 ], [ 76.638125735962774, 12.294059441137817 ], [ 76.638118478033704, 12.293978208555687 ], [ 76.638089842028165, 12.293664616290188 ], [ 76.638082783842805, 12.293606876074056 ], [ 76.63805394990257, 12.293381254098771 ], [ 76.638016610742824, 12.293103946378487 ], [ 76.637990036856621, 12.292855952674648 ], [ 76.637908915562036, 12.292162746555572 ], [ 76.637858649601455, 12.291738205132329 ], [ 76.637837855239582, 12.291568408218264 ], [ 76.637756307776925, 12.290902539946069 ], [ 76.637756299992205, 12.290902470386085 ], [ 76.637727267422378, 12.290665408664676 ], [ 76.63771706315498, 12.290569106209356 ], [ 76.637674798374022, 12.290170234119616 ], [ 76.637521663319191, 12.288923044717473 ], [ 76.637387596319101, 12.287814104339683 ], [ 76.637256419639556, 12.286739540191403 ], [ 76.637240042058039, 12.286603542763716 ], [ 76.63723998874427, 12.286603097419491 ], [ 76.637217449095516, 12.286415923552443 ], [ 76.637215569168148, 12.286399121635506 ], [ 76.637214538254909, 12.28638998673563 ], [ 76.637164325183591, 12.285945056025794 ], [ 76.637145061575168, 12.285782201351276 ], [ 76.637107132013213, 12.285461550709835 ], [ 76.636217296902544, 12.285563165816935 ], [ 76.636200805977694, 12.285414074734128 ], [ 76.636196112926797, 12.285371645439476 ], [ 76.636183306303835, 12.285291548681778 ], [ 76.636168833341443, 12.285173715187881 ], [ 76.636062795580813, 12.284310374822311 ], [ 76.635904180212492, 12.282973538547909 ], [ 76.635868885873464, 12.282620925851342 ], [ 76.635853857958494, 12.282084351775779 ], [ 76.635853000562591, 12.282059395220225 ], [ 76.63585303467373, 12.282025931379897 ], [ 76.635857728322392, 12.28199557561843 ], [ 76.635867868177343, 12.281961599411645 ], [ 76.635875335682869, 12.281943229258195 ], [ 76.635892567899845, 12.281906938969771 ], [ 76.63590345916262, 12.281889245331723 ], [ 76.635954757631083, 12.281813684991024 ], [ 76.635959942762454, 12.281806046092678 ], [ 76.635966854994351, 12.281796447888542 ], [ 76.635985104554905, 12.281769790686914 ], [ 76.635999081665759, 12.281746288599599 ], [ 76.636009164040303, 12.281726372378108 ], [ 76.636014156616071, 12.281713753684388 ], [ 76.636020213960208, 12.281694783573702 ], [ 76.636079673963621, 12.281466366110457 ], [ 76.636148759662262, 12.281200968857586 ], [ 76.636203593677408, 12.281011051628482 ], [ 76.636572034907232, 12.280966754137461 ], [ 76.63656769863195, 12.280942025393362 ], [ 76.636465101930739, 12.280109773084353 ], [ 76.636416744878176, 12.279717499409964 ], [ 76.636402219982401, 12.279607838174622 ], [ 76.636335248735406, 12.279031954723569 ], [ 76.636312527011, 12.278749219785659 ], [ 76.636298639953907, 12.278576425976459 ], [ 76.63629374692367, 12.278481793739566 ], [ 76.636283217666687, 12.278278165798504 ], [ 76.63622501138947, 12.277745452876335 ], [ 76.636218823612055, 12.277688828189364 ], [ 76.636050024152453, 12.276241058096138 ], [ 76.635875825717235, 12.274813599733818 ], [ 76.63568425719393, 12.27319808134561 ], [ 76.635593357824476, 12.272475106314081 ], [ 76.635514011583638, 12.271811677210138 ], [ 76.635403362824775, 12.270867499281771 ], [ 76.635363588324864, 12.270570197626904 ], [ 76.635318695399363, 12.270329589097601 ], [ 76.635316519884384, 12.270315324559398 ], [ 76.635276537368171, 12.270123722405582 ], [ 76.635254948177447, 12.270011542986829 ], [ 76.635236298751366, 12.269888061593063 ], [ 76.635192672682578, 12.269544768246936 ], [ 76.635125114143889, 12.269001276734338 ], [ 76.635105988574978, 12.268834547036386 ], [ 76.635036526400299, 12.268228969415347 ], [ 76.634937648316154, 12.267412561909577 ], [ 76.634915660375384, 12.267231014844993 ], [ 76.634876503101069, 12.266858391986165 ], [ 76.634869849318136, 12.266795075034356 ], [ 76.634852361427875, 12.266628660019109 ], [ 76.634846704613025, 12.266584505769387 ], [ 76.634637539847105, 12.266410445536316 ], [ 76.632965203207036, 12.265342080115909 ], [ 76.632873879015719, 12.265289539317664 ], [ 76.632873797967122, 12.265283686252356 ], [ 76.632817083517537, 12.265247454458278 ], [ 76.632773055468761, 12.265228863810117 ], [ 76.632744914960568, 12.265250203880539 ] ] ] } },
{ "type": "Feature", "properties": { "KGISWardID": 6466, "KGISWardCode": "2605057", "KGISWardName": "Kuvempu Nagara C I T B", "SHAPE.STArea()": 1187340.9361033, "SHAPE.STLength()": 5168.8454736201547, "OBJECTID": 20162, "KGISWardNo": "57", "KGISTownCode": "2605", "LGD_WardCode": 28862, "created_user": "SA", "created_date": 1634898537000, "last_edited_user": "SURESHBV1", "last_edited_date": 1692254057000, "_overlap_percent": 26.692652832053458, "_police_station": "Ashokpuram PS", "_police_feature_index": "314", "_admin_layer": "Ward", "_geometry_clipped": true }, "geometry": { "type": "Polygon", "coordinates": [ [ [ 76.631515614815441, 12.292113221568385 ], [ 76.633530352696397, 12.291881669654718 ], [ 76.633563216771904, 12.29187897212239 ], [ 76.633577602968316, 12.290488780612206 ], [ 76.633563338045306, 12.289754107250376 ], [ 76.633567482764278, 12.289270226338521 ], [ 76.63356487311637, 12.289195045869851 ], [ 76.633561075678202, 12.289155739838087 ], [ 76.633557052360686, 12.289114092933463 ], [ 76.63355152856677, 12.289056920031017 ], [ 76.633542918364739, 12.288967807026976 ], [ 76.63352162487007, 12.288842327445144 ], [ 76.633423522550643, 12.288133212763363 ], [ 76.633319351596128, 12.287166015218183 ], [ 76.633182595207714, 12.285880882863276 ], [ 76.633246446947638, 12.285874796855458 ], [ 76.633130552044477, 12.285053839413848 ], [ 76.633091214716501, 12.284782978386302 ], [ 76.632981903153109, 12.284030298210755 ], [ 76.632971456200977, 12.283958366341812 ], [ 76.632886221836387, 12.283371466850861 ], [ 76.6328574163079, 12.283164730271482 ], [ 76.632850250596917, 12.283095836090618 ], [ 76.632846235794176, 12.283036734959945 ], [ 76.632845925944636, 12.283009297277056 ], [ 76.63284720896192, 12.282999716434727 ], [ 76.632853468004285, 12.28297167458639 ], [ 76.632863013011431, 12.282949539660374 ], [ 76.632871485823273, 12.282934055411033 ], [ 76.633176390867703, 12.282705141621475 ], [ 76.633904556657669, 12.282197712298442 ], [ 76.633919477093414, 12.282187314234495 ], [ 76.634112218010088, 12.282053000011043 ], [ 76.634154002290614, 12.282020092427521 ], [ 76.634221824634366, 12.281953307235225 ], [ 76.634249479088112, 12.281919934349245 ], [ 76.634260459860798, 12.281901532410021 ], [ 76.634269209660118, 12.281883582217997 ], [ 76.634279531674593, 12.281856894681448 ], [ 76.634286990419085, 12.281825170966437 ], [ 76.634300096274444, 12.281755648732162 ], [ 76.634310597640948, 12.281702615333888 ], [ 76.634259324613311, 12.281673049218602 ], [ 76.634148865168186, 12.281609352961171 ], [ 76.634079345561602, 12.28156926485342 ], [ 76.63405305084774, 12.28155410195901 ], [ 76.634018773538671, 12.281534336605331 ], [ 76.633804493388439, 12.281410771447758 ], [ 76.633693684125546, 12.28135888038215 ], [ 76.633458346661726, 12.281256241213791 ], [ 76.633295298186852, 12.281195440945947 ], [ 76.633257984646747, 12.281182817891397 ], [ 76.633219408826051, 12.281172552718267 ], [ 76.633199203791676, 12.281168359414918 ], [ 76.633167004161976, 12.281163365302765 ], [ 76.633129603853874, 12.281160818552648 ], [ 76.632944143211432, 12.28116124387145 ], [ 76.632907834991002, 12.281163472654173 ], [ 76.632887091293668, 12.281166585826838 ], [ 76.632831994550486, 12.281176541798914 ], [ 76.632797871273056, 12.281183974431331 ], [ 76.632762147607608, 12.281190961898208 ], [ 76.632747568051428, 12.281193432636726 ], [ 76.632703208615169, 12.281200948891302 ], [ 76.632628834582221, 12.281208541038307 ], [ 76.632553346195778, 12.281216245575411 ], [ 76.632058350822618, 12.281237049024483 ], [ 76.631910086550775, 12.281241853233565 ], [ 76.631781717890689, 12.281249420706789 ], [ 76.631696160672547, 12.281262146983956 ], [ 76.6316793013969, 12.281265516252418 ], [ 76.63153611917059, 12.281294128958383 ], [ 76.631482259278201, 12.28130477607851 ], [ 76.631505226592608, 12.281441754727998 ], [ 76.631520395253219, 12.281541162324956 ], [ 76.631544192343611, 12.28171045889451 ], [ 76.631559436007507, 12.281818899555256 ], [ 76.630384098324114, 12.281922357941227 ], [ 76.630821188881811, 12.2862446852084 ], [ 76.631482620178829, 12.292119298021518 ], [ 76.631515614815441, 12.292113221568385 ] ] ] } },
{ "type": "Feature", "properties": { "KGISWardID": 6463, "KGISWardCode": "2605056", "KGISWardName": "Krishnamurthipuram", "SHAPE.STArea()": 839605.51577687997, "SHAPE.STLength()": 4404.0300365929688, "OBJECTID": 20161, "KGISWardNo": "56", "KGISTownCode": "2605", "LGD_WardCode": 28861, "created_user": "SA", "created_date": 1634898537000, "last_edited_user": "SURESHBV1", "last_edited_date": 1692254057000, "_overlap_percent": 56.792257675509241, "_police_station": "Ashokpuram PS", "_police_feature_index": "314", "_admin_layer": "Ward", "_geometry_clipped": true }, "geometry": { "type": "Polygon", "coordinates": [ [ [ 76.643939540978835, 12.287859728415212 ], [ 76.643504588705156, 12.287922495930342 ], [ 76.643277265432857, 12.287955300406569 ], [ 76.643298512570382, 12.288074824451114 ], [ 76.643033365907982, 12.288108924347558 ], [ 76.642959600802314, 12.288118410585749 ], [ 76.642861751289431, 12.287446843038682 ], [ 76.642817625079857, 12.287071845158978 ], [ 76.642774268444612, 12.286670772758477 ], [ 76.64270625894352, 12.286041647626222 ], [ 76.64270068643448, 12.285990099078655 ], [ 76.64269928306274, 12.285977116407302 ], [ 76.642679142790627, 12.285786707260995 ], [ 76.641711318274233, 12.285911511589706 ], [ 76.641725823062629, 12.286012282568345 ], [ 76.641814685094644, 12.286629648928352 ], [ 76.641047389337388, 12.286721595550373 ], [ 76.641029830793912, 12.286723700425746 ], [ 76.64086258501932, 12.286743740905639 ], [ 76.640015317951153, 12.286840663224845 ], [ 76.640122156244018, 12.287646702037309 ], [ 76.638562448561885, 12.287825347173039 ], [ 76.638374392444291, 12.286406930960188 ], [ 76.638363266636702, 12.286323010437279 ], [ 76.637861425163351, 12.286356291688968 ], [ 76.637471779627901, 12.286382130956129 ], [ 76.637249030197339, 12.286396902901558 ], [ 76.637215628895291, 12.28639911766234 ], [ 76.637215569168148, 12.286399121635506 ], [ 76.637217449095516, 12.286415923552443 ], [ 76.63723998874427, 12.286603097419491 ], [ 76.637240042058039, 12.286603542763716 ], [ 76.637256419639556, 12.286739540191403 ], [ 76.637387596319101, 12.287814104339683 ], [ 76.637521663319191, 12.288923044717473 ], [ 76.637674798374022, 12.290170234119616 ], [ 76.63771706315498, 12.290569106209356 ], [ 76.637727267422378, 12.290665408664676 ], [ 76.637756299992205, 12.290902470386085 ], [ 76.637756307776925, 12.290902539946069 ], [ 76.637837855239582, 12.291568408218264 ], [ 76.637858649601455, 12.291738205132329 ], [ 76.637908915562036, 12.292162746555572 ], [ 76.637990036856621, 12.292855952674648 ], [ 76.638016610742824, 12.293103946378487 ], [ 76.63805394990257, 12.293381254098771 ], [ 76.638082783842805, 12.293606876074056 ], [ 76.638089842028165, 12.293664616290188 ], [ 76.638118478033704, 12.293978208555687 ], [ 76.638125735962774, 12.294059441137817 ], [ 76.638140949675645, 12.294395157338325 ], [ 76.638144743680186, 12.29465435663214 ], [ 76.638140589049669, 12.294926088404599 ], [ 76.638119977433647, 12.295258096749908 ], [ 76.63809752043143, 12.29552013173603 ], [ 76.638074791141719, 12.295732265883824 ], [ 76.638081750672157, 12.295731457629303 ], [ 76.638092045751023, 12.295730263286497 ], [ 76.638188492567892, 12.295719656907631 ], [ 76.638346629456834, 12.295702266350135 ], [ 76.638489166173613, 12.295683835008616 ], [ 76.638139821936193, 12.292314126134864 ], [ 76.642458731122559, 12.291636803826995 ], [ 76.642800281960859, 12.292664922778197 ], [ 76.645572818642123, 12.292470855118106 ], [ 76.646499522870172, 12.291120540420359 ], [ 76.644510344995993, 12.289289991653508 ], [ 76.643952061252534, 12.287858426918875 ], [ 76.643939540978835, 12.287859728415212 ] ] ] } },
{ "type": "Feature", "properties": { "KGISWardID": 6446, "KGISWardCode": "2605047", "KGISWardName": "Kuvempu Nagara", "SHAPE.STArea()": 1165445.7687837949, "SHAPE.STLength()": 5684.2164368711483, "OBJECTID": 20152, "KGISWardNo": "47", "KGISTownCode": "2605", "LGD_WardCode": 28852, "created_user": "SA", "created_date": 1634898537000, "last_edited_user": "SURESHBV1", "last_edited_date": 1692254057000, "_overlap_percent": 7.3918220535697525, "_police_station": "Ashokpuram PS", "_police_feature_index": "314", "_admin_layer": "Ward", "_geometry_clipped": true }, "geometry": { "type": "Polygon", "coordinates": [ [ [ 76.633029145354783, 12.296308488095161 ], [ 76.633030869749462, 12.296276891724984 ], [ 76.633035028177005, 12.29622545195233 ], [ 76.633041116798609, 12.296150138212553 ], [ 76.633042952205315, 12.296127439085499 ], [ 76.633048955632617, 12.296071827262818 ], [ 76.633058680730159, 12.295981734286677 ], [ 76.633064411068474, 12.295928644399364 ], [ 76.633101035902612, 12.295668429332606 ], [ 76.633139868864959, 12.295436805820042 ], [ 76.633159161679927, 12.295325534153108 ], [ 76.633206331653639, 12.2950540159977 ], [ 76.633274894240841, 12.29465935880061 ], [ 76.633520328273377, 12.293433403025407 ], [ 76.633599528033173, 12.292943140324558 ], [ 76.633628931150909, 12.292719218091039 ], [ 76.633644149391998, 12.292596770396859 ], [ 76.633660737615727, 12.2924457811995 ], [ 76.63366972232231, 12.292363994822656 ], [ 76.633669994746654, 12.292361515378296 ], [ 76.633678261546464, 12.292234628146646 ], [ 76.633683651917252, 12.29186908756086 ], [ 76.633624226823287, 12.291873965001631 ], [ 76.633563216771904, 12.29187897212239 ], [ 76.633530352696397, 12.291881669654718 ], [ 76.631515614815441, 12.292113221568385 ], [ 76.631482620178829, 12.292119298021518 ], [ 76.631483574831464, 12.29212777692875 ], [ 76.631973591217729, 12.296324137239148 ], [ 76.632028526361012, 12.296323388198939 ], [ 76.63302781950209, 12.296332789749203 ], [ 76.633029145354783, 12.296308488095161 ] ] ] } },
{ "type": "Feature", "properties": { "KGISWardID": 6450, "KGISWardCode": "2605049", "KGISWardName": "Lakshmipuram", "SHAPE.STArea()": 740423.56925556005, "SHAPE.STLength()": 4443.8535857178695, "OBJECTID": 20154, "KGISWardNo": "49", "KGISTownCode": "2605", "LGD_WardCode": 28854, "created_user": "SA", "created_date": 1634898537000, "last_edited_user": "SURESHBV1", "last_edited_date": 1692254057000, "_overlap_percent": 0.020966551998515236, "_police_station": "Ashokpuram PS", "_police_feature_index": "314", "_admin_layer": "Ward", "_geometry_clipped": true }, "geometry": { "type": "Polygon", "coordinates": [ [ [ 76.638346629456834, 12.295702266350135 ], [ 76.63835496840575, 12.29575466718642 ], [ 76.638361611553876, 12.295791641288815 ], [ 76.638498690818167, 12.295775707940296 ], [ 76.638489166173613, 12.295683835008616 ], [ 76.638346629456834, 12.295702266350135 ] ] ] } },
{ "type": "Feature", "properties": { "KGISWardID": 6435, "KGISWardCode": "2605042", "KGISWardName": "K G Koppal", "SHAPE.STArea()": 1675541.8130635901, "SHAPE.STLength()": 8111.0688332062182, "OBJECTID": 20147, "KGISWardNo": "42", "KGISTownCode": "2605", "LGD_WardCode": 28847, "created_user": "SA", "created_date": 1634898537000, "last_edited_user": "SURESHBV1", "last_edited_date": 1692254057000, "_overlap_percent": 0.24010147408499213, "_police_station": "Ashokpuram PS", "_police_feature_index": "314", "_admin_layer": "Ward", "_geometry_clipped": true }, "geometry": { "type": "Polygon", "coordinates": [ [ [ 76.63835496840575, 12.29575466718642 ], [ 76.638346629456834, 12.295702266350135 ], [ 76.638188492567892, 12.295719656907631 ], [ 76.638092045751023, 12.295730263286497 ], [ 76.638081750672157, 12.295731457629303 ], [ 76.638074791141719, 12.295732265883824 ], [ 76.638061188999743, 12.295733844335203 ], [ 76.637737330096598, 12.295773834900301 ], [ 76.637540465786699, 12.295798143719376 ], [ 76.637481315175677, 12.295805447642335 ], [ 76.637324681268254, 12.29582478854797 ], [ 76.636676711184379, 12.295917761146793 ], [ 76.635683313158765, 12.2960529611835 ], [ 76.635643677139754, 12.296058337345631 ], [ 76.635498674616244, 12.296076340299855 ], [ 76.635421686050435, 12.2960858992168 ], [ 76.634848294030405, 12.296157090435608 ], [ 76.634237393972953, 12.296220325361354 ], [ 76.634144669417481, 12.296227748727768 ], [ 76.633624398604084, 12.296250703556488 ], [ 76.633588227848264, 12.296252299971194 ], [ 76.633030869749462, 12.296276891724984 ], [ 76.633029145354783, 12.296308488095161 ], [ 76.63302781950209, 12.296332789749203 ], [ 76.633877061049361, 12.29634077958398 ], [ 76.63604357068435, 12.296034696712551 ], [ 76.638060586954836, 12.295826630751844 ], [ 76.638361611553876, 12.295791641288815 ], [ 76.63835496840575, 12.29575466718642 ] ] ] } }
]
}
