{
"type": "FeatureCollection",
"name": "police_station_boundary.writing_20260805_172659",
"crs": { "type": "name", "properties": { "name": "urn:ogc:def:crs:OGC:1.3:CRS84" } },
"features": [
{ "type": "Feature", "properties": { "Shape.STArea()": 10651521.652123265, "Shape.STLength()": 20046.138005155557, "OBJECTID": 75, "KGISPS_BOUNDID": 75, "PS_BOUNDName": "Kangarali KH APMC Yard PS", "PS_BOUNDCode": "PSB - 75", "KGISPS_SUB_DIVID": 119, "_source_layer": "Police Station Boundary", "_source_layer_url": "https://kgis.ksrsac.in/kgismaps/rest/services/Home/Home_Department/MapServer/82", "_police_station": "Kangarali KH APMC Yard PS" }, "geometry": { "type": "Polygon", "coordinates": [ [ [ 74.523786511134006, 15.899724033066034 ], [ 74.523904215358073, 15.901419263820243 ], [ 74.523928359561438, 15.903961016534813 ], [ 74.522740103230348, 15.904108060458581 ], [ 74.521190182240346, 15.904274970687956 ], [ 74.520532522488963, 15.904354836242867 ], [ 74.520074374873147, 15.9044141254466 ], [ 74.518816246939735, 15.904341245480031 ], [ 74.518624487317979, 15.904307539463572 ], [ 74.51835446197407, 15.904001908922915 ], [ 74.517482594511577, 15.903895770528143 ], [ 74.517337101438414, 15.90271863236528 ], [ 74.517236219225609, 15.901491364419115 ], [ 74.516679280348967, 15.899763169789157 ], [ 74.516249943632886, 15.899495999986172 ], [ 74.516415341710982, 15.89747353465992 ], [ 74.515772783998543, 15.897448176529625 ], [ 74.514203120551059, 15.897528371176476 ], [ 74.5121398275123, 15.897320412019223 ], [ 74.51202590063275, 15.897821062439572 ], [ 74.511704472195646, 15.898491457769115 ], [ 74.510246773924734, 15.898260930038642 ], [ 74.510260925764939, 15.897519474619557 ], [ 74.508271622378473, 15.897301151491014 ], [ 74.508292507652143, 15.896582166626782 ], [ 74.506652263122589, 15.896214860670925 ], [ 74.505239573071677, 15.895781090780902 ], [ 74.505046044481475, 15.896812240606188 ], [ 74.50482186828178, 15.896794297622336 ], [ 74.503843238601405, 15.896744215348692 ], [ 74.503414159972664, 15.898360149744692 ], [ 74.502073773429672, 15.898080127281043 ], [ 74.500440429321984, 15.897511350856504 ], [ 74.497047388590758, 15.896324128939177 ], [ 74.496810618847292, 15.896043487146651 ], [ 74.49665258480556, 15.895487004907327 ], [ 74.496483349529171, 15.894962786248254 ], [ 74.496190737639097, 15.894854469126818 ], [ 74.495957711245552, 15.89463865611769 ], [ 74.495672461607043, 15.894551882907759 ], [ 74.495628313390782, 15.894415441925359 ], [ 74.495394858891245, 15.894371843155113 ], [ 74.495372284576831, 15.894504540381266 ], [ 74.494969364118077, 15.894468861569811 ], [ 74.494576006957331, 15.894263880526166 ], [ 74.494538825092107, 15.894226329195401 ], [ 74.494588856411255, 15.893490940010455 ], [ 74.494707254142426, 15.892731556038676 ], [ 74.495064786476547, 15.892808867859792 ], [ 74.496165460829417, 15.89296930119901 ], [ 74.496825191020349, 15.893039006247982 ], [ 74.497303335236538, 15.893079584491215 ], [ 74.497273203121864, 15.892911774342947 ], [ 74.497254702404888, 15.892399866818629 ], [ 74.497362860108325, 15.891641888286768 ], [ 74.497724967122835, 15.890135836799001 ], [ 74.497157353561064, 15.889799652925815 ], [ 74.497690398256267, 15.888140094482454 ], [ 74.497356653705879, 15.888028031325346 ], [ 74.497359703200416, 15.887934446945099 ], [ 74.497697178475647, 15.88639245968726 ], [ 74.497709580625141, 15.886234931190225 ], [ 74.497305524583226, 15.886223229130831 ], [ 74.49627147236518, 15.886120363855632 ], [ 74.495726508173689, 15.886122681044439 ], [ 74.495311098910918, 15.886204232887339 ], [ 74.495077592236484, 15.886185748473213 ], [ 74.495052991014504, 15.886278666853775 ], [ 74.494895752950143, 15.886806455670358 ], [ 74.494557029155061, 15.886808816616171 ], [ 74.494511271624717, 15.887318183116317 ], [ 74.494551711193722, 15.8874546147823 ], [ 74.494595203787824, 15.887852967304903 ], [ 74.49455648617672, 15.888693311198002 ], [ 74.4942184576919, 15.888698019086823 ], [ 74.494212129287703, 15.888757800713826 ], [ 74.493677552417466, 15.888804387734561 ], [ 74.493686625308754, 15.888882145685416 ], [ 74.492942077022178, 15.888886381195881 ], [ 74.492546953936355, 15.888802654211723 ], [ 74.491780359125983, 15.888763753817996 ], [ 74.491823221131781, 15.889087065235763 ], [ 74.491764410523302, 15.889131774550465 ], [ 74.4916618837877, 15.889361753105527 ], [ 74.49113685012091, 15.889297731293953 ], [ 74.490819384678161, 15.889222726877342 ], [ 74.489609140260242, 15.888908927944549 ], [ 74.489427146546532, 15.8890696606327 ], [ 74.488780644002162, 15.888661512337436 ], [ 74.48827571866893, 15.888439357569677 ], [ 74.48796427555061, 15.889431254691806 ], [ 74.48741882258885, 15.890111650946562 ], [ 74.486651719281753, 15.890480573969096 ], [ 74.48594909235392, 15.890408662375695 ], [ 74.485380530073215, 15.890253600442534 ], [ 74.484639091339247, 15.889829976717747 ], [ 74.48413362369574, 15.889362352685964 ], [ 74.483603260069955, 15.888966425484337 ], [ 74.482417831753082, 15.888540455332452 ], [ 74.481377737313807, 15.8882683686757 ], [ 74.479574780229186, 15.887610111659381 ], [ 74.479611335059232, 15.887029910898914 ], [ 74.478446434230037, 15.88639564677036 ], [ 74.478368999370474, 15.88575443392204 ], [ 74.476757448397777, 15.88581751442841 ], [ 74.476490417606342, 15.88394880428304 ], [ 74.476380650148499, 15.883388836234316 ], [ 74.476196147715513, 15.88305830971524 ], [ 74.475900339790144, 15.882763391187584 ], [ 74.475708536385909, 15.882389791789089 ], [ 74.475554435456729, 15.881772310685605 ], [ 74.475809376130528, 15.880667876826102 ], [ 74.47589867952091, 15.880538931495812 ], [ 74.476032356096397, 15.880453146591261 ], [ 74.476128962517905, 15.880367272743612 ], [ 74.476121844746928, 15.880252445108621 ], [ 74.476122308489195, 15.880073054527923 ], [ 74.476196789420982, 15.879941681128583 ], [ 74.476679107900253, 15.879787375139012 ], [ 74.477557182814706, 15.879502471205459 ], [ 74.478566600055345, 15.879076758280338 ], [ 74.480547677467442, 15.878263749341988 ], [ 74.479982785152657, 15.876152492899807 ], [ 74.480695371101348, 15.875824123889462 ], [ 74.479759284302602, 15.872585918381944 ], [ 74.479997098639757, 15.872498914736944 ], [ 74.480249647644712, 15.87231295329919 ], [ 74.480687651122352, 15.872084383531329 ], [ 74.480947282614764, 15.87202760102017 ], [ 74.481310724599311, 15.871963890874294 ], [ 74.481689159051598, 15.871835635516687 ], [ 74.482379541085777, 15.871485679731355 ], [ 74.483493164265852, 15.870878407228444 ], [ 74.484398885962307, 15.870392620433488 ], [ 74.485029748285569, 15.870121445978056 ], [ 74.485512206975869, 15.86990014708819 ], [ 74.486131652935057, 15.869414701870438 ], [ 74.486764611570393, 15.869131335535677 ], [ 74.48747712687404, 15.868817293276193 ], [ 74.488248296715696, 15.868761712263323 ], [ 74.488455482819376, 15.868920067561556 ], [ 74.488928658417834, 15.869437834258321 ], [ 74.489460568225098, 15.870185359918446 ], [ 74.490168860873425, 15.871550409219775 ], [ 74.491689486458739, 15.874194637486868 ], [ 74.493209324754673, 15.877168935310943 ], [ 74.493995050781876, 15.87872708378227 ], [ 74.494130729265393, 15.87866023769325 ], [ 74.494332014233848, 15.878804510865955 ], [ 74.494367514528619, 15.878643368875377 ], [ 74.494875218405866, 15.878977624214375 ], [ 74.49575784200519, 15.879547299938396 ], [ 74.49637316137175, 15.879807163926779 ], [ 74.496423692877286, 15.879679565925345 ], [ 74.496527688941299, 15.879703611745041 ], [ 74.49653424672735, 15.879739070069 ], [ 74.496638795464236, 15.880008445029315 ], [ 74.497654074740353, 15.878657490826678 ], [ 74.497951207918163, 15.878224200356161 ], [ 74.499750260385525, 15.875833388708816 ], [ 74.501190876835636, 15.874034174029243 ], [ 74.502042202096689, 15.873041892258724 ], [ 74.502680006540075, 15.872957249666683 ], [ 74.503495954914428, 15.87278690664534 ], [ 74.503142163812029, 15.871939362602458 ], [ 74.503158468388136, 15.871336641880241 ], [ 74.503515491416849, 15.87086386515062 ], [ 74.504346994912012, 15.870392174722406 ], [ 74.50682571190768, 15.869364534634474 ], [ 74.508531720014204, 15.868509722108783 ], [ 74.510647054400692, 15.867509915407338 ], [ 74.511126039605799, 15.867416086727722 ], [ 74.511673103814999, 15.867308920689581 ], [ 74.511722553105272, 15.868399888352354 ], [ 74.511886119226546, 15.870391226458539 ], [ 74.512010970520066, 15.872716664650856 ], [ 74.512058949367599, 15.873317737998216 ], [ 74.512135651359429, 15.873536769635352 ], [ 74.512637853576265, 15.874346364129165 ], [ 74.513681799318817, 15.875970420901027 ], [ 74.514583019415014, 15.877345396100576 ], [ 74.514631977107712, 15.877419098877777 ], [ 74.51588269267728, 15.879301975501436 ], [ 74.516483913584338, 15.880279133094248 ], [ 74.516964137297009, 15.8809917963315 ], [ 74.517607391322557, 15.882000819387549 ], [ 74.518232242842799, 15.882955982183178 ], [ 74.51874934475299, 15.883755430451972 ], [ 74.519574317280174, 15.885004042295106 ], [ 74.520242296737123, 15.886019092836699 ], [ 74.520824106074983, 15.886896416846634 ], [ 74.521051889743177, 15.887246736985706 ], [ 74.521911375647818, 15.888544450912747 ], [ 74.523024782250033, 15.890120780492506 ], [ 74.523309243500719, 15.890663924125773 ], [ 74.52366064539045, 15.891685200171555 ], [ 74.524069640783594, 15.892880492258728 ], [ 74.523809170314195, 15.895790027728802 ], [ 74.523607003354485, 15.896687844098247 ], [ 74.523687126426239, 15.897339174062349 ], [ 74.523672829626648, 15.897842385076256 ], [ 74.52375235222695, 15.89782646689955 ], [ 74.523786511134006, 15.899724033066034 ] ] ] } }
]
}
