{
"type": "FeatureCollection",
"name": "wards_in_police_area.writing_20260805_172659",
"crs": { "type": "name", "properties": { "name": "urn:ogc:def:crs:OGC:1.3:CRS84" } },
"features": [
{ "type": "Feature", "properties": { "KGISWardID": 3112, "KGISWardCode": "1501028", "KGISWardName": "Ganesh Colony Vidyamandhir", "SHAPE.STArea()": 3933928.0001252652, "SHAPE.STLength()": 11577.054011375441, "OBJECTID": 17911, "KGISWardNo": "28", "KGISTownCode": "1501", "LGD_WardCode": 61554, "created_user": "SA", "created_date": 1634898537000, "last_edited_user": "SURESHBV1", "last_edited_date": 1692253993000, "_overlap_percent": 2.0043250814721083, "_police_station": "Hosamane PS", "_police_feature_index": "617", "_admin_layer": "Ward", "_geometry_clipped": true }, "geometry": { "type": "Polygon", "coordinates": [ [ [ 75.709591709918811, 13.839341831291691 ], [ 75.709889026238898, 13.836470289261861 ], [ 75.710283040195861, 13.835213225064294 ], [ 75.710770215601187, 13.834404433643144 ], [ 75.711717501847289, 13.8339531417146 ], [ 75.712542741466791, 13.833621813618832 ], [ 75.713611788642879, 13.832960840245521 ], [ 75.714771446076028, 13.831910861143342 ], [ 75.714945134531717, 13.831562258545944 ], [ 75.713964177693413, 13.831223525524551 ], [ 75.712390127415929, 13.83244412730132 ], [ 75.711150262753378, 13.833240174482169 ], [ 75.711085314132092, 13.833351192625349 ], [ 75.710401968301937, 13.834519240166447 ], [ 75.709768190605544, 13.836095826452867 ], [ 75.7093908491658, 13.83808593820612 ], [ 75.709070562643433, 13.83977512971172 ], [ 75.708872974944569, 13.841543478661183 ], [ 75.708913290909237, 13.841566517724411 ], [ 75.709591709918811, 13.839341831291691 ] ] ] } },
{ "type": "Feature", "properties": { "KGISWardID": 3102, "KGISWardCode": "1501018", "KGISWardName": "M M Compound", "SHAPE.STArea()": 3114300.7561523952, "SHAPE.STLength()": 12025.682502306963, "OBJECTID": 17901, "KGISWardNo": "18", "KGISTownCode": "1501", "LGD_WardCode": 61544, "created_user": "SA", "created_date": 1634898537000, "last_edited_user": "SURESHBV1", "last_edited_date": 1692253993000, "_overlap_percent": 37.223917272657289, "_police_station": "Hosamane PS", "_police_feature_index": "617", "_admin_layer": "Ward", "_geometry_clipped": true }, "geometry": { "type": "MultiPolygon", "coordinates": [ [ [ [ 75.710804817894868, 13.842988709586729 ], [ 75.710856229884669, 13.842988559556341 ], [ 75.710883094652388, 13.842966952024707 ], [ 75.710951273568625, 13.842844750143318 ], [ 75.711211866789981, 13.842394254788323 ], [ 75.711372539274819, 13.84209475916906 ], [ 75.711540534598967, 13.841788065058786 ], [ 75.711552274317242, 13.841784203710993 ], [ 75.71157969965995, 13.84178603816876 ], [ 75.711889350596721, 13.841850207826933 ], [ 75.712259763955586, 13.841929509556385 ], [ 75.712277391000526, 13.841929459231473 ], [ 75.712293041697322, 13.841923672398208 ], [ 75.712314528218045, 13.841904471824874 ], [ 75.71245690323984, 13.841706938100449 ], [ 75.712681030318606, 13.841342666629567 ], [ 75.712895515849866, 13.841028181959665 ], [ 75.713199626894109, 13.840560334067547 ], [ 75.71341419854852, 13.84027455456564 ], [ 75.713789628663818, 13.839751955627378 ], [ 75.714035895382139, 13.839423502433361 ], [ 75.714065193174818, 13.839397102734573 ], [ 75.71412872188921, 13.839356249942304 ], [ 75.714182544871534, 13.839344131239178 ], [ 75.714238831703796, 13.839336791005794 ], [ 75.714324561380906, 13.83935089455519 ], [ 75.715008282443492, 13.83957137869824 ], [ 75.715373390198891, 13.839677964070525 ], [ 75.715757908387502, 13.839727077858054 ], [ 75.716034588638493, 13.839738230753554 ], [ 75.716056622679361, 13.83973816638631 ], [ 75.71607859724125, 13.839718964981106 ], [ 75.716124877560631, 13.83964227822262 ], [ 75.716533623983253, 13.838808587088648 ], [ 75.716767231224566, 13.838345007174999 ], [ 75.717149291101876, 13.837592728557958 ], [ 75.717459571121495, 13.836984793426295 ], [ 75.717760649682774, 13.836370902133076 ], [ 75.718019206409224, 13.835861795663796 ], [ 75.718408424436973, 13.835050885623435 ], [ 75.718981542080769, 13.833936818274076 ], [ 75.719276120181718, 13.833334308632892 ], [ 75.719467425425194, 13.8329231925696 ], [ 75.719329716058908, 13.832914492688813 ], [ 75.719160578057156, 13.83297701064788 ], [ 75.719029744536371, 13.83302536842664 ], [ 75.718690533376503, 13.833126224212755 ], [ 75.717490735020732, 13.832911871184482 ], [ 75.717203480720812, 13.832665163634847 ], [ 75.716384103774629, 13.832263567630935 ], [ 75.716240785227939, 13.832193323378368 ], [ 75.715677916409433, 13.831917445264949 ], [ 75.715694182822432, 13.831820911506783 ], [ 75.714945134531717, 13.831562258545944 ], [ 75.714771446076028, 13.831910861143342 ], [ 75.713611788642879, 13.832960840245521 ], [ 75.712542741466791, 13.833621813618832 ], [ 75.711717501847289, 13.8339531417146 ], [ 75.710770215601187, 13.834404433643144 ], [ 75.710283040195861, 13.835213225064294 ], [ 75.709889026238898, 13.836470289261861 ], [ 75.709591709918811, 13.839341831291691 ], [ 75.708913290909237, 13.841566517724411 ], [ 75.709610520475934, 13.841964958297675 ], [ 75.710759649344908, 13.842538138425764 ], [ 75.710830007715771, 13.842573232349915 ], [ 75.71093376988118, 13.842667678073488 ], [ 75.71075093104352, 13.842984776953603 ], [ 75.710804817894868, 13.842988709586729 ] ] ], [ [ [ 75.724377965239384, 13.833711390738737 ], [ 75.724838949373378, 13.833632111802856 ], [ 75.725210841035377, 13.833584799446507 ], [ 75.725912717016811, 13.833494911891162 ], [ 75.726303291498255, 13.833446018739608 ], [ 75.726640248997256, 13.832490745870851 ], [ 75.72660996788575, 13.832326235580146 ], [ 75.726539627202214, 13.831944316968034 ], [ 75.726428847533271, 13.831482337403649 ], [ 75.726253837306757, 13.830988744573038 ], [ 75.726169388928284, 13.830750545620356 ], [ 75.725899397681928, 13.830248836830988 ], [ 75.725884908027183, 13.830139565559621 ], [ 75.725852737553069, 13.829896547232138 ], [ 75.725796987378871, 13.829650407026467 ], [ 75.725746788725743, 13.829428995989282 ], [ 75.725678177291044, 13.829068347319243 ], [ 75.725668736763467, 13.829018736635717 ], [ 75.725667848505296, 13.829018136197051 ], [ 75.72565100957371, 13.828936257572686 ], [ 75.725567919664229, 13.828836245136737 ], [ 75.725578059174438, 13.828717837793734 ], [ 75.725597919146736, 13.828683567905314 ], [ 75.725597287824485, 13.828625826377408 ], [ 75.72559610914044, 13.828523706376124 ], [ 75.725568157603718, 13.828522066654363 ], [ 75.725570589946216, 13.828338017470545 ], [ 75.725508328662244, 13.828333576908362 ], [ 75.725505449881439, 13.828218466614457 ], [ 75.72542530872893, 13.828222605928259 ], [ 75.725479680171887, 13.827965297359269 ], [ 75.725507160565655, 13.827835155327751 ], [ 75.725746078983178, 13.827734885659268 ], [ 75.725676308217629, 13.8274122669955 ], [ 75.725663069301447, 13.827253236718507 ], [ 75.725640187309494, 13.826978567327258 ], [ 75.725616147982919, 13.826486457398588 ], [ 75.725453679425797, 13.826136436794396 ], [ 75.72534547766557, 13.825816198287622 ], [ 75.725348628022687, 13.825774026744543 ], [ 75.725352388333775, 13.825723557840156 ], [ 75.72456018822713, 13.825953036968613 ], [ 75.724511040557218, 13.825956196541123 ], [ 75.723682737771682, 13.826009375671834 ], [ 75.723657476642174, 13.826008168101769 ], [ 75.722769048067448, 13.825965106733557 ], [ 75.722704457760415, 13.825964297019631 ], [ 75.72246304868554, 13.825961285648013 ], [ 75.722362986429246, 13.826836135080084 ], [ 75.721634653318404, 13.828811868405069 ], [ 75.719594182639412, 13.832858098251101 ], [ 75.719991025203143, 13.832952443890695 ], [ 75.720471677982857, 13.833019808961362 ], [ 75.721402483272939, 13.833187518875091 ], [ 75.72217101094536, 13.833325800266515 ], [ 75.722782289794594, 13.833443880782029 ], [ 75.722924165900309, 13.833402633429694 ], [ 75.723290073973246, 13.833409839134294 ], [ 75.723507393021379, 13.833414119314275 ], [ 75.723666202445401, 13.83357056011498 ], [ 75.723986064367182, 13.833646620586737 ], [ 75.724377965239384, 13.833711390738737 ] ] ] ] } },
{ "type": "Feature", "properties": { "KGISWardID": 3101, "KGISWardCode": "1501017", "KGISWardName": "Nehrunagar", "SHAPE.STArea()": 1841459.749055875, "SHAPE.STLength()": 7239.1368751003565, "OBJECTID": 17900, "KGISWardNo": "17", "KGISTownCode": "1501", "LGD_WardCode": 61543, "created_user": "SA", "created_date": 1634898537000, "last_edited_user": "SURESHBV1", "last_edited_date": 1692253993000, "_overlap_percent": 62.707595747180456, "_police_station": "Hosamane PS", "_police_feature_index": "617", "_admin_layer": "Ward", "_geometry_clipped": true }, "geometry": { "type": "MultiPolygon", "coordinates": [ [ [ [ 75.708803477659686, 13.847499444738661 ], [ 75.709430763841894, 13.84747071616111 ], [ 75.709675490632605, 13.847437114421021 ], [ 75.710492062239638, 13.847258320144569 ], [ 75.710822432917794, 13.847209517880684 ], [ 75.711073868559851, 13.847168239869733 ], [ 75.711105159069803, 13.847152838191388 ], [ 75.711112883255382, 13.847116455421295 ], [ 75.7110791567668, 13.846974931938545 ], [ 75.711007610673121, 13.846634485173476 ], [ 75.710993540438594, 13.84651587181747 ], [ 75.7110051524254, 13.846469907349432 ], [ 75.711032461971911, 13.8464334659346 ], [ 75.711102913337697, 13.846414123345454 ], [ 75.711263448873297, 13.846390691972854 ], [ 75.711333958401369, 13.846390487271066 ], [ 75.711416296106592, 13.846415127671101 ], [ 75.71153990318021, 13.846485578958331 ], [ 75.711600707376022, 13.846514109092443 ], [ 75.711686885418629, 13.846513858778703 ], [ 75.711939458220726, 13.846484418251984 ], [ 75.71222396242014, 13.846449262648864 ], [ 75.712383048286028, 13.84643205440018 ], [ 75.712661062309763, 13.84637207296683 ], [ 75.712718645397189, 13.846554231576913 ], [ 75.713183175353095, 13.846458698268552 ], [ 75.713732681652033, 13.846369550302994 ], [ 75.714122932815144, 13.846302235807272 ], [ 75.714678166558073, 13.846368616939962 ], [ 75.7148632428448, 13.846299053418413 ], [ 75.715040340661758, 13.84626878744155 ], [ 75.71638564934949, 13.845992925072681 ], [ 75.716584256400765, 13.845871891875658 ], [ 75.716836848217241, 13.845825909433673 ], [ 75.716914448710085, 13.845817091172879 ], [ 75.717065648948889, 13.845803505116141 ], [ 75.717207272451532, 13.845795185633282 ], [ 75.717325529430511, 13.84579013245077 ], [ 75.717498618880441, 13.845785210687616 ], [ 75.717539428798361, 13.845722843305266 ], [ 75.717694768793379, 13.845708641674477 ], [ 75.717854724183127, 13.84569561085757 ], [ 75.718178402124707, 13.84565545757677 ], [ 75.718257013407012, 13.845654114730168 ], [ 75.718204602213518, 13.845555829583834 ], [ 75.718246223036431, 13.84316347869588 ], [ 75.719074640108488, 13.842433998659713 ], [ 75.719428488422508, 13.842003732242832 ], [ 75.719562495369672, 13.841964809471405 ], [ 75.719558596936736, 13.841873302167775 ], [ 75.719550432073078, 13.841681645888874 ], [ 75.71965007366758, 13.841670381492369 ], [ 75.720176274370019, 13.841610894414172 ], [ 75.720300757940166, 13.841593403127275 ], [ 75.721000870085135, 13.84151619718082 ], [ 75.72171480815993, 13.841344355725067 ], [ 75.721953089133123, 13.841209765974902 ], [ 75.722980828860386, 13.840645705810219 ], [ 75.723234217421179, 13.840502956491422 ], [ 75.724316798315769, 13.840487577203065 ], [ 75.724334959042011, 13.840335636765193 ], [ 75.724940270276647, 13.840363637940079 ], [ 75.724739613861843, 13.839387870932162 ], [ 75.724524056978751, 13.839350232001809 ], [ 75.724520206282023, 13.838106285113794 ], [ 75.723559462893093, 13.837764641653097 ], [ 75.723537097105321, 13.836865230108007 ], [ 75.72320131134525, 13.835947605096656 ], [ 75.722846474885401, 13.835202275749179 ], [ 75.721535287852248, 13.833962696448623 ], [ 75.721914490668865, 13.833698120647577 ], [ 75.72195093957508, 13.833738447741979 ], [ 75.721976152163009, 13.833728143075405 ], [ 75.722399272960317, 13.833555234489085 ], [ 75.722782289794594, 13.833443880782029 ], [ 75.72217101094536, 13.833325800266515 ], [ 75.721402483272939, 13.833187518875091 ], [ 75.720471677982857, 13.833019808961362 ], [ 75.719991025203143, 13.832952443890695 ], [ 75.719594182639412, 13.832858098251101 ], [ 75.719558456136212, 13.8329289434953 ], [ 75.719467425425194, 13.8329231925696 ], [ 75.719276120181718, 13.833334308632892 ], [ 75.718981542080769, 13.833936818274076 ], [ 75.718408424436973, 13.835050885623435 ], [ 75.718019206409224, 13.835861795663796 ], [ 75.717760649682774, 13.836370902133076 ], [ 75.717459571121495, 13.836984793426295 ], [ 75.717149291101876, 13.837592728557958 ], [ 75.716767231224566, 13.838345007174999 ], [ 75.716533623983253, 13.838808587088648 ], [ 75.716124877560631, 13.83964227822262 ], [ 75.71607859724125, 13.839718964981106 ], [ 75.716056622679361, 13.83973816638631 ], [ 75.716034588638493, 13.839738230753554 ], [ 75.715757908387502, 13.839727077858054 ], [ 75.715373390198891, 13.839677964070525 ], [ 75.715008282443492, 13.83957137869824 ], [ 75.714324561380906, 13.83935089455519 ], [ 75.714238831703796, 13.839336791005794 ], [ 75.714182544871534, 13.839344131239178 ], [ 75.71412872188921, 13.839356249942304 ], [ 75.714065193174818, 13.839397102734573 ], [ 75.714035895382139, 13.839423502433361 ], [ 75.713789628663818, 13.839751955627378 ], [ 75.71341419854852, 13.84027455456564 ], [ 75.713199626894109, 13.840560334067547 ], [ 75.712895515849866, 13.841028181959665 ], [ 75.712681030318606, 13.841342666629567 ], [ 75.71245690323984, 13.841706938100449 ], [ 75.712314528218045, 13.841904471824874 ], [ 75.712293041697322, 13.841923672398208 ], [ 75.712277391000526, 13.841929459231473 ], [ 75.712259763955586, 13.841929509556385 ], [ 75.711889350596721, 13.841850207826933 ], [ 75.71157969965995, 13.84178603816876 ], [ 75.711552274317242, 13.841784203710993 ], [ 75.711540534598967, 13.841788065058786 ], [ 75.711372539274819, 13.84209475916906 ], [ 75.711211866789981, 13.842394254788323 ], [ 75.710951273568625, 13.842844750143318 ], [ 75.710883094652388, 13.842966952024707 ], [ 75.710856229884669, 13.842988559556341 ], [ 75.710804817894868, 13.842988709586729 ], [ 75.71075093104352, 13.842984776953603 ], [ 75.709917891294481, 13.844429524551567 ], [ 75.70882245667147, 13.84650197836023 ], [ 75.70847679739353, 13.847504674516751 ], [ 75.708803477659686, 13.847499444738661 ] ] ], [ [ [ 75.724377965239384, 13.833711390738737 ], [ 75.723986064367182, 13.833646620586737 ], [ 75.724032242889137, 13.833657601450435 ], [ 75.724199943921576, 13.833782665209855 ], [ 75.724422781628149, 13.833745226045551 ], [ 75.724377965239384, 13.833711390738737 ] ] ] ] } },
{ "type": "Feature", "properties": { "KGISWardID": 3088, "KGISWardCode": "1501004", "KGISWardName": "Kananaka Mantapa", "SHAPE.STArea()": 311603.70378720498, "SHAPE.STLength()": 2439.0040812432799, "OBJECTID": 17887, "KGISWardNo": "4", "KGISTownCode": "1501", "LGD_WardCode": 61530, "created_user": "SA", "created_date": 1634898537000, "last_edited_user": "SURESHBV1", "last_edited_date": 1692253993000, "_overlap_percent": 0.01838524820368671, "_police_station": "Hosamane PS", "_police_feature_index": "617", "_admin_layer": "Ward", "_geometry_clipped": true }, "geometry": { "type": "Polygon", "coordinates": [ [ [ 75.705283304935932, 13.85141080518498 ], [ 75.705231819337996, 13.851365313086418 ], [ 75.705103434870693, 13.851345023581413 ], [ 75.705159829072812, 13.851392279967406 ], [ 75.705283304935932, 13.85141080518498 ] ] ] } },
{ "type": "Feature", "properties": { "KGISWardID": 3100, "KGISWardCode": "1501016", "KGISWardName": "Gandhi Nagar", "SHAPE.STArea()": 546261.17967757501, "SHAPE.STLength()": 4166.8781528677673, "OBJECTID": 17899, "KGISWardNo": "16", "KGISTownCode": "1501", "LGD_WardCode": 61542, "created_user": "SA", "created_date": 1634898537000, "last_edited_user": "SURESHBV1", "last_edited_date": 1692253993000, "_overlap_percent": 86.269225075763913, "_police_station": "Hosamane PS", "_police_feature_index": "617", "_admin_layer": "Ward", "_geometry_clipped": true }, "geometry": { "type": "Polygon", "coordinates": [ [ [ 75.707584209329369, 13.850122505440192 ], [ 75.707510749778066, 13.850329542704159 ], [ 75.707702484103734, 13.850291254137908 ], [ 75.707893455085028, 13.85029213808996 ], [ 75.708044790296071, 13.850301747586768 ], [ 75.708165328757374, 13.850328670976342 ], [ 75.708534394922523, 13.850443866407787 ], [ 75.7091284013608, 13.850620129161943 ], [ 75.709497481458143, 13.850739628614241 ], [ 75.709772454039026, 13.850829258603268 ], [ 75.709912185957094, 13.850887701986899 ], [ 75.710010817082136, 13.850956313144316 ], [ 75.710206684164248, 13.851117937832557 ], [ 75.710386244022843, 13.851230809121342 ], [ 75.710705540822303, 13.851403558948908 ], [ 75.711035073395081, 13.851560488569143 ], [ 75.711251284761616, 13.851648853425475 ], [ 75.711382173049728, 13.851697274710496 ], [ 75.711468913315031, 13.851719988127721 ], [ 75.711558542586488, 13.85172690397405 ], [ 75.711631974209283, 13.851720949281207 ], [ 75.711706849059112, 13.851706378358017 ], [ 75.711758242038925, 13.851699052784502 ], [ 75.711877255310867, 13.851707318907918 ], [ 75.712216652667067, 13.851726426890394 ], [ 75.712651629644938, 13.851776833688183 ], [ 75.712947833017452, 13.851808505601619 ], [ 75.712972165797751, 13.8514721684523 ], [ 75.712973984693576, 13.851426230614665 ], [ 75.713015092781347, 13.851418456426327 ], [ 75.713081686827948, 13.851418262551507 ], [ 75.713275649568814, 13.851436834968069 ], [ 75.71382620494785, 13.851492645320851 ], [ 75.714280749934744, 13.851537250857634 ], [ 75.714525644850312, 13.851557587815005 ], [ 75.714556954156379, 13.851547927874092 ], [ 75.714566659321491, 13.851519192859277 ], [ 75.714564420576878, 13.851427337046132 ], [ 75.714538695232477, 13.851100992950116 ], [ 75.714541216223594, 13.850924558277667 ], [ 75.714562565650965, 13.850900574044346 ], [ 75.71458702085809, 13.850891531740887 ], [ 75.714642071587164, 13.850879410150865 ], [ 75.714752226938856, 13.850873107786869 ], [ 75.714880698074623, 13.850851800924799 ], [ 75.714996927877905, 13.850830529730791 ], [ 75.715039700687853, 13.850806482919593 ], [ 75.715085404636937, 13.850740562779157 ], [ 75.715334736407939, 13.850210553742308 ], [ 75.715556778865889, 13.849764352824021 ], [ 75.715778931258001, 13.849354034326531 ], [ 75.715833788418479, 13.849279116358803 ], [ 75.715956065177636, 13.849233905128964 ], [ 75.716050872622617, 13.849212696083953 ], [ 75.716090620652423, 13.849200618919253 ], [ 75.716114965742008, 13.849155692971532 ], [ 75.716117806064673, 13.849083917925858 ], [ 75.716090089608144, 13.849027183197173 ], [ 75.715946142552937, 13.848991721027424 ], [ 75.715618694544901, 13.848995667843608 ], [ 75.715591115460811, 13.848983787434982 ], [ 75.715569583328147, 13.848947967410417 ], [ 75.715513206605053, 13.84852650071756 ], [ 75.715502592362952, 13.848258004255694 ], [ 75.71548998529174, 13.848138430418977 ], [ 75.715497219844138, 13.848102524554864 ], [ 75.715541209002993, 13.848076081747369 ], [ 75.715751494170348, 13.847988628549018 ], [ 75.716180900636985, 13.847901254396962 ], [ 75.716701941706873, 13.847756197147463 ], [ 75.716856062426359, 13.847716273833679 ], [ 75.717061726205984, 13.847719261417144 ], [ 75.717227071894868, 13.847747483190586 ], [ 75.717344721290203, 13.847790198766772 ], [ 75.717613378355779, 13.847976006354772 ], [ 75.717977882042433, 13.848279947150857 ], [ 75.718047734442834, 13.848304861446865 ], [ 75.718117521676149, 13.848308245445475 ], [ 75.71848471808083, 13.848292815432831 ], [ 75.718508246893776, 13.84828859304357 ], [ 75.71857396940112, 13.846248492842598 ], [ 75.718257013407012, 13.845654114730168 ], [ 75.718178402124707, 13.84565545757677 ], [ 75.717854724183127, 13.84569561085757 ], [ 75.717694768793379, 13.845708641674477 ], [ 75.717539428798361, 13.845722843305266 ], [ 75.717498618880441, 13.845785210687616 ], [ 75.717325529430511, 13.84579013245077 ], [ 75.717207272451532, 13.845795185633282 ], [ 75.717065648948889, 13.845803505116141 ], [ 75.716914448710085, 13.845817091172879 ], [ 75.716836848217241, 13.845825909433673 ], [ 75.716584256400765, 13.845871891875658 ], [ 75.71638564934949, 13.845992925072681 ], [ 75.715040340661758, 13.84626878744155 ], [ 75.7148632428448, 13.846299053418413 ], [ 75.714678166558073, 13.846368616939962 ], [ 75.714122932815144, 13.846302235807272 ], [ 75.713732681652033, 13.846369550302994 ], [ 75.713183175353095, 13.846458698268552 ], [ 75.712718645397189, 13.846554231576913 ], [ 75.712661062309763, 13.84637207296683 ], [ 75.712383048286028, 13.84643205440018 ], [ 75.71222396242014, 13.846449262648864 ], [ 75.711939458220726, 13.846484418251984 ], [ 75.711686885418629, 13.846513858778703 ], [ 75.711600707376022, 13.846514109092443 ], [ 75.71153990318021, 13.846485578958331 ], [ 75.711416296106592, 13.846415127671101 ], [ 75.711333958401369, 13.846390487271066 ], [ 75.711263448873297, 13.846390691972854 ], [ 75.711102913337697, 13.846414123345454 ], [ 75.711032461971911, 13.8464334659346 ], [ 75.7110051524254, 13.846469907349432 ], [ 75.710993540438594, 13.84651587181747 ], [ 75.711007610673121, 13.846634485173476 ], [ 75.7110791567668, 13.846974931938545 ], [ 75.711112883255382, 13.847116455421295 ], [ 75.711105159069803, 13.847152838191388 ], [ 75.711073868559851, 13.847168239869733 ], [ 75.710822432917794, 13.847209517880684 ], [ 75.710492062239638, 13.847258320144569 ], [ 75.709675490632605, 13.847437114421021 ], [ 75.709430763841894, 13.84747071616111 ], [ 75.708803477659686, 13.847499444738661 ], [ 75.70847679739353, 13.847504674516751 ], [ 75.708215716347496, 13.848262024248411 ], [ 75.707648331946316, 13.849836575002207 ], [ 75.707584209329369, 13.850122505440192 ] ] ] } },
{ "type": "Feature", "properties": { "KGISWardID": 3097, "KGISWardCode": "1501013", "KGISWardName": "Buthangudi", "SHAPE.STArea()": 178179.24258721501, "SHAPE.STLength()": 1764.3892406798602, "OBJECTID": 17896, "KGISWardNo": "13", "KGISTownCode": "1501", "LGD_WardCode": 61539, "created_user": "SA", "created_date": 1634898537000, "last_edited_user": "SURESHBV1", "last_edited_date": 1692253993000, "_overlap_percent": 0.35440611574865377, "_police_station": "Hosamane PS", "_police_feature_index": "617", "_admin_layer": "Ward", "_geometry_clipped": true }, "geometry": { "type": "MultiPolygon", "coordinates": [ [ [ [ 75.70727024719686, 13.851631475447379 ], [ 75.707289804997998, 13.85162185035675 ], [ 75.707303457920602, 13.851602672801089 ], [ 75.707367110651347, 13.851196646188802 ], [ 75.707436069268113, 13.850723981084185 ], [ 75.70749924312733, 13.850361973420121 ], [ 75.707510749778066, 13.850329542704159 ], [ 75.707584209329369, 13.850122505440192 ], [ 75.707648331946316, 13.849836575002207 ], [ 75.707499482558703, 13.850249647541732 ], [ 75.707267977961635, 13.851632036712013 ], [ 75.70727024719686, 13.851631475447379 ] ] ], [ [ [ 75.705283304935932, 13.85141080518498 ], [ 75.705801691675589, 13.85145537404075 ], [ 75.705231819337996, 13.851365313086418 ], [ 75.705283304935932, 13.85141080518498 ] ] ] ] } },
{ "type": "Feature", "properties": { "KGISWardID": 3098, "KGISWardCode": "1501014", "KGISWardName": "Newbovi Colony", "SHAPE.STArea()": 144728.05587266001, "SHAPE.STLength()": 2222.5665838232767, "OBJECTID": 17897, "KGISWardNo": "14", "KGISTownCode": "1501", "LGD_WardCode": 61540, "created_user": "SA", "created_date": 1634898537000, "last_edited_user": "SURESHBV1", "last_edited_date": 1692253993000, "_overlap_percent": 99.702729576398397, "_police_station": "Hosamane PS", "_police_feature_index": "617", "_admin_layer": "Ward", "_geometry_clipped": true }, "geometry": { "type": "Polygon", "coordinates": [ [ [ 75.705283304935932, 13.85141080518498 ], [ 75.705756669381671, 13.8518290619669 ], [ 75.706533566157503, 13.852490666594404 ], [ 75.707248013190565, 13.853145272651522 ], [ 75.707728131574626, 13.853568466809044 ], [ 75.708083906585685, 13.85388205690489 ], [ 75.708122852712563, 13.853917351667681 ], [ 75.708264668102828, 13.853647402982798 ], [ 75.708293868267006, 13.853587990985297 ], [ 75.708319273167547, 13.853568779384121 ], [ 75.708360399217867, 13.853566747248617 ], [ 75.708946287555378, 13.853647343841399 ], [ 75.70910106934727, 13.853662206559891 ], [ 75.709122615222341, 13.853662144170558 ], [ 75.709140208334262, 13.853650611439679 ], [ 75.709151902239299, 13.853631438554274 ], [ 75.709161341121927, 13.853514670236557 ], [ 75.70917393167197, 13.853145273602811 ], [ 75.709184307836111, 13.85269167636929 ], [ 75.709208718992372, 13.852345209962065 ], [ 75.709239615567995, 13.852199672767389 ], [ 75.709255239849924, 13.852184317567113 ], [ 75.709292454458662, 13.852184209792554 ], [ 75.709657046546496, 13.852276929229726 ], [ 75.710213851441793, 13.852455210953842 ], [ 75.710400126321204, 13.852521652748466 ], [ 75.710778618182829, 13.852675571752181 ], [ 75.710874679662027, 13.852703999655066 ], [ 75.710978575150946, 13.852732404776413 ], [ 75.711303869679085, 13.852783132286984 ], [ 75.711828969190051, 13.852840934114287 ], [ 75.712489281895657, 13.852919392750277 ], [ 75.712821117873091, 13.852941766797437 ], [ 75.712932697356877, 13.852017710805313 ], [ 75.712947833017452, 13.851808505601619 ], [ 75.712651629644938, 13.851776833688183 ], [ 75.712216652667067, 13.851726426890394 ], [ 75.711877255310867, 13.851707318907918 ], [ 75.711758242038925, 13.851699052784502 ], [ 75.711706849059112, 13.851706378358017 ], [ 75.711631974209283, 13.851720949281207 ], [ 75.711558542586488, 13.85172690397405 ], [ 75.711468913315031, 13.851719988127721 ], [ 75.711382173049728, 13.851697274710496 ], [ 75.711251284761616, 13.851648853425475 ], [ 75.711035073395081, 13.851560488569143 ], [ 75.710705540822303, 13.851403558948908 ], [ 75.710386244022843, 13.851230809121342 ], [ 75.710206684164248, 13.851117937832557 ], [ 75.710010817082136, 13.850956313144316 ], [ 75.709912185957094, 13.850887701986899 ], [ 75.709772454039026, 13.850829258603268 ], [ 75.709497481458143, 13.850739628614241 ], [ 75.7091284013608, 13.850620129161943 ], [ 75.708534394922523, 13.850443866407787 ], [ 75.708165328757374, 13.850328670976342 ], [ 75.708044790296071, 13.850301747586768 ], [ 75.707893455085028, 13.85029213808996 ], [ 75.707702484103734, 13.850291254137908 ], [ 75.707510749778066, 13.850329542704159 ], [ 75.70749924312733, 13.850361973420121 ], [ 75.707436069268113, 13.850723981084185 ], [ 75.707367110651347, 13.851196646188802 ], [ 75.707303457920602, 13.851602672801089 ], [ 75.707289804997998, 13.85162185035675 ], [ 75.70727024719686, 13.851631475447379 ], [ 75.707267977961635, 13.851632036712013 ], [ 75.707258994169067, 13.851685681856472 ], [ 75.705801691675589, 13.85145537404075 ], [ 75.705283304935932, 13.85141080518498 ] ] ] } },
{ "type": "Feature", "properties": { "KGISWardID": 3096, "KGISWardCode": "1501012", "KGISWardName": "Anna Nagar", "SHAPE.STArea()": 132668.98271624499, "SHAPE.STLength()": 1756.885935751947, "OBJECTID": 17895, "KGISWardNo": "12", "KGISTownCode": "1501", "LGD_WardCode": 61538, "created_user": "SA", "created_date": 1634898537000, "last_edited_user": "SURESHBV1", "last_edited_date": 1692253993000, "_overlap_percent": 100.00000000000003, "_police_station": "Hosamane PS", "_police_feature_index": "617", "_admin_layer": "Ward", "_geometry_clipped": true }, "geometry": { "type": "Polygon", "coordinates": [ [ [ 75.712979050266597, 13.852952415423896 ], [ 75.712821117873091, 13.852941766797437 ], [ 75.712489281895657, 13.852919392750277 ], [ 75.711828969190051, 13.852840934114287 ], [ 75.711303869679085, 13.852783132286984 ], [ 75.710978575150946, 13.852732404776413 ], [ 75.710874679662027, 13.852703999655066 ], [ 75.710778618182829, 13.852675571752181 ], [ 75.710400126321204, 13.852521652748466 ], [ 75.710213851441793, 13.852455210953842 ], [ 75.709657046546496, 13.852276929229726 ], [ 75.709292454458662, 13.852184209792554 ], [ 75.709255239849924, 13.852184317567113 ], [ 75.709239615567995, 13.852199672767389 ], [ 75.709208718992372, 13.852345209962065 ], [ 75.709184307836111, 13.85269167636929 ], [ 75.70917393167197, 13.853145273602811 ], [ 75.709161341121927, 13.853514670236557 ], [ 75.709151902239299, 13.853631438554274 ], [ 75.709140208334262, 13.853650611439679 ], [ 75.709122615222341, 13.853662144170558 ], [ 75.70910106934727, 13.853662206559891 ], [ 75.708946287555378, 13.853647343841399 ], [ 75.708360399217867, 13.853566747248617 ], [ 75.708319273167547, 13.853568779384121 ], [ 75.708293868267006, 13.853587990985297 ], [ 75.708264668102828, 13.853647402982798 ], [ 75.708122852712563, 13.853917351667681 ], [ 75.708908820596506, 13.854629636413414 ], [ 75.709773984742313, 13.855326857174379 ], [ 75.709964742451888, 13.855457278211174 ], [ 75.710538179218787, 13.855829401589926 ], [ 75.710839264169437, 13.856031443897662 ], [ 75.711075719069342, 13.855876968920107 ], [ 75.711685819342065, 13.855544111752128 ], [ 75.711742522461179, 13.85551141297046 ], [ 75.711806989710041, 13.855455725336844 ], [ 75.711818631030155, 13.85541933026998 ], [ 75.711820490941335, 13.855386789993137 ], [ 75.711800793180018, 13.855350485124957 ], [ 75.711732100095105, 13.855304754071996 ], [ 75.711675175622915, 13.85526473013554 ], [ 75.711614345788092, 13.855228545698344 ], [ 75.711559339555606, 13.85517511939296 ], [ 75.711529819681388, 13.855129274440413 ], [ 75.711508140633413, 13.855085319878386 ], [ 75.711494278187004, 13.855035602164101 ], [ 75.711507662995174, 13.854928390955576 ], [ 75.71152834013543, 13.854643176957273 ], [ 75.711534163712415, 13.854625936009734 ], [ 75.711557651164938, 13.854620126418501 ], [ 75.711875048421476, 13.854649824701907 ], [ 75.71219048185678, 13.854677614199923 ], [ 75.712525478993328, 13.854697690940064 ], [ 75.712851379742986, 13.854705594029722 ], [ 75.712884443422624, 13.854709086338794 ], [ 75.712896703173257, 13.854715030682653 ], [ 75.712905342187355, 13.854737732198062 ], [ 75.712912777918163, 13.854767613439648 ], [ 75.712921448839282, 13.854801079648446 ], [ 75.712944785162222, 13.854826129843035 ], [ 75.712976631908859, 13.854832017153583 ], [ 75.713143137238191, 13.85483751322926 ], [ 75.713385515553426, 13.854834414845227 ], [ 75.713412425181815, 13.854827160224449 ], [ 75.713422159806882, 13.854807993762407 ], [ 75.713422057598606, 13.854774502610109 ], [ 75.713347833804619, 13.854521142398072 ], [ 75.713265966417367, 13.854169723336993 ], [ 75.71323640402538, 13.854110003663353 ], [ 75.713206827052332, 13.854045499275969 ], [ 75.71318460920773, 13.853985758203457 ], [ 75.713167288337175, 13.853926003771027 ], [ 75.713139656387384, 13.853696429715143 ], [ 75.713107229706551, 13.853500361067072 ], [ 75.713096845718013, 13.853306620601018 ], [ 75.713096444418483, 13.8531750492243 ], [ 75.713118615723928, 13.85296229827255 ], [ 75.712979050266597, 13.852952415423896 ] ] ] } },
{ "type": "Feature", "properties": { "KGISWardID": 3099, "KGISWardCode": "1501015", "KGISWardName": "Hosmane Aswathnagar Rightside", "SHAPE.STArea()": 2595026.661628745, "SHAPE.STLength()": 10197.24975839923, "OBJECTID": 17898, "KGISWardNo": "15", "KGISTownCode": "1501", "LGD_WardCode": 61541, "created_user": "SA", "created_date": 1634898537000, "last_edited_user": "SURESHBV1", "last_edited_date": 1692253993000, "_overlap_percent": 33.735137065477403, "_police_station": "Hosamane PS", "_police_feature_index": "617", "_admin_layer": "Ward", "_geometry_clipped": true }, "geometry": { "type": "MultiPolygon", "coordinates": [ [ [ [ 75.73118822002273, 13.865865657394917 ], [ 75.731083865374174, 13.866162604405012 ], [ 75.730931226235626, 13.86657302013071 ], [ 75.730961641692062, 13.866578677815912 ], [ 75.731657301939762, 13.866672286842551 ], [ 75.732251864727687, 13.866753254589398 ], [ 75.732173530072046, 13.866680917852172 ], [ 75.73121785779928, 13.865768067743552 ], [ 75.731216261795225, 13.865766543209059 ], [ 75.73118822002273, 13.865865657394917 ] ] ], [ [ [ 75.71848471808083, 13.848292815432831 ], [ 75.718117521676149, 13.848308245445475 ], [ 75.718047734442834, 13.848304861446865 ], [ 75.717977882042433, 13.848279947150857 ], [ 75.717613378355779, 13.847976006354772 ], [ 75.717344721290203, 13.847790198766772 ], [ 75.717227071894868, 13.847747483190586 ], [ 75.717061726205984, 13.847719261417144 ], [ 75.716856062426359, 13.847716273833679 ], [ 75.716701941706873, 13.847756197147463 ], [ 75.716180900636985, 13.847901254396962 ], [ 75.715751494170348, 13.847988628549018 ], [ 75.715541209002993, 13.848076081747369 ], [ 75.715497219844138, 13.848102524554864 ], [ 75.71548998529174, 13.848138430418977 ], [ 75.715502592362952, 13.848258004255694 ], [ 75.715513206605053, 13.84852650071756 ], [ 75.715569583328147, 13.848947967410417 ], [ 75.715591115460811, 13.848983787434982 ], [ 75.715618694544901, 13.848995667843608 ], [ 75.715946142552937, 13.848991721027424 ], [ 75.716090089608144, 13.849027183197173 ], [ 75.716117806064673, 13.849083917925858 ], [ 75.716114965742008, 13.849155692971532 ], [ 75.716090620652423, 13.849200618919253 ], [ 75.716050872622617, 13.849212696083953 ], [ 75.715956065177636, 13.849233905128964 ], [ 75.715833788418479, 13.849279116358803 ], [ 75.715778931258001, 13.849354034326531 ], [ 75.715556778865889, 13.849764352824021 ], [ 75.715334736407939, 13.850210553742308 ], [ 75.715085404636937, 13.850740562779157 ], [ 75.715039700687853, 13.850806482919593 ], [ 75.714996927877905, 13.850830529730791 ], [ 75.714880698074623, 13.850851800924799 ], [ 75.714752226938856, 13.850873107786869 ], [ 75.714642071587164, 13.850879410150865 ], [ 75.71458702085809, 13.850891531740887 ], [ 75.714562565650965, 13.850900574044346 ], [ 75.714541216223594, 13.850924558277667 ], [ 75.714538695232477, 13.851100992950116 ], [ 75.714564420576878, 13.851427337046132 ], [ 75.714566659321491, 13.851519192859277 ], [ 75.714556954156379, 13.851547927874092 ], [ 75.714525644850312, 13.851557587815005 ], [ 75.714280749934744, 13.851537250857634 ], [ 75.71382620494785, 13.851492645320851 ], [ 75.713275649568814, 13.851436834968069 ], [ 75.713081686827948, 13.851418262551507 ], [ 75.713015092781347, 13.851418456426327 ], [ 75.712973984693576, 13.851426230614665 ], [ 75.712972165797751, 13.8514721684523 ], [ 75.712947833017452, 13.851808505601619 ], [ 75.712932697356877, 13.852017710805313 ], [ 75.712821117873091, 13.852941766797437 ], [ 75.712979050266597, 13.852952415423896 ], [ 75.713118615723928, 13.85296229827255 ], [ 75.71318671440784, 13.852967120702742 ], [ 75.713735290141784, 13.853015281434178 ], [ 75.714270155160705, 13.853063480010999 ], [ 75.714861821894559, 13.853111513418344 ], [ 75.715339904178805, 13.853165615815822 ], [ 75.715810181014476, 13.853229309583488 ], [ 75.716318472853331, 13.853305759977275 ], [ 75.716384336770304, 13.853315665739977 ], [ 75.716907527098073, 13.85338877207608 ], [ 75.717501230187665, 13.853461670695534 ], [ 75.717657969239269, 13.853476522250968 ], [ 75.718118324823294, 13.853498138079201 ], [ 75.718576674427268, 13.853504448095611 ], [ 75.718892136094723, 13.853541798405979 ], [ 75.71928795629438, 13.853596135387011 ], [ 75.719513355048235, 13.853645232069391 ], [ 75.719638844777492, 13.853688879920174 ], [ 75.719744706443592, 13.853719189552343 ], [ 75.72004480017489, 13.853854185276413 ], [ 75.720207486286881, 13.853891983023805 ], [ 75.720660197448353, 13.853974857079985 ], [ 75.720967796425739, 13.854002658320111 ], [ 75.721247918644011, 13.854013316104686 ], [ 75.72151037936662, 13.85401254294308 ], [ 75.721902082833452, 13.854001819949612 ], [ 75.722346621736889, 13.853975629668133 ], [ 75.72279506068169, 13.85394368664716 ], [ 75.723337579146047, 13.853932515271039 ], [ 75.723688096233346, 13.85390468709674 ], [ 75.723907389854133, 13.853879160448972 ], [ 75.724085550731402, 13.853853753425042 ], [ 75.724373271400566, 13.853787834731326 ], [ 75.724815625890713, 13.853688922374781 ], [ 75.725177793333799, 13.85362852372354 ], [ 75.725461691370015, 13.853593233999016 ], [ 75.725751424603743, 13.853544531734467 ], [ 75.725956976063785, 13.85350947542582 ], [ 75.726056831616418, 13.853497695835614 ], [ 75.726117573883514, 13.853505170236888 ], [ 75.726331257425628, 13.853565777968999 ], [ 75.72638214060801, 13.853579090681515 ], [ 75.726268014714179, 13.854572513057157 ], [ 75.726161165447394, 13.85544599240122 ], [ 75.726086715430213, 13.856110055027511 ], [ 75.72601489056207, 13.856633566721367 ], [ 75.72593734445374, 13.8572856784186 ], [ 75.725889286266067, 13.857578867157914 ], [ 75.725786596054249, 13.858018742782541 ], [ 75.72575426843288, 13.858449438850101 ], [ 75.725715429419324, 13.858754562063458 ], [ 75.725682424584463, 13.859006561177592 ], [ 75.72563983209136, 13.85916744541284 ], [ 75.72559318578071, 13.859284323332535 ], [ 75.725521027552688, 13.859385967865755 ], [ 75.725433201809295, 13.859487658810195 ], [ 75.725257446343193, 13.859658505242972 ], [ 75.72512275308685, 13.85980626643679 ], [ 75.725003723054371, 13.859952065287418 ], [ 75.724929702195084, 13.860084334973157 ], [ 75.724863592645164, 13.860241460585549 ], [ 75.724817094163086, 13.860406184417126 ], [ 75.724803661883755, 13.860496171305686 ], [ 75.724786508371494, 13.860649323779917 ], [ 75.724791096272241, 13.860865567345719 ], [ 75.724835096578403, 13.861158244582473 ], [ 75.724938008220278, 13.861696429866708 ], [ 75.725073253421755, 13.862236964085065 ], [ 75.725229673171071, 13.862200327590035 ], [ 75.725312409878669, 13.862429074403288 ], [ 75.726781288642442, 13.862215557418773 ], [ 75.726781294597828, 13.862215556899214 ], [ 75.726781288639629, 13.862215556514622 ], [ 75.726568487657957, 13.861787585559044 ], [ 75.726252358059199, 13.86089104571238 ], [ 75.725980967556865, 13.860121356202605 ], [ 75.727536082283734, 13.859698635248565 ], [ 75.72726839574338, 13.858651637577871 ], [ 75.727899495141415, 13.85846316894594 ], [ 75.727957182921386, 13.858118517200268 ], [ 75.728470758093692, 13.857930395700162 ], [ 75.728335773566258, 13.857040890633064 ], [ 75.729186815947529, 13.85672258478983 ], [ 75.729713956832498, 13.856175587900236 ], [ 75.730679822231338, 13.854995734130352 ], [ 75.731226659688886, 13.854168440842955 ], [ 75.730331433436561, 13.854055959045214 ], [ 75.730025083692766, 13.854015317094113 ], [ 75.729919842839365, 13.85401323663176 ], [ 75.729401665437251, 13.853986032412839 ], [ 75.729075199104699, 13.853967498570068 ], [ 75.727103074728717, 13.853838133574548 ], [ 75.726914229444688, 13.853753502895 ], [ 75.726942633885969, 13.853607880055502 ], [ 75.726979243874624, 13.853419549943892 ], [ 75.726999122658512, 13.852950053956851 ], [ 75.726900745094497, 13.852798102298509 ], [ 75.726884313091261, 13.852752991701854 ], [ 75.726775973606109, 13.852454656700607 ], [ 75.726872791947116, 13.852374809059148 ], [ 75.726995423922347, 13.852273274769429 ], [ 75.727106381990197, 13.852095623167576 ], [ 75.727001652402251, 13.852044991114703 ], [ 75.724819896429565, 13.850721498382386 ], [ 75.724083835180835, 13.850076481099958 ], [ 75.723289555417963, 13.849935542238642 ], [ 75.722482852042376, 13.850283448965994 ], [ 75.721750491891711, 13.850974569730692 ], [ 75.720889256407716, 13.850763001339768 ], [ 75.720298203155266, 13.849640393478916 ], [ 75.719438066119025, 13.848590340928167 ], [ 75.718506915246095, 13.848329928878332 ], [ 75.718508246893776, 13.84828859304357 ], [ 75.71848471808083, 13.848292815432831 ] ] ] ] } },
{ "type": "Feature", "properties": { "KGISWardID": 3095, "KGISWardCode": "1501011", "KGISWardName": "Subash Nagar", "SHAPE.STArea()": 296530.34521550499, "SHAPE.STLength()": 3293.4596556496408, "OBJECTID": 17894, "KGISWardNo": "11", "KGISTownCode": "1501", "LGD_WardCode": 61537, "created_user": "SA", "created_date": 1634898537000, "last_edited_user": "SURESHBV1", "last_edited_date": 1692253993000, "_overlap_percent": 93.194405806322294, "_police_station": "Hosamane PS", "_police_feature_index": "617", "_admin_layer": "Ward", "_geometry_clipped": true }, "geometry": { "type": "Polygon", "coordinates": [ [ [ 75.714636968928261, 13.859889803376912 ], [ 75.714664827402615, 13.859872498036546 ], [ 75.714700071002596, 13.859868088685079 ], [ 75.714956214868167, 13.860041016550783 ], [ 75.715494971791216, 13.860395406052758 ], [ 75.715983977211593, 13.860721496253092 ], [ 75.716355933582307, 13.860969100842947 ], [ 75.716461743411656, 13.860779926592366 ], [ 75.716554254568209, 13.86060741668725 ], [ 75.716646677550628, 13.860406199437035 ], [ 75.7164696085473, 13.860150749229444 ], [ 75.716342753035178, 13.859929103559882 ], [ 75.715988047744233, 13.859156039410946 ], [ 75.715999832177971, 13.858656980762643 ], [ 75.716024067335297, 13.858575574600231 ], [ 75.71601653945136, 13.85851579089268 ], [ 75.715821639043114, 13.858193648981269 ], [ 75.715671939895643, 13.857920415704802 ], [ 75.71552627042783, 13.857683532634443 ], [ 75.715255016459153, 13.857372379008563 ], [ 75.715241187276646, 13.857334143229654 ], [ 75.715241111144977, 13.857309264929633 ], [ 75.715262568553129, 13.857280495560362 ], [ 75.715477754194907, 13.857031553555707 ], [ 75.715726703687679, 13.856774857262719 ], [ 75.715846322437642, 13.856659680831861 ], [ 75.715848696753483, 13.856635751052968 ], [ 75.715787246043092, 13.856556987789018 ], [ 75.715728090049723, 13.856427979749224 ], [ 75.715624284337707, 13.856110117283235 ], [ 75.715520473449857, 13.855789860584681 ], [ 75.715379723149965, 13.855400340116658 ], [ 75.715268318623515, 13.854998771037732 ], [ 75.715235282453435, 13.854604149209127 ], [ 75.715231816646465, 13.854271640026687 ], [ 75.715267706727104, 13.853998820737338 ], [ 75.715272523176878, 13.853972492353593 ], [ 75.715299439955317, 13.853967628981907 ], [ 75.715338613766988, 13.85396751455286 ], [ 75.716178793181555, 13.854096631288298 ], [ 75.716200806589896, 13.854089390687797 ], [ 75.716210526297601, 13.85406544032441 ], [ 75.716268135422411, 13.853689691641762 ], [ 75.716318472853331, 13.853305759977275 ], [ 75.715810181014476, 13.853229309583488 ], [ 75.715339904178805, 13.853165615815822 ], [ 75.714861821894559, 13.853111513418344 ], [ 75.714270155160705, 13.853063480010999 ], [ 75.713735290141784, 13.853015281434178 ], [ 75.71318671440784, 13.852967120702742 ], [ 75.713118615723928, 13.85296229827255 ], [ 75.713096444418483, 13.8531750492243 ], [ 75.713096845718013, 13.853306620601018 ], [ 75.713107229706551, 13.853500361067072 ], [ 75.713139656387384, 13.853696429715143 ], [ 75.713167288337175, 13.853926003771027 ], [ 75.71318460920773, 13.853985758203457 ], [ 75.713206827052332, 13.854045499275969 ], [ 75.71323640402538, 13.854110003663353 ], [ 75.713265966417367, 13.854169723336993 ], [ 75.713347833804619, 13.854521142398072 ], [ 75.713422057598606, 13.854774502610109 ], [ 75.713422159806882, 13.854807993762407 ], [ 75.713412425181815, 13.854827160224449 ], [ 75.713385515553426, 13.854834414845227 ], [ 75.713143137238191, 13.85483751322926 ], [ 75.712976631908859, 13.854832017153583 ], [ 75.712944785162222, 13.854826129843035 ], [ 75.712921448839282, 13.854801079648446 ], [ 75.712912777918163, 13.854767613439648 ], [ 75.712905342187355, 13.854737732198062 ], [ 75.712896703173257, 13.854715030682653 ], [ 75.712884443422624, 13.854709086338794 ], [ 75.712851379742986, 13.854705594029722 ], [ 75.712525478993328, 13.854697690940064 ], [ 75.71219048185678, 13.854677614199923 ], [ 75.711875048421476, 13.854649824701907 ], [ 75.711557651164938, 13.854620126418501 ], [ 75.711534163712415, 13.854625936009734 ], [ 75.71152834013543, 13.854643176957273 ], [ 75.711507662995174, 13.854928390955576 ], [ 75.711494278187004, 13.855035602164101 ], [ 75.711508140633413, 13.855085319878386 ], [ 75.711529819681388, 13.855129274440413 ], [ 75.711559339555606, 13.85517511939296 ], [ 75.711614345788092, 13.855228545698344 ], [ 75.711675175622915, 13.85526473013554 ], [ 75.711732100095105, 13.855304754071996 ], [ 75.711800793180018, 13.855350485124957 ], [ 75.711820490941335, 13.855386789993137 ], [ 75.711818631030155, 13.85541933026998 ], [ 75.711806989710041, 13.855455725336844 ], [ 75.711742522461179, 13.85551141297046 ], [ 75.711685819342065, 13.855544111752128 ], [ 75.711075719069342, 13.855876968920107 ], [ 75.710839264169437, 13.856031443897662 ], [ 75.711163791743985, 13.856249215902697 ], [ 75.7115071238551, 13.856473207590208 ], [ 75.71158228331791, 13.85655193215417 ], [ 75.71163245445176, 13.856624988885786 ], [ 75.711679729443077, 13.856712407375673 ], [ 75.71173896544687, 13.856868687172478 ], [ 75.711767257442077, 13.856993478632662 ], [ 75.711822184458512, 13.857181468551081 ], [ 75.711891920602824, 13.857569763752466 ], [ 75.711953293266333, 13.857783928952211 ], [ 75.712006468565775, 13.857879463911864 ], [ 75.71212442355727, 13.858020740249303 ], [ 75.712387606818055, 13.858255370380402 ], [ 75.71270766842936, 13.85851471315091 ], [ 75.713408356127218, 13.858981548791352 ], [ 75.713805024014874, 13.859257332904418 ], [ 75.713861458121627, 13.859296640713168 ], [ 75.713876214176693, 13.859318127244418 ], [ 75.713881172439429, 13.859338447064289 ], [ 75.713880814894395, 13.859339103882508 ], [ 75.714106707231522, 13.85947685618302 ], [ 75.714482227710519, 13.859770076708694 ], [ 75.714577935680623, 13.85993940798873 ], [ 75.714636968928261, 13.859889803376912 ] ] ] } },
{ "type": "Feature", "properties": { "KGISWardID": 3091, "KGISWardCode": "1501007", "KGISWardName": "Durginagara Khalandhar Nagar", "SHAPE.STArea()": 1154923.56399466, "SHAPE.STLength()": 5789.2525947912773, "OBJECTID": 17890, "KGISWardNo": "7", "KGISTownCode": "1501", "LGD_WardCode": 61533, "created_user": "SA", "created_date": 1634898537000, "last_edited_user": "SURESHBV1", "last_edited_date": 1692253993000, "_overlap_percent": 0.14071492841377717, "_police_station": "Hosamane PS", "_police_feature_index": "617", "_admin_layer": "Ward", "_geometry_clipped": true }, "geometry": { "type": "Polygon", "coordinates": [ [ [ 75.707728131574626, 13.853568466809044 ], [ 75.707248013190565, 13.853145272651522 ], [ 75.706533566157503, 13.852490666594404 ], [ 75.705756669381671, 13.8518290619669 ], [ 75.705283304935932, 13.85141080518498 ], [ 75.705159829072812, 13.851392279967406 ], [ 75.705729341809828, 13.851869511893998 ], [ 75.706772513568069, 13.852739668821899 ], [ 75.707747857639518, 13.853652203899578 ], [ 75.707728131574626, 13.853568466809044 ] ] ] } },
{ "type": "Feature", "properties": { "KGISWardID": 3094, "KGISWardCode": "1501010", "KGISWardName": "Hanumanth Nagar Aswath Nagar", "SHAPE.STArea()": 1420615.0164967149, "SHAPE.STLength()": 6035.6701964434196, "OBJECTID": 17893, "KGISWardNo": "10", "KGISTownCode": "1501", "LGD_WardCode": 61536, "created_user": "SA", "created_date": 1634898537000, "last_edited_user": "SURESHBV1", "last_edited_date": 1692253993000, "_overlap_percent": 96.52547557974242, "_police_station": "Hosamane PS", "_police_feature_index": "617", "_admin_layer": "Ward", "_geometry_clipped": true }, "geometry": { "type": "Polygon", "coordinates": [ [ [ 75.726781288642442, 13.862215557418773 ], [ 75.725312409878669, 13.862429074403288 ], [ 75.725229673171071, 13.862200327590035 ], [ 75.725073253421755, 13.862236964085065 ], [ 75.724938008220278, 13.861696429866708 ], [ 75.724835096578403, 13.861158244582473 ], [ 75.724791096272241, 13.860865567345719 ], [ 75.724786508371494, 13.860649323779917 ], [ 75.724803661883755, 13.860496171305686 ], [ 75.724817094163086, 13.860406184417126 ], [ 75.724863592645164, 13.860241460585549 ], [ 75.724929702195084, 13.860084334973157 ], [ 75.725003723054371, 13.859952065287418 ], [ 75.72512275308685, 13.85980626643679 ], [ 75.725257446343193, 13.859658505242972 ], [ 75.725433201809295, 13.859487658810195 ], [ 75.725521027552688, 13.859385967865755 ], [ 75.72559318578071, 13.859284323332535 ], [ 75.72563983209136, 13.85916744541284 ], [ 75.725682424584463, 13.859006561177592 ], [ 75.725715429419324, 13.858754562063458 ], [ 75.72575426843288, 13.858449438850101 ], [ 75.725786596054249, 13.858018742782541 ], [ 75.725889286266067, 13.857578867157914 ], [ 75.72593734445374, 13.8572856784186 ], [ 75.72601489056207, 13.856633566721367 ], [ 75.726086715430213, 13.856110055027511 ], [ 75.726161165447394, 13.85544599240122 ], [ 75.726268014714179, 13.854572513057157 ], [ 75.72638214060801, 13.853579090681515 ], [ 75.726331257425628, 13.853565777968999 ], [ 75.726117573883514, 13.853505170236888 ], [ 75.726056831616418, 13.853497695835614 ], [ 75.725956976063785, 13.85350947542582 ], [ 75.725751424603743, 13.853544531734467 ], [ 75.725461691370015, 13.853593233999016 ], [ 75.725177793333799, 13.85362852372354 ], [ 75.724815625890713, 13.853688922374781 ], [ 75.724373271400566, 13.853787834731326 ], [ 75.724085550731402, 13.853853753425042 ], [ 75.723907389854133, 13.853879160448972 ], [ 75.723688096233346, 13.85390468709674 ], [ 75.723337579146047, 13.853932515271039 ], [ 75.72279506068169, 13.85394368664716 ], [ 75.722346621736889, 13.853975629668133 ], [ 75.721902082833452, 13.854001819949612 ], [ 75.72151037936662, 13.85401254294308 ], [ 75.721247918644011, 13.854013316104686 ], [ 75.720967796425739, 13.854002658320111 ], [ 75.720660197448353, 13.853974857079985 ], [ 75.720207486286881, 13.853891983023805 ], [ 75.72004480017489, 13.853854185276413 ], [ 75.719744706443592, 13.853719189552343 ], [ 75.719638844777492, 13.853688879920174 ], [ 75.719513355048235, 13.853645232069391 ], [ 75.71928795629438, 13.853596135387011 ], [ 75.718892136094723, 13.853541798405979 ], [ 75.718576674427268, 13.853504448095611 ], [ 75.718118324823294, 13.853498138079201 ], [ 75.717657969239269, 13.853476522250968 ], [ 75.717501230187665, 13.853461670695534 ], [ 75.716907527098073, 13.85338877207608 ], [ 75.716384336770304, 13.853315665739977 ], [ 75.716318472853331, 13.853305759977275 ], [ 75.716268135422411, 13.853689691641762 ], [ 75.716210526297601, 13.85406544032441 ], [ 75.716200806589896, 13.854089390687797 ], [ 75.716178793181555, 13.854096631288298 ], [ 75.715338613766988, 13.85396751455286 ], [ 75.715299439955317, 13.853967628981907 ], [ 75.715272523176878, 13.853972492353593 ], [ 75.715267706727104, 13.853998820737338 ], [ 75.715231816646465, 13.854271640026687 ], [ 75.715235282453435, 13.854604149209127 ], [ 75.715268318623515, 13.854998771037732 ], [ 75.715379723149965, 13.855400340116658 ], [ 75.715520473449857, 13.855789860584681 ], [ 75.715624284337707, 13.856110117283235 ], [ 75.715728090049723, 13.856427979749224 ], [ 75.715787246043092, 13.856556987789018 ], [ 75.715848696753483, 13.856635751052968 ], [ 75.715846322437642, 13.856659680831861 ], [ 75.715726703687679, 13.856774857262719 ], [ 75.715477754194907, 13.857031553555707 ], [ 75.715262568553129, 13.857280495560362 ], [ 75.715241111144977, 13.857309264929633 ], [ 75.715241187276646, 13.857334143229654 ], [ 75.715255016459153, 13.857372379008563 ], [ 75.71552627042783, 13.857683532634443 ], [ 75.715671939895643, 13.857920415704802 ], [ 75.715821639043114, 13.858193648981269 ], [ 75.71601653945136, 13.85851579089268 ], [ 75.716024067335297, 13.858575574600231 ], [ 75.715999832177971, 13.858656980762643 ], [ 75.715988047744233, 13.859156039410946 ], [ 75.716342753035178, 13.859929103559882 ], [ 75.7164696085473, 13.860150749229444 ], [ 75.716646677550628, 13.860406199437035 ], [ 75.716554254568209, 13.86060741668725 ], [ 75.716461743411656, 13.860779926592366 ], [ 75.716355933582307, 13.860969100842947 ], [ 75.716585068153478, 13.861121632420064 ], [ 75.717161632405876, 13.861507482826161 ], [ 75.717556664428997, 13.861779039217812 ], [ 75.718116077203931, 13.862160154556097 ], [ 75.718896454350528, 13.862736782285413 ], [ 75.719639931679609, 13.86325610344624 ], [ 75.720101259794149, 13.863587265217596 ], [ 75.720692541974117, 13.863977849021605 ], [ 75.7209599891019, 13.864161262917721 ], [ 75.721443571418689, 13.864561732418737 ], [ 75.722039924549932, 13.865007317750722 ], [ 75.722805696588281, 13.865605506420536 ], [ 75.723164043437208, 13.865886729084647 ], [ 75.72334928800008, 13.866032769731305 ], [ 75.723932832601747, 13.866037402802153 ], [ 75.724329429908892, 13.866019483430463 ], [ 75.72494617283462, 13.865931536225318 ], [ 75.725440574458403, 13.865870265368111 ], [ 75.726258236253543, 13.865829564682006 ], [ 75.727036746119396, 13.865796153806228 ], [ 75.727741808918509, 13.865765351281478 ], [ 75.728133561090985, 13.865764185848803 ], [ 75.728760422350746, 13.8657814577062 ], [ 75.728875596898106, 13.865812213608894 ], [ 75.729387904565058, 13.865997279820736 ], [ 75.729709077358748, 13.866132678940392 ], [ 75.730510580375338, 13.866405392196562 ], [ 75.730885694724364, 13.866564551404725 ], [ 75.730931226235626, 13.86657302013071 ], [ 75.731083865374174, 13.866162604405012 ], [ 75.73118822002273, 13.865865657394917 ], [ 75.731216261795225, 13.865766543209059 ], [ 75.730213929889857, 13.864809096043238 ], [ 75.729458388235869, 13.864121256666056 ], [ 75.729104317686094, 13.863689916447042 ], [ 75.729053017696799, 13.863620008018955 ], [ 75.72876580717454, 13.863228636474885 ], [ 75.728512597515461, 13.862883577599293 ], [ 75.72809154984995, 13.862355105675942 ], [ 75.728069476881529, 13.862351956200254 ], [ 75.727395718293792, 13.862255216984611 ], [ 75.726781294597828, 13.862215556899214 ], [ 75.726781288642442, 13.862215557418773 ] ] ] } },
{ "type": "Feature", "properties": { "KGISWardID": 3092, "KGISWardCode": "1501008", "KGISWardName": "Anwarcolony Sigebagi", "SHAPE.STArea()": 776413.04875070998, "SHAPE.STLength()": 4048.1381658396467, "OBJECTID": 17891, "KGISWardNo": "8", "KGISTownCode": "1501", "LGD_WardCode": 61534, "created_user": "SA", "created_date": 1634898537000, "last_edited_user": "SURESHBV1", "last_edited_date": 1692253993000, "_overlap_percent": 0.92590853745942392, "_police_station": "Hosamane PS", "_police_feature_index": "617", "_admin_layer": "Ward", "_geometry_clipped": true }, "geometry": { "type": "Polygon", "coordinates": [ [ [ 75.713881172439429, 13.859338447064289 ], [ 75.713876214176693, 13.859318127244418 ], [ 75.713861458121627, 13.859296640713168 ], [ 75.713805024014874, 13.859257332904418 ], [ 75.713408356127218, 13.858981548791352 ], [ 75.71270766842936, 13.85851471315091 ], [ 75.712387606818055, 13.858255370380402 ], [ 75.71212442355727, 13.858020740249303 ], [ 75.712006468565775, 13.857879463911864 ], [ 75.711953293266333, 13.857783928952211 ], [ 75.711891920602824, 13.857569763752466 ], [ 75.711822184458512, 13.857181468551081 ], [ 75.711767257442077, 13.856993478632662 ], [ 75.71173896544687, 13.856868687172478 ], [ 75.711679729443077, 13.856712407375673 ], [ 75.71163245445176, 13.856624988885786 ], [ 75.71158228331791, 13.85655193215417 ], [ 75.7115071238551, 13.856473207590208 ], [ 75.711163791743985, 13.856249215902697 ], [ 75.710839264169437, 13.856031443897662 ], [ 75.710538179218787, 13.855829401589926 ], [ 75.709964742451888, 13.855457278211174 ], [ 75.709773984742313, 13.855326857174379 ], [ 75.708908820596506, 13.854629636413414 ], [ 75.708122852712563, 13.853917351667681 ], [ 75.708083906585685, 13.85388205690489 ], [ 75.707728131574626, 13.853568466809044 ], [ 75.707747857639518, 13.853652203899578 ], [ 75.70844211947869, 13.854301757528788 ], [ 75.710097869018497, 13.855653656595107 ], [ 75.710984540128123, 13.856248841371926 ], [ 75.711593130624621, 13.856706381578663 ], [ 75.711937815782846, 13.857869707990231 ], [ 75.712566640614725, 13.858537702061627 ], [ 75.713880814894395, 13.859339103882508 ], [ 75.713881172439429, 13.859338447064289 ] ] ] } },
{ "type": "Feature", "properties": { "KGISWardID": 3093, "KGISWardCode": "1501009", "KGISWardName": "Bhadra Colony", "SHAPE.STArea()": 3640782.89005417, "SHAPE.STLength()": 14548.358203859389, "OBJECTID": 17892, "KGISWardNo": "9", "KGISTownCode": "1501", "LGD_WardCode": 61535, "created_user": "SA", "created_date": 1634898537000, "last_edited_user": "SURESHBV1", "last_edited_date": 1692253993000, "_overlap_percent": 25.730312906550541, "_police_station": "Hosamane PS", "_police_feature_index": "617", "_admin_layer": "Ward", "_geometry_clipped": true }, "geometry": { "type": "Polygon", "coordinates": [ [ [ 75.731657301939762, 13.866672286842551 ], [ 75.730961641692062, 13.866578677815912 ], [ 75.730931226235626, 13.86657302013071 ], [ 75.730885694724364, 13.866564551404725 ], [ 75.730510580375338, 13.866405392196562 ], [ 75.729709077358748, 13.866132678940392 ], [ 75.729387904565058, 13.865997279820736 ], [ 75.728875596898106, 13.865812213608894 ], [ 75.728760422350746, 13.8657814577062 ], [ 75.728133561090985, 13.865764185848803 ], [ 75.727741808918509, 13.865765351281478 ], [ 75.727036746119396, 13.865796153806228 ], [ 75.726258236253543, 13.865829564682006 ], [ 75.725440574458403, 13.865870265368111 ], [ 75.72494617283462, 13.865931536225318 ], [ 75.724329429908892, 13.866019483430463 ], [ 75.723932832601747, 13.866037402802153 ], [ 75.72334928800008, 13.866032769731305 ], [ 75.723164043437208, 13.865886729084647 ], [ 75.722805696588281, 13.865605506420536 ], [ 75.722039924549932, 13.865007317750722 ], [ 75.721443571418689, 13.864561732418737 ], [ 75.7209599891019, 13.864161262917721 ], [ 75.720692541974117, 13.863977849021605 ], [ 75.720101259794149, 13.863587265217596 ], [ 75.719639931679609, 13.86325610344624 ], [ 75.718896454350528, 13.862736782285413 ], [ 75.718116077203931, 13.862160154556097 ], [ 75.717556664428997, 13.861779039217812 ], [ 75.717161632405876, 13.861507482826161 ], [ 75.716585068153478, 13.861121632420064 ], [ 75.716355933582307, 13.860969100842947 ], [ 75.715983977211593, 13.860721496253092 ], [ 75.715494971791216, 13.860395406052758 ], [ 75.714956214868167, 13.860041016550783 ], [ 75.714700071002596, 13.859868088685079 ], [ 75.714664827402615, 13.859872498036546 ], [ 75.714636968928261, 13.859889803376912 ], [ 75.714577935680623, 13.85993940798873 ], [ 75.714686997601532, 13.860132365739794 ], [ 75.71490752695378, 13.860909467483292 ], [ 75.714792018716025, 13.861224505949926 ], [ 75.714714138982174, 13.861436885204645 ], [ 75.714185727280622, 13.861792396789598 ], [ 75.713846608919567, 13.862020554927966 ], [ 75.713865247421921, 13.862220817132091 ], [ 75.713950917441991, 13.86287461567402 ], [ 75.713987048637151, 13.8634887174138 ], [ 75.714049417071863, 13.863690475831882 ], [ 75.714054737997557, 13.863707696065479 ], [ 75.714094997570058, 13.863837915936942 ], [ 75.714095918263482, 13.863840917731599 ], [ 75.714260208183475, 13.864372156385224 ], [ 75.714315599745078, 13.86446047635232 ], [ 75.714448928452128, 13.864673087009855 ], [ 75.714584597622931, 13.864915906436108 ], [ 75.714675837012521, 13.865134966162648 ], [ 75.714981177824669, 13.865497217587587 ], [ 75.71505418722225, 13.86558383490399 ], [ 75.715166668884436, 13.865664996941245 ], [ 75.715207407354242, 13.865694398267344 ], [ 75.715330208401085, 13.866137585722184 ], [ 75.71542074674511, 13.866304416392765 ], [ 75.715451948019179, 13.866361886764393 ], [ 75.715679077612336, 13.866298206213461 ], [ 75.716030387442586, 13.865951335959043 ], [ 75.716077558705834, 13.865958746638576 ], [ 75.716099747513823, 13.865946177353248 ], [ 75.716370430494592, 13.865792797620244 ], [ 75.716936197278258, 13.865903287323405 ], [ 75.716895899690627, 13.866092987749001 ], [ 75.71681800731622, 13.866459677403313 ], [ 75.71676562123109, 13.866872317893973 ], [ 75.71939604794845, 13.867551249888585 ], [ 75.720612142201205, 13.868083529385691 ], [ 75.721179420412753, 13.867833066793889 ], [ 75.72257080312113, 13.868039477248606 ], [ 75.723138966839869, 13.868076073739106 ], [ 75.723083344188197, 13.869090540877986 ], [ 75.723126787560361, 13.870468332460476 ], [ 75.723327218709301, 13.870996847383903 ], [ 75.723619511366294, 13.871442901745283 ], [ 75.724326047669024, 13.871880978969267 ], [ 75.725953347436686, 13.872354598881264 ], [ 75.726416851772115, 13.872295142118038 ], [ 75.726486534059475, 13.872270736793482 ], [ 75.726487707169881, 13.872270331868906 ], [ 75.726569234168082, 13.872244568413308 ], [ 75.726648864586807, 13.872084593946528 ], [ 75.726768076321946, 13.871845515795268 ], [ 75.72692568783313, 13.87143593475011 ], [ 75.727115484764326, 13.871048534252742 ], [ 75.727435412006628, 13.870653625632421 ], [ 75.727500238357436, 13.870569715402402 ], [ 75.727825169562649, 13.870070187360584 ], [ 75.728053646400696, 13.870274582759558 ], [ 75.728352402923747, 13.870647762266408 ], [ 75.728370224689399, 13.870670001779375 ], [ 75.728496514328071, 13.870508027105357 ], [ 75.72857432531346, 13.870429902435649 ], [ 75.728587770291043, 13.870416402395746 ], [ 75.728710212300953, 13.870293748557323 ], [ 75.729725687448934, 13.869292827564497 ], [ 75.730063158569379, 13.868966361385633 ], [ 75.73026178812772, 13.868775521279721 ], [ 75.73049747794316, 13.86855289277938 ], [ 75.732307918572587, 13.866864802773804 ], [ 75.73235036706275, 13.8668442148096 ], [ 75.732251864727687, 13.866753254589398 ], [ 75.731657301939762, 13.866672286842551 ] ] ] } }
]
}
