{
"type": "FeatureCollection",
"name": "wards_in_police_area.writing_20260805_172659",
"crs": { "type": "name", "properties": { "name": "urn:ogc:def:crs:OGC:1.3:CRS84" } },
"features": [
{ "type": "Feature", "properties": { "KGISWardID": 4902, "KGISWardCode": "2003013", "KGISWardName": "Mallasandra", "SHAPE.STArea()": 1295428.7467340101, "SHAPE.STLength()": 5705.6461372908607, "OBJECTID": 18856, "KGISWardNo": "13", "KGISTownCode": "2003", "LGD_WardCode": 1303151, "created_user": "SA", "created_date": 1634898537000, "last_edited_user": "SURESHBV1", "last_edited_date": 1692254014000, "_overlap_percent": 4.0122737063001077, "_police_station": "Chikkabanvara PS", "_police_feature_index": "809", "_admin_layer": "Ward", "_geometry_clipped": true }, "geometry": { "type": "MultiPolygon", "coordinates": [ [ [ [ 77.516465000256687, 13.060618000292392 ], [ 77.516516000433768, 13.060606999863898 ], [ 77.517017999893937, 13.060489000414874 ], [ 77.517388000331593, 13.060402000299369 ], [ 77.517413999858064, 13.060396000031238 ], [ 77.517629999933931, 13.060339999940966 ], [ 77.517752999973695, 13.060302000376147 ], [ 77.517780000307638, 13.060292999811407 ], [ 77.518070999827103, 13.06018299968127 ], [ 77.518251999916671, 13.060108000261225 ], [ 77.518288000303755, 13.060091000201719 ], [ 77.518384999676243, 13.060033000438439 ], [ 77.518572999731447, 13.059911999802203 ], [ 77.518750999604521, 13.059788000292775 ], [ 77.518909000264372, 13.059675000284203 ], [ 77.519184000454786, 13.059463999864681 ], [ 77.519271854793928, 13.059390981885633 ], [ 77.518442349245007, 13.059910556120219 ], [ 77.517982062734262, 13.060198862080687 ], [ 77.516177918817831, 13.060666959467413 ], [ 77.516465000256687, 13.060618000292392 ] ] ], [ [ [ 77.514138000030044, 13.061189999552333 ], [ 77.514193000038418, 13.061187999959094 ], [ 77.514240999770479, 13.061182000083331 ], [ 77.514307999795136, 13.06117199995232 ], [ 77.514358000326837, 13.061161999855278 ], [ 77.514542000380587, 13.061099999924519 ], [ 77.514673840116018, 13.061049346876409 ], [ 77.514116598873102, 13.06118673504268 ], [ 77.514138000030044, 13.061189999552333 ] ] ], [ [ [ 77.513917000059195, 13.061086999559398 ], [ 77.513951000281111, 13.061122999600867 ], [ 77.51397900028276, 13.061148000301904 ], [ 77.514020000122315, 13.06117199997227 ], [ 77.514045770006291, 13.061175930882884 ], [ 77.513862069132571, 13.06101798390258 ], [ 77.513917000059195, 13.061086999559398 ] ] ], [ [ [ 77.511456000451801, 13.059956999605266 ], [ 77.511477925811292, 13.059957851258885 ], [ 77.511455496675723, 13.059954321031539 ], [ 77.511456000451801, 13.059956999605266 ] ] ], [ [ [ 77.509231000335788, 13.057515000138418 ], [ 77.50903099964026, 13.057835000290963 ], [ 77.508936999828734, 13.057986000318115 ], [ 77.508859000403248, 13.058109999813128 ], [ 77.50877300029839, 13.058245000069624 ], [ 77.508718999955448, 13.058333000397743 ], [ 77.508522000391551, 13.058656999874808 ], [ 77.508385000002221, 13.058881000329151 ], [ 77.508058000448926, 13.059416999814184 ], [ 77.508132000368519, 13.059419000344043 ], [ 77.508454999636484, 13.059422999798068 ], [ 77.508672000389851, 13.059413000004573 ], [ 77.50876799969528, 13.059404000134 ], [ 77.509006000261593, 13.059348000442274 ], [ 77.509352999890226, 13.059251000268539 ], [ 77.509632000041577, 13.059171000309437 ], [ 77.509844999771872, 13.059108000327255 ], [ 77.51013300008853, 13.059013999749091 ], [ 77.510433999630422, 13.058928000369617 ], [ 77.510441999886822, 13.058926000057506 ], [ 77.510470000361821, 13.058917999715137 ], [ 77.510723999948567, 13.058869999837469 ], [ 77.510729000445636, 13.058868999898744 ], [ 77.510998000114739, 13.058828999868732 ], [ 77.511125000126214, 13.058808999882823 ], [ 77.511177825867932, 13.058801052668134 ], [ 77.511094179986685, 13.05812835881734 ], [ 77.511109204520594, 13.057805499671346 ], [ 77.510646147189121, 13.057526128451659 ], [ 77.510015411595163, 13.057242408685983 ], [ 77.509590768736388, 13.057144936423308 ], [ 77.509436001636516, 13.057177815366149 ], [ 77.509231000335788, 13.057515000138418 ] ] ] ] } },
{ "type": "Feature", "properties": { "KGISWardID": 4903, "KGISWardCode": "2003014", "KGISWardName": "Bagalakunte", "SHAPE.STArea()": 4186024.4515041648, "SHAPE.STLength()": 9627.8907194431868, "OBJECTID": 18857, "KGISWardNo": "14", "KGISTownCode": "2003", "LGD_WardCode": 1303152, "created_user": "SA", "created_date": 1634898537000, "last_edited_user": "SURESHBV1", "last_edited_date": 1692254014000, "_overlap_percent": 27.116961225486026, "_police_station": "Chikkabanvara PS", "_police_feature_index": "809", "_admin_layer": "Ward", "_geometry_clipped": true }, "geometry": { "type": "Polygon", "coordinates": [ [ [ 77.493010999962337, 13.071953000078794 ], [ 77.493017999788449, 13.072101999850725 ], [ 77.493209999832047, 13.072087999696913 ], [ 77.494731000163554, 13.071983000372695 ], [ 77.495956999751002, 13.071899000195295 ], [ 77.496278000292961, 13.07191600020141 ], [ 77.497423000394861, 13.071976000156113 ], [ 77.498115999630031, 13.072010999796278 ], [ 77.498535999945531, 13.071999999604577 ], [ 77.499669999808091, 13.071957999761651 ], [ 77.499785999724821, 13.071777999646706 ], [ 77.500495999837199, 13.071975000035618 ], [ 77.500631000139563, 13.072005999779421 ], [ 77.500662000280414, 13.072002999973256 ], [ 77.500875000369248, 13.071651000037354 ], [ 77.501453000148416, 13.071580999662396 ], [ 77.501477000443742, 13.071577999808282 ], [ 77.501506999869363, 13.071555000056289 ], [ 77.501616000416433, 13.071325000386643 ], [ 77.501748000055031, 13.071029999641439 ], [ 77.501782000197949, 13.070959000369955 ], [ 77.501896999737198, 13.070735000435599 ], [ 77.501926000391691, 13.070673000442158 ], [ 77.502037000424906, 13.070438999674638 ], [ 77.502071999638034, 13.070365000167467 ], [ 77.502127000444673, 13.070248999803377 ], [ 77.502183000313522, 13.070132000437676 ], [ 77.502189000008869, 13.070117000434637 ], [ 77.501965000405818, 13.069994000335063 ], [ 77.501781999703994, 13.06989599992605 ], [ 77.501280000385705, 13.069628000341877 ], [ 77.501759999575, 13.068935000344904 ], [ 77.50214200014068, 13.068397000148032 ], [ 77.502177000270095, 13.068413999947085 ], [ 77.503306999964195, 13.068217000007053 ], [ 77.503326000125327, 13.068213999707275 ], [ 77.503260000159912, 13.067091000413997 ], [ 77.50327399972781, 13.066800999886043 ], [ 77.503274000387876, 13.066738999881817 ], [ 77.503324999795254, 13.066665999957401 ], [ 77.503364999819354, 13.066608999854191 ], [ 77.503376000331528, 13.066572000266429 ], [ 77.503386999634927, 13.066539999684395 ], [ 77.503400000015674, 13.066519999703599 ], [ 77.503615999866824, 13.066183000190646 ], [ 77.503906000139381, 13.065730000304978 ], [ 77.504449999567555, 13.06492199965216 ], [ 77.504802000199604, 13.064402000156417 ], [ 77.50487400043194, 13.064287000310363 ], [ 77.504972000130707, 13.064128999949872 ], [ 77.505185999952431, 13.063792000207632 ], [ 77.505341000317884, 13.063552999836769 ], [ 77.505720000416517, 13.062969999869981 ], [ 77.506091999833416, 13.062378000138638 ], [ 77.506503000085701, 13.061747999853361 ], [ 77.50672100038561, 13.061392000152244 ], [ 77.506844999980714, 13.061143999558769 ], [ 77.506941999707593, 13.061081000072635 ], [ 77.507054999799848, 13.06093799985033 ], [ 77.507218000067638, 13.060654000044515 ], [ 77.507495999956788, 13.060214000106187 ], [ 77.507949999723749, 13.059570999573348 ], [ 77.508058000448926, 13.059416999814184 ], [ 77.508385000002221, 13.058881000329151 ], [ 77.508522000391551, 13.058656999874808 ], [ 77.508718999955448, 13.058333000397743 ], [ 77.50877300029839, 13.058245000069624 ], [ 77.508859000403248, 13.058109999813128 ], [ 77.508936999828734, 13.057986000318115 ], [ 77.50903099964026, 13.057835000290963 ], [ 77.509231000335788, 13.057515000138418 ], [ 77.509436001636516, 13.057177815366149 ], [ 77.509399161668341, 13.057185641701391 ], [ 77.508039219321887, 13.059305879979901 ], [ 77.507881199146226, 13.059594270515811 ], [ 77.506914838341274, 13.059517588096705 ], [ 77.506430903665645, 13.061804931130135 ], [ 77.505275531884237, 13.063569706700603 ], [ 77.505116888349903, 13.063830997035755 ], [ 77.502503567343439, 13.063449466677483 ], [ 77.500295619086657, 13.063088362595591 ], [ 77.499590830216334, 13.062837007940592 ], [ 77.499051645670392, 13.06256492639961 ], [ 77.498396199408077, 13.062370463375931 ], [ 77.49809879082197, 13.062387925382108 ], [ 77.496446633588008, 13.062484923494637 ], [ 77.4944758291319, 13.062427458794501 ], [ 77.493646085133975, 13.062358971617734 ], [ 77.493207887102542, 13.062430133159472 ], [ 77.492985303335047, 13.062604396083449 ], [ 77.492938581801511, 13.062636191877026 ], [ 77.49287999966505, 13.06305900016943 ], [ 77.492845999791527, 13.063392000010134 ], [ 77.492773000266226, 13.064002999866769 ], [ 77.492803000207729, 13.065166000238024 ], [ 77.492782999632894, 13.065471999636111 ], [ 77.492795999657858, 13.065520999871911 ], [ 77.492773580788068, 13.066390718636663 ], [ 77.492803781401918, 13.067564108179017 ], [ 77.492804999814652, 13.067590000246106 ], [ 77.49280899993947, 13.067663000067732 ], [ 77.492816999544914, 13.067835000452995 ], [ 77.49282200018753, 13.067930999887663 ], [ 77.49282599957391, 13.068012000148286 ], [ 77.492830000078868, 13.068091000062468 ], [ 77.492831392862627, 13.068118854136058 ], [ 77.492839060022376, 13.068190932500677 ], [ 77.493014999666798, 13.068187999961506 ], [ 77.493018999766448, 13.068271999797691 ], [ 77.493031000309841, 13.068521999867189 ], [ 77.492877210497539, 13.068549582111149 ], [ 77.492894582760485, 13.068712897386101 ], [ 77.492989339485149, 13.070385802832371 ], [ 77.493023167591701, 13.070983021468958 ], [ 77.493031629766818, 13.071096772706634 ], [ 77.493040895622499, 13.071216396117844 ], [ 77.493087518493127, 13.071847747102129 ], [ 77.493007129134185, 13.07187655006533 ], [ 77.493010999962337, 13.071953000078794 ] ] ] } },
{ "type": "Feature", "properties": { "KGISWardID": 4899, "KGISWardCode": "2003012", "KGISWardName": "Shettihalli", "SHAPE.STArea()": 8385704.6146757603, "SHAPE.STLength()": 18596.766293971752, "OBJECTID": 18855, "KGISWardNo": "12", "KGISTownCode": "2003", "LGD_WardCode": 1303150, "created_user": "SA", "created_date": 1634898537000, "last_edited_user": "SURESHBV1", "last_edited_date": 1692254014000, "_overlap_percent": 38.760604244969215, "_police_station": "Chikkabanvara PS", "_police_feature_index": "809", "_admin_layer": "Ward", "_geometry_clipped": true }, "geometry": { "type": "MultiPolygon", "coordinates": [ [ [ [ 77.52175999969532, 13.08109800032218 ], [ 77.521765999991061, 13.08129099979196 ], [ 77.521770000130488, 13.081446999828458 ], [ 77.521567999853701, 13.081755000453102 ], [ 77.521445000347697, 13.081808000295418 ], [ 77.521292000295944, 13.081965000386678 ], [ 77.521048000318729, 13.082312000350859 ], [ 77.520951000423992, 13.082499999867938 ], [ 77.520884000077814, 13.082744000038115 ], [ 77.52082500003489, 13.083035000342388 ], [ 77.520802000049557, 13.083264999569908 ], [ 77.520816000259799, 13.083434999834303 ], [ 77.520871999941591, 13.083774999647888 ], [ 77.520270999965376, 13.083903999891247 ], [ 77.520150000341175, 13.083933999901893 ], [ 77.520275000153802, 13.084835999717518 ], [ 77.52036399970055, 13.08483000039695 ], [ 77.52065000002608, 13.084804999893832 ], [ 77.521011999923857, 13.084783999738942 ], [ 77.522788000354353, 13.084794000060604 ], [ 77.523551624983028, 13.084774293546277 ], [ 77.523565729302447, 13.083556958407886 ], [ 77.523577695164519, 13.083446477574633 ], [ 77.523581189807132, 13.083213809810932 ], [ 77.523586279259519, 13.082874946625585 ], [ 77.523585056485061, 13.082869810591861 ], [ 77.523566421553383, 13.082791569525853 ], [ 77.523435181672923, 13.08174769296137 ], [ 77.523418614108962, 13.081615913472911 ], [ 77.523414117462309, 13.081580145551362 ], [ 77.523373693792678, 13.081554689724706 ], [ 77.523299327594387, 13.081507860718613 ], [ 77.523252667428153, 13.081156157302853 ], [ 77.523241434610071, 13.081071486047065 ], [ 77.523221966701115, 13.080924747143809 ], [ 77.523203183134797, 13.080926523614368 ], [ 77.522849057558986, 13.080960014397927 ], [ 77.522716485142894, 13.080781744840554 ], [ 77.522657805164442, 13.080752616711456 ], [ 77.522489680737024, 13.080669159965213 ], [ 77.522243480202462, 13.080546947257725 ], [ 77.522066962274621, 13.080352166566358 ], [ 77.52193818173069, 13.080362783979464 ], [ 77.52175999969532, 13.08109800032218 ] ] ], [ [ [ 77.51828399986708, 13.076446999986121 ], [ 77.518247000043331, 13.076459000404055 ], [ 77.518048000300169, 13.076522000296407 ], [ 77.517955000176968, 13.076549999967831 ], [ 77.517919000265223, 13.076560000230442 ], [ 77.517691000162799, 13.076628999932332 ], [ 77.517617000334909, 13.076650000164502 ], [ 77.517581000386841, 13.076660000384965 ], [ 77.517278000207497, 13.076754000378934 ], [ 77.517325999706088, 13.077693000136774 ], [ 77.517288000460283, 13.07778800005565 ], [ 77.517436000037193, 13.077757999629185 ], [ 77.517564999977083, 13.07773099966083 ], [ 77.517691999935479, 13.077705000315596 ], [ 77.51777799984437, 13.077686999963433 ], [ 77.517915000416593, 13.07765800010073 ], [ 77.518010000089006, 13.077639000282955 ], [ 77.518155000387111, 13.077607999668848 ], [ 77.51838099964182, 13.077560999641658 ], [ 77.518510000237654, 13.077535000280722 ], [ 77.518533999570238, 13.077650000106487 ], [ 77.518537999766565, 13.077669000048942 ], [ 77.518539999840655, 13.077676999796791 ], [ 77.518456999957266, 13.077693999886653 ], [ 77.518617000440045, 13.078182999693761 ], [ 77.518621999695696, 13.078200000427499 ], [ 77.51885000028868, 13.078159000250768 ], [ 77.518911999976169, 13.078376000321317 ], [ 77.518947000184227, 13.078588000183863 ], [ 77.51881999978589, 13.078598999781867 ], [ 77.518827000285981, 13.078636000216404 ], [ 77.518403000319893, 13.078715000419164 ], [ 77.518301999871539, 13.078760999775247 ], [ 77.51835600020533, 13.078965000244255 ], [ 77.518342000235592, 13.079075999794416 ], [ 77.518237000009009, 13.079142999748248 ], [ 77.51821899990442, 13.079243999794606 ], [ 77.518245999961749, 13.079397999659236 ], [ 77.518344000379884, 13.079690999667811 ], [ 77.519045000341052, 13.079669000381458 ], [ 77.519088999968616, 13.079679999923098 ], [ 77.519129999661516, 13.079691999973951 ], [ 77.519602000140154, 13.079251000128901 ], [ 77.519624000088811, 13.079310000103725 ], [ 77.519705000404471, 13.079338999692421 ], [ 77.520651000375722, 13.079168000089417 ], [ 77.520898999669768, 13.079116999992449 ], [ 77.52089901289358, 13.079117005127904 ], [ 77.521186000518256, 13.078528173808824 ], [ 77.521562905240543, 13.077754847937628 ], [ 77.521561837759165, 13.077601869314364 ], [ 77.521560850465121, 13.077598946278339 ], [ 77.521589594531648, 13.077434024330259 ], [ 77.521688126812748, 13.077280624807548 ], [ 77.521691458141191, 13.0770808483905 ], [ 77.52081071933388, 13.077238349388164 ], [ 77.520806893864105, 13.077219598969306 ], [ 77.520500227542257, 13.075897088667832 ], [ 77.520358388577577, 13.075937118675034 ], [ 77.518319017328466, 13.07633949245032 ], [ 77.518281486048934, 13.076186415868767 ], [ 77.51828399986708, 13.076446999986121 ] ] ], [ [ [ 77.511125000126214, 13.058808999882823 ], [ 77.510998000114739, 13.058828999868732 ], [ 77.510729000445636, 13.058868999898744 ], [ 77.510723999948567, 13.058869999837469 ], [ 77.510470000361821, 13.058917999715137 ], [ 77.510441999886822, 13.058926000057506 ], [ 77.510433999630422, 13.058928000369617 ], [ 77.51013300008853, 13.059013999749091 ], [ 77.509844999771872, 13.059108000327255 ], [ 77.509632000041577, 13.059171000309437 ], [ 77.509352999890226, 13.059251000268539 ], [ 77.509006000261593, 13.059348000442274 ], [ 77.50876799969528, 13.059404000134 ], [ 77.508672000389851, 13.059413000004573 ], [ 77.508454999636484, 13.059422999798068 ], [ 77.508132000368519, 13.059419000344043 ], [ 77.508058000448926, 13.059416999814184 ], [ 77.507949999723749, 13.059570999573348 ], [ 77.507495999956788, 13.060214000106187 ], [ 77.507218000067638, 13.060654000044515 ], [ 77.507054999799848, 13.06093799985033 ], [ 77.506941999707593, 13.061081000072635 ], [ 77.506844999980714, 13.061143999558769 ], [ 77.50672100038561, 13.061392000152244 ], [ 77.506503000085701, 13.061747999853361 ], [ 77.506091999833416, 13.062378000138638 ], [ 77.505720000416517, 13.062969999869981 ], [ 77.505341000317884, 13.063552999836769 ], [ 77.505185999952431, 13.063792000207632 ], [ 77.504972000130707, 13.064128999949872 ], [ 77.50487400043194, 13.064287000310363 ], [ 77.504802000199604, 13.064402000156417 ], [ 77.504449999567555, 13.06492199965216 ], [ 77.503906000139381, 13.065730000304978 ], [ 77.503615999866824, 13.066183000190646 ], [ 77.503400000015674, 13.066519999703599 ], [ 77.503386999634927, 13.066539999684395 ], [ 77.503376000331528, 13.066572000266429 ], [ 77.503364999819354, 13.066608999854191 ], [ 77.503324999795254, 13.066665999957401 ], [ 77.503274000387876, 13.066738999881817 ], [ 77.50327399972781, 13.066800999886043 ], [ 77.503260000159912, 13.067091000413997 ], [ 77.503326000125327, 13.068213999707275 ], [ 77.503306999964195, 13.068217000007053 ], [ 77.502177000270095, 13.068413999947085 ], [ 77.50214200014068, 13.068397000148032 ], [ 77.501759999575, 13.068935000344904 ], [ 77.501280000385705, 13.069628000341877 ], [ 77.501781999703994, 13.06989599992605 ], [ 77.501965000405818, 13.069994000335063 ], [ 77.502189000008869, 13.070117000434637 ], [ 77.502183000313522, 13.070132000437676 ], [ 77.502127000444673, 13.070248999803377 ], [ 77.502071999638034, 13.070365000167467 ], [ 77.502037000424906, 13.070438999674638 ], [ 77.501926000391691, 13.070673000442158 ], [ 77.501896999737198, 13.070735000435599 ], [ 77.501782000197949, 13.070959000369955 ], [ 77.501748000055031, 13.071029999641439 ], [ 77.501616000416433, 13.071325000386643 ], [ 77.501506999869363, 13.071555000056289 ], [ 77.501477000443742, 13.071577999808282 ], [ 77.501453000148416, 13.071580999662396 ], [ 77.500875000369248, 13.071651000037354 ], [ 77.500662000280414, 13.072002999973256 ], [ 77.500631000139563, 13.072005999779421 ], [ 77.500495999837199, 13.071975000035618 ], [ 77.499785999724821, 13.071777999646706 ], [ 77.499669999808091, 13.071957999761651 ], [ 77.499601000033636, 13.072210000236563 ], [ 77.499195000210747, 13.072548999604118 ], [ 77.49908899965466, 13.072710000002688 ], [ 77.499047999779407, 13.072778999640354 ], [ 77.498962000456672, 13.072898000185505 ], [ 77.498874999814305, 13.073103000020067 ], [ 77.498882999751174, 13.073181999619244 ], [ 77.49892599993052, 13.073272000202314 ], [ 77.498928000371279, 13.073564000384174 ], [ 77.499107000061571, 13.07356000026307 ], [ 77.499059999623725, 13.073817000049237 ], [ 77.499475999966791, 13.074345000290702 ], [ 77.499769999592587, 13.074007999641545 ], [ 77.500488000171757, 13.074304999993396 ], [ 77.500568999880286, 13.074310999854927 ], [ 77.500658000193255, 13.074303999611629 ], [ 77.500772000253804, 13.074260999853506 ], [ 77.500854999738692, 13.074191999770301 ], [ 77.50089699990653, 13.074111000016448 ], [ 77.50093300005895, 13.073551000020313 ], [ 77.500962000044666, 13.0734149998544 ], [ 77.501023999870355, 13.073360000327744 ], [ 77.501158999621396, 13.073319999949819 ], [ 77.501401000268146, 13.073342000262256 ], [ 77.50154400001891, 13.073377000230504 ], [ 77.501609999675352, 13.073400999853625 ], [ 77.501679999997691, 13.073492999650355 ], [ 77.501709000409363, 13.073553999546421 ], [ 77.501711999800307, 13.074005999846255 ], [ 77.502157999711329, 13.074167000203497 ], [ 77.50219800034553, 13.074189000083651 ], [ 77.502727999626913, 13.073291000451018 ], [ 77.503155000458662, 13.073097000074178 ], [ 77.503144000399089, 13.07323099984403 ], [ 77.503144999838483, 13.073313999817048 ], [ 77.503173999760392, 13.073409000415216 ], [ 77.502890000114377, 13.073623000366016 ], [ 77.503003999815377, 13.073859000113535 ], [ 77.503087999941897, 13.074032999692495 ], [ 77.503259000347626, 13.074385000069745 ], [ 77.503353999611903, 13.074580000111625 ], [ 77.503551000422817, 13.074737999893786 ], [ 77.503517000454877, 13.07488700008502 ], [ 77.503529999606641, 13.074918000054023 ], [ 77.503606000182458, 13.075007000093295 ], [ 77.503707000293645, 13.07513499970262 ], [ 77.503762999716841, 13.075162000339134 ], [ 77.504018999792521, 13.075286000291715 ], [ 77.504103999887178, 13.075327000075875 ], [ 77.50411800002415, 13.075337999755243 ], [ 77.504165000214414, 13.075373999559091 ], [ 77.504327999884566, 13.075661000092008 ], [ 77.504533999648146, 13.076022999982159 ], [ 77.504825000438089, 13.075597000367241 ], [ 77.505002999876936, 13.075815000149113 ], [ 77.505101999831851, 13.075972999694406 ], [ 77.505079999882597, 13.076660999612921 ], [ 77.505168999953156, 13.076671000382554 ], [ 77.505378999978973, 13.076775000001204 ], [ 77.505554000111417, 13.076822000335536 ], [ 77.505790999745912, 13.077279000145804 ], [ 77.505938000235872, 13.077464000069202 ], [ 77.506429999660938, 13.077590000172977 ], [ 77.506744000287227, 13.077728999701188 ], [ 77.507136000054444, 13.077846000320793 ], [ 77.507635999997447, 13.077700999719296 ], [ 77.507700999790899, 13.077678999989377 ], [ 77.507984000196188, 13.077694999708605 ], [ 77.508491000337074, 13.077604000334421 ], [ 77.508697000077902, 13.077793000196701 ], [ 77.50889400004516, 13.077799000093256 ], [ 77.509034000082224, 13.077716999895697 ], [ 77.509473999621321, 13.077165000028099 ], [ 77.509546000200075, 13.076834999644111 ], [ 77.509659999780766, 13.076761000248435 ], [ 77.509791000430141, 13.07674800039306 ], [ 77.509857000281301, 13.076741000024585 ], [ 77.50992300010634, 13.076734999795121 ], [ 77.51002000012501, 13.076645999688411 ], [ 77.510085000108077, 13.07658599987322 ], [ 77.510110000090961, 13.076562999883834 ], [ 77.510136000190641, 13.076532999925863 ], [ 77.510157000306748, 13.07650700041396 ], [ 77.510216999587939, 13.076436999766484 ], [ 77.510268999775889, 13.076375000429708 ], [ 77.510322999901774, 13.076311999554598 ], [ 77.510356999981468, 13.076271999751558 ], [ 77.510391000050546, 13.076231999945929 ], [ 77.51045300016618, 13.076157999970222 ], [ 77.510821999812848, 13.075992999936181 ], [ 77.510943000351972, 13.075912999750852 ], [ 77.511430000277358, 13.075559999560893 ], [ 77.511740999753528, 13.075452999673553 ], [ 77.512402000353674, 13.075242000208021 ], [ 77.514011999720765, 13.074563000380389 ], [ 77.514700000071443, 13.075543999690822 ], [ 77.514871000221291, 13.075482999854744 ], [ 77.51628200009543, 13.074981000149322 ], [ 77.5165949996221, 13.074926000379552 ], [ 77.516901816105317, 13.0749616542323 ], [ 77.516959405417339, 13.074798476557413 ], [ 77.517299880020857, 13.074460589415891 ], [ 77.517418543524059, 13.0743510485584 ], [ 77.517786007927356, 13.074157424444813 ], [ 77.5190275347843, 13.07368067045504 ], [ 77.518759805557323, 13.072800282413912 ], [ 77.518541922528627, 13.072083802517156 ], [ 77.518284971528061, 13.071393076412685 ], [ 77.518136011715555, 13.071131578984364 ], [ 77.517608255281928, 13.070186517574145 ], [ 77.517199147251958, 13.069583402985588 ], [ 77.517907607890834, 13.069232271557549 ], [ 77.518254050488963, 13.068769926557815 ], [ 77.518591322408284, 13.068365041537598 ], [ 77.518350273746051, 13.067678940857183 ], [ 77.520280573785072, 13.065800396566335 ], [ 77.520132270648773, 13.065603436146052 ], [ 77.519971008159601, 13.065210583675471 ], [ 77.519969006961702, 13.065013391375748 ], [ 77.519842878718904, 13.064838922366564 ], [ 77.520014505043108, 13.063649990504709 ], [ 77.52001428729038, 13.063147996489253 ], [ 77.520223748736854, 13.062643958511947 ], [ 77.520197041881516, 13.061453773516165 ], [ 77.520445171832407, 13.060915891955911 ], [ 77.520085936119429, 13.059875722874008 ], [ 77.520251267951664, 13.059348210430761 ], [ 77.520382058037399, 13.059191142288526 ], [ 77.519610282098839, 13.059179002462301 ], [ 77.519271854793928, 13.059390981885633 ], [ 77.519184000454786, 13.059463999864681 ], [ 77.518909000264372, 13.059675000284203 ], [ 77.518750999604521, 13.059788000292775 ], [ 77.518572999731447, 13.059911999802203 ], [ 77.518384999676243, 13.060033000438439 ], [ 77.518288000303755, 13.060091000201719 ], [ 77.518251999916671, 13.060108000261225 ], [ 77.518070999827103, 13.06018299968127 ], [ 77.517780000307638, 13.060292999811407 ], [ 77.517752999973695, 13.060302000376147 ], [ 77.517629999933931, 13.060339999940966 ], [ 77.517413999858064, 13.060396000031238 ], [ 77.517388000331593, 13.060402000299369 ], [ 77.517017999893937, 13.060489000414874 ], [ 77.516516000433768, 13.060606999863898 ], [ 77.516465000256687, 13.060618000292392 ], [ 77.516177918817831, 13.060666959467413 ], [ 77.515282596535783, 13.060899256911474 ], [ 77.515022427008915, 13.060963402566633 ], [ 77.514673840116018, 13.061049346876409 ], [ 77.514542000380587, 13.061099999924519 ], [ 77.514358000326837, 13.061161999855278 ], [ 77.514307999795136, 13.06117199995232 ], [ 77.514240999770479, 13.061182000083331 ], [ 77.514193000038418, 13.061187999959094 ], [ 77.514138000030044, 13.061189999552333 ], [ 77.514116598873102, 13.06118673504268 ], [ 77.514071319705366, 13.061197898648935 ], [ 77.514045770006291, 13.061175930882884 ], [ 77.514020000122315, 13.06117199997227 ], [ 77.51397900028276, 13.061148000301904 ], [ 77.513951000281111, 13.061122999600867 ], [ 77.513917000059195, 13.061086999559398 ], [ 77.513862069132571, 13.06101798390258 ], [ 77.513510495267482, 13.060715698838694 ], [ 77.51275964502355, 13.0602496877075 ], [ 77.51201140776044, 13.060041818496892 ], [ 77.511477925811292, 13.059957851258885 ], [ 77.511456000451801, 13.059956999605266 ], [ 77.511455496675723, 13.059954321031539 ], [ 77.511410618358454, 13.059947257421696 ], [ 77.511179736448554, 13.05881641786981 ], [ 77.511177825867932, 13.058801052668134 ], [ 77.511125000126214, 13.058808999882823 ] ] ] ] } },
{ "type": "Feature", "properties": { "KGISWardID": 7118, "KGISWardCode": "2010010", "KGISWardName": " ", "SHAPE.STArea()": 317280.09215262003, "SHAPE.STLength()": 3792.7057549966289, "OBJECTID": 6766, "KGISWardNo": "10", "KGISTownCode": "2010", "LGD_WardCode": 0, "created_user": "SURESHBV2", "created_date": 1709625043000, "last_edited_user": "SURESHBV2", "last_edited_date": 1709625043000, "_overlap_percent": 100.00000000000003, "_police_station": "Chikkabanvara PS", "_police_feature_index": "809", "_admin_layer": "Ward", "_geometry_clipped": true }, "geometry": { "type": "Polygon", "coordinates": [ [ [ 77.500944166246256, 13.075535924902947 ], [ 77.501341413378412, 13.075349486146713 ], [ 77.501628483122303, 13.075121728215379 ], [ 77.502175788021134, 13.074265869919081 ], [ 77.502118149362829, 13.074204597408464 ], [ 77.501737934278225, 13.073716268404119 ], [ 77.501445891193043, 13.073243982376523 ], [ 77.501181088088117, 13.072977979289371 ], [ 77.500439585818825, 13.072600116184605 ], [ 77.500370944549118, 13.072463919460647 ], [ 77.499611481147852, 13.072039467309772 ], [ 77.4995045730941, 13.071979916805827 ], [ 77.499416351613263, 13.071998381483038 ], [ 77.498610210242546, 13.072968076460919 ], [ 77.498343977846531, 13.073292178232219 ], [ 77.497081281647255, 13.073353242848409 ], [ 77.49661848684903, 13.073368999721305 ], [ 77.495003475106444, 13.073436833190977 ], [ 77.492973780613298, 13.073525867614242 ], [ 77.49269414910124, 13.074246800997342 ], [ 77.492620762495619, 13.074469305326295 ], [ 77.492669688228034, 13.074621714907108 ], [ 77.492812095446482, 13.075065735084934 ], [ 77.492680129532232, 13.076219498809266 ], [ 77.49386987716575, 13.076139085813898 ], [ 77.494657797151419, 13.075937878601664 ], [ 77.495279345498915, 13.075720115243337 ], [ 77.495334518085926, 13.075702888180267 ], [ 77.495489981273053, 13.075709732907011 ], [ 77.49561554001815, 13.075706432183548 ], [ 77.495685611384971, 13.075689061033367 ], [ 77.495778404097649, 13.075602607018288 ], [ 77.495837434469337, 13.075545693754275 ], [ 77.495973006440025, 13.075479694072127 ], [ 77.496339489325351, 13.075302950705753 ], [ 77.496735896983992, 13.075138438101069 ], [ 77.49699475092936, 13.075054551970455 ], [ 77.497124230778383, 13.075017825061297 ], [ 77.497228189788927, 13.074983431093166 ], [ 77.497677576472782, 13.074795450735985 ], [ 77.498286786298323, 13.074624704166654 ], [ 77.49827117361697, 13.075188275984438 ], [ 77.498011137746914, 13.076000449993092 ], [ 77.497655567392542, 13.076881962374369 ], [ 77.497016449937618, 13.076893238937654 ], [ 77.496098015434427, 13.077180490105706 ], [ 77.495572715896827, 13.077863762803645 ], [ 77.495404117501309, 13.077966468986922 ], [ 77.495319984024079, 13.078008052346034 ], [ 77.49578369983989, 13.079006544757076 ], [ 77.496882885311038, 13.078846335890574 ], [ 77.497130696176612, 13.078832335982389 ], [ 77.497979407566561, 13.076443147220557 ], [ 77.498091088769485, 13.076118620828248 ], [ 77.498095073236783, 13.076091454088054 ], [ 77.499357683873427, 13.075910208115275 ], [ 77.499889087174282, 13.075834113914251 ], [ 77.500337584228078, 13.075769255087536 ], [ 77.500444185579269, 13.075759223020027 ], [ 77.500944166246256, 13.075535924902947 ] ] ] } },
{ "type": "Feature", "properties": { "KGISWardID": 7117, "KGISWardCode": "2010009", "KGISWardName": " ", "SHAPE.STArea()": 114206.308159725, "SHAPE.STLength()": 1437.9714657981378, "OBJECTID": 6765, "KGISWardNo": "9", "KGISTownCode": "2010", "LGD_WardCode": 0, "created_user": "SURESHBV2", "created_date": 1709625043000, "last_edited_user": "SURESHBV2", "last_edited_date": 1709625043000, "_overlap_percent": 100.0, "_police_station": "Chikkabanvara PS", "_police_feature_index": "809", "_admin_layer": "Ward", "_geometry_clipped": true }, "geometry": { "type": "Polygon", "coordinates": [ [ [ 77.501628483122303, 13.075121728215379 ], [ 77.501341413378412, 13.075349486146713 ], [ 77.500944166246256, 13.075535924902947 ], [ 77.500444182814604, 13.075759223046804 ], [ 77.500605914146874, 13.076295645036049 ], [ 77.500821016812566, 13.07717716648828 ], [ 77.501157025880289, 13.078504208469946 ], [ 77.50140456215226, 13.079138228281812 ], [ 77.502320189464527, 13.078202136964789 ], [ 77.503425252755008, 13.076984007340871 ], [ 77.504378142968548, 13.075983787289442 ], [ 77.504154430821643, 13.075632144930733 ], [ 77.503985630550346, 13.075403498858154 ], [ 77.503659126933755, 13.075260707034763 ], [ 77.503536004230085, 13.075196694522232 ], [ 77.502689910047508, 13.074811965498238 ], [ 77.502422351993332, 13.074527976299759 ], [ 77.502175788021134, 13.074265869919081 ], [ 77.501628483122303, 13.075121728215379 ] ] ] } },
{ "type": "Feature", "properties": { "KGISWardID": 7112, "KGISWardCode": "2010004", "KGISWardName": " ", "SHAPE.STArea()": 158156.092236205, "SHAPE.STLength()": 1712.8375395779728, "OBJECTID": 6761, "KGISWardNo": "4", "KGISTownCode": "2010", "LGD_WardCode": 0, "created_user": "SURESHBV2", "created_date": 1709625043000, "last_edited_user": "SURESHBV2", "last_edited_date": 1709625043000, "_overlap_percent": 85.958104764619705, "_police_station": "Chikkabanvara PS", "_police_feature_index": "809", "_admin_layer": "Ward", "_geometry_clipped": true }, "geometry": { "type": "Polygon", "coordinates": [ [ [ 77.514582475536542, 13.074994877417652 ], [ 77.514387873714043, 13.075040619418406 ], [ 77.51438003149859, 13.075043798340266 ], [ 77.514359460579868, 13.075052157997405 ], [ 77.514620598487454, 13.075628111827598 ], [ 77.515222968456172, 13.07692523084318 ], [ 77.515211718117556, 13.077167131341941 ], [ 77.515108325153022, 13.077781573042705 ], [ 77.515184305843647, 13.078067400024974 ], [ 77.515515632509533, 13.079210441206957 ], [ 77.515577185237589, 13.07947747430401 ], [ 77.51614343447099, 13.079122650207445 ], [ 77.516430660935796, 13.07890779019051 ], [ 77.516853204137846, 13.078488148193497 ], [ 77.517161807274036, 13.078075347609342 ], [ 77.517227159594157, 13.077941344347266 ], [ 77.517884769964098, 13.077848071300359 ], [ 77.518566672088923, 13.077681628279443 ], [ 77.518550932980077, 13.077624957655882 ], [ 77.518393835513152, 13.077082493232091 ], [ 77.518338673547518, 13.076941942565773 ], [ 77.518333813637355, 13.076821362222743 ], [ 77.518320275607735, 13.076503762144439 ], [ 77.51830750394555, 13.076292533505127 ], [ 77.51817423934115, 13.075748995146281 ], [ 77.517118115382942, 13.076020843878224 ], [ 77.516946736899499, 13.075472709478897 ], [ 77.516888294010855, 13.07499996870173 ], [ 77.516959405417339, 13.074798476557413 ], [ 77.517299880020857, 13.074460589415891 ], [ 77.517379260516748, 13.074387311555778 ], [ 77.514582475536542, 13.074994877417652 ] ] ] } },
{ "type": "Feature", "properties": { "KGISWardID": 7119, "KGISWardCode": "2010011", "KGISWardName": " ", "SHAPE.STArea()": 96510.412169445, "SHAPE.STLength()": 1550.7272247804892, "OBJECTID": 6767, "KGISWardNo": "11", "KGISTownCode": "2010", "LGD_WardCode": 0, "created_user": "SURESHBV2", "created_date": 1709625043000, "last_edited_user": "SURESHBV2", "last_edited_date": 1709625043000, "_overlap_percent": 99.999999999999972, "_police_station": "Chikkabanvara PS", "_police_feature_index": "809", "_admin_layer": "Ward", "_geometry_clipped": true }, "geometry": { "type": "Polygon", "coordinates": [ [ [ 77.500821016812566, 13.07717716648828 ], [ 77.500605914146874, 13.076295645036049 ], [ 77.500444185579269, 13.075759223020027 ], [ 77.500337584228078, 13.075769255087536 ], [ 77.499889087174282, 13.075834113914251 ], [ 77.499357683873427, 13.075910208115275 ], [ 77.498095073236783, 13.076091454088054 ], [ 77.498091088769485, 13.076118620828248 ], [ 77.497979407566561, 13.076443147220557 ], [ 77.497130697070901, 13.07883233326327 ], [ 77.497106037153998, 13.078920217616295 ], [ 77.498061108802716, 13.078637612751304 ], [ 77.498044465746759, 13.078464573934953 ], [ 77.49910283748028, 13.078293650041353 ], [ 77.499178874695929, 13.078921154052869 ], [ 77.499200800348277, 13.079116574229516 ], [ 77.499818967990322, 13.07906820088246 ], [ 77.499853714869531, 13.079337095820328 ], [ 77.500321789572538, 13.079270962152181 ], [ 77.500008007452649, 13.077693684521913 ], [ 77.500906140715657, 13.077513359128513 ], [ 77.500821016812566, 13.07717716648828 ] ] ] } },
{ "type": "Feature", "properties": { "KGISWardID": 7113, "KGISWardCode": "2010005", "KGISWardName": " ", "SHAPE.STArea()": 370941.49979592499, "SHAPE.STLength()": 2796.6526092367108, "OBJECTID": 6762, "KGISWardNo": "5", "KGISTownCode": "2010", "LGD_WardCode": 0, "created_user": "SURESHBV2", "created_date": 1709625043000, "last_edited_user": "SURESHBV2", "last_edited_date": 1709625043000, "_overlap_percent": 99.999999999999986, "_police_station": "Chikkabanvara PS", "_police_feature_index": "809", "_admin_layer": "Ward", "_geometry_clipped": true }, "geometry": { "type": "Polygon", "coordinates": [ [ [ 77.515515632509533, 13.079210441206957 ], [ 77.515184305843647, 13.078067400024974 ], [ 77.515108325153022, 13.077781573042705 ], [ 77.515211718117556, 13.077167131341941 ], [ 77.515222968456172, 13.07692523084318 ], [ 77.514620598487454, 13.075628111827598 ], [ 77.514359460579868, 13.075052157997405 ], [ 77.514302628043581, 13.07507525418143 ], [ 77.514296482198077, 13.075077761558433 ], [ 77.51391465346677, 13.075240508392278 ], [ 77.513596824501164, 13.075367340820849 ], [ 77.513174994531752, 13.07548320154031 ], [ 77.512929726910045, 13.075543875165044 ], [ 77.512355122338946, 13.075597785509794 ], [ 77.512348693488448, 13.075598379316631 ], [ 77.512000686187548, 13.075700946135541 ], [ 77.511321144678561, 13.07588503790565 ], [ 77.511218456380291, 13.075762718748775 ], [ 77.511192766794466, 13.075732137313659 ], [ 77.511187656675432, 13.075728530627959 ], [ 77.510976521035488, 13.075796507651789 ], [ 77.510639812110057, 13.075993817656931 ], [ 77.510469779242129, 13.07612809688635 ], [ 77.510167388294917, 13.076370748241233 ], [ 77.509918475556887, 13.076597241030148 ], [ 77.509690382448696, 13.076792412602407 ], [ 77.509413097680508, 13.076995012706304 ], [ 77.509150881218858, 13.077345218101916 ], [ 77.508989030705905, 13.077577812725419 ], [ 77.508925939849675, 13.077727025389539 ], [ 77.508865158841687, 13.077810105939999 ], [ 77.508816908365787, 13.077851982420613 ], [ 77.508384692461945, 13.077612781637388 ], [ 77.508175082958402, 13.077643367531415 ], [ 77.507711754061432, 13.077817079742246 ], [ 77.50754367335945, 13.077880095229066 ], [ 77.507510483413753, 13.077892537872234 ], [ 77.507176867410479, 13.078006638589647 ], [ 77.507221057737809, 13.078147251367097 ], [ 77.507217173262703, 13.078396666952019 ], [ 77.507073128499329, 13.078650431738444 ], [ 77.507062776978941, 13.078784704186649 ], [ 77.507021268857727, 13.078897987746769 ], [ 77.507209369093843, 13.079307412165628 ], [ 77.50724618076832, 13.079387730279555 ], [ 77.506757665320151, 13.07948217676179 ], [ 77.506377475294144, 13.079588588793811 ], [ 77.506312782077813, 13.079606606369785 ], [ 77.506243494745789, 13.079655487302832 ], [ 77.50625398519017, 13.079694176547072 ], [ 77.506297174485937, 13.079853476962281 ], [ 77.506523531989586, 13.080009858375041 ], [ 77.506899992636377, 13.080267454447554 ], [ 77.507767604499904, 13.080861118879731 ], [ 77.509147616413742, 13.080215246963677 ], [ 77.511571249731773, 13.079975303079573 ], [ 77.51220522769988, 13.079937610531291 ], [ 77.513025640550268, 13.079835056400356 ], [ 77.51344366266305, 13.079833850850184 ], [ 77.513861539441066, 13.079818318654619 ], [ 77.514558601897235, 13.079659648086537 ], [ 77.515063674905406, 13.079594547080289 ], [ 77.51524461150612, 13.079564127349785 ], [ 77.515577187993102, 13.079477473373677 ], [ 77.515515632509533, 13.079210441206957 ] ] ] } },
{ "type": "Feature", "properties": { "KGISWardID": 7121, "KGISWardCode": "2010013", "KGISWardName": " ", "SHAPE.STArea()": 369347.14231677499, "SHAPE.STLength()": 3487.1568411932699, "OBJECTID": 6769, "KGISWardNo": "13", "KGISTownCode": "2010", "LGD_WardCode": 0, "created_user": "SURESHBV2", "created_date": 1709625043000, "last_edited_user": "SURESHBV2", "last_edited_date": 1709625043000, "_overlap_percent": 99.995636500421583, "_police_station": "Chikkabanvara PS", "_police_feature_index": "809", "_admin_layer": "Ward", "_geometry_clipped": true }, "geometry": { "type": "Polygon", "coordinates": [ [ [ 77.492707297344467, 13.079897600717329 ], [ 77.492969053233779, 13.080101660718441 ], [ 77.49336864939977, 13.080465069499629 ], [ 77.493607264614255, 13.080696480472081 ], [ 77.493791046200712, 13.080952418653927 ], [ 77.494921791349086, 13.080938229284426 ], [ 77.496139158419425, 13.081268814926229 ], [ 77.496216013119025, 13.081303937435036 ], [ 77.49617735025727, 13.081428211598553 ], [ 77.496504626802576, 13.081558728102003 ], [ 77.497061121513099, 13.081660942551361 ], [ 77.497779859535399, 13.081689852873815 ], [ 77.498260025931657, 13.081809105009661 ], [ 77.49832331433376, 13.081818274401956 ], [ 77.498334376156706, 13.081925764763328 ], [ 77.498876550306946, 13.081927036724162 ], [ 77.498979825498893, 13.081943358356746 ], [ 77.500022968573234, 13.080880646649131 ], [ 77.499979117985347, 13.080543020396894 ], [ 77.499853714842217, 13.079337093110114 ], [ 77.499818967990322, 13.07906820088246 ], [ 77.499200800348277, 13.079116574229516 ], [ 77.499178874695929, 13.078921154052869 ], [ 77.49910283748028, 13.078293650041353 ], [ 77.498044465746759, 13.078464573934953 ], [ 77.498061108802716, 13.078637612751304 ], [ 77.497106037153998, 13.078920217616295 ], [ 77.497130697070901, 13.07883233326327 ], [ 77.496882885311038, 13.078846335890574 ], [ 77.49578369983989, 13.079006544757076 ], [ 77.495319984024079, 13.078008052346034 ], [ 77.495404117501309, 13.077966468986922 ], [ 77.495572715896827, 13.077863762803645 ], [ 77.496098015434427, 13.077180490105706 ], [ 77.497016449937618, 13.076893238937654 ], [ 77.497655567392542, 13.076881962374369 ], [ 77.498011137746914, 13.076000449993092 ], [ 77.49827117361697, 13.075188275984438 ], [ 77.498286786298323, 13.074624704166654 ], [ 77.497677576472782, 13.074795450735985 ], [ 77.497228189788927, 13.074983431093166 ], [ 77.497124230778383, 13.075017825061297 ], [ 77.49699475092936, 13.075054551970455 ], [ 77.496735896983992, 13.075138438101069 ], [ 77.496339489325351, 13.075302950705753 ], [ 77.495973006440025, 13.075479694072127 ], [ 77.495837434469337, 13.075545693754275 ], [ 77.495778404097649, 13.075602607018288 ], [ 77.495685611384971, 13.075689061033367 ], [ 77.49561554001815, 13.075706432183548 ], [ 77.495489981273053, 13.075709732907011 ], [ 77.495334518085926, 13.075702888180267 ], [ 77.495279345498915, 13.075720115243337 ], [ 77.494657797151419, 13.075937878601664 ], [ 77.49386987716575, 13.076139085813898 ], [ 77.492680129532232, 13.076219498809266 ], [ 77.49255630944306, 13.07730203655993 ], [ 77.49257044439544, 13.077352715246777 ], [ 77.492507296470649, 13.077370806662 ], [ 77.492637317265661, 13.077990682879822 ], [ 77.492676586739663, 13.078179572830791 ], [ 77.492886372922726, 13.078794679578964 ], [ 77.492850050800854, 13.07896448046902 ], [ 77.492829750715998, 13.079056045859927 ], [ 77.4927999095963, 13.079119183737836 ], [ 77.492731629184888, 13.07919098962109 ], [ 77.492330539772254, 13.079611946928374 ], [ 77.492312287033712, 13.079631078732026 ], [ 77.492376690244527, 13.079660741662735 ], [ 77.492364345328468, 13.07967375100786 ], [ 77.492359692988884, 13.07967864748805 ], [ 77.492707297344467, 13.079897600717329 ] ] ] } },
{ "type": "Feature", "properties": { "KGISWardID": 7116, "KGISWardCode": "2010008", "KGISWardName": " ", "SHAPE.STArea()": 121658.10523232, "SHAPE.STLength()": 1463.470323450362, "OBJECTID": 6764, "KGISWardNo": "8", "KGISTownCode": "2010", "LGD_WardCode": 0, "created_user": "SURESHBV2", "created_date": 1709625043000, "last_edited_user": "SURESHBV2", "last_edited_date": 1709625043000, "_overlap_percent": 100.0, "_police_station": "Chikkabanvara PS", "_police_feature_index": "809", "_admin_layer": "Ward", "_geometry_clipped": true }, "geometry": { "type": "Polygon", "coordinates": [ [ [ 77.503425252755008, 13.076984007340871 ], [ 77.502320189464527, 13.078202136964789 ], [ 77.501404561203358, 13.07913822558055 ], [ 77.5015303051796, 13.079238897755893 ], [ 77.501682905373485, 13.07942591876091 ], [ 77.502627929743227, 13.080822015533734 ], [ 77.502944253464207, 13.080737562777308 ], [ 77.503674922227589, 13.080578143304832 ], [ 77.503806616278965, 13.080549738550575 ], [ 77.504210188712193, 13.08046235357809 ], [ 77.504653486427031, 13.080303633596737 ], [ 77.504809894709837, 13.080232732519073 ], [ 77.505034108511083, 13.080051617534075 ], [ 77.50490924458903, 13.07906997734003 ], [ 77.504691534709366, 13.077798831289924 ], [ 77.504731333381415, 13.077722889331573 ], [ 77.504889949887769, 13.077290961337813 ], [ 77.504990368583691, 13.076925291389511 ], [ 77.504933291466799, 13.076916751649156 ], [ 77.504627005983394, 13.076504536508811 ], [ 77.504382602594461, 13.075990797543534 ], [ 77.504378142968548, 13.075983787289442 ], [ 77.503425252755008, 13.076984007340871 ] ] ] } },
{ "type": "Feature", "properties": { "KGISWardID": 7111, "KGISWardCode": "2010003", "KGISWardName": " ", "SHAPE.STArea()": 51013.179401164998, "SHAPE.STLength()": 954.62593184495643, "OBJECTID": 6760, "KGISWardNo": "3", "KGISTownCode": "2010", "LGD_WardCode": 0, "created_user": "SURESHBV2", "created_date": 1709625043000, "last_edited_user": "SURESHBV2", "last_edited_date": 1709625043000, "_overlap_percent": 100.00000000000003, "_police_station": "Chikkabanvara PS", "_police_feature_index": "809", "_admin_layer": "Ward", "_geometry_clipped": true }, "geometry": { "type": "Polygon", "coordinates": [ [ [ 77.517884769964098, 13.077848071300359 ], [ 77.517227159594157, 13.077941344347266 ], [ 77.517161807274036, 13.078075347609342 ], [ 77.516853204137846, 13.078488148193497 ], [ 77.516430660935796, 13.07890779019051 ], [ 77.51614343447099, 13.079122650207445 ], [ 77.516413366223929, 13.079796317314381 ], [ 77.516614485571822, 13.080234468533972 ], [ 77.516678226216456, 13.080201881946909 ], [ 77.516633780710222, 13.080054119639806 ], [ 77.517245401378219, 13.079827918873423 ], [ 77.517470050376318, 13.079782416857915 ], [ 77.51762753422183, 13.07975026910805 ], [ 77.51808892461618, 13.079677236623048 ], [ 77.518777804335826, 13.079584289738753 ], [ 77.518951847400587, 13.07955762906947 ], [ 77.518857199161673, 13.079042352263762 ], [ 77.518774320008021, 13.078649698720563 ], [ 77.518755765656422, 13.078518291091013 ], [ 77.518700984064026, 13.07817055881012 ], [ 77.518656896898932, 13.078006494758739 ], [ 77.518566672088923, 13.077681628279443 ], [ 77.517884769964098, 13.077848071300359 ] ] ] } },
{ "type": "Feature", "properties": { "KGISWardID": 7115, "KGISWardCode": "2010007", "KGISWardName": " ", "SHAPE.STArea()": 100140.55110727499, "SHAPE.STLength()": 1821.9848491991536, "OBJECTID": 6780, "KGISWardNo": "7", "KGISTownCode": "2010", "LGD_WardCode": 0, "created_user": "SURESHBV2", "created_date": 1709625043000, "last_edited_user": "SURESHBV2", "last_edited_date": 1709625043000, "_overlap_percent": 100.0, "_police_station": "Chikkabanvara PS", "_police_feature_index": "809", "_admin_layer": "Ward", "_geometry_clipped": true }, "geometry": { "type": "Polygon", "coordinates": [ [ [ 77.50625398519017, 13.079694176547072 ], [ 77.506243494745789, 13.079655487302832 ], [ 77.506312782077813, 13.079606606369785 ], [ 77.506377475294144, 13.079588588793811 ], [ 77.506757665320151, 13.07948217676179 ], [ 77.50724618076832, 13.079387730279555 ], [ 77.507209369093843, 13.079307412165628 ], [ 77.507021268857727, 13.078897987746769 ], [ 77.507062776978941, 13.078784704186649 ], [ 77.507073128499329, 13.078650431738444 ], [ 77.507217173262703, 13.078396666952019 ], [ 77.507221057737809, 13.078147251367097 ], [ 77.507176867410479, 13.078006638589647 ], [ 77.506931052996805, 13.077864765770837 ], [ 77.506242712506733, 13.077587891129777 ], [ 77.506078213214522, 13.077586435295453 ], [ 77.505860158648176, 13.077588978560286 ], [ 77.5057813035083, 13.077523478819877 ], [ 77.505751887610117, 13.07742807084165 ], [ 77.505714756038557, 13.077329045205353 ], [ 77.505583113845603, 13.077105967739195 ], [ 77.505422776698509, 13.076932190857333 ], [ 77.505326260805347, 13.076932987503406 ], [ 77.50519548760883, 13.076955989036101 ], [ 77.504990368583691, 13.076925291389511 ], [ 77.504889949887769, 13.077290961337813 ], [ 77.504731333381415, 13.077722889331573 ], [ 77.504691534709366, 13.077798831289924 ], [ 77.50490924458903, 13.07906997734003 ], [ 77.505034108511083, 13.080051617534075 ], [ 77.504809892875826, 13.080232733440356 ], [ 77.504653486427031, 13.080303633596737 ], [ 77.504210188712193, 13.08046235357809 ], [ 77.503806616278965, 13.080549738550575 ], [ 77.503674922227589, 13.080578143304832 ], [ 77.502944253464207, 13.080737562777308 ], [ 77.502627927872737, 13.080822012841418 ], [ 77.502584007921712, 13.080899647999388 ], [ 77.502586471399241, 13.081143772435226 ], [ 77.502610469487138, 13.081412727269983 ], [ 77.502810421759222, 13.081416019370943 ], [ 77.502929683532187, 13.081349022049174 ], [ 77.503062149955795, 13.081164324111844 ], [ 77.503132491662441, 13.081003742836039 ], [ 77.50315385555615, 13.080957514737287 ], [ 77.504439538857454, 13.081399650151228 ], [ 77.504698776121245, 13.081421213056839 ], [ 77.50510968414909, 13.081369067108856 ], [ 77.50536039894115, 13.081264298254782 ], [ 77.505635583045745, 13.081150262194839 ], [ 77.505771882630555, 13.080965338082757 ], [ 77.505982805274954, 13.080568999438135 ], [ 77.506073144828392, 13.080393550939649 ], [ 77.506140623927195, 13.080082881228011 ], [ 77.506154818858676, 13.079968369471157 ], [ 77.506200292623447, 13.079910740952286 ], [ 77.506297179978802, 13.079853473295005 ], [ 77.50625398519017, 13.079694176547072 ] ] ] } },
{ "type": "Feature", "properties": { "KGISWardID": 7120, "KGISWardCode": "2010012", "KGISWardName": " ", "SHAPE.STArea()": 36542.191390159998, "SHAPE.STLength()": 953.56980993836896, "OBJECTID": 6768, "KGISWardNo": "12", "KGISTownCode": "2010", "LGD_WardCode": 0, "created_user": "SURESHBV2", "created_date": 1709625043000, "last_edited_user": "SURESHBV2", "last_edited_date": 1709625043000, "_overlap_percent": 99.999999999999957, "_police_station": "Chikkabanvara PS", "_police_feature_index": "809", "_admin_layer": "Ward", "_geometry_clipped": true }, "geometry": { "type": "Polygon", "coordinates": [ [ [ 77.5015303051796, 13.079238897755893 ], [ 77.50140456215226, 13.079138228281812 ], [ 77.501157025880289, 13.078504208469946 ], [ 77.500906140715657, 13.077513359128513 ], [ 77.500008007452649, 13.077693684521913 ], [ 77.500321789572538, 13.079270962152181 ], [ 77.499853714842217, 13.079337093110114 ], [ 77.499979117985347, 13.080543020396894 ], [ 77.50002296674829, 13.080880648473784 ], [ 77.501549507459259, 13.079262431813973 ], [ 77.5015303051796, 13.079238897755893 ] ] ] } },
{ "type": "Feature", "properties": { "KGISWardID": 7124, "KGISWardCode": "2010016", "KGISWardName": " ", "SHAPE.STArea()": 63657.740917460003, "SHAPE.STLength()": 1138.4881691975063, "OBJECTID": 6772, "KGISWardNo": "16", "KGISTownCode": "2010", "LGD_WardCode": 0, "created_user": "SURESHBV2", "created_date": 1709625043000, "last_edited_user": "SURESHBV2", "last_edited_date": 1709625043000, "_overlap_percent": 99.999999999999972, "_police_station": "Chikkabanvara PS", "_police_feature_index": "809", "_admin_layer": "Ward", "_geometry_clipped": true }, "geometry": { "type": "Polygon", "coordinates": [ [ [ 77.50261605649365, 13.081544139442887 ], [ 77.502610472242736, 13.081412726339776 ], [ 77.502586471399241, 13.081143772435226 ], [ 77.502584007921712, 13.080899647999388 ], [ 77.502627929743227, 13.080822015533734 ], [ 77.501682905373485, 13.07942591876091 ], [ 77.501549507459259, 13.079262431813973 ], [ 77.500022968573234, 13.080880646649131 ], [ 77.498979827314741, 13.081943355628685 ], [ 77.498876441526875, 13.082073193388345 ], [ 77.500215237743618, 13.082083618129642 ], [ 77.500280603979917, 13.081968866135384 ], [ 77.500343794706509, 13.081968253891519 ], [ 77.500623430801667, 13.08190184123373 ], [ 77.500946189808829, 13.081889365114058 ], [ 77.501228190067849, 13.08188796738529 ], [ 77.501289451092703, 13.081883367552713 ], [ 77.501641291362318, 13.081782464476362 ], [ 77.501883212805708, 13.081699403476243 ], [ 77.502142702984003, 13.081678107776563 ], [ 77.502573183944406, 13.081624014142742 ], [ 77.50261605649365, 13.081544139442887 ] ] ] } },
{ "type": "Feature", "properties": { "KGISWardID": 7126, "KGISWardCode": "2010018", "KGISWardName": " ", "SHAPE.STArea()": 32965.856932280003, "SHAPE.STLength()": 886.47751833359769, "OBJECTID": 6774, "KGISWardNo": "18", "KGISTownCode": "2010", "LGD_WardCode": 0, "created_user": "SURESHBV2", "created_date": 1709625043000, "last_edited_user": "SURESHBV2", "last_edited_date": 1709625043000, "_overlap_percent": 100.0, "_police_station": "Chikkabanvara PS", "_police_feature_index": "809", "_admin_layer": "Ward", "_geometry_clipped": true }, "geometry": { "type": "Polygon", "coordinates": [ [ [ 77.50378445941719, 13.082572001213419 ], [ 77.503416206739772, 13.081941205639133 ], [ 77.503195221369154, 13.081770150056503 ], [ 77.502850950673064, 13.081616984557327 ], [ 77.502818739470086, 13.081593154888514 ], [ 77.502692240436659, 13.081499579729703 ], [ 77.502610472242736, 13.081412726339776 ], [ 77.50261605649365, 13.081544139442887 ], [ 77.502573184847734, 13.081624012327012 ], [ 77.50227615587724, 13.081661337991829 ], [ 77.50245716259036, 13.082536568551566 ], [ 77.501298503062586, 13.082629274079528 ], [ 77.501479149096696, 13.083378231528137 ], [ 77.502169207761384, 13.083361902556407 ], [ 77.502622119862608, 13.08326428491308 ], [ 77.502648323926977, 13.08337788634037 ], [ 77.503971969597885, 13.082896807264383 ], [ 77.50378445941719, 13.082572001213419 ] ] ] } },
{ "type": "Feature", "properties": { "KGISWardID": 7114, "KGISWardCode": "2010006", "KGISWardName": " ", "SHAPE.STArea()": 477993.96248400002, "SHAPE.STLength()": 3895.5542236476972, "OBJECTID": 6763, "KGISWardNo": "6", "KGISTownCode": "2010", "LGD_WardCode": 0, "created_user": "SURESHBV2", "created_date": 1709625043000, "last_edited_user": "SURESHBV2", "last_edited_date": 1709625043000, "_overlap_percent": 100.00000000000004, "_police_station": "Chikkabanvara PS", "_police_feature_index": "809", "_admin_layer": "Ward", "_geometry_clipped": true }, "geometry": { "type": "Polygon", "coordinates": [ [ [ 77.510727319759241, 13.083046084715068 ], [ 77.510739749264232, 13.083168321379924 ], [ 77.510849371612665, 13.083145696747025 ], [ 77.510910566652484, 13.083141252449066 ], [ 77.511635111664859, 13.082995600750575 ], [ 77.512635298864978, 13.082794534384732 ], [ 77.512906535632951, 13.082739940329448 ], [ 77.512983386011513, 13.082667854040251 ], [ 77.513280046166784, 13.082437719755587 ], [ 77.513713232706451, 13.082180817882097 ], [ 77.514017537883703, 13.08200034774846 ], [ 77.514108592537951, 13.081951558191754 ], [ 77.514332261868176, 13.081831780348002 ], [ 77.514944804192154, 13.081398572579252 ], [ 77.51495526377397, 13.081391182283001 ], [ 77.515109560651695, 13.081461124786159 ], [ 77.515106291950275, 13.081165544661079 ], [ 77.515183298174591, 13.081146652316114 ], [ 77.516003144982534, 13.080947144185197 ], [ 77.51599641681446, 13.080906344546763 ], [ 77.515946240504746, 13.080601487811572 ], [ 77.516026169457163, 13.080571101621601 ], [ 77.516021024201919, 13.080537611049655 ], [ 77.516572557777408, 13.080255898587684 ], [ 77.516614485571822, 13.080234468533972 ], [ 77.516413366223929, 13.079796317314381 ], [ 77.51614343447099, 13.079122650207445 ], [ 77.515577187993102, 13.079477473373677 ], [ 77.51524461150612, 13.079564127349785 ], [ 77.515063674905406, 13.079594547080289 ], [ 77.514558601897235, 13.079659648086537 ], [ 77.513861539441066, 13.079818318654619 ], [ 77.51344366266305, 13.079833850850184 ], [ 77.513025640550268, 13.079835056400356 ], [ 77.51220522769988, 13.079937610531291 ], [ 77.511571249731773, 13.079975303079573 ], [ 77.509147616413742, 13.080215246963677 ], [ 77.507767604499904, 13.080861118879731 ], [ 77.506899992636377, 13.080267454447554 ], [ 77.506523531989586, 13.080009858375041 ], [ 77.506468922302332, 13.079972130668397 ], [ 77.506297179978802, 13.079853473295005 ], [ 77.506200292623447, 13.079910740952286 ], [ 77.506154818858676, 13.079968369471157 ], [ 77.506140623927195, 13.080082881228011 ], [ 77.506073144828392, 13.080393550939649 ], [ 77.505982805274954, 13.080568999438135 ], [ 77.505771882630555, 13.080965338082757 ], [ 77.505635583045745, 13.081150262194839 ], [ 77.50536039894115, 13.081264298254782 ], [ 77.50510968414909, 13.081369067108856 ], [ 77.504698776121245, 13.081421213056839 ], [ 77.504439538857454, 13.081399650151228 ], [ 77.50315385555615, 13.080957514737287 ], [ 77.503132491662441, 13.081003742836039 ], [ 77.503062149955795, 13.081164324111844 ], [ 77.502929683532187, 13.081349022049174 ], [ 77.502810421759222, 13.081416019370943 ], [ 77.502610469487138, 13.081412727269983 ], [ 77.502692240436659, 13.081499579729703 ], [ 77.502850950673064, 13.081616984557327 ], [ 77.503195221369154, 13.081770150056503 ], [ 77.503416206739772, 13.081941205639133 ], [ 77.50378445941719, 13.082572001213419 ], [ 77.504116308949008, 13.083146832216668 ], [ 77.504731875795116, 13.084404310551806 ], [ 77.504810443931476, 13.084979234121347 ], [ 77.505087153439305, 13.085784219763921 ], [ 77.50512636312861, 13.085898285275679 ], [ 77.505223984838139, 13.085992795020468 ], [ 77.505307730188193, 13.086018668014647 ], [ 77.505319708445938, 13.086007461417877 ], [ 77.506094239510972, 13.08528461227694 ], [ 77.506506923273449, 13.084926302039429 ], [ 77.506656006833268, 13.084837050378182 ], [ 77.507134229210649, 13.084550751790449 ], [ 77.508038823528466, 13.084309068433559 ], [ 77.508066792603501, 13.084295496385295 ], [ 77.509434150092929, 13.083631982275826 ], [ 77.510727319759241, 13.083046084715068 ] ] ] } },
{ "type": "Feature", "properties": { "KGISWardID": 7125, "KGISWardCode": "2010017", "KGISWardName": " ", "SHAPE.STArea()": 36992.925445979999, "SHAPE.STLength()": 920.09417148847911, "OBJECTID": 6773, "KGISWardNo": "17", "KGISTownCode": "2010", "LGD_WardCode": 0, "created_user": "SURESHBV2", "created_date": 1709625043000, "last_edited_user": "SURESHBV2", "last_edited_date": 1709625043000, "_overlap_percent": 99.999999999999972, "_police_station": "Chikkabanvara PS", "_police_feature_index": "809", "_admin_layer": "Ward", "_geometry_clipped": true }, "geometry": { "type": "Polygon", "coordinates": [ [ [ 77.502142702984003, 13.081678107776563 ], [ 77.501883212805708, 13.081699403476243 ], [ 77.501641291362318, 13.081782464476362 ], [ 77.501289451092703, 13.081883367552713 ], [ 77.501228190067849, 13.08188796738529 ], [ 77.500946189808829, 13.081889365114058 ], [ 77.500623430801667, 13.08190184123373 ], [ 77.500343794706509, 13.081968253891519 ], [ 77.500280603979917, 13.081968866135384 ], [ 77.500215238637864, 13.082083615410502 ], [ 77.499813118742935, 13.083289620423276 ], [ 77.499703719193334, 13.083626265653976 ], [ 77.499858171439399, 13.083636408072033 ], [ 77.500607042130639, 13.083526342080001 ], [ 77.501479151861446, 13.083378231501333 ], [ 77.501298503062586, 13.082629274079528 ], [ 77.50245716259036, 13.082536568551566 ], [ 77.50227615587724, 13.081661337991829 ], [ 77.502142702984003, 13.081678107776563 ] ] ] } },
{ "type": "Feature", "properties": { "KGISWardID": 7110, "KGISWardCode": "2010002", "KGISWardName": " ", "SHAPE.STArea()": 699622.25191126496, "SHAPE.STLength()": 4486.8034867629003, "OBJECTID": 6759, "KGISWardNo": "2", "KGISTownCode": "2010", "LGD_WardCode": 0, "created_user": "SURESHBV2", "created_date": 1709625043000, "last_edited_user": "SURESHBV2", "last_edited_date": 1709625043000, "_overlap_percent": 99.437225330647919, "_police_station": "Chikkabanvara PS", "_police_feature_index": "809", "_admin_layer": "Ward", "_geometry_clipped": true }, "geometry": { "type": "Polygon", "coordinates": [ [ [ 77.519563320552294, 13.079295549565407 ], [ 77.519485972662721, 13.079309004764603 ], [ 77.519262549772648, 13.079353068943831 ], [ 77.519184431847705, 13.079341348070631 ], [ 77.518951847400587, 13.07955762906947 ], [ 77.518777804335826, 13.079584289738753 ], [ 77.51808892461618, 13.079677236623048 ], [ 77.51762753422183, 13.07975026910805 ], [ 77.517470050376318, 13.079782416857915 ], [ 77.517245401378219, 13.079827918873423 ], [ 77.516633780710222, 13.080054119639806 ], [ 77.516678226216456, 13.080201881946909 ], [ 77.516572557777408, 13.080255898587684 ], [ 77.516021024201919, 13.080537611049655 ], [ 77.516026169457163, 13.080571101621601 ], [ 77.515946240504746, 13.080601487811572 ], [ 77.51599641681446, 13.080906344546763 ], [ 77.516003144982534, 13.080947144185197 ], [ 77.515183298174591, 13.081146652316114 ], [ 77.515106291950275, 13.081165544661079 ], [ 77.515109560651695, 13.081461124786159 ], [ 77.51495526652036, 13.081391180449282 ], [ 77.514944804192154, 13.081398572579252 ], [ 77.514332261868176, 13.081831780348002 ], [ 77.514108592537951, 13.081951558191754 ], [ 77.514017537883703, 13.08200034774846 ], [ 77.513713232706451, 13.082180817882097 ], [ 77.513280046166784, 13.082437719755587 ], [ 77.512983386011513, 13.082667854040251 ], [ 77.512906534711377, 13.082739940338422 ], [ 77.512635298864978, 13.082794534384732 ], [ 77.510910566652484, 13.083141252449066 ], [ 77.510849371612665, 13.083145696747025 ], [ 77.510739749264232, 13.083168321379924 ], [ 77.510713630142902, 13.083245504265799 ], [ 77.510649894585782, 13.083472011071839 ], [ 77.510644967672263, 13.083489518792401 ], [ 77.510534768958436, 13.083881148951624 ], [ 77.510482830014936, 13.08406573236838 ], [ 77.510415040873426, 13.084306642169818 ], [ 77.510352988388391, 13.084450179430547 ], [ 77.510407602575185, 13.085060551645135 ], [ 77.510402665795681, 13.085395476960963 ], [ 77.510560399039434, 13.085855707006001 ], [ 77.510686497699311, 13.086154348071213 ], [ 77.510846187265017, 13.086602040069829 ], [ 77.511335151600619, 13.086290201830886 ], [ 77.513081392214374, 13.085378823235828 ], [ 77.513263979585659, 13.085161941441992 ], [ 77.513975853337087, 13.084491964017024 ], [ 77.514236375969134, 13.084246772603843 ], [ 77.51496838219586, 13.083578280306273 ], [ 77.516059425930962, 13.082581894847115 ], [ 77.51608650707999, 13.082553375416362 ], [ 77.516295664820774, 13.082865445475518 ], [ 77.516948592866441, 13.083946706638701 ], [ 77.517019142264161, 13.08423983024875 ], [ 77.517169893853293, 13.084703112912329 ], [ 77.517394533705726, 13.085271517702989 ], [ 77.518072167110276, 13.086895650694633 ], [ 77.521610582727376, 13.085962642512614 ], [ 77.523445804679596, 13.085783434409741 ], [ 77.523469528133504, 13.085169598429813 ], [ 77.523514407257395, 13.084459201889514 ], [ 77.523542149831044, 13.083573735231628 ], [ 77.523477384892331, 13.08357174494221 ], [ 77.52348363804002, 13.083416134552238 ], [ 77.523521775648192, 13.083052117084897 ], [ 77.523540070960877, 13.082875837615681 ], [ 77.523569054031114, 13.082802622309275 ], [ 77.523566421553383, 13.082791569525853 ], [ 77.523445154257217, 13.081827014483142 ], [ 77.5233653161863, 13.081549414277138 ], [ 77.523299327594387, 13.081507860718613 ], [ 77.523252667428153, 13.081156157302853 ], [ 77.523241434610071, 13.081071486047065 ], [ 77.523231893186193, 13.080999567790226 ], [ 77.523214428339514, 13.080925460090286 ], [ 77.523203183134797, 13.080926523614368 ], [ 77.522849057558986, 13.080960014397927 ], [ 77.522716485142894, 13.080781744840554 ], [ 77.522657805164442, 13.080752616711456 ], [ 77.522489680737024, 13.080669159965213 ], [ 77.522243480202462, 13.080546947257725 ], [ 77.522066962274621, 13.080352166566358 ], [ 77.521709547354817, 13.080381633920183 ], [ 77.521280642724193, 13.080405023129119 ], [ 77.521212938457879, 13.080204661306766 ], [ 77.521136723045132, 13.079960338167233 ], [ 77.52088253079657, 13.079150822526605 ], [ 77.52090655170737, 13.079101537249569 ], [ 77.519563320552294, 13.079295549565407 ] ] ] } },
{ "type": "Feature", "properties": { "KGISWardID": 7123, "KGISWardCode": "2010015", "KGISWardName": " ", "SHAPE.STArea()": 113436.785290855, "SHAPE.STLength()": 1574.6808409774787, "OBJECTID": 6771, "KGISWardNo": "15", "KGISTownCode": "2010", "LGD_WardCode": 0, "created_user": "SURESHBV2", "created_date": 1709625043000, "last_edited_user": "SURESHBV2", "last_edited_date": 1709625043000, "_overlap_percent": 99.999999999999972, "_police_station": "Chikkabanvara PS", "_police_feature_index": "809", "_admin_layer": "Ward", "_geometry_clipped": true }, "geometry": { "type": "Polygon", "coordinates": [ [ [ 77.498876550306946, 13.081927036724162 ], [ 77.498334376156706, 13.081925764763328 ], [ 77.49832331433376, 13.081818274401956 ], [ 77.498260025931657, 13.081809105009661 ], [ 77.497779859535399, 13.081689852873815 ], [ 77.497061121513099, 13.081660942551361 ], [ 77.496504626802576, 13.081558728102003 ], [ 77.496177351151573, 13.081428208879437 ], [ 77.495367464737853, 13.083455748689198 ], [ 77.494846587349429, 13.085034202095592 ], [ 77.494851684074703, 13.085210220686063 ], [ 77.494863663518728, 13.085409000328813 ], [ 77.495273257365042, 13.085986391428147 ], [ 77.496782688842615, 13.084399230639765 ], [ 77.498185937149714, 13.084359564136561 ], [ 77.498249127665034, 13.084358952304486 ], [ 77.498242813195674, 13.084062303949537 ], [ 77.498250293719252, 13.083814430609157 ], [ 77.49825007959474, 13.083787873710834 ], [ 77.498352249348457, 13.083786884475506 ], [ 77.498170886846282, 13.082959285087416 ], [ 77.498979827314741, 13.081943355628685 ], [ 77.498876550306946, 13.081927036724162 ] ] ] } },
{ "type": "Feature", "properties": { "KGISWardID": 7122, "KGISWardCode": "2010014", "KGISWardName": " ", "SHAPE.STArea()": 338513.14427585498, "SHAPE.STLength()": 2668.9399351222414, "OBJECTID": 6770, "KGISWardNo": "14", "KGISTownCode": "2010", "LGD_WardCode": 0, "created_user": "SURESHBV2", "created_date": 1709625043000, "last_edited_user": "SURESHBV2", "last_edited_date": 1709625043000, "_overlap_percent": 99.379952773163353, "_police_station": "Chikkabanvara PS", "_police_feature_index": "809", "_admin_layer": "Ward", "_geometry_clipped": true }, "geometry": { "type": "Polygon", "coordinates": [ [ [ 77.49219828753148, 13.088862787192864 ], [ 77.492242078411905, 13.089019166147219 ], [ 77.492269105329981, 13.089115676300231 ], [ 77.493159714994746, 13.088209980997071 ], [ 77.495273259190043, 13.085986389603516 ], [ 77.494863663518728, 13.085409000328813 ], [ 77.494851684065608, 13.085210219782663 ], [ 77.494846587349429, 13.085034202095592 ], [ 77.495367464737853, 13.083455748689198 ], [ 77.496177351151573, 13.081428208879437 ], [ 77.496216013119025, 13.081303937435036 ], [ 77.496139158419425, 13.081268814926229 ], [ 77.494921791349086, 13.080938229284426 ], [ 77.493791046200712, 13.080952418653927 ], [ 77.493607264614255, 13.080696480472081 ], [ 77.49336864939977, 13.080465069499629 ], [ 77.492969053233779, 13.080101660718441 ], [ 77.492707297344467, 13.079897600717329 ], [ 77.492359692988884, 13.07967864748805 ], [ 77.492316632161518, 13.07972396801647 ], [ 77.491993752474102, 13.080096725558048 ], [ 77.491839631925799, 13.080264734664183 ], [ 77.491836930435724, 13.08027784423559 ], [ 77.491790407158902, 13.080500180566233 ], [ 77.491757459705539, 13.080543327870352 ], [ 77.491633005715471, 13.080706321611572 ], [ 77.491572681788639, 13.080867804456572 ], [ 77.491553560532111, 13.080919515296845 ], [ 77.491424316675023, 13.081472635013521 ], [ 77.49142405852777, 13.081473728022534 ], [ 77.491370801643001, 13.081466283172698 ], [ 77.491406651590665, 13.082433109982956 ], [ 77.491405644542553, 13.08250520569765 ], [ 77.491499074525436, 13.083921749660867 ], [ 77.491531653678507, 13.084120390614668 ], [ 77.491125771027711, 13.084205883328053 ], [ 77.491017469557718, 13.084208617554948 ], [ 77.491070064311685, 13.084749655788286 ], [ 77.491088114342588, 13.084840722634249 ], [ 77.491108348974819, 13.084956896754669 ], [ 77.491124853912851, 13.085020877035756 ], [ 77.491370254337156, 13.085772165508024 ], [ 77.49141808759407, 13.085860895558167 ], [ 77.491483446690225, 13.085965298194353 ], [ 77.491581150185112, 13.086121833507743 ], [ 77.491807777448997, 13.086978307407326 ], [ 77.491863493030621, 13.087486087984548 ], [ 77.491871669736582, 13.087560091695178 ], [ 77.491930347484399, 13.087857653527626 ], [ 77.49219828753148, 13.088862787192864 ] ] ] } },
{ "type": "Feature", "properties": { "KGISWardID": 7127, "KGISWardCode": "2010019", "KGISWardName": " ", "SHAPE.STArea()": 157729.50781179001, "SHAPE.STLength()": 2697.9990826109515, "OBJECTID": 6775, "KGISWardNo": "19", "KGISTownCode": "2010", "LGD_WardCode": 0, "created_user": "SURESHBV2", "created_date": 1709625043000, "last_edited_user": "SURESHBV2", "last_edited_date": 1709625043000, "_overlap_percent": 100.00000000000004, "_police_station": "Chikkabanvara PS", "_police_feature_index": "809", "_admin_layer": "Ward", "_geometry_clipped": true }, "geometry": { "type": "Polygon", "coordinates": [ [ [ 77.499813118742935, 13.083289620423276 ], [ 77.500215238637864, 13.082083615410502 ], [ 77.498876441526875, 13.082073193388345 ], [ 77.498170886846282, 13.082959285087416 ], [ 77.498352249348457, 13.083786884475506 ], [ 77.49825007959474, 13.083787873710834 ], [ 77.498250293719252, 13.083814430609157 ], [ 77.498242813195674, 13.084062303949537 ], [ 77.498249127665034, 13.084358952304486 ], [ 77.498185937149714, 13.084359564136561 ], [ 77.496782688842615, 13.084399230639765 ], [ 77.495273257365042, 13.085986391428147 ], [ 77.493159714994746, 13.088209980997071 ], [ 77.492269105329981, 13.089115676300231 ], [ 77.492293751752669, 13.089203684994663 ], [ 77.49236230872134, 13.089448493361898 ], [ 77.492506571945412, 13.08969956311463 ], [ 77.492581249371966, 13.08982935453635 ], [ 77.49262680579514, 13.089908478520671 ], [ 77.492639471760995, 13.089924875566512 ], [ 77.492709132455147, 13.090015074681979 ], [ 77.492791588738328, 13.090164879975582 ], [ 77.492857445634115, 13.090284485617198 ], [ 77.49286502158229, 13.090298734550569 ], [ 77.493572203834802, 13.089402200860418 ], [ 77.49395519527728, 13.089005364285068 ], [ 77.494401434140585, 13.088601018461638 ], [ 77.49472911149067, 13.088301274860033 ], [ 77.495059403324419, 13.087911843229794 ], [ 77.495619638467105, 13.087299481255453 ], [ 77.495974724530683, 13.08692705214707 ], [ 77.496270773766938, 13.086631061879629 ], [ 77.496588275969529, 13.086369349095943 ], [ 77.496822534638881, 13.086225692107174 ], [ 77.496980029078756, 13.086144851315282 ], [ 77.497351474920393, 13.08599986609256 ], [ 77.497638845046694, 13.085890179660383 ], [ 77.497834442324049, 13.085750343922243 ], [ 77.498103146139059, 13.08553393330995 ], [ 77.498333120784139, 13.085314448910674 ], [ 77.49882295483151, 13.084699315306887 ], [ 77.499703721009169, 13.083626262925906 ], [ 77.499813118742935, 13.083289620423276 ] ] ] } },
{ "type": "Feature", "properties": { "KGISWardID": 7130, "KGISWardCode": "2010022", "KGISWardName": " ", "SHAPE.STArea()": 381322.00204356498, "SHAPE.STLength()": 3202.275583382178, "OBJECTID": 6779, "KGISWardNo": "22", "KGISTownCode": "2010", "LGD_WardCode": 0, "created_user": "SURESHBV2", "created_date": 1709625043000, "last_edited_user": "SURESHBV2", "last_edited_date": 1709625043000, "_overlap_percent": 100.00000000000007, "_police_station": "Chikkabanvara PS", "_police_feature_index": "809", "_admin_layer": "Ward", "_geometry_clipped": true }, "geometry": { "type": "Polygon", "coordinates": [ [ [ 77.510686497699311, 13.086154348071213 ], [ 77.510560399039434, 13.085855707006001 ], [ 77.510402665795681, 13.085395476960963 ], [ 77.510407602575185, 13.085060551645135 ], [ 77.510352988388391, 13.084450179430547 ], [ 77.510379676995143, 13.084388443252982 ], [ 77.510415040873426, 13.084306642169818 ], [ 77.510534768958436, 13.083881148951624 ], [ 77.510623518135233, 13.083565746437245 ], [ 77.510644967672263, 13.083489518792401 ], [ 77.510649894585782, 13.083472011071839 ], [ 77.510713630142902, 13.083245504265799 ], [ 77.510739749264232, 13.083168321379924 ], [ 77.510727319759241, 13.083046084715068 ], [ 77.509434150092929, 13.083631982275826 ], [ 77.508066792603501, 13.084295496385295 ], [ 77.508038823528466, 13.084309068433559 ], [ 77.507134229210649, 13.084550751790449 ], [ 77.506656006833268, 13.084837050378182 ], [ 77.506506923273449, 13.084926302039429 ], [ 77.506094239510972, 13.08528461227694 ], [ 77.505319708445938, 13.086007461417877 ], [ 77.50530773109152, 13.08601866619891 ], [ 77.505251290198984, 13.086071471852032 ], [ 77.505164162205062, 13.086504896532903 ], [ 77.505142923884705, 13.086610690337292 ], [ 77.505122974251634, 13.086710118322634 ], [ 77.50468471942763, 13.086805308612224 ], [ 77.504273043059371, 13.086870790191163 ], [ 77.504208559418899, 13.086856201468098 ], [ 77.50413972477314, 13.086855232542513 ], [ 77.504055027740961, 13.086870665854063 ], [ 77.503780120666619, 13.086920649700147 ], [ 77.503640431521546, 13.08693820403848 ], [ 77.503461463314409, 13.087015846354468 ], [ 77.503316010357949, 13.087079266816982 ], [ 77.502872919298028, 13.087361479460551 ], [ 77.502862910890698, 13.08736615272443 ], [ 77.502828654569882, 13.087389793230303 ], [ 77.502593396947461, 13.087539967355777 ], [ 77.502528112150628, 13.087640491975002 ], [ 77.502431501090641, 13.087730437086629 ], [ 77.502378088742077, 13.08778032173799 ], [ 77.502307888987914, 13.087845659836658 ], [ 77.502237437853438, 13.0879113906669 ], [ 77.502164566730286, 13.087950318633151 ], [ 77.502084062609498, 13.088004996115455 ], [ 77.501768961653383, 13.088217816710024 ], [ 77.500963140147732, 13.088274290054773 ], [ 77.500596535933823, 13.088327746604742 ], [ 77.500718177237474, 13.088765704736749 ], [ 77.500766557668669, 13.088945188696819 ], [ 77.500918022865108, 13.089506434638635 ], [ 77.501012215716102, 13.089817351787399 ], [ 77.501061149938522, 13.089954572335191 ], [ 77.501072557114313, 13.089986562617112 ], [ 77.502284407291654, 13.089759339237155 ], [ 77.503007193888038, 13.08962999928008 ], [ 77.503024524353705, 13.089626789961123 ], [ 77.503070874894931, 13.089939289610866 ], [ 77.503134178730875, 13.090378204867767 ], [ 77.503165514900488, 13.090693588629509 ], [ 77.503174699872105, 13.090790425442419 ], [ 77.504573896081297, 13.090030600382995 ], [ 77.505483829623188, 13.089528147369208 ], [ 77.506998521408363, 13.088709800308092 ], [ 77.508314220598251, 13.087950567915144 ], [ 77.51068387429028, 13.086663382378255 ], [ 77.510846190020629, 13.08660203913953 ], [ 77.510686497699311, 13.086154348071213 ] ] ] } },
{ "type": "Feature", "properties": { "KGISWardID": 7109, "KGISWardCode": "2010001", "KGISWardName": " ", "SHAPE.STArea()": 1052234.2645998551, "SHAPE.STLength()": 4548.3600902434018, "OBJECTID": 6758, "KGISWardNo": "1", "KGISTownCode": "2010", "LGD_WardCode": 0, "created_user": "SURESHBV2", "created_date": 1709625043000, "last_edited_user": "SURESHBV2", "last_edited_date": 1709625043000, "_overlap_percent": 99.592486557791943, "_police_station": "Chikkabanvara PS", "_police_feature_index": "809", "_admin_layer": "Ward", "_geometry_clipped": true }, "geometry": { "type": "Polygon", "coordinates": [ [ [ 77.523447858041877, 13.088113747742755 ], [ 77.523436386802601, 13.086561256337429 ], [ 77.52343597950275, 13.086037662234391 ], [ 77.523445804679596, 13.085783434409741 ], [ 77.521610582727376, 13.085962642512614 ], [ 77.518072167110276, 13.086895650694633 ], [ 77.517394533714892, 13.085271518606373 ], [ 77.517169893853293, 13.084703112912329 ], [ 77.517019142264161, 13.08423983024875 ], [ 77.516948591935702, 13.083946705744305 ], [ 77.516295664820774, 13.082865445475518 ], [ 77.51608650707999, 13.082553375416362 ], [ 77.516059426843384, 13.082581893934742 ], [ 77.514236375969134, 13.084246772603843 ], [ 77.513263979585659, 13.085161941441992 ], [ 77.513081392214374, 13.085378823235828 ], [ 77.511335151600619, 13.086290201830886 ], [ 77.510846187265017, 13.086602040069829 ], [ 77.51090857973044, 13.086892523619062 ], [ 77.511029154958948, 13.087268861459838 ], [ 77.511116925090377, 13.087527368494843 ], [ 77.511153653393634, 13.087935053712997 ], [ 77.511228551965843, 13.088195853394055 ], [ 77.511233634478387, 13.088199617506435 ], [ 77.511246008750959, 13.088208780303145 ], [ 77.511312646804527, 13.088352992954267 ], [ 77.511531100826346, 13.088825521371209 ], [ 77.511781706237215, 13.088957840630966 ], [ 77.511917802941582, 13.089029733322946 ], [ 77.513150795375225, 13.089539682691857 ], [ 77.513461319197063, 13.08980140700813 ], [ 77.513573490023873, 13.089896049238241 ], [ 77.513905929583942, 13.09017683951393 ], [ 77.514059143093917, 13.090478849074394 ], [ 77.514078438686425, 13.090519913832916 ], [ 77.514483338629645, 13.091384590860468 ], [ 77.514967054595587, 13.092417743048061 ], [ 77.51500791066978, 13.09250491512274 ], [ 77.5150486549189, 13.092592689992777 ], [ 77.515544833729507, 13.093677639713956 ], [ 77.515835573220329, 13.093573878294034 ], [ 77.515982500343156, 13.093521752344811 ], [ 77.516619017949338, 13.093607911275161 ], [ 77.516962090065363, 13.093654347925387 ], [ 77.517168494154362, 13.093671586004165 ], [ 77.518673301591335, 13.093832110932016 ], [ 77.518684253442416, 13.093832484082913 ], [ 77.518709616418803, 13.093835984806452 ], [ 77.518992958115362, 13.093866210205583 ], [ 77.519611639527454, 13.09386837869684 ], [ 77.520641865208205, 13.093622685862348 ], [ 77.520802194078172, 13.093571578930877 ], [ 77.520890777799551, 13.093558652405363 ], [ 77.521008939891189, 13.093508516172903 ], [ 77.52173309351295, 13.09336355131045 ], [ 77.522706768512947, 13.093161956389835 ], [ 77.52366019446967, 13.092950758783518 ], [ 77.523493707718998, 13.089773096997053 ], [ 77.523501638148502, 13.089088626501935 ], [ 77.523447858041877, 13.088113747742755 ] ] ] } },
{ "type": "Feature", "properties": { "KGISWardID": 7129, "KGISWardCode": "2010021", "KGISWardName": " ", "SHAPE.STArea()": 619218.25016520498, "SHAPE.STLength()": 4889.7407135441554, "OBJECTID": 6778, "KGISWardNo": "21", "KGISTownCode": "2010", "LGD_WardCode": 0, "created_user": "SURESHBV2", "created_date": 1709625043000, "last_edited_user": "SURESHBV2", "last_edited_date": 1709625043000, "_overlap_percent": 99.898023016809688, "_police_station": "Chikkabanvara PS", "_police_feature_index": "809", "_admin_layer": "Ward", "_geometry_clipped": true }, "geometry": { "type": "Polygon", "coordinates": [ [ [ 77.503151074771239, 13.093895907329784 ], [ 77.503257307659837, 13.093884895187779 ], [ 77.503277266085107, 13.093880123459915 ], [ 77.503277104800745, 13.093877205863773 ], [ 77.503276344036209, 13.093872062478241 ], [ 77.503217470597406, 13.093473945703501 ], [ 77.503227934204958, 13.093163629608179 ], [ 77.503216196319954, 13.093105979200262 ], [ 77.503233860155717, 13.092981020088367 ], [ 77.503237866574906, 13.092855100341747 ], [ 77.503229218348054, 13.09253598912189 ], [ 77.503193862652765, 13.091745611537901 ], [ 77.503172098861327, 13.091256321411473 ], [ 77.503182248469145, 13.090870162500398 ], [ 77.503181958524934, 13.090866916379563 ], [ 77.503165514900488, 13.090693588629509 ], [ 77.503134178730875, 13.090378204867767 ], [ 77.503070874894931, 13.089939289610866 ], [ 77.503024524353705, 13.089626789961123 ], [ 77.503007193888038, 13.08962999928008 ], [ 77.502284407291654, 13.089759339237155 ], [ 77.501072557114313, 13.089986562617112 ], [ 77.501061149938522, 13.089954572335191 ], [ 77.501012215716102, 13.089817351787399 ], [ 77.500918022865108, 13.089506434638635 ], [ 77.500766557668669, 13.088945188696819 ], [ 77.500718177237474, 13.088765704736749 ], [ 77.500596535933823, 13.088327746604742 ], [ 77.500963140147732, 13.088274290054773 ], [ 77.501768961653383, 13.088217816710024 ], [ 77.502084062609498, 13.088004996115455 ], [ 77.502164566730286, 13.087950318633151 ], [ 77.502237437853438, 13.0879113906669 ], [ 77.502307888987914, 13.087845659836658 ], [ 77.502378088742077, 13.08778032173799 ], [ 77.502431501090641, 13.087730437086629 ], [ 77.502528112150628, 13.087640491975002 ], [ 77.502593396947461, 13.087539967355777 ], [ 77.502828654569882, 13.087389793230303 ], [ 77.502862910890698, 13.08736615272443 ], [ 77.502872919298028, 13.087361479460551 ], [ 77.503316010357949, 13.087079266816982 ], [ 77.503461463314409, 13.087015846354468 ], [ 77.503640431521546, 13.08693820403848 ], [ 77.503780120666619, 13.086920649700147 ], [ 77.504055027740961, 13.086870665854063 ], [ 77.50413972477314, 13.086855232542513 ], [ 77.504208559418899, 13.086856201468098 ], [ 77.504273043059371, 13.086870790191163 ], [ 77.50468471942763, 13.086805308612224 ], [ 77.505122974251634, 13.086710118322634 ], [ 77.505142923884705, 13.086610690337292 ], [ 77.505164162205062, 13.086504896532903 ], [ 77.505251290198984, 13.086071471852032 ], [ 77.50530773109152, 13.08601866619891 ], [ 77.505223984838139, 13.085992795020468 ], [ 77.50512636312861, 13.085898285275679 ], [ 77.505087153439305, 13.085784219763921 ], [ 77.504810443931476, 13.084979234121347 ], [ 77.504779455749784, 13.084752481910593 ], [ 77.504731875795116, 13.084404310551806 ], [ 77.504116308949008, 13.083146832216668 ], [ 77.504055446365527, 13.083041406021721 ], [ 77.503971969597885, 13.082896807264383 ], [ 77.502648325761029, 13.083377885419097 ], [ 77.502622119862608, 13.08326428491308 ], [ 77.502169207761384, 13.083361902556407 ], [ 77.501479149096696, 13.083378231528137 ], [ 77.500607042130639, 13.083526342080001 ], [ 77.499858171439399, 13.083636408072033 ], [ 77.499703721009169, 13.083626262925906 ], [ 77.49882295483151, 13.084699315306887 ], [ 77.498333120784139, 13.085314448910674 ], [ 77.498103146139059, 13.08553393330995 ], [ 77.497834442324049, 13.085750343922243 ], [ 77.497638845046694, 13.085890179660383 ], [ 77.497351474920393, 13.08599986609256 ], [ 77.496980029078756, 13.086144851315282 ], [ 77.496822534638881, 13.086225692107174 ], [ 77.49666537077745, 13.08632207145795 ], [ 77.4975192624984, 13.087527183837601 ], [ 77.497794300317778, 13.088050905474077 ], [ 77.498004797117261, 13.088341992425724 ], [ 77.498318165654695, 13.088141044614398 ], [ 77.498646204399691, 13.088761053154503 ], [ 77.49876349557556, 13.089005430039283 ], [ 77.498798688339292, 13.089065827030572 ], [ 77.499032050150362, 13.089772650129625 ], [ 77.500094276298199, 13.09250481332656 ], [ 77.500122794010039, 13.092621014466134 ], [ 77.500123241436839, 13.092705365154766 ], [ 77.499256712937409, 13.093036832596111 ], [ 77.499054425098251, 13.093071898776651 ], [ 77.498617515567901, 13.093284700369072 ], [ 77.496367964895157, 13.094519189433342 ], [ 77.496409738197272, 13.094520967828061 ], [ 77.496500801536541, 13.094517347227216 ], [ 77.496760867107326, 13.094513641785674 ], [ 77.497724869890448, 13.094536132115012 ], [ 77.497777628601909, 13.094536009514025 ], [ 77.49814076956946, 13.094536228448911 ], [ 77.498587979225064, 13.094489851314414 ], [ 77.498865821351046, 13.094408309884452 ], [ 77.499331473752164, 13.094411901662019 ], [ 77.499339965388316, 13.094411867838438 ], [ 77.499775488650855, 13.094366702621922 ], [ 77.500863094761698, 13.094249428084501 ], [ 77.501133440080437, 13.094159902545428 ], [ 77.50162946583977, 13.094166203429436 ], [ 77.502338655777294, 13.09407424523806 ], [ 77.503151074771239, 13.093895907329784 ] ] ] } },
{ "type": "Feature", "properties": { "KGISWardID": 7128, "KGISWardCode": "2010020", "KGISWardName": " ", "SHAPE.STArea()": 449409.34204671998, "SHAPE.STLength()": 2748.4303549499564, "OBJECTID": 6776, "KGISWardNo": "20", "KGISTownCode": "2010", "LGD_WardCode": 0, "created_user": "SURESHBV2", "created_date": 1709625043000, "last_edited_user": "SURESHBV2", "last_edited_date": 1709625043000, "_overlap_percent": 99.933802232687754, "_police_station": "Chikkabanvara PS", "_police_feature_index": "809", "_admin_layer": "Ward", "_geometry_clipped": true }, "geometry": { "type": "Polygon", "coordinates": [ [ [ 77.495932179345601, 13.094476701193031 ], [ 77.49594870718461, 13.094479041153297 ], [ 77.496175839566746, 13.094511010174049 ], [ 77.496367964895157, 13.094519189433342 ], [ 77.498617515567901, 13.093284700369072 ], [ 77.499054425098251, 13.093071898776651 ], [ 77.499256712937409, 13.093036832596111 ], [ 77.500123241436839, 13.092705365154766 ], [ 77.500122794010039, 13.092621014466134 ], [ 77.500094276298199, 13.09250481332656 ], [ 77.499032050150362, 13.089772650129625 ], [ 77.498798688339292, 13.089065827030572 ], [ 77.49876349557556, 13.089005430039283 ], [ 77.498646204399691, 13.088761053154503 ], [ 77.498318165654695, 13.088141044614398 ], [ 77.498004797117261, 13.088341992425724 ], [ 77.497794300317778, 13.088050905474077 ], [ 77.4975192624984, 13.087527183837601 ], [ 77.49666537077745, 13.08632207145795 ], [ 77.496588273222926, 13.086369350929498 ], [ 77.496270773766938, 13.086631061879629 ], [ 77.495974724530683, 13.08692705214707 ], [ 77.495619638467105, 13.087299481255453 ], [ 77.495059403324419, 13.087911843229794 ], [ 77.49472911149067, 13.088301274860033 ], [ 77.494401434140585, 13.088601018461638 ], [ 77.49395519527728, 13.089005364285068 ], [ 77.493572203834802, 13.089402200860418 ], [ 77.49286502158229, 13.090298734550569 ], [ 77.492874394738791, 13.090316362339754 ], [ 77.492986096430826, 13.090526407083793 ], [ 77.493087895836922, 13.090720173480417 ], [ 77.493136967424562, 13.090768640373375 ], [ 77.493433613533853, 13.091040611137982 ], [ 77.493424298914434, 13.091052807986191 ], [ 77.49353858133351, 13.091165759847216 ], [ 77.492936162763471, 13.091780090331428 ], [ 77.492802541393772, 13.091908378957948 ], [ 77.492788390096038, 13.091924330201669 ], [ 77.493165494820147, 13.092773893043901 ], [ 77.493291644848554, 13.09304754872891 ], [ 77.493294609972082, 13.093053957438039 ], [ 77.49342341738064, 13.093313131697956 ], [ 77.493720114538945, 13.09397824272231 ], [ 77.494007554531294, 13.094527589765089 ], [ 77.494008019256086, 13.094528797755185 ], [ 77.494054466605064, 13.094519578681606 ], [ 77.494411186629847, 13.094340410698969 ], [ 77.49441594176507, 13.094336693263561 ], [ 77.494468936336361, 13.094311405042724 ], [ 77.49449277989045, 13.094299429260067 ], [ 77.494799393595258, 13.094122141059254 ], [ 77.494812384729869, 13.094114681724353 ], [ 77.49491232836337, 13.094149013149959 ], [ 77.495244717994822, 13.09430516787134 ], [ 77.495572327449608, 13.094400778288643 ], [ 77.495932179345601, 13.094476701193031 ] ] ] } },
{ "type": "Feature", "properties": { "KGISWardID": 7131, "KGISWardCode": "2010023", "KGISWardName": " ", "SHAPE.STArea()": 1151555.4172470849, "SHAPE.STLength()": 4236.3617409157841, "OBJECTID": 6777, "KGISWardNo": "23", "KGISTownCode": "2010", "LGD_WardCode": 0, "created_user": "SURESHBV2", "created_date": 1709625043000, "last_edited_user": "SURESHBV2", "last_edited_date": 1709625043000, "_overlap_percent": 99.650988914371354, "_police_station": "Chikkabanvara PS", "_police_feature_index": "809", "_admin_layer": "Ward", "_geometry_clipped": true }, "geometry": { "type": "Polygon", "coordinates": [ [ [ 77.515544833729507, 13.093677639713956 ], [ 77.5150486549189, 13.092592689992777 ], [ 77.51500791066978, 13.09250491512274 ], [ 77.514967054595587, 13.092417743048061 ], [ 77.514483338629645, 13.091384590860468 ], [ 77.514078438686425, 13.090519913832916 ], [ 77.514059143093917, 13.090478849074394 ], [ 77.513905929583942, 13.09017683951393 ], [ 77.513573490023873, 13.089896049238241 ], [ 77.513461319197063, 13.08980140700813 ], [ 77.513150795375225, 13.089539682691857 ], [ 77.511917802941582, 13.089029733322946 ], [ 77.511781706237215, 13.088957840630966 ], [ 77.511531100826346, 13.088825521371209 ], [ 77.511312646804527, 13.088352992954267 ], [ 77.511246008750959, 13.088208780303145 ], [ 77.511233634478387, 13.088199617506435 ], [ 77.511228551965843, 13.088195853394055 ], [ 77.511153653393634, 13.087935053712997 ], [ 77.511116925090377, 13.087527368494843 ], [ 77.511029154958948, 13.087268861459838 ], [ 77.510955925576752, 13.08704029965334 ], [ 77.51090857973044, 13.086892523619062 ], [ 77.510846190020629, 13.08660203913953 ], [ 77.51068387429028, 13.086663382378255 ], [ 77.508314220598251, 13.087950567915144 ], [ 77.506998521408363, 13.088709800308092 ], [ 77.505483829623188, 13.089528147369208 ], [ 77.504573896081297, 13.090030600382995 ], [ 77.503174699872105, 13.090790425442419 ], [ 77.503181958524934, 13.090866916379563 ], [ 77.503182248469145, 13.090870162500398 ], [ 77.503172098861327, 13.091256321411473 ], [ 77.503193862652765, 13.091745611537901 ], [ 77.503229218348054, 13.09253598912189 ], [ 77.503237866574906, 13.092855100341747 ], [ 77.503233860155717, 13.092981020088367 ], [ 77.503216196319954, 13.093105979200262 ], [ 77.503227934204958, 13.093163629608179 ], [ 77.503217470597406, 13.093473945703501 ], [ 77.503276344036209, 13.093872062478241 ], [ 77.503277104800745, 13.093877205863773 ], [ 77.503277266085107, 13.093880123459915 ], [ 77.50327996240253, 13.093928725391493 ], [ 77.503294963691118, 13.093926174867914 ], [ 77.503674351736763, 13.096730795226822 ], [ 77.504333956110955, 13.097953211774247 ], [ 77.50455351371798, 13.098318253807092 ], [ 77.504684218177843, 13.098591856279205 ], [ 77.504686612687024, 13.098596847035427 ], [ 77.504906698867075, 13.098966374964183 ], [ 77.50492466580414, 13.098960657300445 ], [ 77.504930396207001, 13.098938553157033 ], [ 77.504933854998811, 13.098925203991522 ], [ 77.505034791468432, 13.098925611732302 ], [ 77.508296010109689, 13.097887785891547 ], [ 77.50856897449971, 13.09775806141292 ], [ 77.509675767171842, 13.097240342772871 ], [ 77.510281597764703, 13.09696313303307 ], [ 77.510323914119724, 13.09694379393456 ], [ 77.510506270866372, 13.096860370506507 ], [ 77.510516764641181, 13.096855553947499 ], [ 77.511558558768741, 13.096421359457789 ], [ 77.512250968402, 13.096137214436995 ], [ 77.51236960186381, 13.09608541234218 ], [ 77.513152230874297, 13.095708525638232 ], [ 77.513571317013302, 13.095560675382075 ], [ 77.51441746211151, 13.0951912004638 ], [ 77.514973997396936, 13.094911626941487 ], [ 77.514978742088758, 13.094749453293982 ], [ 77.515029001563093, 13.094663636738902 ], [ 77.515137152676701, 13.09448070886873 ], [ 77.51534869042645, 13.094042796578087 ], [ 77.51543242910131, 13.093871030769959 ], [ 77.515474634238359, 13.093771783047604 ], [ 77.515493175684938, 13.093762468344245 ], [ 77.515544833729507, 13.093677639713956 ] ] ] } }
]
}
