{
"type": "FeatureCollection",
"name": "police_station_boundary.writing_20260805_172659",
"crs": { "type": "name", "properties": { "name": "urn:ogc:def:crs:OGC:1.3:CRS84" } },
"features": [
{ "type": "Feature", "properties": { "Shape.STArea()": 4144766.97081909, "Shape.STLength()": 10820.987288860699, "OBJECTID": 897, "KGISPS_BOUNDID": 142, "PS_BOUNDName": "Girinagar PS", "PS_BOUNDCode": "PSB - 142", "KGISPS_SUB_DIVID": 180, "_source_layer": "Police Station Boundary", "_source_layer_url": "https://kgis.ksrsac.in/kgismaps/rest/services/Home/Home_Department/MapServer/82", "_police_station": "Girinagar PS" }, "geometry": { "type": "Polygon", "coordinates": [ [ [ 77.549765864774159, 12.947382942188831 ], [ 77.549061195297213, 12.947521379057747 ], [ 77.54892067861303, 12.945908455840611 ], [ 77.548905892097082, 12.945738730052939 ], [ 77.548238986108245, 12.945864929361282 ], [ 77.548221334322662, 12.945868269532435 ], [ 77.54817420069341, 12.945524717838612 ], [ 77.548170929246183, 12.945507540615244 ], [ 77.548126985640948, 12.945234304238385 ], [ 77.548120496052874, 12.945193954770948 ], [ 77.547660316655453, 12.945283019471246 ], [ 77.547110327334607, 12.945387668811161 ], [ 77.547018402215642, 12.944826022148733 ], [ 77.546473434950897, 12.944926551714159 ], [ 77.546359395335742, 12.944947587506757 ], [ 77.546344906397294, 12.944950260597508 ], [ 77.546096447915247, 12.944046416844859 ], [ 77.546091897080558, 12.944029862808259 ], [ 77.545274698838242, 12.944210599164938 ], [ 77.544900576904084, 12.943178682628787 ], [ 77.544798756363335, 12.943186452849147 ], [ 77.544360792930192, 12.943200892841078 ], [ 77.543758999226, 12.943239517883001 ], [ 77.543332201680727, 12.943276433907871 ], [ 77.54305552174263, 12.943299461818423 ], [ 77.542332173845637, 12.943330234982104 ], [ 77.542290174493289, 12.94333290334688 ], [ 77.541621684230989, 12.943380079504864 ], [ 77.541584251476451, 12.943382716776469 ], [ 77.541510077248191, 12.94338794390665 ], [ 77.541116021682214, 12.943417761074752 ], [ 77.540737485525312, 12.943445167691255 ], [ 77.540438285693995, 12.943461636398755 ], [ 77.539974518883383, 12.943486484693755 ], [ 77.539476685596043, 12.943501500068693 ], [ 77.539340279659839, 12.943505087840933 ], [ 77.539082987390458, 12.943509853295703 ], [ 77.538648970721738, 12.943516339986726 ], [ 77.53803069066339, 12.943495310908034 ], [ 77.537916335544736, 12.943487254271377 ], [ 77.537245588486456, 12.943439995939769 ], [ 77.537188363910062, 12.943435964294494 ], [ 77.53712603907907, 12.943431573013353 ], [ 77.536793225568175, 12.943395994068498 ], [ 77.536780498358638, 12.943394633542871 ], [ 77.536778513591344, 12.943390745340823 ], [ 77.536698365683279, 12.94323375013844 ], [ 77.536638962914196, 12.943117389067583 ], [ 77.536604426061615, 12.943049737043495 ], [ 77.536285259114791, 12.942721437394475 ], [ 77.536247326624803, 12.942682419595123 ], [ 77.536031065849997, 12.942426581331326 ], [ 77.535854750894586, 12.942057503987908 ], [ 77.535759498461545, 12.941603910208235 ], [ 77.53569933899837, 12.941317430203819 ], [ 77.53567694737356, 12.941276798360606 ], [ 77.535542276875233, 12.941032423997248 ], [ 77.535540275403491, 12.941028792527604 ], [ 77.535432797578096, 12.940965351590352 ], [ 77.535395166818475, 12.940962057634351 ], [ 77.534770961121268, 12.940907425565944 ], [ 77.534600230132853, 12.940892482552552 ], [ 77.534393018041968, 12.940874346170721 ], [ 77.534355263744004, 12.940871041515265 ], [ 77.534286838049269, 12.940838310729237 ], [ 77.53422313477337, 12.940807839678952 ], [ 77.534122897403307, 12.940647599910301 ], [ 77.534043298005614, 12.940480259621337 ], [ 77.533996949146044, 12.940382820469592 ], [ 77.533928197466508, 12.940085242646308 ], [ 77.533994090872639, 12.939120057670264 ], [ 77.53399978447338, 12.939036653146252 ], [ 77.533741546944682, 12.938692551096981 ], [ 77.533366846161329, 12.938355088831624 ], [ 77.533297469384038, 12.938459668048539 ], [ 77.533161258856452, 12.938664994500483 ], [ 77.533110653307332, 12.938747498286583 ], [ 77.532720492319626, 12.938660451588657 ], [ 77.532191129169505, 12.938561944098771 ], [ 77.532006077786946, 12.938175765125921 ], [ 77.531980154567989, 12.937824779608187 ], [ 77.531965420076759, 12.937473684512161 ], [ 77.532017156985077, 12.937056086814701 ], [ 77.53204773440811, 12.93675943337384 ], [ 77.532067010674183, 12.936451912439326 ], [ 77.532031560136303, 12.936265661699416 ], [ 77.531894630390042, 12.936003562837985 ], [ 77.531745182511088, 12.935609871143857 ], [ 77.531458474446282, 12.934921154171004 ], [ 77.531456259787475, 12.934701652477687 ], [ 77.531451166207077, 12.934196796580222 ], [ 77.531532593913639, 12.933585806949514 ], [ 77.531534806475378, 12.933551304278561 ], [ 77.53138798958183, 12.933552729310428 ], [ 77.531671880958342, 12.930097319668544 ], [ 77.531674582443202, 12.930064439414998 ], [ 77.532002759607607, 12.926070015171408 ], [ 77.532005949216526, 12.926031192534435 ], [ 77.532056898506212, 12.925411061131769 ], [ 77.532143703127531, 12.924354515971752 ], [ 77.532218865902891, 12.92318856069377 ], [ 77.532262636571275, 12.922509585952517 ], [ 77.53195999136851, 12.91953931996089 ], [ 77.532199164990331, 12.919642492982668 ], [ 77.532372281437318, 12.919717170281553 ], [ 77.532810088209914, 12.919906027801666 ], [ 77.53387485670207, 12.920365333168984 ], [ 77.534222453041679, 12.920515272622758 ], [ 77.534337074721122, 12.920496834835635 ], [ 77.534343720014334, 12.920280199035325 ], [ 77.53430621378682, 12.920063992749856 ], [ 77.534224904759171, 12.919882862664004 ], [ 77.534863530794439, 12.919708328834085 ], [ 77.535237786388677, 12.919606046045388 ], [ 77.535572374819324, 12.919514603041408 ], [ 77.535981051875851, 12.919094820130379 ], [ 77.536619777740555, 12.918998973302509 ], [ 77.538773864134157, 12.918928250754425 ], [ 77.538731573359243, 12.919015621275898 ], [ 77.538668065484472, 12.919111103495679 ], [ 77.538576588077419, 12.919287040917482 ], [ 77.538562090496072, 12.91933348488689 ], [ 77.53855148513496, 12.91936633891209 ], [ 77.5385381159129, 12.919410513226884 ], [ 77.538542311207792, 12.919483879633441 ], [ 77.53855068401856, 12.91957188685838 ], [ 77.538558264428104, 12.919638444298082 ], [ 77.538598334221433, 12.919673064254399 ], [ 77.538672016764181, 12.919729944176654 ], [ 77.538684782559514, 12.919739984111906 ], [ 77.538692379414243, 12.919751203652009 ], [ 77.538735105407909, 12.919820807332769 ], [ 77.538756927400712, 12.919872544825235 ], [ 77.538797522248942, 12.919959109332472 ], [ 77.538816973411656, 12.920004093823447 ], [ 77.538885408824555, 12.920168312101453 ], [ 77.538886169859992, 12.920180912665368 ], [ 77.538890248352388, 12.920248448260683 ], [ 77.538913586859167, 12.920336309895301 ], [ 77.538914876615564, 12.920463912903619 ], [ 77.538911378989425, 12.92057349301292 ], [ 77.538940166978378, 12.92074487287972 ], [ 77.539049493003986, 12.920910952032408 ], [ 77.539163869174033, 12.921121026285162 ], [ 77.5392201035217, 12.921274069643198 ], [ 77.53925774755966, 12.921410353703404 ], [ 77.539272630281403, 12.921572834006033 ], [ 77.539296277377872, 12.921691184753026 ], [ 77.539297304882538, 12.921792815426933 ], [ 77.539307313650099, 12.921871771914139 ], [ 77.539334538079004, 12.921888447181045 ], [ 77.539384313646835, 12.921915067124143 ], [ 77.539545744113539, 12.921939471438753 ], [ 77.539631554108908, 12.921943153933665 ], [ 77.539694602753954, 12.921973032691275 ], [ 77.539739990529014, 12.922021152716047 ], [ 77.539826332625694, 12.922134375975922 ], [ 77.539890237822874, 12.922248946858939 ], [ 77.53997195468969, 12.92247401972873 ], [ 77.540069646965492, 12.922741852001176 ], [ 77.540134000287424, 12.923014526015891 ], [ 77.540243899401645, 12.923237065749179 ], [ 77.540291702192661, 12.923466985829709 ], [ 77.54027207066467, 12.923802590843884 ], [ 77.540266141351339, 12.923956238775302 ], [ 77.540276299136295, 12.924049875113365 ], [ 77.540254718740954, 12.924135914991044 ], [ 77.540228469409172, 12.924158757280912 ], [ 77.540218345274212, 12.92416787518154 ], [ 77.54055297746568, 12.92427521459447 ], [ 77.540510242187992, 12.925215164355587 ], [ 77.54092245830536, 12.9251615378436 ], [ 77.541108422441397, 12.926558061175324 ], [ 77.541230167693129, 12.927268527093988 ], [ 77.541373904350195, 12.928263016884959 ], [ 77.541571006304039, 12.928998336328155 ], [ 77.541502186449463, 12.929832707914512 ], [ 77.542103331381682, 12.929516500578588 ], [ 77.542688948535542, 12.9290229386893 ], [ 77.542846767917752, 12.929259229947343 ], [ 77.54303134469346, 12.929068386997345 ], [ 77.543081940794806, 12.929153268995536 ], [ 77.543123563247065, 12.929579735568327 ], [ 77.543207836689362, 12.929920412034981 ], [ 77.543424137794318, 12.930406157858643 ], [ 77.543490641648035, 12.930484610906866 ], [ 77.543601606769201, 12.930385818732985 ], [ 77.544492111638704, 12.929527873544638 ], [ 77.545550322734115, 12.928632151374478 ], [ 77.545911508507501, 12.92905325707258 ], [ 77.545917920421957, 12.929061099846919 ], [ 77.546136386832146, 12.929316456185463 ], [ 77.546180637455507, 12.929365715046085 ], [ 77.546379224234173, 12.929590773070565 ], [ 77.546665161773277, 12.929914359604131 ], [ 77.546951088611763, 12.930236816457136 ], [ 77.547150252425467, 12.930461868003405 ], [ 77.547161518853358, 12.930550975375251 ], [ 77.547174906999388, 12.930565525989181 ], [ 77.547196456911905, 12.930590160911674 ], [ 77.547459661133672, 12.930885734807319 ], [ 77.547841644585404, 12.931313409517371 ], [ 77.547850393483429, 12.931324617395596 ], [ 77.548044550440878, 12.931566656849917 ], [ 77.548069623027772, 12.931598033255899 ], [ 77.548309263443457, 12.931897224092571 ], [ 77.54832677279353, 12.931920769021779 ], [ 77.548573642386216, 12.932251510186399 ], [ 77.548764484741241, 12.932507133217236 ], [ 77.548772658106941, 12.932518346673026 ], [ 77.548913252012753, 12.932701053942113 ], [ 77.548974506496222, 12.932780637915577 ], [ 77.548994293420577, 12.932858368469054 ], [ 77.549018800031831, 12.932947346215112 ], [ 77.549026420746486, 12.932960823723791 ], [ 77.549048718746235, 12.933002391093373 ], [ 77.549260965485701, 12.933211501750186 ], [ 77.549345866575237, 12.933295371789157 ], [ 77.549381289224058, 12.933325517505272 ], [ 77.549733236630559, 12.933629255259776 ], [ 77.550094475160208, 12.933940806852851 ], [ 77.550113642842405, 12.933957559400756 ], [ 77.550338463142538, 12.934157511269593 ], [ 77.55062777486647, 12.934415557345364 ], [ 77.550802633145182, 12.934570824081925 ], [ 77.550837708522963, 12.934680026081631 ], [ 77.550799864999746, 12.934751544077351 ], [ 77.550748575463089, 12.934802865634584 ], [ 77.550722459917779, 12.934861949268905 ], [ 77.551024019352226, 12.934817568452182 ], [ 77.551415603849875, 12.934529603534866 ], [ 77.551698520389948, 12.934387374956113 ], [ 77.552339817091848, 12.935415098157245 ], [ 77.552114663711379, 12.935541682537346 ], [ 77.552253406823155, 12.93582462295538 ], [ 77.552520572487467, 12.936266223705873 ], [ 77.552641383986355, 12.936567107700258 ], [ 77.552772337799041, 12.936974504558826 ], [ 77.552801226004703, 12.937143023889101 ], [ 77.552920230265116, 12.93726623849966 ], [ 77.552994041037152, 12.93739878111187 ], [ 77.553154968851302, 12.93808129661563 ], [ 77.553160237668237, 12.938598914801993 ], [ 77.55316992593761, 12.938596301973096 ], [ 77.553197498778232, 12.938590385305647 ], [ 77.553256098242755, 12.938578518138387 ], [ 77.553684767554657, 12.941882751278854 ], [ 77.552696758833861, 12.941938102064892 ], [ 77.552629454999945, 12.941943278519506 ], [ 77.5499995003115, 12.942153102294865 ], [ 77.550000202271676, 12.942165518066817 ], [ 77.550005255261269, 12.942209512534761 ], [ 77.550012771591355, 12.942269293533894 ], [ 77.550015866536043, 12.942347187082488 ], [ 77.550065266914075, 12.942393006326631 ], [ 77.550164482581465, 12.942468830087211 ], [ 77.550243078562019, 12.942555019531381 ], [ 77.550270257304646, 12.942680109294791 ], [ 77.550293693725365, 12.942833468932909 ], [ 77.550281189016147, 12.942905868449335 ], [ 77.550054625515827, 12.942988267763832 ], [ 77.550007939583452, 12.94303954443051 ], [ 77.549977440550563, 12.943097438705069 ], [ 77.549947505664704, 12.943154198127923 ], [ 77.549886507538346, 12.943269986671176 ], [ 77.549858898160323, 12.94332898199997 ], [ 77.549849894569178, 12.943349398044459 ], [ 77.549837494532511, 12.943375493973054 ], [ 77.549791405648861, 12.943485489987781 ], [ 77.549752406752432, 12.943669952479491 ], [ 77.549731462437833, 12.943761633196551 ], [ 77.549693983719536, 12.943925752861107 ], [ 77.549680430901091, 12.94400832661708 ], [ 77.549659831069093, 12.944133883895836 ], [ 77.549655731191123, 12.944183614570967 ], [ 77.549650145536887, 12.944257075733292 ], [ 77.549635027994057, 12.944299008883352 ], [ 77.549621038772315, 12.944338672332364 ], [ 77.549597527685165, 12.944404403551689 ], [ 77.549547855462919, 12.94461494509005 ], [ 77.549538391008824, 12.944646658954172 ], [ 77.549532864212978, 12.944669299646188 ], [ 77.549514210907333, 12.944759828623958 ], [ 77.549471884216132, 12.94495674632959 ], [ 77.549465275019259, 12.944986173598096 ], [ 77.549464158174715, 12.944989572517859 ], [ 77.549458665821462, 12.945015600866666 ], [ 77.549452632270771, 12.945045022503537 ], [ 77.549462909181614, 12.945206416306224 ], [ 77.549471619957203, 12.945383636061958 ], [ 77.549473737364877, 12.945422012601973 ], [ 77.54946362689617, 12.945503423355971 ], [ 77.549477692263423, 12.945641064131562 ], [ 77.549511547958573, 12.945799968562085 ], [ 77.549515162642919, 12.945815743829604 ], [ 77.549545657786055, 12.945927249225551 ], [ 77.549573883430611, 12.946098631357765 ], [ 77.549568204550368, 12.946219525332651 ], [ 77.549574624454991, 12.946397896801042 ], [ 77.549567485556338, 12.946431846580792 ], [ 77.549581496438876, 12.94645090811265 ], [ 77.549606958836563, 12.946633610567931 ], [ 77.549625331041767, 12.94674184655587 ], [ 77.549646143715137, 12.946863610628013 ], [ 77.549673195377792, 12.947032745535276 ], [ 77.549676257425347, 12.947050784863874 ], [ 77.549711635110597, 12.947132879814184 ], [ 77.549756335549532, 12.947339109900057 ], [ 77.549759961776843, 12.947356014373783 ], [ 77.549764163658082, 12.947372913213904 ], [ 77.549765864774159, 12.947382942188831 ] ] ] } }
]
}
