{
"type": "FeatureCollection",
"name": "police_station_boundary.writing_20260805_172659",
"crs": { "type": "name", "properties": { "name": "urn:ogc:def:crs:OGC:1.3:CRS84" } },
"features": [
{ "type": "Feature", "properties": { "Shape.STArea()": 319868003.35929352, "Shape.STLength()": 125558.65504611826, "OBJECTID": 167, "KGISPS_BOUNDID": 259, "PS_BOUNDName": "Tavarekere PS", "PS_BOUNDCode": "PSB - 259", "KGISPS_SUB_DIVID": 173, "_source_layer": "Police Station Boundary", "_source_layer_url": "https://kgis.ksrsac.in/kgismaps/rest/services/Home/Home_Department/MapServer/82", "_police_station": "Tavarekere PS" }, "geometry": { "type": "Polygon", "coordinates": [ [ [ 76.849834549974972, 13.96293433169091 ], [ 76.849613574242511, 13.963472347396202 ], [ 76.849382145871104, 13.963988102818369 ], [ 76.849183045448939, 13.964478189613976 ], [ 76.849242155681466, 13.964838468748642 ], [ 76.847818650472732, 13.964373221919969 ], [ 76.845753735965602, 13.963701442768581 ], [ 76.84336032321329, 13.962375503895895 ], [ 76.841918528718921, 13.962497607076177 ], [ 76.84047197417793, 13.961338264672204 ], [ 76.839348258032359, 13.960390322868077 ], [ 76.838277332049316, 13.959877874692969 ], [ 76.836170190299498, 13.958790994074107 ], [ 76.835573256682309, 13.958373916172254 ], [ 76.834067020150471, 13.95730602704228 ], [ 76.83110843418892, 13.954876526628016 ], [ 76.830416151693115, 13.954308031577625 ], [ 76.828926675748477, 13.953082974039855 ], [ 76.828727676120792, 13.952919299438891 ], [ 76.826900269672137, 13.95231533546956 ], [ 76.826020073350591, 13.951956674712392 ], [ 76.82316905634508, 13.951026358026203 ], [ 76.822316512156377, 13.95055004595587 ], [ 76.822430196278091, 13.950383899837693 ], [ 76.82213556691282, 13.946513452688372 ], [ 76.821960207115723, 13.945042948689336 ], [ 76.821302901502136, 13.942269643788903 ], [ 76.821126874169579, 13.940222856014337 ], [ 76.820935182335703, 13.94015512151886 ], [ 76.820141797677678, 13.93935460332048 ], [ 76.819549283840402, 13.938756745083118 ], [ 76.819518271876944, 13.93863899681487 ], [ 76.819528495586098, 13.938516463830307 ], [ 76.819548362567559, 13.938278217743576 ], [ 76.819568304471886, 13.938039142312412 ], [ 76.819617435401824, 13.937450113010982 ], [ 76.81965507645927, 13.936998818105225 ], [ 76.819573008685154, 13.936994032156843 ], [ 76.819108579417261, 13.936966942459479 ], [ 76.818961066857185, 13.936958343183694 ], [ 76.818777635669733, 13.936947645088601 ], [ 76.818630894197767, 13.936935772615792 ], [ 76.81829871690087, 13.936908900017967 ], [ 76.817713281668929, 13.936861536163546 ], [ 76.817083579029969, 13.93681059593102 ], [ 76.816444619334575, 13.936735865487604 ], [ 76.81589922216186, 13.936672079186403 ], [ 76.815138389365657, 13.936592025147851 ], [ 76.814713767956206, 13.936547340419878 ], [ 76.814637772198779, 13.936539341504334 ], [ 76.814196458953319, 13.936492912096396 ], [ 76.814191603903325, 13.936428250575018 ], [ 76.814182375144455, 13.93630534454666 ], [ 76.814174083063378, 13.936194906703379 ], [ 76.814127327132681, 13.935572093215205 ], [ 76.814127183562846, 13.935570179130172 ], [ 76.814036427448883, 13.934361361328826 ], [ 76.814032975931596, 13.934301749711945 ], [ 76.813955203682809, 13.932958971104465 ], [ 76.81394064367943, 13.932707584149096 ], [ 76.81393416497194, 13.932685116902046 ], [ 76.813926114911425, 13.932657533188829 ], [ 76.813923910221348, 13.93258278986422 ], [ 76.813917984815006, 13.932381342304422 ], [ 76.813914558063559, 13.932264912101635 ], [ 76.813905522018899, 13.931958240016566 ], [ 76.813898803554764, 13.93172998346216 ], [ 76.813892568069079, 13.931518311678902 ], [ 76.813876268462622, 13.930964719938318 ], [ 76.813870722938461, 13.930776343005192 ], [ 76.813862529845835, 13.930498073790959 ], [ 76.81385473983697, 13.93023362159793 ], [ 76.813851181392977, 13.930112741126061 ], [ 76.813831935719193, 13.929459142082004 ], [ 76.813819436608583, 13.92903469778758 ], [ 76.813815410162377, 13.928897822590088 ], [ 76.813821052277788, 13.928822956639999 ], [ 76.813864397645517, 13.928247842186243 ], [ 76.813957166137186, 13.92701704830024 ], [ 76.813993834323156, 13.926550647631657 ], [ 76.814001606691406, 13.926451741860394 ], [ 76.814009964921766, 13.926345385303589 ], [ 76.814043872468247, 13.925914025696223 ], [ 76.81410523322387, 13.925407577185068 ], [ 76.814160976546219, 13.925013316940424 ], [ 76.814170101355188, 13.924948759125083 ], [ 76.814185113322552, 13.924842522037345 ], [ 76.814193185061342, 13.924785423908677 ], [ 76.81420088911662, 13.92471678064107 ], [ 76.814251284183868, 13.924267634364508 ], [ 76.814308296807113, 13.923759555218835 ], [ 76.814320453485465, 13.923651211838198 ], [ 76.814373641044511, 13.923018417525119 ], [ 76.814450575590129, 13.922103016438427 ], [ 76.814447776869116, 13.921901939537099 ], [ 76.814437806354604, 13.921185736245501 ], [ 76.814636272795227, 13.920092810266558 ], [ 76.814799233270108, 13.919146643146224 ], [ 76.81491976142587, 13.918595255382888 ], [ 76.814940066080766, 13.918502369609273 ], [ 76.815024765905477, 13.918114880119722 ], [ 76.815034352824441, 13.918071040323984 ], [ 76.815192335487865, 13.917348292082243 ], [ 76.815146992395626, 13.916847471512419 ], [ 76.81508139446629, 13.916122953422827 ], [ 76.815060036619954, 13.915887061922168 ], [ 76.815046833611063, 13.915741244981525 ], [ 76.815041765007877, 13.915685262349383 ], [ 76.815030771278003, 13.915563841555189 ], [ 76.814909015125394, 13.915538216796879 ], [ 76.814263380549079, 13.915402341416339 ], [ 76.813848689449813, 13.91531506189343 ], [ 76.813558080733515, 13.915253901411484 ], [ 76.81352503072452, 13.915246313074693 ], [ 76.813483965659671, 13.915236879130948 ], [ 76.81311696250097, 13.915152557845085 ], [ 76.812644791161304, 13.915044083718858 ], [ 76.812638454770379, 13.915042625992514 ], [ 76.812560565370418, 13.915024731286138 ], [ 76.812020964055378, 13.914900487775029 ], [ 76.811582441316716, 13.914799507907855 ], [ 76.811470584683647, 13.914800457345303 ], [ 76.811265484253767, 13.914802178035467 ], [ 76.810644954648922, 13.914807395972284 ], [ 76.810301090925293, 13.914810289053905 ], [ 76.809793729891751, 13.914824568471017 ], [ 76.809621595359928, 13.914829410667378 ], [ 76.809531469428066, 13.914831946798582 ], [ 76.80926651331913, 13.914839401787585 ], [ 76.809232724938852, 13.914847975641109 ], [ 76.808781669227571, 13.914962499151761 ], [ 76.808045330648454, 13.915134159371535 ], [ 76.807716169322646, 13.915210894615273 ], [ 76.807339859780157, 13.915335079853499 ], [ 76.807124988496426, 13.915405988074934 ], [ 76.806846647825623, 13.915497832254809 ], [ 76.806733870357803, 13.915535053395242 ], [ 76.806431880391486, 13.915575388239553 ], [ 76.806241529137452, 13.915600815309668 ], [ 76.80573606729449, 13.915609113630369 ], [ 76.805424021912557, 13.915623192039682 ], [ 76.805423842464677, 13.915623198791298 ], [ 76.804806557112911, 13.91565104736538 ], [ 76.804515585227293, 13.915664175990202 ], [ 76.804427093344103, 13.91567932074669 ], [ 76.803807886287018, 13.915785293470883 ], [ 76.803315717673982, 13.915869529395511 ], [ 76.802354344981339, 13.916045765855459 ], [ 76.801867995017361, 13.916134920576376 ], [ 76.801652547162348, 13.916174413940288 ], [ 76.801575740032419, 13.916188497051321 ], [ 76.801572756392616, 13.916180893670107 ], [ 76.801469813489135, 13.916218772820866 ], [ 76.801439131321118, 13.916230067560916 ], [ 76.801437284165701, 13.916230741892889 ], [ 76.801398570676071, 13.916245617206233 ], [ 76.801306551273186, 13.916280974398171 ], [ 76.801103233498779, 13.91635908869082 ], [ 76.800696947224438, 13.91651519583325 ], [ 76.800534737518603, 13.916577520217137 ], [ 76.800485374985485, 13.916597292246816 ], [ 76.800485049357803, 13.916597420280965 ], [ 76.800380072211382, 13.916639470649258 ], [ 76.799687401457916, 13.916916904205596 ], [ 76.799543997318452, 13.917007710986272 ], [ 76.799250486492014, 13.917193569278629 ], [ 76.798920101505558, 13.917402778131697 ], [ 76.798512198747105, 13.91766106865299 ], [ 76.798398923949065, 13.917731742560578 ], [ 76.798398760028903, 13.91773184318885 ], [ 76.797820485944001, 13.91809263422366 ], [ 76.797504575887899, 13.918289733894911 ], [ 76.797347129874865, 13.918387966675395 ], [ 76.797337080754147, 13.918394229153309 ], [ 76.797334840376124, 13.918395628500559 ], [ 76.797302849546043, 13.918421678981698 ], [ 76.797184578349842, 13.918517970674765 ], [ 76.796999247640656, 13.918668857831088 ], [ 76.796887999324198, 13.918759438881386 ], [ 76.796576775598496, 13.918885469842644 ], [ 76.796124627507908, 13.919068571482573 ], [ 76.796020781476813, 13.919107350897063 ], [ 76.795652627576757, 13.919244824915406 ], [ 76.795186600817829, 13.919418849914655 ], [ 76.794987706975974, 13.919493114770505 ], [ 76.794908602435243, 13.919522655372679 ], [ 76.79477281201136, 13.919573359412473 ], [ 76.794732781342432, 13.919588309450081 ], [ 76.794518059116641, 13.91969876159029 ], [ 76.793886559742887, 13.920023596779602 ], [ 76.793124208420522, 13.920415734762296 ], [ 76.792639516085671, 13.920665057260512 ], [ 76.792583809028088, 13.920693711085908 ], [ 76.792341578628353, 13.920817968918824 ], [ 76.792271130227405, 13.920854117033807 ], [ 76.792090815492344, 13.920946618536673 ], [ 76.791694652477474, 13.921149850188216 ], [ 76.791458873514287, 13.921270800672872 ], [ 76.791363838933023, 13.921319553975772 ], [ 76.791227436696246, 13.921338300125051 ], [ 76.791027901298548, 13.921365725800321 ], [ 76.790924634600557, 13.921379919811207 ], [ 76.790859877427835, 13.921388820986946 ], [ 76.790777541689167, 13.921400135240081 ], [ 76.790762789719011, 13.921402166039563 ], [ 76.790745488451776, 13.921404540941438 ], [ 76.790733526067612, 13.921406190621743 ], [ 76.790725686083078, 13.9214072704368 ], [ 76.790594930312011, 13.921425239956864 ], [ 76.790567385709977, 13.921430329234703 ], [ 76.790418622002548, 13.921457802594038 ], [ 76.790401641184971, 13.921460938839905 ], [ 76.79012944809476, 13.921511203635236 ], [ 76.789378382601143, 13.921649908517118 ], [ 76.78887383063784, 13.92174308627583 ], [ 76.788652187074376, 13.921782988608344 ], [ 76.788034634581678, 13.921894170056603 ], [ 76.787471564855622, 13.921995539908279 ], [ 76.78697054299073, 13.922085736141492 ], [ 76.786856536199409, 13.922106263439469 ], [ 76.786831381713171, 13.922110788884918 ], [ 76.786454684425095, 13.922247227266272 ], [ 76.786244275941968, 13.922323434522889 ], [ 76.785406397481367, 13.922620835740961 ], [ 76.78540166918178, 13.922622518035075 ], [ 76.785126081359877, 13.922720331285008 ], [ 76.784311802491885, 13.923001378788467 ], [ 76.783932962439778, 13.923132128911748 ], [ 76.783850173106444, 13.923160702601661 ], [ 76.782866674819516, 13.923423685073251 ], [ 76.782521685134654, 13.923515929692527 ], [ 76.782440777039881, 13.923537563234722 ], [ 76.782032503859298, 13.923646726754114 ], [ 76.781979991423171, 13.923660768323485 ], [ 76.781844340704907, 13.923697037988427 ], [ 76.781055590744757, 13.923904283723752 ], [ 76.78061461378951, 13.924019952905541 ], [ 76.780042221978547, 13.924170090343873 ], [ 76.779463659701079, 13.924321846026457 ], [ 76.779283532110753, 13.924369092432967 ], [ 76.778436490126083, 13.924393976776281 ], [ 76.778058315446827, 13.924407510033062 ], [ 76.778057702134191, 13.924407531680808 ], [ 76.777302963900027, 13.92443454311719 ], [ 76.776777917056421, 13.924453325755502 ], [ 76.776468347595639, 13.924464400451253 ], [ 76.776273796604897, 13.92447136272744 ], [ 76.77607297529805, 13.924483601854041 ], [ 76.775283539706649, 13.924531713790747 ], [ 76.774922357291388, 13.924553725491696 ], [ 76.774480473505889, 13.924580650037811 ], [ 76.773935924038639, 13.924633448303268 ], [ 76.773843915542059, 13.924642373592411 ], [ 76.772872237855253, 13.924375055242377 ], [ 76.771965583667154, 13.924125621052397 ], [ 76.771196115034712, 13.923913927564261 ], [ 76.771180565018611, 13.9239096471139 ], [ 76.771112411144713, 13.923890895601934 ], [ 76.771099930372898, 13.923887465025905 ], [ 76.771022882004786, 13.923889183696229 ], [ 76.770964262611798, 13.923890489131566 ], [ 76.770670197950594, 13.923897043916929 ], [ 76.77048998229202, 13.923901061180592 ], [ 76.769830426419901, 13.923915761761236 ], [ 76.76945299612359, 13.923924172325938 ], [ 76.76918449680403, 13.923930157371913 ], [ 76.769083884700095, 13.92393239809226 ], [ 76.768888139177477, 13.92393918415344 ], [ 76.768773021347428, 13.923943174996987 ], [ 76.768702059627117, 13.923945635081855 ], [ 76.768700487937423, 13.923945688969015 ], [ 76.768129567414817, 13.923965482700314 ], [ 76.767876846044956, 13.923974244061485 ], [ 76.767852135687335, 13.923975099387048 ], [ 76.767846985846717, 13.923975277743613 ], [ 76.76784267109214, 13.923974907748487 ], [ 76.767764033918098, 13.923968123816728 ], [ 76.767419860607873, 13.923938441518089 ], [ 76.766594984890432, 13.923867292406319 ], [ 76.766117380669229, 13.923827681715061 ], [ 76.765511027461827, 13.923777397792207 ], [ 76.765361749481272, 13.92376501500199 ], [ 76.765257056335813, 13.923750888344077 ], [ 76.76472060282633, 13.923710455679993 ], [ 76.764695445116303, 13.923708575337113 ], [ 76.764686775430121, 13.923707905118127 ], [ 76.764163595732356, 13.923668473226943 ], [ 76.764063916363924, 13.923659764323405 ], [ 76.763854390343255, 13.924437455196887 ], [ 76.763580892907669, 13.924287914964346 ], [ 76.762881418688167, 13.923905470570281 ], [ 76.762275354191672, 13.923574096903517 ], [ 76.762557225393209, 13.92325825950971 ], [ 76.762353498708435, 13.922488343806425 ], [ 76.761998106368736, 13.921145204050775 ], [ 76.761153356640108, 13.92109253375005 ], [ 76.76023958951285, 13.921035562324759 ], [ 76.760100533465462, 13.921026886573426 ], [ 76.759071730039153, 13.920600466374179 ], [ 76.758511200375395, 13.920368129702757 ], [ 76.758019385002669, 13.92016427542069 ], [ 76.757774552029275, 13.920062797004244 ], [ 76.756844059755238, 13.920008137331157 ], [ 76.756395829508847, 13.919981801565855 ], [ 76.755112382666965, 13.919646435691821 ], [ 76.754248218544632, 13.919420620134364 ], [ 76.754049458876537, 13.919368684802578 ], [ 76.75358102010243, 13.919319634882898 ], [ 76.753473465605538, 13.919308367782886 ], [ 76.753272411945346, 13.919287314043826 ], [ 76.753014425172026, 13.919260297581275 ], [ 76.75276544383388, 13.919252490240892 ], [ 76.752462408591882, 13.919242979794594 ], [ 76.752288263469637, 13.919237512633005 ], [ 76.752104135764071, 13.919231737490042 ], [ 76.751898976603826, 13.919225299912114 ], [ 76.751701000402363, 13.919219092537581 ], [ 76.751185957405283, 13.91844715894311 ], [ 76.750605854169407, 13.917577713136762 ], [ 76.75039589616128, 13.917263031074256 ], [ 76.750288616069952, 13.917099218323171 ], [ 76.750225215975135, 13.917002410492817 ], [ 76.750081294771206, 13.916782645120993 ], [ 76.749706898837829, 13.916210950725803 ], [ 76.749659379078835, 13.916138387863034 ], [ 76.749413771192877, 13.915763352280061 ], [ 76.749836338546729, 13.914753591855224 ], [ 76.749907690666589, 13.914583088239986 ], [ 76.750026323134435, 13.914299602690948 ], [ 76.750056803572548, 13.914226765666282 ], [ 76.75012954973171, 13.914052931336679 ], [ 76.750364357493538, 13.9134918255084 ], [ 76.750936986218164, 13.912123460458172 ], [ 76.751352254223974, 13.911141807691569 ], [ 76.751541074459027, 13.910695465410095 ], [ 76.751639060571804, 13.910463824072144 ], [ 76.752071885733557, 13.908744418871168 ], [ 76.752165002098991, 13.908374505625426 ], [ 76.752215197761657, 13.908175097290082 ], [ 76.75224517531592, 13.908056029212061 ], [ 76.752263052153623, 13.907993346723531 ], [ 76.752395170994745, 13.90753001088656 ], [ 76.752466917618776, 13.907278412419339 ], [ 76.752557638600393, 13.906960255169359 ], [ 76.751163969011529, 13.906931958661321 ], [ 76.751034341408484, 13.906903018400604 ], [ 76.750620433170965, 13.906810610319953 ], [ 76.749402374192528, 13.906509140198182 ], [ 76.747113482851049, 13.905942620060118 ], [ 76.747041657639883, 13.905924842626607 ], [ 76.746956318147923, 13.905903717431844 ], [ 76.746703559481176, 13.905852316697654 ], [ 76.746346703584337, 13.90577974015781 ], [ 76.745896953973926, 13.905688274301049 ], [ 76.745704127310802, 13.905649059308196 ], [ 76.745618049947993, 13.905631553327609 ], [ 76.745056230710347, 13.905517297597751 ], [ 76.744624673924051, 13.905429521469665 ], [ 76.743969474279268, 13.905296268819558 ], [ 76.743962181312469, 13.905213236025704 ], [ 76.743960572274474, 13.905194949411236 ], [ 76.743952466808935, 13.905102632819267 ], [ 76.743939849081727, 13.905101004817368 ], [ 76.743845721778129, 13.905088856695739 ], [ 76.743685802433106, 13.905068217214852 ], [ 76.742878918155043, 13.904964077834659 ], [ 76.742305816750687, 13.904890109426519 ], [ 76.74188483361398, 13.90482065567409 ], [ 76.741187658152754, 13.904634081148492 ], [ 76.74101656011905, 13.904588289972764 ], [ 76.739820992102338, 13.90426833501799 ], [ 76.739578814038339, 13.904203525824228 ], [ 76.739219733854242, 13.904107424611274 ], [ 76.738567039491329, 13.903951994826912 ], [ 76.737794734400566, 13.903768075624388 ], [ 76.737756852430948, 13.903759053966624 ], [ 76.737635333542073, 13.90373011442502 ], [ 76.737564428379926, 13.903713228613357 ], [ 76.73709057041755, 13.903600377999393 ], [ 76.737090500906746, 13.90360036222517 ], [ 76.736779321387303, 13.903526254531851 ], [ 76.736766032596194, 13.903523089877572 ], [ 76.736653746904139, 13.903496013794671 ], [ 76.73629442533074, 13.903409357541483 ], [ 76.736141942544705, 13.903372591573278 ], [ 76.735993748014181, 13.9033151866021 ], [ 76.735839639020057, 13.903255495319797 ], [ 76.735836154684435, 13.90325414627263 ], [ 76.735835058826069, 13.903253723841347 ], [ 76.735802054530879, 13.903240935220015 ], [ 76.735756001860437, 13.90322309657364 ], [ 76.735591512326792, 13.903159382766408 ], [ 76.735525972476438, 13.90313399914969 ], [ 76.735308005232852, 13.903049569898858 ], [ 76.735234989189237, 13.903021289235133 ], [ 76.734909905137556, 13.902895365045225 ], [ 76.734799574850683, 13.90285263232971 ], [ 76.734196713041001, 13.902619109388356 ], [ 76.734165105466602, 13.902606868267428 ], [ 76.734116670200947, 13.902589482768148 ], [ 76.734086220586633, 13.902578548492057 ], [ 76.733970022895335, 13.902536835917086 ], [ 76.733891694690854, 13.902508716385427 ], [ 76.733740074925009, 13.902454287095399 ], [ 76.733604754239096, 13.902405701827046 ], [ 76.733439428544173, 13.90234635881915 ], [ 76.733336843412815, 13.902309528469809 ], [ 76.733244081902541, 13.902276224676612 ], [ 76.733131678852232, 13.902235876628522 ], [ 76.732914135860696, 13.902157777036175 ], [ 76.732798859758049, 13.902116395347017 ], [ 76.732659573469732, 13.902066391524942 ], [ 76.732626404842094, 13.902054481229071 ], [ 76.732495100676289, 13.902007342745023 ], [ 76.732282967581099, 13.901931188062171 ], [ 76.732072446951321, 13.901855609230214 ], [ 76.731947345648905, 13.901810694134308 ], [ 76.731641461922621, 13.901700885385544 ], [ 76.731641410902895, 13.901700867670769 ], [ 76.731623325138216, 13.90169437447131 ], [ 76.731514271318503, 13.901653072702867 ], [ 76.731417856665516, 13.901616554714256 ], [ 76.73132062648115, 13.901579730644968 ], [ 76.731183623184123, 13.901527843283054 ], [ 76.731087075018166, 13.901491275483945 ], [ 76.730873283160236, 13.901410305635231 ], [ 76.730748498847333, 13.901363044870315 ], [ 76.730658951408088, 13.901329128816114 ], [ 76.730580533531452, 13.901299430661096 ], [ 76.730425088353186, 13.901252348265141 ], [ 76.730330888177022, 13.901223813090166 ], [ 76.730286580761074, 13.901210396086601 ], [ 76.730042617298807, 13.901136504019396 ], [ 76.730031584954205, 13.901133162093529 ], [ 76.729855675821554, 13.901079878508853 ], [ 76.729827494524145, 13.901071340831377 ], [ 76.729654986012193, 13.901019095000779 ], [ 76.728355667033725, 13.900625538511862 ], [ 76.727909261001997, 13.900490322202295 ], [ 76.727551865702623, 13.90038206565834 ], [ 76.727156026951235, 13.900262163452412 ], [ 76.726528713881009, 13.900038036537921 ], [ 76.725938888840403, 13.899827310684991 ], [ 76.725441930945522, 13.899640922565132 ], [ 76.725058982757105, 13.899497296418705 ], [ 76.724572135576807, 13.899318587167103 ], [ 76.724218656886464, 13.899188835041933 ], [ 76.723578544896725, 13.898992763335475 ], [ 76.72326271460129, 13.898896018844415 ], [ 76.722800892275799, 13.898754558140926 ], [ 76.722793399207646, 13.898737842926391 ], [ 76.722719415103256, 13.898572818054364 ], [ 76.722642301247291, 13.898400810447628 ], [ 76.722542484568137, 13.898178162490412 ], [ 76.722375017567529, 13.897804610675303 ], [ 76.722009401513688, 13.896989066956035 ], [ 76.721860547946179, 13.896647535709423 ], [ 76.721832117734309, 13.896582306976089 ], [ 76.721735129282138, 13.896359777734054 ], [ 76.721626153286834, 13.896109744032996 ], [ 76.721238025515362, 13.89521921794497 ], [ 76.721285285415775, 13.895095214486926 ], [ 76.721502861342358, 13.894524369004532 ], [ 76.721561532589362, 13.894370439226362 ], [ 76.721923995006023, 13.893434714172178 ], [ 76.72215001301079, 13.892918637829842 ], [ 76.722198674649036, 13.892807523147608 ], [ 76.722209632998087, 13.892782513328415 ], [ 76.722287709228226, 13.892580706468555 ], [ 76.722381292583165, 13.892338826765638 ], [ 76.722587188918013, 13.891722676630106 ], [ 76.722863924343358, 13.890894544421949 ], [ 76.722964606832122, 13.890593249165068 ], [ 76.723005191433145, 13.890532415261779 ], [ 76.723306458797055, 13.890080855250575 ], [ 76.723737514885499, 13.889434769438122 ], [ 76.724398584746396, 13.888443898094712 ], [ 76.724731424008866, 13.887932246102698 ], [ 76.724877588493911, 13.887707550824661 ], [ 76.725034061360518, 13.887474263066165 ], [ 76.725162546929809, 13.887282701765386 ], [ 76.725221580047759, 13.887194687103388 ], [ 76.725472671754829, 13.886820308043777 ], [ 76.725706269267206, 13.886472032442144 ], [ 76.725838155138021, 13.886275399814071 ], [ 76.725970191716513, 13.886092030867482 ], [ 76.725999629809934, 13.886051147252141 ], [ 76.726099655760279, 13.885912239378195 ], [ 76.726322668160819, 13.885602538231241 ], [ 76.726685126118738, 13.8850342509075 ], [ 76.72673479438032, 13.884954842581925 ], [ 76.727146623272816, 13.884296398256172 ], [ 76.727364944941826, 13.883947337439215 ], [ 76.727783184486356, 13.883278629123797 ], [ 76.727947443558364, 13.883016002329542 ], [ 76.727979915164198, 13.882964086489986 ], [ 76.728185301660275, 13.882609033791939 ], [ 76.72877199078458, 13.881594844161837 ], [ 76.72881018962498, 13.881528815818067 ], [ 76.728827552579517, 13.881498805645847 ], [ 76.728971583599986, 13.881424137106132 ], [ 76.729365311149223, 13.88122002222487 ], [ 76.729705565109313, 13.881043629183289 ], [ 76.730339429132684, 13.880962135567859 ], [ 76.730435891841111, 13.8809497378633 ], [ 76.730479127461493, 13.88094417678222 ], [ 76.730505903166005, 13.880949647938722 ], [ 76.73058899150621, 13.880966635659837 ], [ 76.730729066976409, 13.880995269780833 ], [ 76.730867731328672, 13.881023616448344 ], [ 76.73087758962717, 13.881086306632819 ], [ 76.730899934829708, 13.881228421976296 ], [ 76.730908008505139, 13.881279764419816 ], [ 76.730949227893078, 13.881287992970918 ], [ 76.731070484543025, 13.881312203902445 ], [ 76.731146223591608, 13.881327321004683 ], [ 76.731189840789042, 13.8812450273275 ], [ 76.731573911737769, 13.880520358045809 ], [ 76.731736858628778, 13.880212904510564 ], [ 76.731819977426596, 13.88005607853836 ], [ 76.731975164056394, 13.879763268784663 ], [ 76.732160170786926, 13.879415285988401 ], [ 76.732348504607018, 13.879061052964504 ], [ 76.732559018277541, 13.878665092294657 ], [ 76.732640359502085, 13.8785120893375 ], [ 76.732645306560045, 13.878502789000974 ], [ 76.732698092534932, 13.878390313291893 ], [ 76.732721758773053, 13.878339884766293 ], [ 76.732750786466127, 13.878278031650417 ], [ 76.732799661593546, 13.878173877291974 ], [ 76.732848451193149, 13.878069921475108 ], [ 76.73294605291251, 13.877861943684051 ], [ 76.733044946852331, 13.87765121987958 ], [ 76.733093414713593, 13.87754794148352 ], [ 76.733112016266631, 13.877508305448021 ], [ 76.733195345774035, 13.877401122923196 ], [ 76.733295902261716, 13.877271779888174 ], [ 76.733406296008923, 13.877129785609366 ], [ 76.733499260027813, 13.877010203596155 ], [ 76.733544199372417, 13.876952409708604 ], [ 76.733665143954596, 13.876796836244829 ], [ 76.733765838350664, 13.876667320359948 ], [ 76.733859278585328, 13.876547132910988 ], [ 76.733973425111074, 13.876400306108662 ], [ 76.734013467712444, 13.876288762989107 ], [ 76.734058328581227, 13.876163802529753 ], [ 76.734113842035555, 13.87600917658874 ], [ 76.734120821051036, 13.875989731580733 ], [ 76.7341615492833, 13.87588195350186 ], [ 76.734206574387329, 13.875762802650749 ], [ 76.734273000553387, 13.875587019019171 ], [ 76.734292665080886, 13.875534979221888 ], [ 76.734298348325623, 13.875519939680975 ], [ 76.734334189754009, 13.875425090434893 ], [ 76.734376901131128, 13.875312062323964 ], [ 76.734384479754738, 13.875292016523954 ], [ 76.734384491552419, 13.875291985709701 ], [ 76.734392751765355, 13.87527452276775 ], [ 76.734411923565219, 13.875233989631324 ], [ 76.734459471854251, 13.875133461648744 ], [ 76.734519347959804, 13.875006864417317 ], [ 76.734560982188086, 13.874918832391224 ], [ 76.734625079851767, 13.87478331412027 ], [ 76.73467007495961, 13.874688182979167 ], [ 76.734818871577104, 13.874373581558226 ], [ 76.734916948547948, 13.87416621994668 ], [ 76.735044688514549, 13.873896136450554 ], [ 76.73505059258072, 13.873820344650792 ], [ 76.735057787995601, 13.873727986247292 ], [ 76.735074605570958, 13.87351205619067 ], [ 76.735100181351498, 13.873183770030126 ], [ 76.735123701064651, 13.872881806520537 ], [ 76.735133032973266, 13.872762001417488 ], [ 76.735174100746107, 13.872234734358257 ], [ 76.735202703974565, 13.871867568824289 ], [ 76.735216817901986, 13.871686055373251 ], [ 76.735232160747401, 13.871488787407991 ], [ 76.735260799486014, 13.871120555084049 ], [ 76.73528324665557, 13.870831873864557 ], [ 76.735316668626254, 13.870767969322962 ], [ 76.73536089951206, 13.870683397702468 ], [ 76.735508601291372, 13.870400979710976 ], [ 76.735651334302361, 13.870128061032965 ], [ 76.735831829541866, 13.869782930451954 ], [ 76.736111341280051, 13.869248474645309 ], [ 76.736221009102479, 13.869038782667763 ], [ 76.736308218142696, 13.868872024304098 ], [ 76.736426928454847, 13.868645033662411 ], [ 76.736479666959326, 13.86854419296121 ], [ 76.737107928101025, 13.868010660341037 ], [ 76.737200790351338, 13.8679318015469 ], [ 76.738623171851827, 13.86672387209374 ], [ 76.740649231676173, 13.865033229878376 ], [ 76.742069945552217, 13.863151259128053 ], [ 76.742937636687756, 13.861696047011636 ], [ 76.743910414208401, 13.860064569737101 ], [ 76.745474154438028, 13.857841773767086 ], [ 76.745675752392316, 13.857446727956875 ], [ 76.746887135123444, 13.856211309821484 ], [ 76.747190077760393, 13.855964127769987 ], [ 76.747896914037071, 13.855370934221726 ], [ 76.748894588260413, 13.854098805538365 ], [ 76.74941763202483, 13.85376949634199 ], [ 76.749896366105787, 13.853960996893248 ], [ 76.750572062253454, 13.854124725967901 ], [ 76.751022791837784, 13.854398655204662 ], [ 76.751361129240166, 13.854782602354193 ], [ 76.75164291397995, 13.855001858368407 ], [ 76.752318525882217, 13.855110669422928 ], [ 76.752712073611661, 13.854835430310221 ], [ 76.752880489598724, 13.854560546424718 ], [ 76.752879776870714, 13.854121155640369 ], [ 76.752822959097088, 13.853791689456411 ], [ 76.751300759982456, 13.852256164405489 ], [ 76.750962428617925, 13.851872206697838 ], [ 76.751411117304087, 13.850882868455789 ], [ 76.754105645245247, 13.846484704380247 ], [ 76.756183486278374, 13.843625368399369 ], [ 76.760422828329453, 13.837549471946675 ], [ 76.761826412972013, 13.835460094637829 ], [ 76.762219826636667, 13.835129915425664 ], [ 76.763260707405053, 13.834936020684321 ], [ 76.765794460971307, 13.835591081937471 ], [ 76.769049696106961, 13.837294678048886 ], [ 76.768700061766282, 13.836752571158668 ], [ 76.767529027303155, 13.83524880936684 ], [ 76.766989333180177, 13.833998198057378 ], [ 76.766696170542133, 13.832003829926876 ], [ 76.766666075038685, 13.831530508215829 ], [ 76.766600921965505, 13.830373931917173 ], [ 76.766377782976349, 13.829324358102037 ], [ 76.766191348339603, 13.828439432141179 ], [ 76.766183128581531, 13.828407192998135 ], [ 76.766088281101261, 13.828435337123915 ], [ 76.765959199432217, 13.8282155244222 ], [ 76.764823094990589, 13.823300969515831 ], [ 76.764662738151515, 13.822633572394698 ], [ 76.764560594174867, 13.821886844720472 ], [ 76.763663468299569, 13.82170884618545 ], [ 76.763693053963465, 13.821573421307594 ], [ 76.763930044846006, 13.82048859109247 ], [ 76.764054916497955, 13.820264994860004 ], [ 76.764133181561519, 13.820124837304785 ], [ 76.764282951859101, 13.819751353261685 ], [ 76.764457320866583, 13.819316532777274 ], [ 76.764488505808814, 13.819162289455742 ], [ 76.764539206658739, 13.818911467965775 ], [ 76.76467125559202, 13.818258290680971 ], [ 76.764693571798759, 13.818147927935572 ], [ 76.764766073043134, 13.817929549028111 ], [ 76.764859359413293, 13.817648560514154 ], [ 76.765074358687983, 13.817000957059093 ], [ 76.76528701390032, 13.816360430198522 ], [ 76.765354053389729, 13.815846061587726 ], [ 76.765561449810704, 13.814254805996724 ], [ 76.765605266238325, 13.813918648182483 ], [ 76.765705076345185, 13.813152839491565 ], [ 76.765768557041909, 13.812665751460584 ], [ 76.765811087580403, 13.812568557616794 ], [ 76.765898357871777, 13.812369108843424 ], [ 76.766033249134921, 13.812060836135498 ], [ 76.766211736789785, 13.811652926012911 ], [ 76.766540314131831, 13.810902004248593 ], [ 76.76666085026325, 13.810626531602608 ], [ 76.767231884427972, 13.809321484235678 ], [ 76.767593310460441, 13.808495469148797 ], [ 76.768946939734263, 13.805401792737634 ], [ 76.768966508736767, 13.805275886605701 ], [ 76.769010193506247, 13.804994803606691 ], [ 76.769040479422941, 13.804600552785979 ], [ 76.769063173716631, 13.804148093062286 ], [ 76.769093331197098, 13.803773974157684 ], [ 76.769104473001249, 13.803395656529268 ], [ 76.769115527029399, 13.803280305182589 ], [ 76.769140008880697, 13.803024796957374 ], [ 76.769163848551443, 13.80266499230321 ], [ 76.769190904937204, 13.802256640569182 ], [ 76.769213671801296, 13.80191020494949 ], [ 76.769228746558326, 13.801595613320675 ], [ 76.769276996240009, 13.800869223859777 ], [ 76.769286946245373, 13.800719440020762 ], [ 76.769345564939428, 13.799778267467087 ], [ 76.769419715930169, 13.798587722108667 ], [ 76.769462245603819, 13.797904877822589 ], [ 76.769551706600197, 13.796468471680861 ], [ 76.769314422290734, 13.796309429409796 ], [ 76.769108511912108, 13.79598063953159 ], [ 76.768571157979196, 13.795122589854769 ], [ 76.7676161481874, 13.793597612023857 ], [ 76.767486639906409, 13.793390813993554 ], [ 76.767451866859389, 13.793335291320263 ], [ 76.767443087176005, 13.79330535358207 ], [ 76.767347270382828, 13.792978534762721 ], [ 76.767309371598955, 13.792849286420465 ], [ 76.767204059050272, 13.792490088217079 ], [ 76.767147499084828, 13.792297177044848 ], [ 76.766959641879396, 13.791656449166664 ], [ 76.766770902250897, 13.791012706735296 ], [ 76.766397024010942, 13.789737505314434 ], [ 76.766121763598647, 13.788798641531066 ], [ 76.766016645297881, 13.788440099800029 ], [ 76.766131440049023, 13.788025500074971 ], [ 76.765996665966057, 13.787488997031192 ], [ 76.765836759064243, 13.786852443816709 ], [ 76.765829803833952, 13.786824756051212 ], [ 76.765792439606813, 13.78667602488165 ], [ 76.765738755093111, 13.786462322299734 ], [ 76.765665879029825, 13.786172208301634 ], [ 76.765635404387751, 13.786050894176372 ], [ 76.765577760306911, 13.785821429991479 ], [ 76.765542904459039, 13.785682669885713 ], [ 76.765493326293694, 13.785485313342017 ], [ 76.765455965312768, 13.785336574804623 ], [ 76.765311256269484, 13.784760511895524 ], [ 76.765248327051438, 13.784509999961154 ], [ 76.76495304504148, 13.783334514347857 ], [ 76.764809816527475, 13.782764325014133 ], [ 76.764687169542626, 13.782276075776023 ], [ 76.764678416849591, 13.782241234340175 ], [ 76.764672427596381, 13.782217390804826 ], [ 76.764647813758344, 13.782119394832947 ], [ 76.764412764058321, 13.782112511629972 ], [ 76.763952241613964, 13.782099031077252 ], [ 76.763815215525156, 13.782095019036323 ], [ 76.763552555930673, 13.782087323389394 ], [ 76.763312449388152, 13.782048363976001 ], [ 76.762668521292738, 13.781943881615023 ], [ 76.762164913598014, 13.781862161406485 ], [ 76.762151422810376, 13.78186011415095 ], [ 76.762004068110812, 13.781837706117829 ], [ 76.761410542698528, 13.781747458943636 ], [ 76.761394365211757, 13.781744999753361 ], [ 76.761353787228146, 13.781738827878749 ], [ 76.761336856116031, 13.781736251159026 ], [ 76.761312930579592, 13.781732613704492 ], [ 76.761291443606211, 13.781729346533089 ], [ 76.761258210991897, 13.781724297035908 ], [ 76.761235772277587, 13.781720883021668 ], [ 76.76120037972116, 13.781715499196533 ], [ 76.761134730079036, 13.78170551725462 ], [ 76.760885467751947, 13.781667618759172 ], [ 76.760842853941085, 13.781661136893034 ], [ 76.760831049959762, 13.781659343215775 ], [ 76.760747926147133, 13.781645515697329 ], [ 76.760729131255417, 13.781642389185093 ], [ 76.760624856101202, 13.781625038019186 ], [ 76.760420568727952, 13.781591051610828 ], [ 76.760331228402592, 13.781576184733849 ], [ 76.76004846809802, 13.781529139635882 ], [ 76.759840820675834, 13.781494585657882 ], [ 76.759610379477806, 13.78145624296951 ], [ 76.759224230653345, 13.781616847826902 ], [ 76.75907568827094, 13.781678622494155 ], [ 76.758365671104499, 13.781973852506637 ], [ 76.757954498286253, 13.782144817040969 ], [ 76.757598109719183, 13.782293006925594 ], [ 76.757363221408994, 13.782387810051169 ], [ 76.75736311539255, 13.782387854192695 ], [ 76.756846315729149, 13.782596437305374 ], [ 76.756384556868369, 13.782782806907914 ], [ 76.756084654437103, 13.782903847844992 ], [ 76.755993408423649, 13.782910600144421 ], [ 76.755883968616601, 13.782918694329698 ], [ 76.754829603679951, 13.782996696091821 ], [ 76.754789556049673, 13.782999278442073 ], [ 76.754077694329908, 13.783045248099132 ], [ 76.753442761557054, 13.783086238543953 ], [ 76.752671484884786, 13.783137397270938 ], [ 76.752666181232442, 13.783137746885519 ], [ 76.751704435935238, 13.78320153870157 ], [ 76.751623688518194, 13.78320745541447 ], [ 76.751391756198487, 13.783224439647533 ], [ 76.750932666071677, 13.783258057137575 ], [ 76.750680612543448, 13.783276514390467 ], [ 76.749305305549143, 13.783377247928584 ], [ 76.749147643829772, 13.783389509862753 ], [ 76.749146627172038, 13.783389587591868 ], [ 76.747965369483353, 13.78348145720771 ], [ 76.747879214010979, 13.783488157714459 ], [ 76.747777475128089, 13.783496067991731 ], [ 76.747722342242099, 13.78350035709872 ], [ 76.747434027795578, 13.783507482392316 ], [ 76.746714752724927, 13.783525264895012 ], [ 76.746519090561975, 13.783530103332945 ], [ 76.746291945075043, 13.783535719191484 ], [ 76.745837280432994, 13.78354695654955 ], [ 76.744899081544304, 13.783552380125618 ], [ 76.744557542456889, 13.783554358961407 ], [ 76.744434430358453, 13.783546976419638 ], [ 76.744133764172659, 13.783528936633289 ], [ 76.74395882373868, 13.783518440654598 ], [ 76.743855151413783, 13.783512223327701 ], [ 76.743854997837374, 13.783512214474243 ], [ 76.743822576929531, 13.783510269682042 ], [ 76.743813464759739, 13.783509457556278 ], [ 76.743645539254601, 13.783494431273638 ], [ 76.743279805142649, 13.783461716835008 ], [ 76.743047331829359, 13.783440917412205 ], [ 76.742506593647718, 13.783474906293172 ], [ 76.742427754543073, 13.783479862888566 ], [ 76.74207132882718, 13.783500249239129 ], [ 76.742069791601892, 13.78350033785687 ], [ 76.741604950752958, 13.783526923451262 ], [ 76.74112911613517, 13.783554138246553 ], [ 76.740504572978864, 13.783595380930617 ], [ 76.740502020927977, 13.783595546315615 ], [ 76.740197383121867, 13.78361566656166 ], [ 76.740029687748446, 13.783626739164989 ], [ 76.739944570978125, 13.783632173228899 ], [ 76.739806286799649, 13.783640997655464 ], [ 76.739368913286597, 13.783678583417206 ], [ 76.73935674464532, 13.783679630253587 ], [ 76.739312577714372, 13.783680863591139 ], [ 76.739289444878111, 13.78368151253296 ], [ 76.73921805014281, 13.783683505998926 ], [ 76.73913335444503, 13.78368586735451 ], [ 76.738875868679855, 13.783693059331606 ], [ 76.738753549282038, 13.783696478302643 ], [ 76.738531831529087, 13.783702666883697 ], [ 76.738341526165314, 13.783749974201335 ], [ 76.738194941881503, 13.783786412802325 ], [ 76.738044835100425, 13.783823725825206 ], [ 76.73797647467903, 13.783810875349634 ], [ 76.737893389048807, 13.783795253767115 ], [ 76.737791562810145, 13.783803984883443 ], [ 76.73770106980686, 13.783811746508714 ], [ 76.737543072750412, 13.783825295056371 ], [ 76.737382959306629, 13.783839027472492 ], [ 76.737306122885172, 13.783845617820065 ], [ 76.737171262171358, 13.783849614479756 ], [ 76.736917536604622, 13.783857133988256 ], [ 76.736664404058914, 13.783892969225681 ], [ 76.736590704718139, 13.783904108852214 ], [ 76.736437970450325, 13.78392718674651 ], [ 76.735863248154416, 13.784014033870118 ], [ 76.735590611647638, 13.784055234430014 ], [ 76.735517806314547, 13.784066234572057 ], [ 76.735468307823183, 13.784073715170743 ], [ 76.735264919423102, 13.78408257253972 ], [ 76.734463531460946, 13.784117462636488 ], [ 76.734065455414949, 13.784134797872747 ], [ 76.733642162330511, 13.784153224000789 ], [ 76.733590011827701, 13.784145335842268 ], [ 76.733298559720879, 13.784101252141511 ], [ 76.733079029555427, 13.784068039848391 ], [ 76.733023448637184, 13.784090178923211 ], [ 76.732841825641344, 13.784162531628072 ], [ 76.732704960292679, 13.784217048747996 ], [ 76.73270319382209, 13.78418153911311 ], [ 76.732589214478523, 13.784177216313688 ], [ 76.732475899350106, 13.784172924936239 ], [ 76.731613236458671, 13.784140227428452 ], [ 76.730572842848119, 13.784100783800062 ], [ 76.730494953716914, 13.784258952895359 ], [ 76.7301883419332, 13.784881582420974 ], [ 76.730145774914362, 13.784968028496227 ], [ 76.730128191014416, 13.785138031277018 ], [ 76.730047590516108, 13.785917156429035 ], [ 76.730008841817323, 13.786291692463958 ], [ 76.729986254853358, 13.786401429331608 ], [ 76.729934555598334, 13.786652671310781 ], [ 76.729917689957517, 13.786734620708788 ], [ 76.729917210374026, 13.786736932509479 ], [ 76.729915354222584, 13.786745958735969 ], [ 76.729912845272182, 13.78675813765614 ], [ 76.729898563521061, 13.786827537028861 ], [ 76.729878774741167, 13.786923692878673 ], [ 76.729828925923272, 13.78716590776099 ], [ 76.729739151930659, 13.787602111608496 ], [ 76.729665194468964, 13.787961474749711 ], [ 76.729590308159004, 13.788325332021628 ], [ 76.729466132192513, 13.788928690477819 ], [ 76.729435857558812, 13.789075794045839 ], [ 76.729431551265122, 13.789096705025726 ], [ 76.729411902538942, 13.789192200070092 ], [ 76.729322024983034, 13.789264822789029 ], [ 76.729093067500727, 13.789449827351737 ], [ 76.728934710169796, 13.789577786051916 ], [ 76.728396880099709, 13.790012373058737 ], [ 76.728312976579247, 13.790157823523522 ], [ 76.727929434964864, 13.790822731051117 ], [ 76.727640620249502, 13.791323419345233 ], [ 76.727208646578916, 13.792072279688592 ], [ 76.72710355091175, 13.792254471084552 ], [ 76.726994285817455, 13.793381415932631 ], [ 76.726953983092542, 13.793797155766471 ], [ 76.726940936730585, 13.793931682237448 ], [ 76.726934061594335, 13.794002583224195 ], [ 76.727210242376117, 13.794852816221335 ], [ 76.727841831508044, 13.796797195337723 ], [ 76.727898873363472, 13.796972796968085 ], [ 76.727474653152782, 13.797236430129503 ], [ 76.72686339580919, 13.797616297754745 ], [ 76.725998313844897, 13.798153899768417 ], [ 76.724312629089653, 13.799195465165706 ], [ 76.724166975125655, 13.799285463083429 ], [ 76.724393700837439, 13.7995277486456 ], [ 76.724097023289175, 13.799791388276377 ], [ 76.723867695581717, 13.799523990064943 ], [ 76.722365318706366, 13.79876391149414 ], [ 76.721404652172524, 13.798612078998307 ], [ 76.720097465105098, 13.798006503880234 ], [ 76.71960388169154, 13.797718268369461 ], [ 76.71894856557725, 13.797135308928993 ], [ 76.71876338049843, 13.796965510462996 ], [ 76.718494470358991, 13.796718925776043 ], [ 76.718217661595801, 13.796465104576541 ], [ 76.717692419402951, 13.795983492507665 ], [ 76.717320970782268, 13.795307440632691 ], [ 76.716943390033634, 13.794620243778027 ], [ 76.716828614028742, 13.791573889163047 ], [ 76.715891452634551, 13.791046484287614 ], [ 76.715333202523695, 13.790518408741631 ], [ 76.714967325158824, 13.789571698631425 ], [ 76.714877792604938, 13.788162454673724 ], [ 76.714848703171015, 13.787704777752124 ], [ 76.714834644099966, 13.787483419804463 ], [ 76.714849690855587, 13.786626220792066 ], [ 76.714865690420211, 13.785714418686599 ], [ 76.714476277820282, 13.785417926247407 ], [ 76.712677021648545, 13.784601760095569 ], [ 76.712636468596187, 13.784637216905004 ], [ 76.712281983711904, 13.784399851509878 ], [ 76.711162795904656, 13.783650423391855 ], [ 76.70982045051521, 13.783290472182191 ], [ 76.709698143163038, 13.783289704421982 ], [ 76.70828773229826, 13.782365474847932 ], [ 76.707853407885864, 13.780825794975184 ], [ 76.707362914222117, 13.778667572256527 ], [ 76.70731359733513, 13.778450571004571 ], [ 76.706887093511824, 13.777984162871658 ], [ 76.705952116648064, 13.776565493367755 ], [ 76.703765113726021, 13.776359688876171 ], [ 76.701505854069296, 13.775150928972689 ], [ 76.699206282258586, 13.7724409942241 ], [ 76.69744713841537, 13.769924397091991 ], [ 76.697256152385222, 13.765810507231318 ], [ 76.696226379679828, 13.765482988411737 ], [ 76.694748345829325, 13.764183393800614 ], [ 76.694478478919123, 13.763287017520822 ], [ 76.694979150485707, 13.761720929105847 ], [ 76.697003228013827, 13.76108628798081 ], [ 76.697583377409913, 13.760488364182477 ], [ 76.696049136200827, 13.758717144918254 ], [ 76.695624006787668, 13.757612233795996 ], [ 76.695554410899476, 13.756217459170355 ], [ 76.69550492046757, 13.755225593532723 ], [ 76.694320861870295, 13.753816910744154 ], [ 76.692817687064846, 13.752759683234903 ], [ 76.691456172300761, 13.751453186351526 ], [ 76.690334198590662, 13.749795870482346 ], [ 76.689976315003307, 13.748860852170893 ], [ 76.68999804619942, 13.747772666913152 ], [ 76.689829145865005, 13.747154233515451 ], [ 76.689474297149886, 13.746851298043307 ], [ 76.688026625340839, 13.746249513714119 ], [ 76.68802613330854, 13.746248980184717 ], [ 76.687627344898786, 13.745816459260945 ], [ 76.6842137044586, 13.730429807642711 ], [ 76.683919802470172, 13.729104980043163 ], [ 76.684963963760154, 13.728733171941384 ], [ 76.688717699716847, 13.727396492881802 ], [ 76.688796070550097, 13.727368584978381 ], [ 76.688954072074651, 13.727296197990901 ], [ 76.689094962192868, 13.727454964982046 ], [ 76.689304728209194, 13.727690199737181 ], [ 76.689506303794104, 13.727916250967155 ], [ 76.689599454274713, 13.727988078466941 ], [ 76.689642490162768, 13.728021263239716 ], [ 76.694853531771813, 13.732039376767929 ], [ 76.696560898258426, 13.733355832869931 ], [ 76.697578418503653, 13.732693760071268 ], [ 76.697720563637631, 13.732547147128439 ], [ 76.699978087851676, 13.731116865150003 ], [ 76.705202935744197, 13.727806456292454 ], [ 76.707907988896011, 13.726092481512014 ], [ 76.708756019895688, 13.72576658624604 ], [ 76.709386284071272, 13.725524373986412 ], [ 76.716946995744962, 13.722618619374842 ], [ 76.716366355639977, 13.723810324183276 ], [ 76.715944366208376, 13.724676403786003 ], [ 76.715612736296038, 13.725357025280767 ], [ 76.711875707539122, 13.733026444003347 ], [ 76.710439652435241, 13.735973488053055 ], [ 76.710488927748386, 13.736639265477674 ], [ 76.710903760289568, 13.736702848395558 ], [ 76.711064476013831, 13.736720197993396 ], [ 76.714978906251304, 13.737142738253233 ], [ 76.720630732645532, 13.737857784331954 ], [ 76.721514526471083, 13.737991371478786 ], [ 76.721621795994238, 13.73801163217564 ], [ 76.724949274952507, 13.738640069722228 ], [ 76.725099769317296, 13.738668490296785 ], [ 76.729629447312632, 13.739475832225365 ], [ 76.729826096351559, 13.739511548363415 ], [ 76.73277214738205, 13.740046597996363 ], [ 76.732920517680341, 13.740081470241478 ], [ 76.734334487009463, 13.740280317999694 ], [ 76.734493858182532, 13.740343680766111 ], [ 76.734612227464638, 13.740390740689977 ], [ 76.737511948391244, 13.741543551112972 ], [ 76.737710071193078, 13.74163313853111 ], [ 76.737410137144607, 13.743984071569004 ], [ 76.737054524199849, 13.746804359738988 ], [ 76.737052796264905, 13.746818055256446 ], [ 76.737037470792657, 13.74693960505039 ], [ 76.739098533616726, 13.747126082411238 ], [ 76.739185276701591, 13.747133929683752 ], [ 76.739341706897008, 13.747148818008387 ], [ 76.739351395422204, 13.747149740279632 ], [ 76.741031131139778, 13.747309608848118 ], [ 76.741206649812057, 13.747326314385994 ], [ 76.742750837377173, 13.747660106852377 ], [ 76.743673923622026, 13.747876707209976 ], [ 76.744524252573768, 13.748082069657801 ], [ 76.744584973006496, 13.74809673511542 ], [ 76.745613438197552, 13.748074194296583 ], [ 76.746259785267171, 13.748060060058354 ], [ 76.746413084092211, 13.748056707411575 ], [ 76.748549245169457, 13.748060752132286 ], [ 76.748632858037269, 13.748060912945849 ], [ 76.750256764236411, 13.748161304081036 ], [ 76.751696766723512, 13.748250318262807 ], [ 76.751764835262151, 13.748255389646644 ], [ 76.753651843825779, 13.748395957809832 ], [ 76.755504099145242, 13.748526212716689 ], [ 76.757318715687745, 13.748740043899859 ], [ 76.758807220421559, 13.748907442245075 ], [ 76.758965741367618, 13.748927673516453 ], [ 76.758966064373581, 13.748927715499972 ], [ 76.759224463602052, 13.748961547159775 ], [ 76.762487895975639, 13.749388823687582 ], [ 76.763189651138589, 13.748342032686399 ], [ 76.763262573770632, 13.748259262099195 ], [ 76.763333720926724, 13.748149415327273 ], [ 76.763691754995207, 13.747662641564864 ], [ 76.763737658632948, 13.747563623373091 ], [ 76.764300107810456, 13.746796691621016 ], [ 76.764371303270693, 13.746699833317544 ], [ 76.764775565870636, 13.746118189162559 ], [ 76.764874844611739, 13.746009189196254 ], [ 76.76492479833135, 13.745904141313606 ], [ 76.765284074050427, 13.745421788530948 ], [ 76.765328244410327, 13.745292592654136 ], [ 76.765571319669291, 13.744971842908772 ], [ 76.765583356443898, 13.744952138988562 ], [ 76.765654385955074, 13.744835861810071 ], [ 76.765911349388489, 13.744490272614019 ], [ 76.765971734790668, 13.744409058142649 ], [ 76.766018063327195, 13.744339175376739 ], [ 76.766031991197437, 13.744318161799979 ], [ 76.766329125988349, 13.743883449392703 ], [ 76.766465187351912, 13.743697978677901 ], [ 76.766518139766561, 13.743625797854195 ], [ 76.766951986762123, 13.74303441739514 ], [ 76.7669775237854, 13.742999605823018 ], [ 76.767189879329166, 13.742763772464389 ], [ 76.767918458825449, 13.741954633842779 ], [ 76.768948603189116, 13.740798002381636 ], [ 76.769939649112857, 13.739642835821037 ], [ 76.769997708601963, 13.739576041715678 ], [ 76.771006036903486, 13.738415966660328 ], [ 76.7717363428239, 13.737616354295834 ], [ 76.772902436497986, 13.736311457197509 ], [ 76.773688237781457, 13.735431112675597 ], [ 76.774624337017499, 13.734514321244474 ], [ 76.775251841657607, 13.733893517647058 ], [ 76.775264623656639, 13.733880871477796 ], [ 76.775272715203158, 13.733872867686758 ], [ 76.775302759928138, 13.733900927930499 ], [ 76.776658922630929, 13.735459727371399 ], [ 76.777228755584645, 13.73606982029931 ], [ 76.777337367265019, 13.736184476147351 ], [ 76.777731262748219, 13.736600297368934 ], [ 76.777752686643836, 13.736594276249278 ], [ 76.777917202477852, 13.736498621620647 ], [ 76.779238870121361, 13.735730151592518 ], [ 76.779387698575789, 13.735630939677703 ], [ 76.780260788740236, 13.735048914634719 ], [ 76.780603008649052, 13.735112715173377 ], [ 76.78212967752448, 13.735397318636373 ], [ 76.782169925303762, 13.73539963912094 ], [ 76.782783176506157, 13.735434999443063 ], [ 76.782934960582892, 13.735443751810127 ], [ 76.78319668759184, 13.735465247148502 ], [ 76.784177801333769, 13.735545821999883 ], [ 76.784182524233898, 13.735637995445433 ], [ 76.784161144898633, 13.735699233413579 ], [ 76.78418590957908, 13.735704054326668 ], [ 76.78495255659611, 13.735853282132894 ], [ 76.785385901345919, 13.735910203644057 ], [ 76.786666370804426, 13.736165161896627 ], [ 76.788110076585639, 13.736431440133718 ], [ 76.788642190347176, 13.736509088606656 ], [ 76.788653423553185, 13.736513453094824 ], [ 76.788896333050474, 13.736607819372251 ], [ 76.78929607779763, 13.736793241902337 ], [ 76.789309373528368, 13.736799408993212 ], [ 76.78961806069988, 13.737010274140122 ], [ 76.78969123345567, 13.737060258177463 ], [ 76.789955771231561, 13.737158775847988 ], [ 76.790682930758081, 13.737429579047976 ], [ 76.790944389105618, 13.737535829340089 ], [ 76.792301805769128, 13.737940025796169 ], [ 76.792814987648768, 13.738075469797248 ], [ 76.792882073083859, 13.738078765702925 ], [ 76.794156545720597, 13.738141405377814 ], [ 76.794162861204967, 13.738160332504869 ], [ 76.794199533723344, 13.738270251786883 ], [ 76.794222785244258, 13.73833994730983 ], [ 76.79557848473317, 13.73827540111388 ], [ 76.795801247542329, 13.737770036139933 ], [ 76.796043812635588, 13.737301450761175 ], [ 76.796079098743917, 13.737233284302221 ], [ 76.796773179850078, 13.735798264930562 ], [ 76.797263711927144, 13.735004417787611 ], [ 76.797335980336797, 13.734909088643102 ], [ 76.798206196403711, 13.733761177954939 ], [ 76.798323407437053, 13.733283947541169 ], [ 76.798503008707456, 13.733453917464931 ], [ 76.798661595102146, 13.733730533145987 ], [ 76.799076751986064, 13.733832852790973 ], [ 76.799373033151227, 13.73376151062957 ], [ 76.799742432855737, 13.734057083307567 ], [ 76.799994183497546, 13.734161407277677 ], [ 76.800488206707755, 13.734039291750832 ], [ 76.800941664556476, 13.733993033421815 ], [ 76.801316168783032, 13.734227340530589 ], [ 76.801566980698396, 13.734041058947032 ], [ 76.801869245464133, 13.733634859087017 ], [ 76.802283831576659, 13.733421646628711 ], [ 76.802270248088334, 13.733532453812838 ], [ 76.802327588903239, 13.735167215788195 ], [ 76.805189366472575, 13.737535624055546 ], [ 76.805189013357818, 13.737536115604852 ], [ 76.805298838772984, 13.737621528149758 ], [ 76.805301576966428, 13.737623657393714 ], [ 76.806582691812906, 13.737705327843649 ], [ 76.807481184074717, 13.736958992565551 ], [ 76.807835097174674, 13.736669506415909 ], [ 76.807923023626657, 13.736604254609308 ], [ 76.808368968112902, 13.736273315054442 ], [ 76.808418942009183, 13.736226205191652 ], [ 76.808726086047102, 13.73593666670768 ], [ 76.808733669820825, 13.735929517962774 ], [ 76.808738039540486, 13.735929799556112 ], [ 76.810781259882773, 13.736061683864721 ], [ 76.810795843616731, 13.736305597179516 ], [ 76.81080042836706, 13.736382277614231 ], [ 76.810800815535615, 13.736388750613379 ], [ 76.810818750007726, 13.736423435787984 ], [ 76.811028397148746, 13.736894393896488 ], [ 76.810782210928551, 13.737290246397437 ], [ 76.810622657822265, 13.739089287732954 ], [ 76.81058466672566, 13.73930946132103 ], [ 76.811191991372965, 13.7394096089694 ], [ 76.811661005829052, 13.739203190746387 ], [ 76.811883752984926, 13.739376748578767 ], [ 76.812248471629189, 13.739345659941822 ], [ 76.812480451348378, 13.739325888410935 ], [ 76.812500073912119, 13.739545918969775 ], [ 76.812489683883229, 13.739880123012123 ], [ 76.81261021980518, 13.740110388894209 ], [ 76.813055141902055, 13.740148735342842 ], [ 76.813642820315508, 13.740404267342528 ], [ 76.814385148132317, 13.740094189619287 ], [ 76.81470104714775, 13.74012406338008 ], [ 76.815022076635287, 13.740519224993603 ], [ 76.815125586531593, 13.741158298314724 ], [ 76.81552619555562, 13.741288041573609 ], [ 76.816033518052521, 13.741387156365162 ], [ 76.816461109861137, 13.741673405137695 ], [ 76.817035018364578, 13.741698467833737 ], [ 76.816982406031926, 13.742107340799441 ], [ 76.817227980081086, 13.742589604578964 ], [ 76.817686661932115, 13.742845357542105 ], [ 76.818327802765069, 13.743135566187659 ], [ 76.81857618052635, 13.743462928454219 ], [ 76.818520680123527, 13.743755383735314 ], [ 76.818290417899462, 13.744195043521529 ], [ 76.817918561257756, 13.744434161668918 ], [ 76.817970642969712, 13.744823110160313 ], [ 76.818011495041546, 13.74512817635695 ], [ 76.81824149697708, 13.745487769461477 ], [ 76.818768262753352, 13.74570017324584 ], [ 76.819115749996428, 13.74615134327779 ], [ 76.819526858673157, 13.74630120055313 ], [ 76.819476690481309, 13.746928787766647 ], [ 76.819403613059436, 13.747842913911809 ], [ 76.81937860983453, 13.748155693288981 ], [ 76.819772258523685, 13.748173271134966 ], [ 76.820422874650092, 13.748202322987618 ], [ 76.82089806787927, 13.748223541194093 ], [ 76.821007512352296, 13.748228428665206 ], [ 76.821298851024338, 13.748246671119043 ], [ 76.821547137528825, 13.748262217101797 ], [ 76.823671527493872, 13.748395222387904 ], [ 76.824020540058513, 13.748397324037258 ], [ 76.824781867158322, 13.748401907811845 ], [ 76.825888153584529, 13.748408564913449 ], [ 76.82660148983129, 13.748412856763146 ], [ 76.826912269579736, 13.748394604536783 ], [ 76.827260475168032, 13.748374150336495 ], [ 76.827561979338952, 13.748341964261197 ], [ 76.828492599148845, 13.748242613616 ], [ 76.829491822404108, 13.748135934875801 ], [ 76.830563011505433, 13.748021567853524 ], [ 76.831249680492547, 13.747948250166628 ], [ 76.831955412694015, 13.747872897303131 ], [ 76.832016631549834, 13.747727171034331 ], [ 76.832560596674313, 13.746432304589941 ], [ 76.833067678752755, 13.745225224451717 ], [ 76.83309537096109, 13.745159305628842 ], [ 76.833165831456398, 13.744985996873268 ], [ 76.833192055342082, 13.744921497088677 ], [ 76.831751237404546, 13.744216975159501 ], [ 76.831237683155422, 13.743965857063813 ], [ 76.831118478704568, 13.743907568184706 ], [ 76.830923718196487, 13.743812333133572 ], [ 76.830957469928407, 13.74297267330638 ], [ 76.831020585102777, 13.741934518416647 ], [ 76.831108845151647, 13.740566639060212 ], [ 76.831150000705193, 13.739928796595494 ], [ 76.831155107853334, 13.73984963584865 ], [ 76.831164089499936, 13.739692118854258 ], [ 76.831232908459825, 13.738485200737706 ], [ 76.831340006310981, 13.7368983201488 ], [ 76.831341485398454, 13.73687639457162 ], [ 76.831351084998502, 13.736734158155146 ], [ 76.833410700813801, 13.736157974999363 ], [ 76.835438227457303, 13.735710964832695 ], [ 76.835710533614019, 13.73565092844863 ], [ 76.836966120397847, 13.735374098057331 ], [ 76.83782763224275, 13.735176343291096 ], [ 76.837939231231204, 13.735152240051301 ], [ 76.838806294832551, 13.735147175863272 ], [ 76.83881508668577, 13.735145342508629 ], [ 76.839786482028074, 13.734942838915352 ], [ 76.840955381429012, 13.734699157898845 ], [ 76.841025069818457, 13.734684629056511 ], [ 76.84145266375215, 13.734800442226618 ], [ 76.841967771534158, 13.734913951029665 ], [ 76.842010091587767, 13.734923275982895 ], [ 76.842047954638474, 13.7349195995683 ], [ 76.842094135824652, 13.73491511541661 ], [ 76.842384961088555, 13.734886874068428 ], [ 76.842648726453646, 13.734861261156665 ], [ 76.842991025227349, 13.73482802083254 ], [ 76.843050353324912, 13.734822260663051 ], [ 76.844163634145062, 13.734731598826549 ], [ 76.844572823400327, 13.734620446817956 ], [ 76.84468579702515, 13.734589758823317 ], [ 76.845972399844882, 13.734669815407573 ], [ 76.846022893317851, 13.734672956173711 ], [ 76.846235271066448, 13.734469311076515 ], [ 76.846705678600458, 13.735745844661608 ], [ 76.847141750531279, 13.736503608763863 ], [ 76.847597677370146, 13.73729585933515 ], [ 76.848021644573137, 13.738032574619071 ], [ 76.848164171550067, 13.738877999582064 ], [ 76.848044113971497, 13.739551140079664 ], [ 76.847411966567151, 13.740000479997034 ], [ 76.846829348925283, 13.740414608984235 ], [ 76.84633732245419, 13.740858067604488 ], [ 76.846298441613314, 13.741536666529148 ], [ 76.846702139525874, 13.742194750979911 ], [ 76.846879653571847, 13.742632794756018 ], [ 76.846850922534728, 13.743125204484013 ], [ 76.846453509622137, 13.74395075685986 ], [ 76.845861639887389, 13.744464593450299 ], [ 76.845509317131274, 13.745033702182708 ], [ 76.845272058325477, 13.746126443519197 ], [ 76.845708134515462, 13.747529986082528 ], [ 76.845937378238347, 13.748131423024386 ], [ 76.845722652486543, 13.74909037013753 ], [ 76.845211073459694, 13.749849262752534 ], [ 76.844283152755864, 13.750577781477185 ], [ 76.844143365023328, 13.750703529087708 ], [ 76.843986023552077, 13.750845068995629 ], [ 76.843708302877289, 13.751518462866942 ], [ 76.843709424463043, 13.752082214213374 ], [ 76.843760507453624, 13.752821662873853 ], [ 76.843809814542752, 13.753535438739636 ], [ 76.84390553912074, 13.754027698381027 ], [ 76.844045889164718, 13.754749459363092 ], [ 76.844137862548322, 13.755469977014297 ], [ 76.844300185960634, 13.756015236437781 ], [ 76.844460217021194, 13.75655279616393 ], [ 76.84472963119903, 13.756790333128579 ], [ 76.845028423802106, 13.757353517218483 ], [ 76.845556066519976, 13.757613171157749 ], [ 76.846344207915962, 13.757890510479045 ], [ 76.847194730434595, 13.758349583239337 ], [ 76.847276225196211, 13.758785880817131 ], [ 76.847060242976738, 13.759319736887159 ], [ 76.846681465498023, 13.760255981233314 ], [ 76.846380342506933, 13.761256966154642 ], [ 76.846308016859567, 13.761497379935697 ], [ 76.846104359925135, 13.761994842169909 ], [ 76.84568338205834, 13.762359359108071 ], [ 76.845460985240521, 13.76279017345137 ], [ 76.845344633688086, 13.763529942097597 ], [ 76.845290223905337, 13.764233219416052 ], [ 76.845452581570356, 13.764790599997951 ], [ 76.845565035857689, 13.76517666973387 ], [ 76.845621686465535, 13.765620750338899 ], [ 76.845870538711921, 13.766014297724301 ], [ 76.846162442529462, 13.766225902873858 ], [ 76.846710000885494, 13.767128069397696 ], [ 76.846307570854563, 13.767468303269121 ], [ 76.845892861221984, 13.767818916603025 ], [ 76.845999085927403, 13.768269058451727 ], [ 76.846169175601545, 13.768989826305676 ], [ 76.846020154312242, 13.769499573128268 ], [ 76.845710832757419, 13.769882061370755 ], [ 76.845488417336739, 13.770306814703629 ], [ 76.84529091498004, 13.770786077223473 ], [ 76.844876570724395, 13.771374869356524 ], [ 76.84450510806424, 13.771902717412033 ], [ 76.844345247323318, 13.772394271081128 ], [ 76.844073451690434, 13.772940358025636 ], [ 76.84409262858297, 13.773225226293288 ], [ 76.844113627898878, 13.774425432550448 ], [ 76.843768858957517, 13.775699078089371 ], [ 76.843076028215449, 13.776597550097987 ], [ 76.842235043487932, 13.777847887143048 ], [ 76.842069385460874, 13.778751415274037 ], [ 76.841549822136258, 13.779461636371723 ], [ 76.841794194630495, 13.779574482029252 ], [ 76.841954665878177, 13.779648587909447 ], [ 76.842136394540802, 13.779679307611199 ], [ 76.842023807623377, 13.779991658460599 ], [ 76.84240413540833, 13.779965399440217 ], [ 76.842550812183731, 13.779955271106124 ], [ 76.842518688644063, 13.780497214295243 ], [ 76.842514887854051, 13.780561345587737 ], [ 76.842485876009093, 13.781050808083288 ], [ 76.842360929265979, 13.782672773674845 ], [ 76.842366832694481, 13.783512468615148 ], [ 76.842515264015589, 13.783944654918338 ], [ 76.842651431167454, 13.784155857525695 ], [ 76.842841248956972, 13.784450274743868 ], [ 76.843817326863302, 13.784182049026635 ], [ 76.843909497509017, 13.784156721409735 ], [ 76.844912176548988, 13.783881180212502 ], [ 76.846860265253611, 13.783379188527618 ], [ 76.847972864930398, 13.783920258505972 ], [ 76.849986965502964, 13.784900946788861 ], [ 76.850084272105192, 13.784924562147179 ], [ 76.850130326155082, 13.784935740891662 ], [ 76.850213433543914, 13.784964973449839 ], [ 76.85055659202483, 13.785085677330541 ], [ 76.850942772468215, 13.785221511787958 ], [ 76.851287533011657, 13.785342777311936 ], [ 76.851634060354499, 13.78546466437351 ], [ 76.851987589993371, 13.785589013429629 ], [ 76.852273208606888, 13.78568947461655 ], [ 76.852627693933911, 13.785814158912348 ], [ 76.853052744950048, 13.78596366144312 ], [ 76.853669432645717, 13.786180567901182 ], [ 76.854639024774102, 13.78653988910167 ], [ 76.854698409599479, 13.786561896854629 ], [ 76.854748991178738, 13.786580641416984 ], [ 76.854741881918073, 13.786425230031853 ], [ 76.855004624415812, 13.785811559541477 ], [ 76.855028177323078, 13.78575655058671 ], [ 76.855272702778635, 13.785185424215767 ], [ 76.855371827433132, 13.784953390481245 ], [ 76.855482007788041, 13.784695474559664 ], [ 76.85548487141179, 13.784688772120932 ], [ 76.855656022655978, 13.784288131990891 ], [ 76.855802045221822, 13.783939823900814 ], [ 76.856038718632448, 13.78337527814838 ], [ 76.856165035119332, 13.783076312068161 ], [ 76.856175063847971, 13.783052580527254 ], [ 76.856426971573143, 13.782456363709949 ], [ 76.85656899641647, 13.782120217161344 ], [ 76.85668724952113, 13.781842822959975 ], [ 76.856848709976049, 13.78146406676278 ], [ 76.856863088304522, 13.781451675695038 ], [ 76.856942811511686, 13.781382967744253 ], [ 76.857999718729303, 13.78063818646204 ], [ 76.858116446732652, 13.78055472449185 ], [ 76.858520719592974, 13.780226001180623 ], [ 76.85869720712401, 13.780082493324274 ], [ 76.859037265271539, 13.779805986584137 ], [ 76.859411203611657, 13.779574034270924 ], [ 76.85987103418239, 13.779247199327235 ], [ 76.861321607301932, 13.778216156611153 ], [ 76.861471573431615, 13.778109561517985 ], [ 76.862751840653587, 13.777183928556751 ], [ 76.863368271550058, 13.77673824548377 ], [ 76.863552821533077, 13.776604812422969 ], [ 76.863927794982587, 13.77633370246291 ], [ 76.864522158315978, 13.776092735085792 ], [ 76.865948296771549, 13.775378675888309 ], [ 76.866528023850918, 13.775085742495079 ], [ 76.866625922116327, 13.775036274042098 ], [ 76.867179259665775, 13.774616271674116 ], [ 76.868163591932273, 13.773846634143462 ], [ 76.868395864790799, 13.773665546905235 ], [ 76.869015081439755, 13.773182782740433 ], [ 76.869900210112093, 13.772496869523934 ], [ 76.86995295975521, 13.772455992698022 ], [ 76.871814199723701, 13.771031431758981 ], [ 76.872640356374333, 13.770391690453986 ], [ 76.872692818557951, 13.770351065682553 ], [ 76.872697495803564, 13.77034936804035 ], [ 76.87298832336559, 13.770243860050117 ], [ 76.873108868713558, 13.770200127851096 ], [ 76.873355863042335, 13.770115203192399 ], [ 76.875485914564251, 13.769433915304427 ], [ 76.875662665662787, 13.770073835307082 ], [ 76.87595890603167, 13.771146347212865 ], [ 76.876719361287826, 13.774231090194405 ], [ 76.876743460697995, 13.774328841302953 ], [ 76.87755876413712, 13.777383711299588 ], [ 76.877635020204679, 13.777733272960743 ], [ 76.877651735170488, 13.777732057253798 ], [ 76.878539890084838, 13.777667445046978 ], [ 76.879007146131272, 13.777640287650616 ], [ 76.88063882779592, 13.777545443983112 ], [ 76.882326444987569, 13.777459135376317 ], [ 76.882452630084444, 13.777452681376101 ], [ 76.882524977822612, 13.777448775750676 ], [ 76.883620103274325, 13.777389644831032 ], [ 76.88465413113731, 13.777315585703287 ], [ 76.884873794429737, 13.777304681869001 ], [ 76.886142062675432, 13.777165605511312 ], [ 76.887690127352954, 13.776995836065145 ], [ 76.887900734646962, 13.776972739299604 ], [ 76.889180725752396, 13.776642534415386 ], [ 76.889206317472642, 13.776635931057312 ], [ 76.890584029745398, 13.776518466452169 ], [ 76.891866169464592, 13.776459220103533 ], [ 76.893057157403632, 13.77640418136817 ], [ 76.893189223584173, 13.776399667730564 ], [ 76.893876743110624, 13.776376174348528 ], [ 76.89457036981895, 13.776352469359264 ], [ 76.894650808398183, 13.776349720742196 ], [ 76.894655721636425, 13.776349551865319 ], [ 76.895036114985089, 13.776336552869106 ], [ 76.89537315382259, 13.776327272767224 ], [ 76.895394301485922, 13.776997312109787 ], [ 76.89540787646132, 13.777427338284985 ], [ 76.897772585656782, 13.779670808793028 ], [ 76.897968294487853, 13.780310044440279 ], [ 76.897816797903062, 13.781159901476167 ], [ 76.897450005843623, 13.781760352906851 ], [ 76.896838124590971, 13.782511242863844 ], [ 76.896070411161332, 13.783453358755716 ], [ 76.895380042198127, 13.784413293084306 ], [ 76.895107414456646, 13.785983009357391 ], [ 76.894619022477031, 13.787093435254862 ], [ 76.893218332448598, 13.787900106643242 ], [ 76.892823597517577, 13.787979249821277 ], [ 76.89215048678588, 13.788114203646712 ], [ 76.89191883271873, 13.788160649884071 ], [ 76.890034435191083, 13.788054113755884 ], [ 76.888056153325508, 13.788095078099236 ], [ 76.887567599621192, 13.788703790634401 ], [ 76.886872824936219, 13.789791722723022 ], [ 76.886686655994396, 13.790823352417831 ], [ 76.887330489673118, 13.792295211707033 ], [ 76.887843162791015, 13.794098814637996 ], [ 76.887336957075149, 13.7952600160872 ], [ 76.885962883711997, 13.795907401450737 ], [ 76.884424787176357, 13.796632052823041 ], [ 76.882969126267767, 13.796908015504879 ], [ 76.881821695593018, 13.797812720830718 ], [ 76.880748831335367, 13.79834896648145 ], [ 76.879468261523741, 13.798683067568458 ], [ 76.87871456193416, 13.798684612723076 ], [ 76.877130301173764, 13.797988083839707 ], [ 76.876676708529061, 13.797344483133138 ], [ 76.875392997173122, 13.796205368945103 ], [ 76.873528267140614, 13.794550648271198 ], [ 76.873043749522623, 13.794872896078314 ], [ 76.872997527993675, 13.794903637158026 ], [ 76.872853257686117, 13.79499959322032 ], [ 76.872927569535804, 13.796521833059629 ], [ 76.872946898796584, 13.797337707550218 ], [ 76.872793780440119, 13.798672257415872 ], [ 76.87278155455391, 13.798778809992344 ], [ 76.872841102797679, 13.799759355389806 ], [ 76.872887285548458, 13.80059369625239 ], [ 76.872890889354508, 13.80065880807209 ], [ 76.872921110363961, 13.80169462262335 ], [ 76.872911799924353, 13.801772502128959 ], [ 76.872806664362429, 13.802652019768624 ], [ 76.872763749776382, 13.802965962507084 ], [ 76.872753308223523, 13.803042328664153 ], [ 76.872756164025503, 13.803074313477227 ], [ 76.872775709513547, 13.803293298494108 ], [ 76.872826240498014, 13.803647196303238 ], [ 76.872849371885223, 13.803803552494747 ], [ 76.873052688264607, 13.805177864742991 ], [ 76.873065272351838, 13.805262932256543 ], [ 76.873067748405219, 13.806853607731673 ], [ 76.874691363242093, 13.8075124306375 ], [ 76.874839665406242, 13.807549061156248 ], [ 76.87484444309213, 13.807615718379779 ], [ 76.874846739167069, 13.807642532334038 ], [ 76.874871946918418, 13.807936892411602 ], [ 76.874980323772704, 13.809202490384674 ], [ 76.874949082047465, 13.809538384544439 ], [ 76.874932298768343, 13.80962422015849 ], [ 76.874980193652632, 13.810434409434505 ], [ 76.875011545509139, 13.810964764976431 ], [ 76.87502851302655, 13.811245667257191 ], [ 76.875074743420981, 13.812010952003741 ], [ 76.875076959608919, 13.812047649402668 ], [ 76.875229701827763, 13.812840536226933 ], [ 76.875308939226244, 13.81338527633144 ], [ 76.875286740087688, 13.813404848307803 ], [ 76.8752493946984, 13.81343777548881 ], [ 76.875212824378409, 13.813470018908074 ], [ 76.875422476021711, 13.814871522563765 ], [ 76.875435798612997, 13.814960583320758 ], [ 76.875453635198994, 13.815079452444541 ], [ 76.875527368403056, 13.815381050242111 ], [ 76.875716820617839, 13.815765780035795 ], [ 76.875997360000312, 13.816361119170965 ], [ 76.876456451342889, 13.816324481353444 ], [ 76.876506957620919, 13.816474909087658 ], [ 76.876509928766581, 13.816483760593529 ], [ 76.876847694621517, 13.817489782452073 ], [ 76.876902246433943, 13.817654954095588 ], [ 76.876967969416185, 13.817853953730518 ], [ 76.877675202534533, 13.819343495923944 ], [ 76.877689010756441, 13.819378735288847 ], [ 76.87771483051884, 13.819444632042266 ], [ 76.878327698412022, 13.821008863980866 ], [ 76.878359679168526, 13.821106042065116 ], [ 76.879131511230824, 13.823451409983203 ], [ 76.879575640662722, 13.824703706912862 ], [ 76.879478778275001, 13.825138864012633 ], [ 76.879456609938231, 13.82565921374489 ], [ 76.880043595636437, 13.826318810625159 ], [ 76.880068146268641, 13.827104633159738 ], [ 76.879447346561818, 13.827954320657781 ], [ 76.879707251179312, 13.828448071034899 ], [ 76.879690156512694, 13.828777799258731 ], [ 76.879053766830125, 13.829792217412283 ], [ 76.87898948650701, 13.829894680653943 ], [ 76.878703227497667, 13.830438866711553 ], [ 76.878611490721951, 13.830703169374551 ], [ 76.878573098005376, 13.831585199259134 ], [ 76.878514721569701, 13.832926326546731 ], [ 76.878384225974656, 13.833886865735284 ], [ 76.878459482579458, 13.833903947085604 ], [ 76.878453290691297, 13.83403352500963 ], [ 76.878489978655182, 13.834068662050475 ], [ 76.878426298343342, 13.83521695534899 ], [ 76.878417704849127, 13.835371927065173 ], [ 76.878306271741209, 13.835754951983214 ], [ 76.878224618026465, 13.836106560180388 ], [ 76.877854003640792, 13.837806028748204 ], [ 76.877843143342162, 13.837855827028747 ], [ 76.879341854019856, 13.838524559916724 ], [ 76.880732452533437, 13.839145040854209 ], [ 76.881096477065526, 13.839307465317594 ], [ 76.881112321363972, 13.839323160692411 ], [ 76.883251697023184, 13.841442634094667 ], [ 76.88325048353154, 13.841471588657726 ], [ 76.883056791558332, 13.84609766748839 ], [ 76.883027509214685, 13.846797033707222 ], [ 76.882754578267011, 13.847070042360761 ], [ 76.882131960660956, 13.847714966135339 ], [ 76.881917881540531, 13.847936716014004 ], [ 76.881877376912513, 13.847978671462275 ], [ 76.88186453560229, 13.847986696254214 ], [ 76.881742461720549, 13.848062990216397 ], [ 76.881573878104831, 13.848168351729141 ], [ 76.879043287769889, 13.849749897324273 ], [ 76.878939589626938, 13.849752482505565 ], [ 76.878926793808802, 13.849760669496716 ], [ 76.878691180514153, 13.850912333568044 ], [ 76.878180306278381, 13.853544842277332 ], [ 76.877820558654548, 13.855398569417439 ], [ 76.877789923199202, 13.855542010711094 ], [ 76.877771677932216, 13.855627436557272 ], [ 76.877454585094426, 13.857112122202869 ], [ 76.877277016714757, 13.857926623003268 ], [ 76.876971087120054, 13.859575956264713 ], [ 76.876884314963746, 13.859995914131428 ], [ 76.876287298059367, 13.86288527935962 ], [ 76.876068491618739, 13.863247306183403 ], [ 76.875992673691755, 13.863372748097785 ], [ 76.875648691874346, 13.863941879923901 ], [ 76.875498235518904, 13.864190815925095 ], [ 76.875437576536456, 13.864226212878583 ], [ 76.868122811336121, 13.868494608410188 ], [ 76.867683334514922, 13.869439499052113 ], [ 76.86676300476276, 13.871418219738638 ], [ 76.866649787389974, 13.87166113937945 ], [ 76.86525232995622, 13.874659485224557 ], [ 76.865128645700267, 13.874649441587515 ], [ 76.85926777757399, 13.874173433553095 ], [ 76.859260088089925, 13.874190811261593 ], [ 76.859126749723217, 13.874492159326795 ], [ 76.859075663754581, 13.875751636815659 ], [ 76.859066063719368, 13.875909707691559 ], [ 76.85911853828614, 13.879159795812894 ], [ 76.859155831026797, 13.881469413745167 ], [ 76.85915999579538, 13.881727163985193 ], [ 76.859933980434405, 13.884904052440673 ], [ 76.860234945454906, 13.886317201060782 ], [ 76.860264230915874, 13.886454704736 ], [ 76.86071038589408, 13.888549539276653 ], [ 76.861303183577931, 13.891761240756814 ], [ 76.861365563528608, 13.892099198491058 ], [ 76.861602665713008, 13.895050647898129 ], [ 76.861610428126539, 13.89514726541549 ], [ 76.861867939731468, 13.896079931927817 ], [ 76.864683128384044, 13.897045562901251 ], [ 76.865009723326907, 13.897157585986694 ], [ 76.866339003379025, 13.89929300320952 ], [ 76.866467571898582, 13.899214153994331 ], [ 76.867549241006188, 13.898550766353434 ], [ 76.86839545371285, 13.900378673551046 ], [ 76.870348255661938, 13.900477941674991 ], [ 76.871782431834177, 13.900558433107514 ], [ 76.872008685746508, 13.902696184360492 ], [ 76.872705036701859, 13.902723792952479 ], [ 76.873453363890832, 13.902753458762282 ], [ 76.87463581818001, 13.900057431383637 ], [ 76.87487780359919, 13.900013776540213 ], [ 76.875462033770788, 13.899908383028327 ], [ 76.875998934843409, 13.900946988616496 ], [ 76.876078370669418, 13.901100649731658 ], [ 76.875885609909503, 13.901772782628743 ], [ 76.876537411644222, 13.902497811995911 ], [ 76.87650692283303, 13.903165101183985 ], [ 76.876492510018906, 13.903480528308878 ], [ 76.877065983011121, 13.904707515977455 ], [ 76.877440733844892, 13.905422761009188 ], [ 76.877817933549196, 13.906127816132345 ], [ 76.878417137645499, 13.907248339484697 ], [ 76.882299347343462, 13.908263104938966 ], [ 76.884278392205545, 13.910120252034478 ], [ 76.887083901666799, 13.912642422684529 ], [ 76.887167527664786, 13.912717601796016 ], [ 76.887529254261409, 13.913042789111987 ], [ 76.889768613701492, 13.914599133313819 ], [ 76.890558814730269, 13.915001286495718 ], [ 76.890632753946122, 13.915038916330554 ], [ 76.891683215244043, 13.915573516892321 ], [ 76.893765948471682, 13.913584050362745 ], [ 76.89389526257203, 13.913552258317049 ], [ 76.894005665265027, 13.91352511656682 ], [ 76.894815661372249, 13.913325981724073 ], [ 76.89555266474963, 13.913335068191016 ], [ 76.898197445251924, 13.913589412250465 ], [ 76.901474664019588, 13.913856918988181 ], [ 76.901469670080473, 13.913879487835514 ], [ 76.901640057875014, 13.914299525787658 ], [ 76.901677382480457, 13.914449482525301 ], [ 76.901613876861461, 13.91453220938088 ], [ 76.901131301164355, 13.914766019092182 ], [ 76.899356760626375, 13.918298960190896 ], [ 76.899182757342004, 13.918645379192034 ], [ 76.897929640401742, 13.921412711496663 ], [ 76.897879915898983, 13.921522522853165 ], [ 76.89789104325844, 13.921526316058843 ], [ 76.897880282832659, 13.921533811623164 ], [ 76.89345849902287, 13.924613689035356 ], [ 76.892018991344656, 13.925852209295355 ], [ 76.890924351513505, 13.926764537473121 ], [ 76.890339976083894, 13.927297215842986 ], [ 76.890069370695528, 13.927543881161862 ], [ 76.88926662272209, 13.92827560548489 ], [ 76.889089622409259, 13.928436944107032 ], [ 76.888972262549132, 13.928543920357781 ], [ 76.888839829590992, 13.928664635026907 ], [ 76.888754624597738, 13.928770474368527 ], [ 76.885536597614816, 13.93276769023605 ], [ 76.884381129080538, 13.933726335397406 ], [ 76.88280069638418, 13.93501792158346 ], [ 76.881270144759867, 13.936242330811595 ], [ 76.880901784776341, 13.936537006156152 ], [ 76.880577543720136, 13.936920849750797 ], [ 76.878501867608819, 13.939378032107523 ], [ 76.878425475532794, 13.939468464658132 ], [ 76.878236537129368, 13.939692125718317 ], [ 76.877263022280687, 13.940934258829946 ], [ 76.877070354471897, 13.941756091627489 ], [ 76.877849513919315, 13.943529791629846 ], [ 76.877928847493962, 13.943710389310029 ], [ 76.878806611721316, 13.945708514295665 ], [ 76.879525600584074, 13.947309926784365 ], [ 76.879415399073892, 13.947545715118514 ], [ 76.877958298190521, 13.950808730628999 ], [ 76.877953391984718, 13.950819716792557 ], [ 76.877004896431387, 13.951262878955674 ], [ 76.874908818378572, 13.952286202779344 ], [ 76.873847635473226, 13.952359685611308 ], [ 76.87212319190283, 13.952900389546873 ], [ 76.870442487037025, 13.953605191170912 ], [ 76.868762226711183, 13.954172806608486 ], [ 76.868673424248811, 13.95420280564435 ], [ 76.868650776028616, 13.954210455701482 ], [ 76.866941062051524, 13.954960816096795 ], [ 76.865178103108434, 13.956137575648137 ], [ 76.862149765269407, 13.958243793801998 ], [ 76.861790139902482, 13.958146420191721 ], [ 76.859724359285295, 13.958841086962256 ], [ 76.858936783371078, 13.959104035766085 ], [ 76.858306810491769, 13.959531126772013 ], [ 76.857982938175553, 13.959713131779145 ], [ 76.856948349315047, 13.960175166415436 ], [ 76.856838300760657, 13.960209916860908 ], [ 76.854809294121083, 13.960850606270705 ], [ 76.852551453315897, 13.961517151485078 ], [ 76.850386113162159, 13.962212264617149 ], [ 76.850112655774353, 13.962300047471834 ], [ 76.849834549974972, 13.96293433169091 ] ] ] } }
]
}
