{
"type": "FeatureCollection",
"name": "police_station_boundary.writing_20260805_172659",
"crs": { "type": "name", "properties": { "name": "urn:ogc:def:crs:OGC:1.3:CRS84" } },
"features": [
{ "type": "Feature", "properties": { "Shape.STArea()": 84236797.803760797, "Shape.STLength()": 60001.0637027259, "OBJECTID": 568, "KGISPS_BOUNDID": 668, "PS_BOUNDName": "Padubidri PS", "PS_BOUNDCode": "PSB - 668", "KGISPS_SUB_DIVID": 81, "_source_layer": "Police Station Boundary", "_source_layer_url": "https://kgis.ksrsac.in/kgismaps/rest/services/Home/Home_Department/MapServer/82", "_police_station": "Padubidri PS" }, "geometry": { "type": "Polygon", "coordinates": [ [ [ 74.758368880572633, 13.199086537049963 ], [ 74.757905661112289, 13.199305950900408 ], [ 74.757900766579155, 13.19930826929285 ], [ 74.757806733540733, 13.199352809662502 ], [ 74.757827765949173, 13.198532349744539 ], [ 74.757826715623821, 13.198521184874631 ], [ 74.757345692986021, 13.197657094383841 ], [ 74.757414804101884, 13.197653457849045 ], [ 74.757673994306018, 13.19763981934299 ], [ 74.75767695116356, 13.197554670673627 ], [ 74.757688207766137, 13.197230463183224 ], [ 74.757693287505603, 13.197084172902272 ], [ 74.757650836125151, 13.196862835488973 ], [ 74.757777930786304, 13.196735555839057 ], [ 74.757146937911045, 13.195864409158913 ], [ 74.757085262034849, 13.195779260692682 ], [ 74.756862827070663, 13.195930463717822 ], [ 74.756799890722647, 13.195820953476201 ], [ 74.755708495947658, 13.195859250769834 ], [ 74.755352136950748, 13.195881919325609 ], [ 74.75510360452634, 13.19576628590776 ], [ 74.754349456658971, 13.195415402748109 ], [ 74.754037926524418, 13.195393304145073 ], [ 74.753295419618652, 13.195340630098599 ], [ 74.75232108768769, 13.195289513048792 ], [ 74.752181475649394, 13.195287882394965 ], [ 74.752122329191181, 13.195287191289898 ], [ 74.752109647171494, 13.195287043380414 ], [ 74.752005755572725, 13.195285831501014 ], [ 74.75196420114267, 13.195287731790399 ], [ 74.751905518254901, 13.195290417555036 ], [ 74.751805130498028, 13.195295010657999 ], [ 74.751255266314217, 13.195320170686022 ], [ 74.750206804283451, 13.195422389613986 ], [ 74.749863322519801, 13.195455876117578 ], [ 74.749145137055592, 13.195432199540861 ], [ 74.749190078715969, 13.195578475270542 ], [ 74.748992545368395, 13.195618916078393 ], [ 74.748410944272166, 13.195737983236988 ], [ 74.748007613142448, 13.195777853041589 ], [ 74.74726171900906, 13.195851583184892 ], [ 74.746682393655846, 13.195790256187667 ], [ 74.746046053306031, 13.195906695740778 ], [ 74.745669837170894, 13.195975535581953 ], [ 74.745606559733744, 13.19580360557898 ], [ 74.745151172949804, 13.195708332374352 ], [ 74.744426702392232, 13.195619181279362 ], [ 74.744304515994088, 13.195673536782246 ], [ 74.744266523856083, 13.195881245740404 ], [ 74.744370273302238, 13.194075792784901 ], [ 74.744414865232258, 13.193626691776766 ], [ 74.745483861792678, 13.190851374248123 ], [ 74.745486936000688, 13.190844080001748 ], [ 74.745838136575571, 13.190010650094049 ], [ 74.74629697262985, 13.189159321656073 ], [ 74.746148651175332, 13.189096296822933 ], [ 74.746970143276783, 13.187600426253168 ], [ 74.747160396585471, 13.187691117735175 ], [ 74.74768349085555, 13.186540631516637 ], [ 74.749022346953168, 13.183562782792446 ], [ 74.749422048980037, 13.18191973446053 ], [ 74.749525185632422, 13.181666004692586 ], [ 74.749164435861999, 13.18152818597323 ], [ 74.749873096975577, 13.179503354449805 ], [ 74.750902862918267, 13.176464620294777 ], [ 74.752067072922401, 13.172906423132877 ], [ 74.752652383561113, 13.170323523593508 ], [ 74.752953122409622, 13.168478675711967 ], [ 74.753157514126428, 13.168550949422405 ], [ 74.753409034444999, 13.168595124307835 ], [ 74.753581111906513, 13.167764558347294 ], [ 74.753719614683803, 13.167071919073024 ], [ 74.753858118491081, 13.166379282387528 ], [ 74.754007210930681, 13.165658194374158 ], [ 74.754156300616273, 13.164937105312406 ], [ 74.754294382174479, 13.164215626692059 ], [ 74.754362174149776, 13.163958609804562 ], [ 74.754484372619942, 13.163470044996613 ], [ 74.75468853850704, 13.162753789806324 ], [ 74.754887073029607, 13.162028687233667 ], [ 74.755085608193838, 13.161303584447909 ], [ 74.75529472937427, 13.16055003198106 ], [ 74.755493636813625, 13.159850883887962 ], [ 74.755509354133309, 13.159796674411462 ], [ 74.755828838159033, 13.159067207212546 ], [ 74.756196165121963, 13.15825656945943 ], [ 74.756009525225522, 13.158152552302953 ], [ 74.756541608332043, 13.155920595874555 ], [ 74.756608021721334, 13.155437113802854 ], [ 74.756905810803374, 13.155461451630106 ], [ 74.756986697822313, 13.154991406768486 ], [ 74.757219465784985, 13.154539217953838 ], [ 74.756872971047031, 13.154497841684712 ], [ 74.756961557926076, 13.15399029654402 ], [ 74.757269812797205, 13.152786689080891 ], [ 74.757106110641402, 13.152749252902574 ], [ 74.757241611445636, 13.152288049712709 ], [ 74.757550122513152, 13.151635193993407 ], [ 74.757620499988974, 13.151496801951719 ], [ 74.757831980922631, 13.150927207498155 ], [ 74.758029505237417, 13.150286675437593 ], [ 74.758245167344526, 13.150233656739129 ], [ 74.758406508848395, 13.149544125839084 ], [ 74.75857714540885, 13.148832200623868 ], [ 74.758630550104229, 13.148592962556041 ], [ 74.758786694848368, 13.148129781111519 ], [ 74.758976958431418, 13.147345397965653 ], [ 74.758980695113351, 13.147080080634037 ], [ 74.759060350637412, 13.14637945414542 ], [ 74.759376078301258, 13.145280936235064 ], [ 74.759899745447882, 13.143432337674467 ], [ 74.760688725307375, 13.140675513463245 ], [ 74.76110917881914, 13.138931631202276 ], [ 74.761226104764262, 13.138601180360672 ], [ 74.76125877513681, 13.138508849187321 ], [ 74.761357833365892, 13.138066577791147 ], [ 74.76149429289201, 13.137457315173549 ], [ 74.761753426655517, 13.136561824682632 ], [ 74.761486509058457, 13.136510461594259 ], [ 74.761602024132316, 13.135948875247413 ], [ 74.761963488854789, 13.135992096993139 ], [ 74.762540683977932, 13.133804391514659 ], [ 74.763144064910222, 13.131780502441037 ], [ 74.763549316728387, 13.130562398901926 ], [ 74.76368369874541, 13.129883681349357 ], [ 74.763827889664739, 13.129155425796293 ], [ 74.763437530636139, 13.129052190113269 ], [ 74.763601417023224, 13.128579671755416 ], [ 74.764016918308627, 13.128701828278063 ], [ 74.76418779886653, 13.127356590574575 ], [ 74.764426532393045, 13.125314918732355 ], [ 74.764542265910421, 13.123569963152299 ], [ 74.764213472224, 13.123530136314471 ], [ 74.764860402649248, 13.119299465709005 ], [ 74.765480354617964, 13.119428048385602 ], [ 74.766003296427257, 13.11758418238651 ], [ 74.766076660774004, 13.117506817525381 ], [ 74.767077338271832, 13.116451562400847 ], [ 74.767240059688746, 13.116453523423829 ], [ 74.767198819892087, 13.115255442574732 ], [ 74.767192180721523, 13.115062550438489 ], [ 74.767083439439673, 13.111903468235184 ], [ 74.767484109844474, 13.110602747760325 ], [ 74.767363166749377, 13.110593905293159 ], [ 74.767708287009214, 13.10974877222117 ], [ 74.767869485496689, 13.108716493379051 ], [ 74.767989531597323, 13.108020660538768 ], [ 74.768289477921101, 13.106607711493485 ], [ 74.768501619632914, 13.105260993179549 ], [ 74.768932037023234, 13.103442892547656 ], [ 74.769466800826166, 13.101541146242361 ], [ 74.769782837448545, 13.100401297536562 ], [ 74.770224939555817, 13.098711430742977 ], [ 74.770335702283049, 13.098732500047793 ], [ 74.770854715081072, 13.09659103590538 ], [ 74.771436960523673, 13.094051495651541 ], [ 74.771808701333796, 13.092504678756896 ], [ 74.772018944659536, 13.091562993154296 ], [ 74.772240626481164, 13.09048026836391 ], [ 74.772879427241165, 13.087407635476792 ], [ 74.773653091538719, 13.084359083890705 ], [ 74.774306729504332, 13.081776405383645 ], [ 74.774927565542896, 13.079283827111801 ], [ 74.775207218431561, 13.078055537718493 ], [ 74.775401766704022, 13.077003289378114 ], [ 74.775811315381503, 13.075424211068251 ], [ 74.776109342472125, 13.074617147804863 ], [ 74.776578543304794, 13.073317445568421 ], [ 74.776720475349691, 13.072173804528685 ], [ 74.777076547995307, 13.071191639244294 ], [ 74.777203053001088, 13.071201426640194 ], [ 74.778058198720231, 13.071267585730096 ], [ 74.77852378174245, 13.071318751262355 ], [ 74.779258923029701, 13.071387932255611 ], [ 74.77967104291946, 13.07139382616969 ], [ 74.779627979828405, 13.071554046141792 ], [ 74.779522758464978, 13.07194415208836 ], [ 74.779180772533991, 13.073213387646105 ], [ 74.779023979737971, 13.073795292619142 ], [ 74.779023974180888, 13.073795317933687 ], [ 74.778676785504842, 13.075875347714003 ], [ 74.778465790306882, 13.077139421250877 ], [ 74.77801522621067, 13.077945844289284 ], [ 74.777671489940786, 13.078521682589916 ], [ 74.77756793333937, 13.078695169764051 ], [ 74.777188225035687, 13.080080818928494 ], [ 74.77703789040919, 13.080952110873554 ], [ 74.7768927038789, 13.081793580095281 ], [ 74.77726301047683, 13.083065422828994 ], [ 74.777565065689828, 13.084102854622799 ], [ 74.777792348023212, 13.084772841787183 ], [ 74.777909177983574, 13.085117289805114 ], [ 74.777909271836279, 13.085117556642439 ], [ 74.777995975424858, 13.08535562601417 ], [ 74.778075768514697, 13.08557357777698 ], [ 74.778095170073343, 13.085628001041218 ], [ 74.778708686851616, 13.085564285447941 ], [ 74.779064917982168, 13.085527288038408 ], [ 74.779481604867328, 13.086220751183808 ], [ 74.779898817818619, 13.086923803776118 ], [ 74.780203473394565, 13.087460442121611 ], [ 74.780303736703203, 13.08763705070143 ], [ 74.780617739284651, 13.088219975609665 ], [ 74.780931604935446, 13.090937373695079 ], [ 74.78074899466894, 13.093001924702008 ], [ 74.78015779046757, 13.094494275725648 ], [ 74.779261880531422, 13.097322798608941 ], [ 74.779083959551414, 13.09788452106376 ], [ 74.779072320959173, 13.097894008525326 ], [ 74.779051234488662, 13.097911199412303 ], [ 74.779039282932885, 13.097920943413731 ], [ 74.779026529122561, 13.097931347740461 ], [ 74.779008858439951, 13.097945744677725 ], [ 74.778987847659195, 13.097962876847362 ], [ 74.778965830604108, 13.097980828315599 ], [ 74.778948268841276, 13.097995146671392 ], [ 74.778915862246564, 13.09802156756127 ], [ 74.778896915708359, 13.09803700419884 ], [ 74.778884740486433, 13.098045134803458 ], [ 74.778872588443534, 13.098053134309843 ], [ 74.778829179846909, 13.098081706934563 ], [ 74.778800749691371, 13.098100417891958 ], [ 74.77878620508352, 13.098109986944012 ], [ 74.778725207605447, 13.098150138870832 ], [ 74.778696110061546, 13.098169291426329 ], [ 74.778636526680273, 13.098208511349828 ], [ 74.778581738536104, 13.098244610257479 ], [ 74.778581494848439, 13.098244771006337 ], [ 74.778560808119323, 13.0982584663307 ], [ 74.778527468979718, 13.098280541406302 ], [ 74.778516760721104, 13.098287429896907 ], [ 74.778512806144562, 13.098290249596827 ], [ 74.777663986541114, 13.098848775253831 ], [ 74.77755926167562, 13.099298634097186 ], [ 74.777483867650943, 13.099622487146341 ], [ 74.777483848200077, 13.099622573938385 ], [ 74.777368532684079, 13.100159061444002 ], [ 74.777325948948175, 13.10118157826969 ], [ 74.777406613405603, 13.101544397517516 ], [ 74.777406653833481, 13.101544579308371 ], [ 74.777442294015401, 13.10180728991058 ], [ 74.777455112878329, 13.102016434243078 ], [ 74.777467398006465, 13.102194331462439 ], [ 74.777585415853935, 13.102349018971488 ], [ 74.777727462198314, 13.102616695236717 ], [ 74.777817488667822, 13.102767566953581 ], [ 74.777853175514451, 13.102823553210175 ], [ 74.777881690847522, 13.102875157577831 ], [ 74.777934064600856, 13.102962931123864 ], [ 74.778237807412808, 13.103230090731261 ], [ 74.778528028347552, 13.103501396150547 ], [ 74.778682659974933, 13.103669692952765 ], [ 74.77877504937689, 13.103776864463805 ], [ 74.779106795382461, 13.103920415978646 ], [ 74.779106919878018, 13.103920468532289 ], [ 74.779763651410761, 13.104178934794069 ], [ 74.779763695677246, 13.104178952012797 ], [ 74.780377927376392, 13.104394618941258 ], [ 74.780378062949339, 13.104394664269659 ], [ 74.780902669091716, 13.104431074789542 ], [ 74.780980495837696, 13.104435756251604 ], [ 74.781079429090269, 13.104442815727863 ], [ 74.781808939151844, 13.104491276656102 ], [ 74.782020054598917, 13.104295442742421 ], [ 74.782539167580879, 13.103902570249611 ], [ 74.782539971649513, 13.103901956031978 ], [ 74.782639031434229, 13.103825612534369 ], [ 74.78273550613369, 13.103743047328489 ], [ 74.782761885552119, 13.103720474847206 ], [ 74.783061780410165, 13.103616613731964 ], [ 74.783283074649987, 13.10352055597169 ], [ 74.783550053094672, 13.103399705431487 ], [ 74.783635309280839, 13.103150284791701 ], [ 74.783694511909417, 13.102977083023733 ], [ 74.783694589596379, 13.102976860641261 ], [ 74.783732656440733, 13.1028654969453 ], [ 74.783785159842978, 13.102728899349595 ], [ 74.78381758498611, 13.102640123810906 ], [ 74.784042493658305, 13.101987174324245 ], [ 74.784071295851419, 13.1019047318528 ], [ 74.784071444742622, 13.101904314209909 ], [ 74.784086895979215, 13.101860091712826 ], [ 74.784096109929294, 13.101837113169445 ], [ 74.784193224285232, 13.101594898318762 ], [ 74.784374071637913, 13.101143855193323 ], [ 74.784549419237351, 13.100706504130267 ], [ 74.784608663075289, 13.100558747981561 ], [ 74.784721496109526, 13.100248694048412 ], [ 74.785163898791396, 13.099927090714967 ], [ 74.785588223968475, 13.099615647196204 ], [ 74.785940911938482, 13.09933057952246 ], [ 74.786072101732998, 13.099212922194168 ], [ 74.786137042935181, 13.09915467846962 ], [ 74.786348678270159, 13.099083813469575 ], [ 74.786779054259512, 13.098968377437437 ], [ 74.787298174383196, 13.098829145961163 ], [ 74.787666894838082, 13.09872884461204 ], [ 74.78826015531871, 13.098567466313353 ], [ 74.78855764430098, 13.098449285858358 ], [ 74.78880343731791, 13.098220363309322 ], [ 74.7890868254173, 13.097956421264403 ], [ 74.789243484395854, 13.097813995546165 ], [ 74.789445304692336, 13.097630503488359 ], [ 74.789642663654476, 13.097451079507485 ], [ 74.790004633895094, 13.097283273526612 ], [ 74.790326258247632, 13.097128875149059 ], [ 74.790518884004655, 13.097036401122574 ], [ 74.790823092889624, 13.096890358700007 ], [ 74.791226648922958, 13.096696622497387 ], [ 74.791305619336725, 13.096657367386015 ], [ 74.79167386432276, 13.096456337982962 ], [ 74.792073653121179, 13.09654765165633 ], [ 74.792630976851456, 13.096674946198823 ], [ 74.792849217729028, 13.096724793431676 ], [ 74.793092365959168, 13.096861464861327 ], [ 74.79344766700244, 13.097058958681824 ], [ 74.793474932911721, 13.097076489692144 ], [ 74.793497704384123, 13.097066296119097 ], [ 74.793545246146621, 13.097289859010031 ], [ 74.793628013558461, 13.097602782783293 ], [ 74.793675099890734, 13.097780819427587 ], [ 74.793719143489909, 13.097892770339715 ], [ 74.793774544701975, 13.098032958595489 ], [ 74.79408436609944, 13.098297040125281 ], [ 74.794088234194959, 13.09830038987794 ], [ 74.794091607340633, 13.098303208435052 ], [ 74.794095377760101, 13.098306425183464 ], [ 74.794098327721343, 13.098308942284218 ], [ 74.794100021192122, 13.098310376887493 ], [ 74.794103114042741, 13.098313015273051 ], [ 74.794105660232191, 13.098315183007216 ], [ 74.794109037014223, 13.0983180666737 ], [ 74.794111785090507, 13.098320408186801 ], [ 74.794113261913694, 13.098321669903472 ], [ 74.79411555367075, 13.098323618603631 ], [ 74.794117707143585, 13.098325455065211 ], [ 74.794120857150759, 13.098328141421943 ], [ 74.794124338107579, 13.098331109267509 ], [ 74.794126165242062, 13.098332666052341 ], [ 74.794130235272021, 13.098336133519284 ], [ 74.794134771763154, 13.098340001041207 ], [ 74.794138539421482, 13.098343211456969 ], [ 74.794140352725137, 13.09834476009234 ], [ 74.794145780661609, 13.098349384286525 ], [ 74.794150471105979, 13.098353381240161 ], [ 74.794153210886421, 13.098355715512126 ], [ 74.794154282090659, 13.098356630573454 ], [ 74.794161833999411, 13.098363068598537 ], [ 74.794164062146422, 13.098364965704715 ], [ 74.794166311497833, 13.098366879104473 ], [ 74.794169376690903, 13.098369497573465 ], [ 74.794172832760481, 13.098372441887781 ], [ 74.794175440712422, 13.098374666638907 ], [ 74.794177278910965, 13.098376231570549 ], [ 74.794179495073024, 13.098378119624435 ], [ 74.794181690954019, 13.098379990481181 ], [ 74.794184889822901, 13.098382716663547 ], [ 74.794188684214447, 13.098385952419193 ], [ 74.794191822240208, 13.098388627010133 ], [ 74.794195789944823, 13.098392007585483 ], [ 74.794198399743721, 13.098394230529337 ], [ 74.794207903237577, 13.098402336660635 ], [ 74.79421559619648, 13.098408892350463 ], [ 74.794224907027498, 13.098416827422353 ], [ 74.794231776759915, 13.098422684366543 ], [ 74.794249068173514, 13.098437421314747 ], [ 74.794255415210429, 13.098442832041391 ], [ 74.794269190634097, 13.098454573084449 ], [ 74.794274300527917, 13.098458931169997 ], [ 74.794282910745636, 13.098466268869695 ], [ 74.79428945967102, 13.098471853374374 ], [ 74.794302762012848, 13.098483394196988 ], [ 74.794317170113374, 13.098496456865275 ], [ 74.794326817922581, 13.098505198801785 ], [ 74.79434035398306, 13.098517467737784 ], [ 74.794348926944664, 13.098525238545923 ], [ 74.794354034768958, 13.09852987061889 ], [ 74.794359900335621, 13.098535186011848 ], [ 74.794367727542166, 13.098542281647161 ], [ 74.794371013664858, 13.098545477207505 ], [ 74.794376791841515, 13.09855049322052 ], [ 74.794680407831947, 13.098825702338129 ], [ 74.794872166229752, 13.098999518869702 ], [ 74.794910834132907, 13.099034563454397 ], [ 74.795033849593565, 13.099192583844458 ], [ 74.795082745147511, 13.09924928450484 ], [ 74.795144398943208, 13.099320776316468 ], [ 74.795200255668632, 13.099385554808713 ], [ 74.795257825763855, 13.099452300509343 ], [ 74.795306706667176, 13.09950899207333 ], [ 74.795358267724197, 13.099568783747911 ], [ 74.795409759690884, 13.099628485835753 ], [ 74.795451612722886, 13.099676443884331 ], [ 74.795452121910358, 13.099677615304264 ], [ 74.795452998485786, 13.09967963249823 ], [ 74.795496216834877, 13.099728747266136 ], [ 74.795538222423218, 13.099802048199132 ], [ 74.795619299660416, 13.099943532323202 ], [ 74.795661809740579, 13.100042805777397 ], [ 74.795704263640815, 13.100142005934764 ], [ 74.795735049932929, 13.100213816770262 ], [ 74.795803225865782, 13.100300507863265 ], [ 74.796007942512787, 13.100353954271061 ], [ 74.796306383992089, 13.100431019672083 ], [ 74.796621900040464, 13.100507731066559 ], [ 74.796720217090098, 13.100633797255208 ], [ 74.796825063640441, 13.100756775983372 ], [ 74.796897561088102, 13.10084024831885 ], [ 74.796930829170449, 13.100857194117838 ], [ 74.796993600244633, 13.100889169326043 ], [ 74.797035045839365, 13.100910343536723 ], [ 74.797074341109493, 13.100930297106876 ], [ 74.79712150589107, 13.100954324221625 ], [ 74.797182595951099, 13.10098544172801 ], [ 74.797215294883898, 13.101002375287653 ], [ 74.797252218607284, 13.101020908182873 ], [ 74.797278153799923, 13.101099590108086 ], [ 74.797303111711088, 13.101175306195307 ], [ 74.797314553096456, 13.101210017955697 ], [ 74.797332869608397, 13.101265609949728 ], [ 74.797394896871054, 13.101430078388354 ], [ 74.797488496685375, 13.101678257206979 ], [ 74.797508277508598, 13.101731365432448 ], [ 74.797534657177707, 13.101811586728363 ], [ 74.79753560259249, 13.101814062428861 ], [ 74.797536354704079, 13.101816014411357 ], [ 74.797546497028819, 13.101847583743181 ], [ 74.797553396264263, 13.101868351861752 ], [ 74.797615975401115, 13.102058905849896 ], [ 74.7974114882782, 13.102098290349376 ], [ 74.797275324933167, 13.102126055324781 ], [ 74.797222009344267, 13.102134785624168 ], [ 74.797274923616897, 13.102189208488985 ], [ 74.797328939410733, 13.102244764341641 ], [ 74.797398117201354, 13.102315907965467 ], [ 74.797463435633716, 13.102383085170398 ], [ 74.797528295989125, 13.102449789975811 ], [ 74.797571213089896, 13.102483675528109 ], [ 74.797616246971558, 13.102519231997714 ], [ 74.79765797184784, 13.102620170149862 ], [ 74.797698253088853, 13.102717602252749 ], [ 74.797773286755373, 13.102899106190968 ], [ 74.797817297900622, 13.103005569325754 ], [ 74.797853031829504, 13.103092018319778 ], [ 74.797893544318072, 13.103190013925625 ], [ 74.797931104090253, 13.103280871699841 ], [ 74.797935677034076, 13.10329112777673 ], [ 74.797967325363572, 13.103359197192784 ], [ 74.798002438156104, 13.103433657007423 ], [ 74.797914625367412, 13.103558423013073 ], [ 74.797888131705975, 13.103596063745146 ], [ 74.797884392020535, 13.103601377858736 ], [ 74.797879838836465, 13.103607603732275 ], [ 74.797853335723573, 13.103645508496818 ], [ 74.797834483046643, 13.103672295962777 ], [ 74.797820048113621, 13.103692644947785 ], [ 74.797787994167138, 13.10373835182337 ], [ 74.797787234035468, 13.103739434529917 ], [ 74.797778613079487, 13.103751680482773 ], [ 74.797794706873773, 13.103788806621919 ], [ 74.79782087417928, 13.103849273263668 ], [ 74.797841378601973, 13.103896616467827 ], [ 74.797856153933409, 13.103930565810343 ], [ 74.797882680276615, 13.103991990337725 ], [ 74.79787933007708, 13.104035523277611 ], [ 74.7978773691962, 13.10406325537445 ], [ 74.797876970384948, 13.104068114551506 ], [ 74.797874320295676, 13.104100456926307 ], [ 74.797868005530731, 13.10423384921703 ], [ 74.797865288577, 13.10429838317091 ], [ 74.797862785013038, 13.104358046046766 ], [ 74.797858510801717, 13.104459894848135 ], [ 74.797858131639813, 13.104468936239735 ], [ 74.797848478288358, 13.104518548091974 ], [ 74.797841781130913, 13.104552999641607 ], [ 74.79782404283084, 13.104644186612491 ], [ 74.797802434838459, 13.104755251591179 ], [ 74.797791228763614, 13.104812852257139 ], [ 74.797781466984247, 13.104863030990719 ], [ 74.797778616338704, 13.1048777130212 ], [ 74.797776650106954, 13.104888246099518 ], [ 74.797734178579731, 13.105115933297807 ], [ 74.79770142194829, 13.105310128919594 ], [ 74.797671516807313, 13.105487430687786 ], [ 74.797671247045812, 13.105489023780843 ], [ 74.797665097117445, 13.105525472356458 ], [ 74.797658043332902, 13.105567275245528 ], [ 74.797656813697202, 13.105575039154367 ], [ 74.79763066708685, 13.105729573712143 ], [ 74.797806852994071, 13.10573830875183 ], [ 74.798148320815528, 13.105755240036915 ], [ 74.798188013093124, 13.10598191555127 ], [ 74.798241607213299, 13.106287953395713 ], [ 74.79824901216611, 13.106330256819797 ], [ 74.798338359574217, 13.106548158251464 ], [ 74.798422002377379, 13.106752116938701 ], [ 74.798473162246069, 13.106876869653822 ], [ 74.798497966484049, 13.106937363185549 ], [ 74.798510005426863, 13.107018262196121 ], [ 74.798530009481269, 13.107152689626886 ], [ 74.79854486798753, 13.107252583897802 ], [ 74.79854640748799, 13.107261945991741 ], [ 74.79854710219476, 13.107267583686246 ], [ 74.798549278590585, 13.107282203640622 ], [ 74.798550806291829, 13.107292461846129 ], [ 74.798552201847784, 13.107301857285096 ], [ 74.798552648115631, 13.107304428442641 ], [ 74.798565554731766, 13.107391589217231 ], [ 74.798575642080237, 13.107459420152804 ], [ 74.798560069959379, 13.107590321195708 ], [ 74.798545419310045, 13.107713456274736 ], [ 74.798533992867604, 13.107809495938845 ], [ 74.798521637481528, 13.107913379323227 ], [ 74.798511570103969, 13.10798880836505 ], [ 74.798499304757215, 13.108101059830693 ], [ 74.798587065288658, 13.108122737503944 ], [ 74.798593364138512, 13.108124294134599 ], [ 74.79869746443579, 13.108150010299454 ], [ 74.79864770891912, 13.108403474140607 ], [ 74.798606657593382, 13.108570745367983 ], [ 74.798606676592968, 13.108572339591561 ], [ 74.798604137595916, 13.108582703129271 ], [ 74.798602336354492, 13.108590018081872 ], [ 74.79859932994539, 13.108602252166282 ], [ 74.798589516531251, 13.108642191046028 ], [ 74.798573580144051, 13.108707043806865 ], [ 74.798554087164334, 13.108727832860051 ], [ 74.798523641323143, 13.108760302706655 ], [ 74.798480358039328, 13.108806463845418 ], [ 74.798441107039295, 13.10884832747397 ], [ 74.798399704609054, 13.108892477188739 ], [ 74.798355761075072, 13.108939345823829 ], [ 74.798327425057849, 13.108969562978924 ], [ 74.798295276490109, 13.109003840887048 ], [ 74.798240482520796, 13.109062285471813 ], [ 74.798221568432581, 13.109082455534251 ], [ 74.798198212954034, 13.109110793002079 ], [ 74.798170771101937, 13.109144103404933 ], [ 74.798143783598761, 13.109176851711425 ], [ 74.798128867700328, 13.109194950527927 ], [ 74.798107762692709, 13.109220565217386 ], [ 74.798067546442496, 13.109269370930315 ], [ 74.798038072917649, 13.109305146544811 ], [ 74.798006866036744, 13.10934301415673 ], [ 74.79797721888383, 13.109378997607303 ], [ 74.797955643542863, 13.109405494471588 ], [ 74.797911096403368, 13.109459239442847 ], [ 74.79786854368777, 13.109510880855284 ], [ 74.797845955527535, 13.109538295642533 ], [ 74.797844445051197, 13.109553288879786 ], [ 74.797830449919971, 13.109686513224242 ], [ 74.797532949623175, 13.109978625682661 ], [ 74.797532921924201, 13.109978652788671 ], [ 74.79735805718208, 13.110140892217329 ], [ 74.797276183073976, 13.110215913866508 ], [ 74.797208033522793, 13.11028008342698 ], [ 74.797201348672147, 13.110410700168805 ], [ 74.797193473113921, 13.110564567179916 ], [ 74.797188879607532, 13.11064235966662 ], [ 74.7971820272044, 13.110788282661504 ], [ 74.796961936288483, 13.110858733771829 ], [ 74.796557802613108, 13.110988085753915 ], [ 74.796286197728449, 13.111039977291858 ], [ 74.795915860056255, 13.111110727354884 ], [ 74.795838225962257, 13.11096567610733 ], [ 74.795743037717784, 13.11078784420234 ], [ 74.795793906921205, 13.11075764248676 ], [ 74.79582624988636, 13.110740040493312 ], [ 74.795848747086879, 13.110727120182084 ], [ 74.7958978193044, 13.110698924476415 ], [ 74.79593284345124, 13.110678805327838 ], [ 74.795960898025896, 13.110662686522655 ], [ 74.795980195175446, 13.110651602024085 ], [ 74.795967897558754, 13.11062792150568 ], [ 74.795962740051664, 13.110618311481154 ], [ 74.795961040880769, 13.110614723845483 ], [ 74.795960053464782, 13.110612817790406 ], [ 74.795957916507874, 13.110608707146506 ], [ 74.795955577836452, 13.110604200277528 ], [ 74.795953309165014, 13.110599832719785 ], [ 74.795951037730461, 13.110595459734295 ], [ 74.795946741676588, 13.110587237524522 ], [ 74.795786919920985, 13.110279454957249 ], [ 74.795786592934093, 13.110278821716973 ], [ 74.795693749061556, 13.11010005121704 ], [ 74.795684201547161, 13.110078732980519 ], [ 74.79561157776773, 13.109916477586275 ], [ 74.79561495633375, 13.109710654680146 ], [ 74.795618635995581, 13.109486525289011 ], [ 74.795621257637805, 13.109327023340029 ], [ 74.795308118349411, 13.109212311935018 ], [ 74.794938321119162, 13.109076847551819 ], [ 74.794912371940853, 13.109067341229032 ], [ 74.794553452010064, 13.108909730611879 ], [ 74.79384523880033, 13.109655733807111 ], [ 74.793772151409939, 13.109732695571267 ], [ 74.793370456335367, 13.110314144025658 ], [ 74.793126593254058, 13.110667140056144 ], [ 74.793094562815384, 13.110713497383841 ], [ 74.793014273752931, 13.110829704290895 ], [ 74.792844810483217, 13.111074995661944 ], [ 74.792658858183799, 13.111344151497182 ], [ 74.792480598860934, 13.111602174725633 ], [ 74.792446468634282, 13.111651575817731 ], [ 74.792336005998777, 13.111777086521871 ], [ 74.792234736173668, 13.111892149551238 ], [ 74.792042006961722, 13.112111132085627 ], [ 74.791869589640939, 13.112307022549819 ], [ 74.791704642762681, 13.112494437891016 ], [ 74.79163910004263, 13.112569729520096 ], [ 74.7914628568995, 13.112769150444173 ], [ 74.791496588653843, 13.113011417716523 ], [ 74.791540662190698, 13.113308828694102 ], [ 74.791591894237087, 13.11366411888813 ], [ 74.791472450917908, 13.114022793971348 ], [ 74.791263841375383, 13.114649248908847 ], [ 74.791074781821848, 13.115216969831518 ], [ 74.791129692461269, 13.115466629410417 ], [ 74.791189748109758, 13.115739645612436 ], [ 74.791325883529879, 13.116358611225499 ], [ 74.791415581211041, 13.116766379504618 ], [ 74.791448173030375, 13.116914570395394 ], [ 74.791678418720338, 13.117068367555362 ], [ 74.791958045146686, 13.117255188118996 ], [ 74.792206492204841, 13.117421159975303 ], [ 74.792307722638881, 13.117488786988712 ], [ 74.79258565465436, 13.11755962174793 ], [ 74.792595297339147, 13.117559867332441 ], [ 74.792823441993832, 13.117607617628005 ], [ 74.793176122693367, 13.117681439853556 ], [ 74.793396711051543, 13.117727610167274 ], [ 74.79366178450249, 13.117783093622156 ], [ 74.794097571925846, 13.117874307645845 ], [ 74.794409304014337, 13.117939553831278 ], [ 74.794829000220318, 13.118027396268801 ], [ 74.79525037924607, 13.11811559202444 ], [ 74.795484223734562, 13.118164537223048 ], [ 74.795786554234894, 13.118227814757303 ], [ 74.796113422391102, 13.117976151878528 ], [ 74.796119030212694, 13.11797240364565 ], [ 74.796451634744145, 13.117716900861737 ], [ 74.796979691182955, 13.117311243222526 ], [ 74.797381603485434, 13.117002495921767 ], [ 74.797753466703014, 13.116716827280843 ], [ 74.798272375894697, 13.116318190329308 ], [ 74.798674235132907, 13.116009478880848 ], [ 74.79893228295191, 13.115811238168199 ], [ 74.799117726616345, 13.115695195561678 ], [ 74.799155010461277, 13.1156718649203 ], [ 74.799948820941339, 13.115175112296521 ], [ 74.800529948924492, 13.114811454095079 ], [ 74.801033890203797, 13.114675495127589 ], [ 74.801530810453741, 13.11454143231726 ], [ 74.802255342966745, 13.114345954272446 ], [ 74.802566205629574, 13.114262085758513 ], [ 74.802597408508873, 13.114327485775409 ], [ 74.80259822886282, 13.114327255817946 ], [ 74.802925380249292, 13.114236621928237 ], [ 74.803069077962348, 13.114459238268561 ], [ 74.803135882484654, 13.114562726592519 ], [ 74.803327190662742, 13.114859097060252 ], [ 74.803437563167478, 13.115030086219555 ], [ 74.805042645773185, 13.115848149162947 ], [ 74.806257979545947, 13.116103442232481 ], [ 74.806901701539701, 13.115926598579335 ], [ 74.80691890539245, 13.115864528671404 ], [ 74.807120790307707, 13.115649243823567 ], [ 74.807246623318832, 13.115515073630744 ], [ 74.807355668606448, 13.115118178253766 ], [ 74.807430057421783, 13.114847464348733 ], [ 74.807556451010271, 13.114549259098043 ], [ 74.807666167672181, 13.114290392873089 ], [ 74.807819610648792, 13.114085991091814 ], [ 74.808139573002236, 13.113659757430874 ], [ 74.808588341239584, 13.113405127199304 ], [ 74.808803422783754, 13.113283093441179 ], [ 74.808950513081683, 13.113297595644088 ], [ 74.809195081091644, 13.1133210669752 ], [ 74.809527808282738, 13.113353087022487 ], [ 74.80953072709201, 13.11335336317077 ], [ 74.809666484154718, 13.113366030888185 ], [ 74.809823693213417, 13.113380702835206 ], [ 74.809927064769269, 13.113390344368725 ], [ 74.810168706752492, 13.113583197563791 ], [ 74.810452922976907, 13.113810043124708 ], [ 74.81067469364136, 13.113987032277164 ], [ 74.810830549846514, 13.114111416398607 ], [ 74.811244346649588, 13.114257561542933 ], [ 74.811394285546584, 13.114501061778176 ], [ 74.811571087468565, 13.114788169583449 ], [ 74.81172794611156, 13.115042899253899 ], [ 74.811982943483741, 13.114908041594161 ], [ 74.812039480429789, 13.115002305760607 ], [ 74.812255656156822, 13.115362741078565 ], [ 74.812328296959805, 13.115572589386137 ], [ 74.812360294511052, 13.115815192892931 ], [ 74.812388648543092, 13.116030197555959 ], [ 74.812309873997251, 13.116389950331522 ], [ 74.812279388569095, 13.116529206636839 ], [ 74.812209643379958, 13.116872720928386 ], [ 74.81220953039697, 13.116873284199468 ], [ 74.812141555732566, 13.117215215489786 ], [ 74.812095295756606, 13.117447929902834 ], [ 74.812109778922988, 13.117770634365293 ], [ 74.812137293028101, 13.118141640278751 ], [ 74.812161598784158, 13.118509750210952 ], [ 74.812203431447529, 13.118708477167697 ], [ 74.81234154440655, 13.118971466727873 ], [ 74.812478210298124, 13.119231765892533 ], [ 74.812743524888447, 13.119711814815284 ], [ 74.812817628656958, 13.119844934009745 ], [ 74.81293771605344, 13.120170393530222 ], [ 74.813047138222714, 13.120466925239107 ], [ 74.813093419110345, 13.120565166778329 ], [ 74.813158256019221, 13.120702871876675 ], [ 74.813244681131934, 13.120828112937893 ], [ 74.813297694126362, 13.120905920357536 ], [ 74.813401531431523, 13.121057134358443 ], [ 74.813510825423506, 13.121214085270546 ], [ 74.813510887171716, 13.121214173028379 ], [ 74.813581596133446, 13.121311203280255 ], [ 74.813761534652812, 13.121558123818076 ], [ 74.813883163676323, 13.121723282408066 ], [ 74.813883340638071, 13.121723519451802 ], [ 74.814026932400239, 13.121914504108384 ], [ 74.814270846894047, 13.122244111610241 ], [ 74.814271101270577, 13.122244461741898 ], [ 74.814356302900308, 13.122363928757984 ], [ 74.814514780801744, 13.122473644567531 ], [ 74.814598708375286, 13.122531743058797 ], [ 74.814752789085276, 13.122604845732816 ], [ 74.815055155415578, 13.122746732424952 ], [ 74.81523016815747, 13.122814180146701 ], [ 74.815409737191118, 13.122818108639612 ], [ 74.815826029966487, 13.122827219654038 ], [ 74.816082718960601, 13.122832415440799 ], [ 74.816083769797473, 13.122832435180841 ], [ 74.816479831039885, 13.122839903924964 ], [ 74.816942301867613, 13.122845913691988 ], [ 74.817153914400492, 13.122846941183759 ], [ 74.817618712128393, 13.122953000409419 ], [ 74.81767019614891, 13.122964744313105 ], [ 74.818328097360094, 13.123074770280285 ], [ 74.818806995027046, 13.123154859766244 ], [ 74.818880926081178, 13.123168104017862 ], [ 74.819462524452391, 13.123272303334526 ], [ 74.820166926220935, 13.123422651005338 ], [ 74.820167486156961, 13.123422773471397 ], [ 74.820606424771455, 13.123518415711397 ], [ 74.820967956036398, 13.123554909157544 ], [ 74.821496768774622, 13.123608280379553 ], [ 74.821851438790034, 13.123617960165509 ], [ 74.82215426339711, 13.123672789484221 ], [ 74.82215799580095, 13.12367346483116 ], [ 74.822164542726952, 13.12367465212423 ], [ 74.822169406104777, 13.123675534423267 ], [ 74.822173915246495, 13.123676351370882 ], [ 74.822180383763637, 13.123677520524227 ], [ 74.822184271144963, 13.123678225818374 ], [ 74.822186177934753, 13.123678573466497 ], [ 74.822192177829535, 13.123679652774248 ], [ 74.822196378856731, 13.123680417061662 ], [ 74.822201390757115, 13.123681324781911 ], [ 74.822208651696087, 13.12368263645045 ], [ 74.822218148754587, 13.123684355675181 ], [ 74.822233130953293, 13.123687067042079 ], [ 74.822238657601858, 13.123688071872742 ], [ 74.822245536627349, 13.123689317265638 ], [ 74.822256046585608, 13.123691216231604 ], [ 74.822273174598749, 13.123692898222144 ], [ 74.822280126914407, 13.123693582119808 ], [ 74.822282901938834, 13.123693851696 ], [ 74.822285526585304, 13.123694110317262 ], [ 74.822288502736541, 13.123694383649255 ], [ 74.822288810854502, 13.123694431787664 ], [ 74.822475748498221, 13.123712759869793 ], [ 74.822675901157652, 13.123824458056983 ], [ 74.822677493254204, 13.123826209799184 ], [ 74.822677654529215, 13.123826464007079 ], [ 74.822678793934244, 13.123827781393116 ], [ 74.822679757272041, 13.12382888706124 ], [ 74.82268057679704, 13.123829832576449 ], [ 74.822682428798728, 13.123831963382209 ], [ 74.822684501127867, 13.123834341202439 ], [ 74.822686483105201, 13.123836629438772 ], [ 74.822689352838168, 13.123839922918366 ], [ 74.822692845741898, 13.123843935713086 ], [ 74.822696692632064, 13.123848362902221 ], [ 74.822698705035734, 13.123850679191452 ], [ 74.822709554327972, 13.123863150970427 ], [ 74.822723256755907, 13.123878905365626 ], [ 74.822730023158229, 13.123886687557341 ], [ 74.82273965099823, 13.123897754179627 ], [ 74.822754441217484, 13.123914759008219 ], [ 74.822766875179781, 13.123929055766387 ], [ 74.822782248013368, 13.123946731954709 ], [ 74.822795070093122, 13.123961455788994 ], [ 74.822804222243803, 13.123972001228182 ], [ 74.822812788112842, 13.123981849079794 ], [ 74.822821131834274, 13.123991415553647 ], [ 74.822836952680163, 13.124009630081217 ], [ 74.822871826433072, 13.124049730840607 ], [ 74.822916721687221, 13.124101347898522 ], [ 74.822996427144105, 13.124192994211015 ], [ 74.823063481510076, 13.124273394576651 ], [ 74.823106271122441, 13.124325452337162 ], [ 74.823119772729584, 13.124392444607393 ], [ 74.823138331740324, 13.124484481094139 ], [ 74.823152137668117, 13.124552986396584 ], [ 74.823164692359256, 13.124615287621181 ], [ 74.82317630989435, 13.124673415949815 ], [ 74.823176715690053, 13.124674923628437 ], [ 74.823177926635069, 13.124679424053381 ], [ 74.823188777630222, 13.124734764023986 ], [ 74.823207475486669, 13.12482752671932 ], [ 74.823216706754963, 13.124873306653221 ], [ 74.823236595427645, 13.124970365394041 ], [ 74.823251502312999, 13.12502177823594 ], [ 74.823266971523097, 13.125075150992291 ], [ 74.823284078971, 13.125134161118876 ], [ 74.82330599524596, 13.125209770411329 ], [ 74.823323951268733, 13.125271716342215 ], [ 74.823362318841475, 13.125404072844956 ], [ 74.823375144861657, 13.125448309859532 ], [ 74.823376771126291, 13.12545391466862 ], [ 74.823380524127941, 13.125460671154325 ], [ 74.823380720272397, 13.125461193950628 ], [ 74.823382033275649, 13.125463614648657 ], [ 74.823383213603975, 13.125465780254599 ], [ 74.82338389913258, 13.125467040357771 ], [ 74.823385375231439, 13.125469752339082 ], [ 74.823386604382392, 13.125472024681091 ], [ 74.823387226334305, 13.125473167186959 ], [ 74.823388539337671, 13.125475587884955 ], [ 74.823390103890489, 13.125478464502075 ], [ 74.823390705569366, 13.125479572632189 ], [ 74.823392391749678, 13.125482670876199 ], [ 74.823393556380083, 13.125484855460764 ], [ 74.823395083174105, 13.125487636200488 ], [ 74.823396431195789, 13.125490114795044 ], [ 74.823397342472958, 13.125491785586664 ], [ 74.823397957042076, 13.125492930800212 ], [ 74.82339873471517, 13.125494355541706 ], [ 74.823416664392226, 13.125527362445064 ], [ 74.823448356229676, 13.125585704368874 ], [ 74.823478596865968, 13.125641370495368 ], [ 74.823492871336356, 13.125667645391106 ], [ 74.82351100098407, 13.125701020458289 ], [ 74.823531685859919, 13.125766032778069 ], [ 74.823558698651297, 13.125850929567987 ], [ 74.823579300703031, 13.125915679591627 ], [ 74.82360627761976, 13.126000470553061 ], [ 74.823630550886662, 13.126076749677411 ], [ 74.82364463265948, 13.126121010144082 ], [ 74.82367140710322, 13.126205156222515 ], [ 74.823704399943807, 13.126308845785159 ], [ 74.823718702676743, 13.12635380086954 ], [ 74.823742485340802, 13.126428555065436 ], [ 74.82377322009981, 13.126525152777271 ], [ 74.823789921850789, 13.12657763293439 ], [ 74.823818995030294, 13.126669010119819 ], [ 74.82384757665281, 13.126758838873823 ], [ 74.823866354298531, 13.12681785190855 ], [ 74.823884194509361, 13.126856220068088 ], [ 74.823920269241313, 13.126933784049969 ], [ 74.823932246870257, 13.126959533783047 ], [ 74.823966030561252, 13.127032185160724 ], [ 74.82399890963822, 13.127102891758502 ], [ 74.824022274802019, 13.127152601284582 ], [ 74.824035583620329, 13.127178604211018 ], [ 74.824042537928662, 13.127192190934505 ], [ 74.824055833895017, 13.127216812143404 ], [ 74.824101645918986, 13.127307636478093 ], [ 74.82419598808761, 13.12749193284048 ], [ 74.824280153054147, 13.127609795358394 ], [ 74.824385456605498, 13.127757273188195 ], [ 74.824503200639541, 13.127922157399095 ], [ 74.824625261672892, 13.128063823128411 ], [ 74.82476272179106, 13.128223343930173 ], [ 74.824822141020249, 13.128292288003482 ], [ 74.824967971514994, 13.128419198678227 ], [ 74.825131006027803, 13.128561059317473 ], [ 74.825287131687148, 13.128696927161828 ], [ 74.825341342614891, 13.128744103876977 ], [ 74.82560776969197, 13.128940676916899 ], [ 74.825872279141038, 13.129135797050107 ], [ 74.826053174794382, 13.129243835442105 ], [ 74.826408283858228, 13.12932206573022 ], [ 74.826692386219207, 13.129384653779253 ], [ 74.826854622033721, 13.129420393492246 ], [ 74.827027242986006, 13.12939559090573 ], [ 74.827063264634234, 13.129391383181586 ], [ 74.827199551829196, 13.129372431031891 ], [ 74.827289576417343, 13.129359917740773 ], [ 74.827412520077573, 13.12934282110489 ], [ 74.827520800726063, 13.129327765442946 ], [ 74.827618389771516, 13.129314193697265 ], [ 74.827757015062986, 13.129294919092592 ], [ 74.827817830807206, 13.129286463369688 ], [ 74.827866409396506, 13.129279710305999 ], [ 74.827891058093542, 13.129276279755505 ], [ 74.827942020072996, 13.129269193695521 ], [ 74.827987905228937, 13.129262814075592 ], [ 74.828037868817319, 13.129255866585149 ], [ 74.828079877610733, 13.12925002600981 ], [ 74.828112485705461, 13.129245491229053 ], [ 74.828133927932186, 13.129242510643163 ], [ 74.828154577540644, 13.129239638941574 ], [ 74.828206063612669, 13.129232479029804 ], [ 74.828234466855861, 13.129228530099304 ], [ 74.82826322719292, 13.129224529861183 ], [ 74.828271961683171, 13.129223315844092 ], [ 74.828271994901712, 13.129223310440697 ], [ 74.828288356914726, 13.129220604963802 ], [ 74.828299464851668, 13.129218765877829 ], [ 74.828322085804913, 13.129215024676503 ], [ 74.828335035529406, 13.129212880273762 ], [ 74.828348506600278, 13.129210651217729 ], [ 74.828355729251669, 13.12920892166607 ], [ 74.828422637620633, 13.129198390971547 ], [ 74.828478852732957, 13.129189092872325 ], [ 74.828503666111047, 13.129184985986946 ], [ 74.828528903946435, 13.129180811562533 ], [ 74.828547004394139, 13.129177818768735 ], [ 74.828570897798627, 13.12917386498801 ], [ 74.828585192870449, 13.129171500829552 ], [ 74.828610697372866, 13.129167284978775 ], [ 74.828648102441903, 13.129161094913281 ], [ 74.828696453035761, 13.129153096375825 ], [ 74.828722759392491, 13.129148750834315 ], [ 74.82873832784297, 13.129146173205351 ], [ 74.828772181284023, 13.129140571239461 ], [ 74.828797455097117, 13.129136391386965 ], [ 74.828816097187712, 13.129133306700048 ], [ 74.828828416672678, 13.129131267651481 ], [ 74.828845912718307, 13.129128376615851 ], [ 74.828864851930476, 13.129125241484456 ], [ 74.828884616991573, 13.129121972166161 ], [ 74.828922886648527, 13.129115646092279 ], [ 74.828952596063502, 13.129110728584751 ], [ 74.829019164266256, 13.129099712825516 ], [ 74.829077102085122, 13.129090133610685 ], [ 74.829092841234853, 13.129087528041508 ], [ 74.829119105168388, 13.129084471904521 ], [ 74.82914486991406, 13.129081477827345 ], [ 74.829171191972208, 13.129078421723612 ], [ 74.829193023222487, 13.129075877160203 ], [ 74.829209711296613, 13.129073941365306 ], [ 74.829217717449936, 13.12907326305827 ], [ 74.829222454765471, 13.129072512049744 ], [ 74.829242611337094, 13.129070111052318 ], [ 74.829277600382966, 13.12906604068367 ], [ 74.829317329368976, 13.129061424568519 ], [ 74.829342917876701, 13.129058445726971 ], [ 74.82936626143595, 13.129055731246632 ], [ 74.829386273100525, 13.129053404291083 ], [ 74.829416876011805, 13.129057261347674 ], [ 74.829484933632813, 13.129065842652761 ], [ 74.82950276565191, 13.129068089794895 ], [ 74.829534418429134, 13.129072083171895 ], [ 74.829582800779576, 13.129078181887138 ], [ 74.829618534013065, 13.129082685245033 ], [ 74.82965917153517, 13.129087811261428 ], [ 74.829707245758371, 13.12909387267478 ], [ 74.829752599377457, 13.129099588661081 ], [ 74.829804429319324, 13.129106121851148 ], [ 74.829838659721702, 13.129110437003112 ], [ 74.829906954468171, 13.129119050002746 ], [ 74.830007191699593, 13.129131685431014 ], [ 74.830088066395888, 13.129141880102386 ], [ 74.830205702999862, 13.129156710725624 ], [ 74.830305779734459, 13.129169332368134 ], [ 74.830344311103147, 13.129174183801704 ], [ 74.830379971746638, 13.129185018628432 ], [ 74.830540182256428, 13.129233681976475 ], [ 74.830657026075201, 13.129269177809467 ], [ 74.830718934827502, 13.129287984626409 ], [ 74.83083858292548, 13.129324327704175 ], [ 74.830915830074161, 13.129347795159852 ], [ 74.831019298590689, 13.129379221918111 ], [ 74.831131353226581, 13.129413263056492 ], [ 74.831196049676237, 13.129432914357931 ], [ 74.831453715731087, 13.129511182284206 ], [ 74.831696246488477, 13.129584854558368 ], [ 74.831858885396372, 13.129634259266243 ], [ 74.83212423584466, 13.129714861820947 ], [ 74.832334883600765, 13.129778848879658 ], [ 74.832513826079179, 13.129833202860391 ], [ 74.832680871905353, 13.12981706379178 ], [ 74.832822194792101, 13.129803411799637 ], [ 74.833043476639972, 13.129782034081849 ], [ 74.833308499757862, 13.129756435394915 ], [ 74.833575975355572, 13.129730589349069 ], [ 74.833713376694774, 13.129717315023461 ], [ 74.833782253132696, 13.129710660765676 ], [ 74.833782392548216, 13.129706399082158 ], [ 74.833782410147094, 13.129698063632278 ], [ 74.833782508515881, 13.129690355790434 ], [ 74.833782613791826, 13.129681980609782 ], [ 74.83378268118193, 13.129676435735929 ], [ 74.833783113014547, 13.129642072356857 ], [ 74.833784131771495, 13.129560862400309 ], [ 74.833784590046193, 13.129524221209078 ], [ 74.833785323166325, 13.129465772175891 ], [ 74.833785836856492, 13.129424928023331 ], [ 74.833786418928824, 13.129378435007494 ], [ 74.833787343299022, 13.129304495232445 ], [ 74.833788060553431, 13.129247684705707 ], [ 74.833788401939557, 13.129220221669222 ], [ 74.833789818529155, 13.129107176616305 ], [ 74.833792147691909, 13.128921261516133 ], [ 74.833793368191152, 13.128824037253834 ], [ 74.833795667955116, 13.128640668524605 ], [ 74.833798972954142, 13.128376960621521 ], [ 74.833800508462417, 13.128254436287634 ], [ 74.833803100926204, 13.128047374336722 ], [ 74.833804021222605, 13.127973982532367 ], [ 74.833935555765706, 13.127964432548085 ], [ 74.834044939664594, 13.12795649859495 ], [ 74.834124813691346, 13.127950694099297 ], [ 74.834163487561483, 13.127947885975532 ], [ 74.834298939747654, 13.127938057104677 ], [ 74.834470818157811, 13.127925578600468 ], [ 74.83461971552407, 13.127914767138646 ], [ 74.834660825242906, 13.127911780557509 ], [ 74.834807799741753, 13.127901109720209 ], [ 74.834955042726463, 13.127890419981528 ], [ 74.835120215085482, 13.127878429564042 ], [ 74.835151577672818, 13.127876151025225 ], [ 74.838007405183816, 13.128955653421903 ], [ 74.838954185647182, 13.128561019296335 ], [ 74.839837328382558, 13.128189225242741 ], [ 74.8409939146147, 13.127702300468989 ], [ 74.842480881820009, 13.127104763027511 ], [ 74.842556739677349, 13.127219938881758 ], [ 74.842745322326763, 13.127506264118097 ], [ 74.843115205344461, 13.127888985357371 ], [ 74.844499573674838, 13.129321396044343 ], [ 74.844583384965702, 13.129315351960006 ], [ 74.847110537794109, 13.129133242145068 ], [ 74.848073145390671, 13.128001522431674 ], [ 74.849226528678898, 13.126671002477908 ], [ 74.84925805795379, 13.126646094112017 ], [ 74.84998818649737, 13.126069099954831 ], [ 74.850945573015977, 13.126017618630911 ], [ 74.85106614427275, 13.12601114157315 ], [ 74.851276510084332, 13.126083848156703 ], [ 74.851872800640066, 13.126138407790075 ], [ 74.852710765859769, 13.126215065300931 ], [ 74.853732356841761, 13.126043562562771 ], [ 74.85448561861503, 13.125851457987187 ], [ 74.855246320357523, 13.125704754669496 ], [ 74.855404755498597, 13.125717634471808 ], [ 74.855379887932401, 13.125763647352272 ], [ 74.855357493753658, 13.126160081470758 ], [ 74.8553527614758, 13.126243921824129 ], [ 74.855320467612458, 13.126815084182768 ], [ 74.85603584136787, 13.12731346048094 ], [ 74.85627917606395, 13.128154596426775 ], [ 74.856355038842707, 13.128808124979397 ], [ 74.856409305992074, 13.129275609812966 ], [ 74.856485118937528, 13.129928698778993 ], [ 74.856497742252316, 13.130200832026871 ], [ 74.85653080751274, 13.13043175597311 ], [ 74.858984380051595, 13.131786117589778 ], [ 74.85910540197564, 13.131963204535751 ], [ 74.859218569680706, 13.132128796695183 ], [ 74.859223706379652, 13.132136313001817 ], [ 74.859194921581462, 13.13217374989226 ], [ 74.859331307647466, 13.132333183131095 ], [ 74.858659686921456, 13.133081507947242 ], [ 74.858608480480683, 13.13313856212346 ], [ 74.857924094881994, 13.133660971202433 ], [ 74.857469026671282, 13.133897918610092 ], [ 74.857468349448681, 13.13438421649102 ], [ 74.857468230227099, 13.134469343439839 ], [ 74.856989262343319, 13.134476822622011 ], [ 74.856955934838837, 13.134984225825196 ], [ 74.85696145396777, 13.135070640856187 ], [ 74.85752039069186, 13.135082108684889 ], [ 74.857668485784743, 13.135603519899027 ], [ 74.857650947824837, 13.135627666588448 ], [ 74.857672808780691, 13.135719858012971 ], [ 74.857426204829636, 13.13596989212771 ], [ 74.8573963404409, 13.136501786414518 ], [ 74.857363563570317, 13.137085540155255 ], [ 74.857273421836112, 13.137090759273972 ], [ 74.857107716931779, 13.137100358224458 ], [ 74.857024110194004, 13.137254235732453 ], [ 74.857033633232703, 13.137274585057206 ], [ 74.857017920620436, 13.137313812145434 ], [ 74.857379620725482, 13.138141936707953 ], [ 74.857356734771159, 13.138549587706462 ], [ 74.857332654512604, 13.138978501687738 ], [ 74.857957656575707, 13.139566547548329 ], [ 74.858002004861021, 13.139608274675007 ], [ 74.858528475142961, 13.139739866911091 ], [ 74.859450866156038, 13.140233591940568 ], [ 74.859700760671203, 13.140034127589653 ], [ 74.859759070273114, 13.13987444818329 ], [ 74.859817253198941, 13.1397151095978 ], [ 74.860542022353954, 13.139661704720801 ], [ 74.861373468067214, 13.140155547176116 ], [ 74.861788846954113, 13.140733325816525 ], [ 74.861794510633402, 13.140757552163395 ], [ 74.861860268490972, 13.141038823946651 ], [ 74.861959554349738, 13.141233466664506 ], [ 74.861755162112246, 13.14137243377232 ], [ 74.861370618573602, 13.141633884155292 ], [ 74.861236074432853, 13.141725361518228 ], [ 74.860803000260105, 13.142019806583439 ], [ 74.860101222934162, 13.142293242679269 ], [ 74.860152121211655, 13.142478471715885 ], [ 74.859999823725232, 13.142543888859107 ], [ 74.860137118091629, 13.14306057051984 ], [ 74.860750391829527, 13.143027539842898 ], [ 74.861424866618435, 13.143730482962242 ], [ 74.861428989427353, 13.144381162097272 ], [ 74.861429970951065, 13.144536103824226 ], [ 74.861669426424129, 13.144678781104766 ], [ 74.861811002338186, 13.144763136914623 ], [ 74.861854078647653, 13.144788803952343 ], [ 74.861854539153597, 13.144796902745176 ], [ 74.861857520306756, 13.145153244859664 ], [ 74.861875353462565, 13.145162700333225 ], [ 74.862161213614797, 13.145314264729967 ], [ 74.86240036595423, 13.145198345651027 ], [ 74.863296650717956, 13.14520871099721 ], [ 74.863387999186472, 13.145122212002482 ], [ 74.863427754905572, 13.14508456801622 ], [ 74.863493472199551, 13.145022338342091 ], [ 74.863927301237482, 13.145354409775273 ], [ 74.864489391662602, 13.145029313512534 ], [ 74.864723249522697, 13.145109774688299 ], [ 74.864736596930314, 13.145495984511365 ], [ 74.864704650605262, 13.1457061654725 ], [ 74.864284421233137, 13.145857727484666 ], [ 74.864270430924989, 13.146135346660408 ], [ 74.86427590599645, 13.146139099514095 ], [ 74.864611370692842, 13.146368979953754 ], [ 74.864904066080456, 13.146293734104052 ], [ 74.865124276523048, 13.146295160917946 ], [ 74.865397119225278, 13.146050073353596 ], [ 74.865728966176292, 13.145982794589305 ], [ 74.866152675904971, 13.146386674171788 ], [ 74.866159975564287, 13.146473128771829 ], [ 74.86619633177898, 13.146903806573734 ], [ 74.865859941780329, 13.147788586275333 ], [ 74.865703026404347, 13.148201298615266 ], [ 74.865686995966726, 13.148571475818631 ], [ 74.865484934181836, 13.148817021155901 ], [ 74.86510317229957, 13.149007401789573 ], [ 74.864869977153859, 13.149192643336272 ], [ 74.864619570232577, 13.149391555229034 ], [ 74.864256308626537, 13.14956583404958 ], [ 74.863938809296442, 13.149522527575028 ], [ 74.863895105843284, 13.149449250416914 ], [ 74.863064565420558, 13.149392187243098 ], [ 74.862900718676656, 13.149380929578708 ], [ 74.862216402352317, 13.149287585902334 ], [ 74.862168134464213, 13.149330595509429 ], [ 74.861547449744307, 13.14967772244043 ], [ 74.861285580087156, 13.149900395123518 ], [ 74.860609151988299, 13.150475569936161 ], [ 74.85891173273356, 13.151968903893858 ], [ 74.858739724079797, 13.152068668472594 ], [ 74.858463723341671, 13.152228748495235 ], [ 74.858327979867113, 13.152222710101453 ], [ 74.855988837382753, 13.152118675114993 ], [ 74.855743692028852, 13.152101119775702 ], [ 74.855376428027498, 13.152074818233428 ], [ 74.854414914402071, 13.152005958524347 ], [ 74.854163087409475, 13.152057891961238 ], [ 74.854059393617405, 13.153061761534632 ], [ 74.853967809227981, 13.153435066004199 ], [ 74.853721116476734, 13.153890273972385 ], [ 74.853508043258799, 13.154283442512671 ], [ 74.853339537116867, 13.154451649627173 ], [ 74.853277779141195, 13.15451329833793 ], [ 74.8531609624021, 13.154629906223093 ], [ 74.85323846508004, 13.154676641882004 ], [ 74.853237091853828, 13.154869331284026 ], [ 74.853192169311313, 13.154899380339341 ], [ 74.853220352390764, 13.155369100687754 ], [ 74.853214519870548, 13.155677603104046 ], [ 74.85319770906348, 13.156566858993646 ], [ 74.853192287083715, 13.156853663038797 ], [ 74.853190145979966, 13.156964335765046 ], [ 74.853186528290109, 13.157151316172575 ], [ 74.853160235254393, 13.158509993057088 ], [ 74.85314236463978, 13.159087757523503 ], [ 74.853135197124843, 13.160091226445454 ], [ 74.853131960964902, 13.160545334722565 ], [ 74.853078086782801, 13.161992304357449 ], [ 74.853074771163818, 13.16245714063272 ], [ 74.853070376244929, 13.163042166577712 ], [ 74.85304135921325, 13.16409314683797 ], [ 74.85303921436838, 13.1641974327264 ], [ 74.853014397806618, 13.165402588472297 ], [ 74.852981919370663, 13.166980213256432 ], [ 74.852967246343539, 13.167738136137491 ], [ 74.852587185382433, 13.168748597389371 ], [ 74.852255665296823, 13.168864852474369 ], [ 74.852086468126828, 13.168937764738923 ], [ 74.852038057955681, 13.168991668538752 ], [ 74.851904690638861, 13.169044323369391 ], [ 74.85152847380408, 13.169111719111578 ], [ 74.851024063440974, 13.169556531079822 ], [ 74.851008304928087, 13.16958419129358 ], [ 74.850544974731434, 13.170397851767182 ], [ 74.850501902028029, 13.170627063057607 ], [ 74.85113286953144, 13.170707415923852 ], [ 74.851182757222844, 13.170713768329268 ], [ 74.85123382507328, 13.170770710971057 ], [ 74.851317772896579, 13.170864313149025 ], [ 74.851368568769047, 13.170920952680293 ], [ 74.851773944943488, 13.170839649401559 ], [ 74.851854811840013, 13.170853373891685 ], [ 74.851891487743544, 13.170846331911163 ], [ 74.851919744984542, 13.170840906400242 ], [ 74.852012498333707, 13.170846970504487 ], [ 74.852083194184161, 13.170851591327034 ], [ 74.852202605897972, 13.170859397858765 ], [ 74.852181949424988, 13.171035995494183 ], [ 74.852320799580525, 13.171098083961649 ], [ 74.852723845252456, 13.171076201092642 ], [ 74.852878797538963, 13.171105518279173 ], [ 74.852880155352381, 13.171129596709585 ], [ 74.853404119878505, 13.171265896839994 ], [ 74.853706695649294, 13.171443387094197 ], [ 74.854162134853453, 13.1714485157712 ], [ 74.854211026919302, 13.171455150056362 ], [ 74.854259796686733, 13.171462617083538 ], [ 74.854308427548645, 13.171470912322057 ], [ 74.854356906587498, 13.171480033956158 ], [ 74.854405219962956, 13.171489980169564 ], [ 74.854453349221231, 13.171500748239138 ], [ 74.854501282369142, 13.171512333636914 ], [ 74.854549004644625, 13.171524732737588 ], [ 74.854596501285016, 13.171537942820139 ], [ 74.854643757528734, 13.171551959355064 ], [ 74.854690759537547, 13.171566776909117 ], [ 74.854737492548736, 13.171582392761294 ], [ 74.854783941800747, 13.171598802382128 ], [ 74.854830094378528, 13.171615999434648 ], [ 74.85487593459824, 13.171633978484593 ], [ 74.854948776705953, 13.171664437975444 ], [ 74.855136499400146, 13.171636484023734 ], [ 74.855387897745814, 13.171825130877442 ], [ 74.855746236974241, 13.171763683951644 ], [ 74.856515803107413, 13.171979617088679 ], [ 74.85687942848449, 13.171834831583164 ], [ 74.857409582202521, 13.173787311062302 ], [ 74.856817497096927, 13.173665472678286 ], [ 74.854096316379923, 13.173105490410983 ], [ 74.85280519193104, 13.174698277728218 ], [ 74.852802083843997, 13.174820413002678 ], [ 74.852173586544978, 13.175578272675549 ], [ 74.852101090701112, 13.175629118837611 ], [ 74.852040476370306, 13.175671634585528 ], [ 74.852039958459571, 13.175671993276701 ], [ 74.851591640550609, 13.175986416517897 ], [ 74.85058378970021, 13.176671399898931 ], [ 74.850251518433637, 13.176818646969584 ], [ 74.849786154158792, 13.176714646693345 ], [ 74.849057717111876, 13.176551847157016 ], [ 74.846885130724758, 13.176001469657932 ], [ 74.846814207420238, 13.175983497716851 ], [ 74.846610143902453, 13.175942026838872 ], [ 74.846461670140172, 13.175918809845784 ], [ 74.846189068727, 13.17568391241247 ], [ 74.845982268192728, 13.175505714915793 ], [ 74.845954175075065, 13.175697696107608 ], [ 74.845879880154982, 13.175626365328631 ], [ 74.845745136066398, 13.176340086271864 ], [ 74.844202737103259, 13.17600772606248 ], [ 74.84367473569263, 13.176002868179205 ], [ 74.843548067996579, 13.176001701325726 ], [ 74.842605490743665, 13.175993027091756 ], [ 74.839898963642511, 13.17603579632358 ], [ 74.839315919628604, 13.176045006930195 ], [ 74.839154935871505, 13.176050280032143 ], [ 74.837923779897451, 13.176090613482824 ], [ 74.835762554789142, 13.176161402078046 ], [ 74.835119082400126, 13.176171570879699 ], [ 74.834067991603675, 13.176188178865779 ], [ 74.833492852370853, 13.176554399659786 ], [ 74.833182282085843, 13.176609267957122 ], [ 74.833188341573944, 13.176441215942212 ], [ 74.83288380087663, 13.176501722218907 ], [ 74.832712481457477, 13.176779781348763 ], [ 74.832610316412286, 13.176955821234065 ], [ 74.832454928363788, 13.177223568491444 ], [ 74.832202531160277, 13.177667154360972 ], [ 74.831943287170049, 13.17811270674772 ], [ 74.831301772083179, 13.179219948130353 ], [ 74.831272618316191, 13.179319644834354 ], [ 74.830795215164272, 13.180163404933399 ], [ 74.830707758066779, 13.180317974906007 ], [ 74.830628214166182, 13.180307415836666 ], [ 74.830473008353806, 13.180286812903347 ], [ 74.830432407592966, 13.179978869876789 ], [ 74.830373101807538, 13.179605926524212 ], [ 74.830366839898915, 13.179566556521223 ], [ 74.830136387416175, 13.179660077621785 ], [ 74.82961849360845, 13.179883605120718 ], [ 74.829616323403471, 13.179884542296048 ], [ 74.829230323799521, 13.179608274217772 ], [ 74.828964370300014, 13.179410249497533 ], [ 74.828876799292871, 13.179345045800479 ], [ 74.828862906595475, 13.179270156940238 ], [ 74.828638383934702, 13.179106345811743 ], [ 74.828456803444979, 13.178973864019373 ], [ 74.828052063422135, 13.178680117757395 ], [ 74.82764705937366, 13.178372076212559 ], [ 74.827609340724536, 13.178344887930955 ], [ 74.827227692360694, 13.17806979622064 ], [ 74.826807841726421, 13.177741523300551 ], [ 74.826727944080346, 13.17768168809998 ], [ 74.826605818655608, 13.177594098951998 ], [ 74.826431392521201, 13.177468999297401 ], [ 74.826382026649341, 13.177433593218637 ], [ 74.826331673879892, 13.177397480238639 ], [ 74.826071416417705, 13.17726172433618 ], [ 74.825540748034456, 13.176987190955455 ], [ 74.82542828199793, 13.177082503446444 ], [ 74.82491949028649, 13.177513693594847 ], [ 74.824513280917813, 13.177352654746484 ], [ 74.823993840374584, 13.177134589385686 ], [ 74.823993515641746, 13.177134453524552 ], [ 74.823995921024377, 13.177127250067693 ], [ 74.824086349817591, 13.176856423389975 ], [ 74.824213490468395, 13.176513331128229 ], [ 74.824290273039708, 13.17632424061137 ], [ 74.824341263830831, 13.176198670825729 ], [ 74.824348711983433, 13.176180326772878 ], [ 74.824395609973323, 13.176058760927999 ], [ 74.824402326587844, 13.176041350468488 ], [ 74.824414908334631, 13.176008736253767 ], [ 74.824416663991983, 13.176004184528823 ], [ 74.824468127172338, 13.175870783279269 ], [ 74.824478602855066, 13.175843629323193 ], [ 74.824570842658204, 13.175586269848989 ], [ 74.824571922563649, 13.175583367022844 ], [ 74.825502962362904, 13.173074324412415 ], [ 74.825957066068568, 13.171850542599291 ], [ 74.825951889812771, 13.171849678236622 ], [ 74.825813381159037, 13.171826546520125 ], [ 74.825310856144085, 13.171730117756178 ], [ 74.824776842966571, 13.171611835061908 ], [ 74.824389460396617, 13.171530523591221 ], [ 74.823916001192359, 13.171421922628614 ], [ 74.823864228194282, 13.171410046769582 ], [ 74.822146807401069, 13.171723358679843 ], [ 74.822017128817507, 13.171747016326972 ], [ 74.821132038927502, 13.172017054543153 ], [ 74.819859525320965, 13.171961042702835 ], [ 74.819806500896277, 13.172116009352525 ], [ 74.819787479899304, 13.172170780320164 ], [ 74.819770757800356, 13.172218932845539 ], [ 74.819754756069017, 13.172265010609026 ], [ 74.819751559237758, 13.172274213685309 ], [ 74.819757566217248, 13.172326489304288 ], [ 74.819769981798615, 13.172434552047855 ], [ 74.819787655243672, 13.172588348496344 ], [ 74.819871073310509, 13.173181328350257 ], [ 74.819802016525145, 13.173218151781898 ], [ 74.819780160126072, 13.173200412117479 ], [ 74.819569252800875, 13.173029250172728 ], [ 74.819210996667991, 13.172813796920808 ], [ 74.819179504432853, 13.172720728641959 ], [ 74.81917298724585, 13.172917413191998 ], [ 74.819150436491412, 13.173598005097102 ], [ 74.819146486140951, 13.173717213928967 ], [ 74.819120106578112, 13.17451332714348 ], [ 74.819094610137483, 13.175282778053187 ], [ 74.819053081427953, 13.176536010458882 ], [ 74.818876649577319, 13.176637438325095 ], [ 74.818813462955788, 13.176673764654634 ], [ 74.81650305220235, 13.17782713633483 ], [ 74.815208043979268, 13.178580398628325 ], [ 74.815200990942472, 13.179496426385835 ], [ 74.815199150474086, 13.179735453985645 ], [ 74.815200461157886, 13.180869957455018 ], [ 74.815200557358807, 13.180954489974642 ], [ 74.814482293622405, 13.181709476159293 ], [ 74.813169043427322, 13.183065277083397 ], [ 74.812926373787548, 13.183315806509491 ], [ 74.812901604841443, 13.183341377933754 ], [ 74.812870635806135, 13.183513252304424 ], [ 74.812783810871224, 13.184057972397117 ], [ 74.812701474100734, 13.184519179678041 ], [ 74.812269663053698, 13.186957880053479 ], [ 74.811898900163627, 13.187133176422288 ], [ 74.811121898635221, 13.188051016160472 ], [ 74.809954191820793, 13.189224645080762 ], [ 74.809596243596999, 13.189584404474637 ], [ 74.809542070273451, 13.189638852751553 ], [ 74.809263512656258, 13.189918818698365 ], [ 74.809114099625404, 13.19006898720589 ], [ 74.808425922102074, 13.190751450236329 ], [ 74.808339044066159, 13.190837604963896 ], [ 74.8070963818991, 13.190913577471516 ], [ 74.805980181426136, 13.190981812506084 ], [ 74.805629665867485, 13.191005251877932 ], [ 74.805221917727721, 13.191044119955324 ], [ 74.803695152784968, 13.191189651019714 ], [ 74.802779882310389, 13.191276888663118 ], [ 74.802551512226202, 13.191311296869941 ], [ 74.802103747823651, 13.191378757796722 ], [ 74.802194384204242, 13.191871138605611 ], [ 74.801378368770017, 13.192364103083131 ], [ 74.801026469596565, 13.193528124852474 ], [ 74.800332878225746, 13.19430455211757 ], [ 74.799204193337488, 13.19385895285542 ], [ 74.798483312310367, 13.193574349191058 ], [ 74.798439006689179, 13.193575900397999 ], [ 74.798361056775548, 13.193578631393699 ], [ 74.798322470359253, 13.193579982720442 ], [ 74.797406023670831, 13.193618021373636 ], [ 74.796325126218434, 13.193662882478591 ], [ 74.795671791808061, 13.193689996220185 ], [ 74.795143435035683, 13.193713255767623 ], [ 74.795133492733427, 13.193638140570116 ], [ 74.794780558131322, 13.19366734308022 ], [ 74.794794805433028, 13.193364258862839 ], [ 74.794796781312073, 13.193322209971667 ], [ 74.794805645907402, 13.193133647781883 ], [ 74.794794350366573, 13.192666337988527 ], [ 74.794791642044359, 13.192554249141795 ], [ 74.794477426207706, 13.192603180511858 ], [ 74.793639012992742, 13.192761348582753 ], [ 74.793453012642743, 13.192767601720632 ], [ 74.793130871866865, 13.192739412165114 ], [ 74.792758153105424, 13.192670954707006 ], [ 74.792575202515152, 13.192690788840272 ], [ 74.792454262991555, 13.192680205186262 ], [ 74.791885576823859, 13.192681805590372 ], [ 74.791679580361105, 13.192591479657157 ], [ 74.791075629016746, 13.192326658526126 ], [ 74.791010723882152, 13.192202652427854 ], [ 74.790960147053354, 13.192106017076062 ], [ 74.791010801961349, 13.19178377635984 ], [ 74.791066470117727, 13.19169252567823 ], [ 74.791090903763717, 13.19165247544376 ], [ 74.790079175909383, 13.19116698263138 ], [ 74.78901805958732, 13.190763324391554 ], [ 74.789000610274883, 13.190756686372344 ], [ 74.786784368230045, 13.189957086700854 ], [ 74.786619690594407, 13.189911322848971 ], [ 74.78420567842997, 13.189240474594973 ], [ 74.784199557324214, 13.189127663921028 ], [ 74.783730900513191, 13.18902528905407 ], [ 74.783087428702714, 13.188936530872331 ], [ 74.781992313784727, 13.188563095704712 ], [ 74.780089283917803, 13.188101486562278 ], [ 74.779697745530157, 13.188042052889987 ], [ 74.779642501952338, 13.188033668191226 ], [ 74.778339765994062, 13.18783591242544 ], [ 74.778315538954203, 13.18783223557921 ], [ 74.77735980602985, 13.188248244888678 ], [ 74.777043394632599, 13.188381376890264 ], [ 74.777008442235115, 13.18837355906067 ], [ 74.77589450252124, 13.188124420827187 ], [ 74.775645350325149, 13.188068696226621 ], [ 74.775449224915135, 13.188024453023196 ], [ 74.774608325532299, 13.187834756032952 ], [ 74.774147874485507, 13.187730882544843 ], [ 74.774081732150535, 13.187889559397167 ], [ 74.773921126168744, 13.188274856174095 ], [ 74.773682703445985, 13.188276239041288 ], [ 74.772812426786928, 13.188281284322724 ], [ 74.770738897707943, 13.188293293744049 ], [ 74.769059061295849, 13.18827523415851 ], [ 74.768211738371022, 13.188266120297261 ], [ 74.768204558196601, 13.188314541010641 ], [ 74.768067042115774, 13.189241877827204 ], [ 74.767908127491623, 13.190302319944292 ], [ 74.767155725110641, 13.190613665690277 ], [ 74.766388976359195, 13.190945912353323 ], [ 74.765908125818825, 13.191151779412914 ], [ 74.76545881460936, 13.191339831734888 ], [ 74.764016197830557, 13.191966156219992 ], [ 74.764118106337122, 13.192762777006024 ], [ 74.764221804042137, 13.193726852218795 ], [ 74.764460670355419, 13.193772656146074 ], [ 74.764636778816481, 13.19456093803605 ], [ 74.764452569996891, 13.194752040459059 ], [ 74.764414049664637, 13.194792003683718 ], [ 74.764066771517278, 13.195510764462437 ], [ 74.763702752402082, 13.195591464296557 ], [ 74.763535918449548, 13.195696727933218 ], [ 74.763427068172646, 13.195921654819387 ], [ 74.763312278635397, 13.195958979346404 ], [ 74.762998696281798, 13.196386846817592 ], [ 74.762878217522527, 13.196285705164856 ], [ 74.76264927708128, 13.196312948900527 ], [ 74.762615458776182, 13.196346673249687 ], [ 74.762555911908464, 13.196337873951423 ], [ 74.762343093919782, 13.196522889780812 ], [ 74.762175293259872, 13.196514770299391 ], [ 74.762140246141129, 13.19656700074605 ], [ 74.762032762427182, 13.196582540836022 ], [ 74.761948075664776, 13.196743056197509 ], [ 74.761826886968294, 13.196752969872595 ], [ 74.761794557798822, 13.196782162484523 ], [ 74.761755818205046, 13.196817145377729 ], [ 74.761730502606341, 13.196840003897584 ], [ 74.761882923081373, 13.197119348462744 ], [ 74.761944924300678, 13.197405301274568 ], [ 74.761831168244527, 13.197438029772414 ], [ 74.761786846328107, 13.197450781895169 ], [ 74.761680679387098, 13.197481327288113 ], [ 74.761279063216918, 13.197663384972476 ], [ 74.761183070167547, 13.197820154959601 ], [ 74.761096117176322, 13.197962160595097 ], [ 74.760760170341044, 13.197793583130121 ], [ 74.760745013001525, 13.197803864770282 ], [ 74.760738212717982, 13.197799591258565 ], [ 74.760634343342772, 13.197826496036809 ], [ 74.760581713539139, 13.197840127253965 ], [ 74.760472034579394, 13.197984484180424 ], [ 74.760114847539654, 13.197902382110453 ], [ 74.75979581418639, 13.19809384211413 ], [ 74.759401095294592, 13.198227676876645 ], [ 74.759372768486202, 13.198278277447931 ], [ 74.759233903967839, 13.19832665456213 ], [ 74.759207454147045, 13.198569619011186 ], [ 74.758846424204847, 13.198496516987309 ], [ 74.75854775079172, 13.198420177259285 ], [ 74.758368880572633, 13.199086537049963 ] ] ] } }
]
}
