{
"type": "FeatureCollection",
"name": "police_station_boundary.writing_20260805_172659",
"crs": { "type": "name", "properties": { "name": "urn:ogc:def:crs:OGC:1.3:CRS84" } },
"features": [
{ "type": "Feature", "properties": { "Shape.STArea()": 10521384.35150307, "Shape.STLength()": 18005.988670566188, "OBJECTID": 610, "KGISPS_BOUNDID": 710, "PS_BOUNDName": "Sirsi Town PS", "PS_BOUNDCode": "PSB - 710", "KGISPS_SUB_DIVID": 162, "_source_layer": "Police Station Boundary", "_source_layer_url": "https://kgis.ksrsac.in/kgismaps/rest/services/Home/Home_Department/MapServer/82", "_police_station": "Sirsi Town PS" }, "geometry": { "type": "Polygon", "coordinates": [ [ [ 74.843252542571278, 14.63466751629355 ], [ 74.843234799248222, 14.634687738291527 ], [ 74.843182711641774, 14.634656605038243 ], [ 74.843173376840369, 14.634652000253555 ], [ 74.840828653524127, 14.633495314765959 ], [ 74.839330115630858, 14.632720510199997 ], [ 74.839287209483729, 14.63273488097483 ], [ 74.839062211727338, 14.632810241019 ], [ 74.838948476936949, 14.632724898493697 ], [ 74.83879786457895, 14.632611884246138 ], [ 74.838763633843925, 14.632586199011497 ], [ 74.83876201610471, 14.632582549652451 ], [ 74.838445146972163, 14.631867748968597 ], [ 74.838233558072361, 14.6318933124998 ], [ 74.838226695146133, 14.631894142263 ], [ 74.837566249448301, 14.631964874425517 ], [ 74.837029793808455, 14.631878695142545 ], [ 74.836089282801055, 14.63172760213989 ], [ 74.836011129665607, 14.631756156202231 ], [ 74.835916929753964, 14.631790572284237 ], [ 74.83396020927259, 14.632505454857926 ], [ 74.833908706680674, 14.632364415303893 ], [ 74.833906695819095, 14.632365012416319 ], [ 74.833331395138856, 14.630939563304649 ], [ 74.833290174071095, 14.630837436465169 ], [ 74.833702475732295, 14.630286117393791 ], [ 74.833923391631387, 14.629428882676869 ], [ 74.833964334495903, 14.62924149632417 ], [ 74.834082301512041, 14.628676899770719 ], [ 74.834085635027691, 14.628660950250136 ], [ 74.833703001203958, 14.627609714952921 ], [ 74.833526260197644, 14.627151722415139 ], [ 74.833075595249895, 14.626753034796064 ], [ 74.83305009138877, 14.62673047338459 ], [ 74.833653823383372, 14.625331137201075 ], [ 74.831719367342544, 14.624837908586407 ], [ 74.831395761736076, 14.624724327884664 ], [ 74.831200117291459, 14.62466055045916 ], [ 74.831110471652806, 14.624625536543261 ], [ 74.829864718691596, 14.624318484759494 ], [ 74.829628529724857, 14.624260267675329 ], [ 74.829596799597795, 14.625253878644141 ], [ 74.829571784575222, 14.625773185279854 ], [ 74.829554518023912, 14.626131626005035 ], [ 74.828726815958476, 14.62592830901357 ], [ 74.828707805690385, 14.625945836428427 ], [ 74.828507320687436, 14.62613522022451 ], [ 74.828406967010793, 14.626230017758939 ], [ 74.827911914124854, 14.626387554109424 ], [ 74.827690525871532, 14.626331683207805 ], [ 74.827570450459319, 14.626169863008053 ], [ 74.827540087295333, 14.626107788823273 ], [ 74.82767551605717, 14.625958358206077 ], [ 74.827722634409284, 14.625901280690522 ], [ 74.827863819224305, 14.625730262241012 ], [ 74.82753655605697, 14.625347495793577 ], [ 74.827278393379842, 14.625205673333491 ], [ 74.826596952984062, 14.62507753676825 ], [ 74.826384756226858, 14.625207421571064 ], [ 74.826278888906401, 14.625275395228876 ], [ 74.825719050958696, 14.625613693877796 ], [ 74.825686866728503, 14.625634948037741 ], [ 74.825388818093984, 14.625831774128477 ], [ 74.825144023689859, 14.625567059332537 ], [ 74.8250012096738, 14.625412623927536 ], [ 74.824921607658865, 14.625341867862133 ], [ 74.824082357632875, 14.62460706454883 ], [ 74.823533628374491, 14.623182656395231 ], [ 74.822825623563588, 14.623288971554377 ], [ 74.822722099120469, 14.623304516523255 ], [ 74.822685396775995, 14.623271136371459 ], [ 74.822658533693229, 14.623246703017617 ], [ 74.822429663991599, 14.622802474266985 ], [ 74.821957720739732, 14.622251391902902 ], [ 74.822026002606691, 14.621935805758048 ], [ 74.822017346809915, 14.621771867955214 ], [ 74.822255787771596, 14.621485586659956 ], [ 74.822316057722219, 14.621424899132634 ], [ 74.822365668912141, 14.621354843719338 ], [ 74.823344235619857, 14.621468557148097 ], [ 74.823379409409853, 14.621396157870382 ], [ 74.82342645893813, 14.621261491624157 ], [ 74.823406113129096, 14.621113182250658 ], [ 74.823425269298141, 14.621045523938202 ], [ 74.823568487537017, 14.620539808136771 ], [ 74.824069527793498, 14.619957583112528 ], [ 74.824760286528473, 14.619791691157134 ], [ 74.824828631071298, 14.619775277969476 ], [ 74.824860506372616, 14.619357764120869 ], [ 74.824869907937796, 14.61923460800946 ], [ 74.824875217879566, 14.619229235928367 ], [ 74.825030679949393, 14.619071923137113 ], [ 74.82516872061295, 14.618794754028697 ], [ 74.825356052683702, 14.618444344091975 ], [ 74.825335827469246, 14.618413532719384 ], [ 74.824786472218932, 14.617576663268887 ], [ 74.824347064002183, 14.617527225596971 ], [ 74.825107646940253, 14.616674949616678 ], [ 74.825405873604396, 14.616495914683821 ], [ 74.825520311077938, 14.616472545808797 ], [ 74.825772418206057, 14.61643821119009 ], [ 74.826161497714779, 14.616726917058335 ], [ 74.826442107958698, 14.617002718921745 ], [ 74.826474416751154, 14.617353405486764 ], [ 74.826700239782767, 14.61710827775982 ], [ 74.8270753009744, 14.616701154705346 ], [ 74.827264768511412, 14.616538489500902 ], [ 74.827293868560304, 14.616601599881854 ], [ 74.827294675941786, 14.61660335181705 ], [ 74.827460162677127, 14.616962254329373 ], [ 74.827602172061859, 14.617005503566455 ], [ 74.827596863511701, 14.616974714262737 ], [ 74.827520671209427, 14.616532829993016 ], [ 74.827507110103738, 14.616454182479391 ], [ 74.827324951825219, 14.61599674339382 ], [ 74.826808476317439, 14.615469790114272 ], [ 74.826856141563198, 14.615424339564937 ], [ 74.827236070858675, 14.61506206106546 ], [ 74.827284757983662, 14.615007420503401 ], [ 74.827315970290087, 14.61498010123621 ], [ 74.827704200103071, 14.614605754983357 ], [ 74.827716832409678, 14.614592949805841 ], [ 74.827966124563076, 14.614340237808527 ], [ 74.828008643493533, 14.614367569964759 ], [ 74.82802570211129, 14.614378536316265 ], [ 74.82885971676987, 14.614976889430658 ], [ 74.828893707454412, 14.615013805480926 ], [ 74.82907797800226, 14.615213957468949 ], [ 74.829178358273893, 14.615323003638219 ], [ 74.829270040218077, 14.615276924800437 ], [ 74.829845915522682, 14.615035108691893 ], [ 74.830171139927259, 14.614873653092621 ], [ 74.830433224421043, 14.614743545011306 ], [ 74.83109561217735, 14.614422625848777 ], [ 74.83143228842367, 14.614259509506079 ], [ 74.831482307633365, 14.614229320837596 ], [ 74.831669819502807, 14.614212373257446 ], [ 74.831275599369235, 14.61283235141887 ], [ 74.831144126768024, 14.612110621788979 ], [ 74.830348918193835, 14.610567873441061 ], [ 74.829322384877003, 14.608804062991792 ], [ 74.829151560073271, 14.608690766400528 ], [ 74.829116511893247, 14.608677792398289 ], [ 74.82909594847689, 14.608771516891528 ], [ 74.828118895869991, 14.60838208058451 ], [ 74.827200559666466, 14.607990793127772 ], [ 74.825977026741, 14.607469454065104 ], [ 74.82548123009046, 14.607373521401895 ], [ 74.824422447049002, 14.60716865856115 ], [ 74.824122023040914, 14.607005922188163 ], [ 74.824124719722036, 14.606944752151108 ], [ 74.824488451489756, 14.606502834351289 ], [ 74.824807045623956, 14.606067549267244 ], [ 74.825220864491385, 14.605502159159061 ], [ 74.825099621909871, 14.605430813147928 ], [ 74.82523229782403, 14.605295291857768 ], [ 74.82626608734499, 14.605906754879166 ], [ 74.826589251182696, 14.606128532846864 ], [ 74.826852009433566, 14.605787647308476 ], [ 74.827274348498506, 14.605079963749029 ], [ 74.827376115441439, 14.605107678025419 ], [ 74.827766025036439, 14.605213861130416 ], [ 74.827958211044177, 14.605101219214152 ], [ 74.82818728737216, 14.604966953521172 ], [ 74.828609194671003, 14.604514283612085 ], [ 74.828878918430959, 14.60407555637334 ], [ 74.829488345739378, 14.604324500967081 ], [ 74.832730662218239, 14.605648920791857 ], [ 74.835264500544682, 14.606651967913114 ], [ 74.835410688246682, 14.60641747389294 ], [ 74.835393988753978, 14.60573691169588 ], [ 74.83536918973094, 14.604726265511998 ], [ 74.835967018822714, 14.603712127387729 ], [ 74.836226415654039, 14.603605582731948 ], [ 74.836732794664599, 14.602129193589223 ], [ 74.836756451893848, 14.602060218007219 ], [ 74.836853094402613, 14.601839880741982 ], [ 74.837350672600735, 14.601903544819651 ], [ 74.837921539467672, 14.601976584159184 ], [ 74.838089529375765, 14.601998077601724 ], [ 74.838444090432063, 14.602050416866682 ], [ 74.838534811663877, 14.602063809545827 ], [ 74.841831475250018, 14.601477857139646 ], [ 74.842483579245055, 14.601326034596365 ], [ 74.842419746735416, 14.600551964019614 ], [ 74.842423518215227, 14.600537533601248 ], [ 74.842420057686709, 14.600492091341142 ], [ 74.842439690602546, 14.60047565899003 ], [ 74.842510974978111, 14.600415997861932 ], [ 74.842532957921321, 14.60011882634385 ], [ 74.842533126432741, 14.600118179989447 ], [ 74.842475908204676, 14.599992801615855 ], [ 74.842532251465514, 14.599879843338872 ], [ 74.842550636139819, 14.599842986263528 ], [ 74.842517696413225, 14.599571253946417 ], [ 74.842474062431847, 14.599211290036877 ], [ 74.842460311783384, 14.599150232464883 ], [ 74.84244894252835, 14.599099762301991 ], [ 74.842616104374812, 14.598520569069372 ], [ 74.84276739801831, 14.597996358190446 ], [ 74.845574743213945, 14.598424641743527 ], [ 74.846426396292841, 14.598554560533829 ], [ 74.846962202528545, 14.598636295997229 ], [ 74.847961619253624, 14.59959759643179 ], [ 74.848799468056001, 14.602678645727602 ], [ 74.849018935262961, 14.603189833963997 ], [ 74.850078864983047, 14.603700693655256 ], [ 74.850199941116571, 14.603774881064695 ], [ 74.850670849217252, 14.603477577895294 ], [ 74.851333029757839, 14.603175525927444 ], [ 74.853399501007516, 14.602305903998094 ], [ 74.854729309797776, 14.601803932394303 ], [ 74.855646241298857, 14.601457807140257 ], [ 74.856684151546901, 14.60101765660386 ], [ 74.857748419197407, 14.600718248675468 ], [ 74.858761947359014, 14.600433105228364 ], [ 74.85875986722202, 14.600488988684182 ], [ 74.858825904632397, 14.600877024550853 ], [ 74.858728952883197, 14.601373736659699 ], [ 74.859325927588728, 14.602287288597138 ], [ 74.85954472421173, 14.603328223619862 ], [ 74.859268918957582, 14.604670745910814 ], [ 74.859421393433365, 14.606529373379669 ], [ 74.859353279554398, 14.606757054582744 ], [ 74.859345768271496, 14.606788863521128 ], [ 74.85915231381577, 14.607608093178765 ], [ 74.859365304306479, 14.607776770820436 ], [ 74.859436753951343, 14.607940243727427 ], [ 74.859213185134792, 14.608150547389307 ], [ 74.859431023756684, 14.609497093565784 ], [ 74.859307054141127, 14.610114195940062 ], [ 74.859841019337296, 14.617541579535745 ], [ 74.859914099072, 14.61855807567891 ], [ 74.856800133092989, 14.620880954657107 ], [ 74.856039384080674, 14.621608603530941 ], [ 74.85578046004936, 14.622980136588229 ], [ 74.855364412533845, 14.625183919301618 ], [ 74.85398667008009, 14.632481444321012 ], [ 74.853972925108025, 14.632554257680741 ], [ 74.853962750725458, 14.632608610553461 ], [ 74.854177529496638, 14.632789459191656 ], [ 74.854283447864432, 14.632911218514815 ], [ 74.854122268164957, 14.632875770826535 ], [ 74.844766369087708, 14.630817952394967 ], [ 74.844622004563547, 14.630981921200501 ], [ 74.844400685840839, 14.632458150826338 ], [ 74.844271538496443, 14.632561924088133 ], [ 74.843252542571278, 14.63466751629355 ] ] ] } }
]
}
