{
"type": "FeatureCollection",
"name": "police_station_boundary.writing_20260805_172659",
"crs": { "type": "name", "properties": { "name": "urn:ogc:def:crs:OGC:1.3:CRS84" } },
"features": [
{ "type": "Feature", "properties": { "Shape.STArea()": 292090164.23209625, "Shape.STLength()": 154570.92734600147, "OBJECTID": 260, "KGISPS_BOUNDID": 352, "PS_BOUNDName": "Janwada PS", "PS_BOUNDCode": "PSB - 352", "KGISPS_SUB_DIVID": 29, "_source_layer": "Police Station Boundary", "_source_layer_url": "https://kgis.ksrsac.in/kgismaps/rest/services/Home/Home_Department/MapServer/82", "_police_station": "Janwada PS" }, "geometry": { "type": "Polygon", "coordinates": [ [ [ 77.445084326208274, 18.069254786672033 ], [ 77.444327349071671, 18.071858803344043 ], [ 77.443109130632919, 18.074097922537554 ], [ 77.44242505228101, 18.075979811667644 ], [ 77.441584771516631, 18.07817867829894 ], [ 77.438751990622507, 18.080832296296173 ], [ 77.437263987845995, 18.081701289153216 ], [ 77.436533381656119, 18.082663926748388 ], [ 77.435766796067767, 18.084448428681355 ], [ 77.434364565296804, 18.085708577157199 ], [ 77.43215452274913, 18.085946407732052 ], [ 77.430597532176037, 18.085762660486086 ], [ 77.428642174542517, 18.08473674615686 ], [ 77.425879207490553, 18.082341486307506 ], [ 77.423837100476163, 18.080733533951015 ], [ 77.423025591289147, 18.079492345412909 ], [ 77.421461123258311, 18.07614674197821 ], [ 77.421327812454606, 18.073240120334315 ], [ 77.421612945493621, 18.071632639053419 ], [ 77.421599385496293, 18.07096951094319 ], [ 77.42172256372379, 18.068501536125179 ], [ 77.421984453242743, 18.067015121602282 ], [ 77.422037322802751, 18.065866940157036 ], [ 77.42142276080817, 18.064477272965917 ], [ 77.420734615383211, 18.063701003791934 ], [ 77.420482809209616, 18.063508800002204 ], [ 77.419996310913817, 18.063257028813503 ], [ 77.419884773959737, 18.063205234496884 ], [ 77.419441322015885, 18.062807180467171 ], [ 77.418850571584031, 18.062257671682477 ], [ 77.415671074971627, 18.059807216132185 ], [ 77.412422562285499, 18.057456206854411 ], [ 77.41114419193535, 18.056682694551128 ], [ 77.410111153592368, 18.056250129857833 ], [ 77.408504023494174, 18.055546819506194 ], [ 77.407051509571232, 18.053373373947231 ], [ 77.406100383673262, 18.052727959036908 ], [ 77.405549623207833, 18.051931880838918 ], [ 77.406186702043939, 18.052225383223853 ], [ 77.406663946499236, 18.05211103380546 ], [ 77.406927653025051, 18.051944954486686 ], [ 77.407191894326246, 18.051595408095029 ], [ 77.407912265841844, 18.051156489656904 ], [ 77.408904074516485, 18.050468807712686 ], [ 77.409113032604225, 18.050179167529731 ], [ 77.409615895424039, 18.049388765131969 ], [ 77.409919530114664, 18.048915425685564 ], [ 77.410066526556861, 18.048671919523418 ], [ 77.410239504444164, 18.047961135524854 ], [ 77.410496118067485, 18.047634598976654 ], [ 77.411221652028146, 18.047264334035212 ], [ 77.412257458442426, 18.046819112708896 ], [ 77.412711003702597, 18.046455933234743 ], [ 77.413052928922014, 18.045815280544129 ], [ 77.413046403450721, 18.044703026473211 ], [ 77.413295294438853, 18.042935547264818 ], [ 77.413102866906385, 18.042275216755225 ], [ 77.412157788128766, 18.04180485668957 ], [ 77.410818060096091, 18.041167654834798 ], [ 77.410168944733982, 18.040329393349971 ], [ 77.409866945291313, 18.039737284285387 ], [ 77.409572433021594, 18.036394462011209 ], [ 77.409389131960651, 18.03583974488259 ], [ 77.409067670397903, 18.035033390363569 ], [ 77.408215244129508, 18.034566572929506 ], [ 77.407248780737916, 18.034374526335924 ], [ 77.406312601438984, 18.034201551146307 ], [ 77.405925414096416, 18.03419399657535 ], [ 77.403396731196068, 18.034245937192395 ], [ 77.402491190482351, 18.034154551391723 ], [ 77.402430860169986, 18.034127108124522 ], [ 77.402062699665478, 18.033959620106589 ], [ 77.400751377865191, 18.033150139119844 ], [ 77.400215229945417, 18.032805123071782 ], [ 77.399530170271504, 18.032685028712422 ], [ 77.399397087006705, 18.032661699976863 ], [ 77.399247285689285, 18.032618137003876 ], [ 77.398559649729549, 18.032418157128287 ], [ 77.398844076781558, 18.032271940349368 ], [ 77.398986287284913, 18.032028790545816 ], [ 77.399051984308983, 18.031705264389483 ], [ 77.398910234898622, 18.030560539666631 ], [ 77.398894640192509, 18.029810141226385 ], [ 77.398894236398803, 18.02844203771954 ], [ 77.398884342290273, 18.028029143846318 ], [ 77.398680174499987, 18.027771679824177 ], [ 77.397962994543505, 18.027071668914516 ], [ 77.397580601566034, 18.026499161532453 ], [ 77.39730415038926, 18.026073306976773 ], [ 77.396864425462837, 18.025321553807256 ], [ 77.396564527170909, 18.02473424361796 ], [ 77.396065035642479, 18.024029480339401 ], [ 77.395712039883946, 18.023345495987193 ], [ 77.395517523963505, 18.02280789381232 ], [ 77.39596808418996, 18.021534359171252 ], [ 77.396094075172613, 18.021253611134185 ], [ 77.396333742624606, 18.02050903961489 ], [ 77.396287757165396, 18.019694165287074 ], [ 77.396235722041311, 18.019130680082522 ], [ 77.396015329435286, 18.018661436946694 ], [ 77.395825734306612, 18.018324900509825 ], [ 77.395523652423194, 18.01803604104342 ], [ 77.395418483592323, 18.017720430490673 ], [ 77.395488583754968, 18.017598993712802 ], [ 77.395530309067723, 18.017526719081854 ], [ 77.395529522272199, 18.017508121601669 ], [ 77.395479830299095, 18.016333402707438 ], [ 77.3954739827537, 18.016195168717111 ], [ 77.395472500336041, 18.016122197905229 ], [ 77.395469454776148, 18.015972310209964 ], [ 77.395342942458413, 18.015741330655715 ], [ 77.39532299668879, 18.01566828579702 ], [ 77.395301008477063, 18.015335556262063 ], [ 77.395289334353293, 18.015329952671724 ], [ 77.395164218259964, 18.015269907118554 ], [ 77.394577772593479, 18.014988455825147 ], [ 77.394402964844076, 18.014903102176199 ], [ 77.394366695853165, 18.014525696002252 ], [ 77.393967031667913, 18.012505260681905 ], [ 77.393645120731819, 18.011968286138512 ], [ 77.393502693177069, 18.011858882710325 ], [ 77.391924551692341, 18.010646638037876 ], [ 77.3915694750076, 18.010378842348679 ], [ 77.391504350942938, 18.010284279379793 ], [ 77.391388386331954, 18.01010281595244 ], [ 77.391339254308676, 18.010020314766543 ], [ 77.391332807000538, 18.010009489816444 ], [ 77.391233431343267, 18.009810997897468 ], [ 77.391254208990205, 18.009466752657335 ], [ 77.391281646254825, 18.009012161581513 ], [ 77.391282337290662, 18.008896942531997 ], [ 77.391249723687622, 18.008786729585665 ], [ 77.391039880394942, 18.008152812690479 ], [ 77.390984572844076, 18.008030933942415 ], [ 77.390881716317722, 18.007827315500858 ], [ 77.390875051216952, 18.007814122252785 ], [ 77.390803166557404, 18.007671816747916 ], [ 77.390711113175357, 18.007489586737638 ], [ 77.389883159498183, 18.00709091424763 ], [ 77.389405295429881, 18.006747554394924 ], [ 77.389374157020725, 18.006731586751233 ], [ 77.389286987924862, 18.006686885400882 ], [ 77.389090553097503, 18.006709259107442 ], [ 77.38756108086119, 18.006883451451994 ], [ 77.386341429037344, 18.006887367829378 ], [ 77.386046419027849, 18.006880645834752 ], [ 77.385094792504077, 18.006858960964877 ], [ 77.383243855572104, 18.007154603199325 ], [ 77.383023319318426, 18.007185454415787 ], [ 77.383028711275585, 18.007238591714657 ], [ 77.382438410606056, 18.007267278051309 ], [ 77.381847924620317, 18.007295972109173 ], [ 77.38006573599219, 18.007214277082824 ], [ 77.379944154793975, 18.007208704020382 ], [ 77.379855591492628, 18.006567576510793 ], [ 77.379814234412009, 18.005110525013375 ], [ 77.379819012345251, 18.004978302252756 ], [ 77.379830441965211, 18.004662102177615 ], [ 77.379648005930747, 18.00224898942259 ], [ 77.379618023819205, 18.001851793495241 ], [ 77.379538260569959, 18.000794971346558 ], [ 77.379531769238667, 18.000725993821415 ], [ 77.379525227602983, 18.000656432523961 ], [ 77.379496900237072, 17.999992927901936 ], [ 77.379494033880704, 17.999925786349518 ], [ 77.379446947566933, 17.999252899969175 ], [ 77.379446007764571, 17.999239492237876 ], [ 77.379223033684809, 17.998826524786047 ], [ 77.379173031364374, 17.998733917637587 ], [ 77.379157069333445, 17.998561491207621 ], [ 77.379042898231916, 17.997327968333643 ], [ 77.378978498565857, 17.996934124729748 ], [ 77.378951919469429, 17.996771605181127 ], [ 77.37894988583804, 17.996759191781475 ], [ 77.378802368401196, 17.995680255581405 ], [ 77.378787738722522, 17.995573239012135 ], [ 77.3787313435149, 17.995134078438191 ], [ 77.378863387616207, 17.994665812145982 ], [ 77.378799157553075, 17.994509395536873 ], [ 77.378674971593298, 17.994206955585334 ], [ 77.378457451635782, 17.993352685839202 ], [ 77.378188166341303, 17.992474710777515 ], [ 77.378159433701057, 17.992339402781116 ], [ 77.378024811111899, 17.99170545642 ], [ 77.377931676031992, 17.991204707687153 ], [ 77.377886355678342, 17.990989686227618 ], [ 77.377621010973641, 17.989730840907512 ], [ 77.377598374913347, 17.989530077512796 ], [ 77.377567525681584, 17.989256454590851 ], [ 77.37758757871255, 17.989131488571704 ], [ 77.377617681593733, 17.988832696153004 ], [ 77.377661178431609, 17.988400995118045 ], [ 77.377753110328939, 17.98388352301976 ], [ 77.379259816879483, 17.980680647133919 ], [ 77.380622950531603, 17.9756820708294 ], [ 77.380755408943543, 17.975196334558252 ], [ 77.382613101447433, 17.975240886344697 ], [ 77.382875152408573, 17.975167411885646 ], [ 77.38434502780467, 17.976319950429236 ], [ 77.384379724988349, 17.976302813992731 ], [ 77.384870285324439, 17.976060531091914 ], [ 77.384902367409637, 17.97604468583922 ], [ 77.384973800500333, 17.975458048321599 ], [ 77.385040171965755, 17.975345262307592 ], [ 77.384456031780189, 17.974445662439908 ], [ 77.383940324223076, 17.97365144122427 ], [ 77.384016897533087, 17.973520867481032 ], [ 77.384130867350066, 17.973326523004165 ], [ 77.384224138267143, 17.973167473748312 ], [ 77.384015360401463, 17.973056234737509 ], [ 77.384020983938882, 17.973038329538525 ], [ 77.383770788975312, 17.97287328916677 ], [ 77.383710865774916, 17.973032997723116 ], [ 77.383332266288704, 17.972500180309787 ], [ 77.383264768503395, 17.971685758669768 ], [ 77.383212205129922, 17.971051514735777 ], [ 77.383198613959678, 17.97088751979873 ], [ 77.382933366277229, 17.970706352373064 ], [ 77.38281997174019, 17.970628900939047 ], [ 77.382155459420417, 17.970175025306244 ], [ 77.382326727908207, 17.969875716392298 ], [ 77.382299745433031, 17.96981031798035 ], [ 77.382095540698685, 17.969315375836157 ], [ 77.38210667836961, 17.968894928988401 ], [ 77.382130075348101, 17.96886307914637 ], [ 77.382214543731678, 17.968748094667585 ], [ 77.382233371228267, 17.968712261696187 ], [ 77.382674570612707, 17.968783744002785 ], [ 77.382737173253091, 17.968325696710234 ], [ 77.382834923447831, 17.967610493480475 ], [ 77.382473631488281, 17.967591797215391 ], [ 77.382390701773346, 17.967374860074329 ], [ 77.382821840752314, 17.966456423821406 ], [ 77.382840367188138, 17.966416955406892 ], [ 77.382879994777326, 17.966424367347546 ], [ 77.383162997208032, 17.96649626057803 ], [ 77.386067167344279, 17.967020538599087 ], [ 77.388308904875956, 17.967425197411846 ], [ 77.394833217578352, 17.968473196371427 ], [ 77.39716920093106, 17.969058993095736 ], [ 77.3991257674503, 17.970170763228928 ], [ 77.399146553271493, 17.970035196360993 ], [ 77.399001543464919, 17.96824356781325 ], [ 77.397429404803049, 17.963816510868849 ], [ 77.397432404535451, 17.963787238294813 ], [ 77.397559197671598, 17.962549723487488 ], [ 77.397555990481479, 17.962184979575078 ], [ 77.397539997326518, 17.960370676292225 ], [ 77.397541300336584, 17.958534169129127 ], [ 77.397666522817786, 17.957973943420704 ], [ 77.398420861686674, 17.954599012236184 ], [ 77.398571383096694, 17.954044274205348 ], [ 77.399412556312612, 17.950944035980317 ], [ 77.399696048909647, 17.949893816275527 ], [ 77.399983810990989, 17.949425480638382 ], [ 77.400012215795869, 17.949309133172743 ], [ 77.400248278148837, 17.948342181356043 ], [ 77.398709260643443, 17.948059494843292 ], [ 77.395663068422678, 17.948099467098448 ], [ 77.395340827503645, 17.948103692482274 ], [ 77.394410756616537, 17.948115885392109 ], [ 77.393707567344975, 17.947494052860876 ], [ 77.39327057089811, 17.94720159515283 ], [ 77.393189376953742, 17.94714725534638 ], [ 77.391643515843739, 17.947433493922077 ], [ 77.391586374510268, 17.947444075502698 ], [ 77.390974758435817, 17.947706646530499 ], [ 77.390969770048599, 17.947659954218896 ], [ 77.390965729427165, 17.947661933273249 ], [ 77.390890403171966, 17.947460770163396 ], [ 77.390917088735534, 17.947324331525284 ], [ 77.39093043322913, 17.947069573644342 ], [ 77.390948044984384, 17.946733379731384 ], [ 77.390949032247548, 17.946714509092967 ], [ 77.390949079055218, 17.946713638708776 ], [ 77.390252893635918, 17.946614777193634 ], [ 77.390155682135884, 17.946621753687356 ], [ 77.389807377444185, 17.946646751268865 ], [ 77.389280476891116, 17.946606061291575 ], [ 77.389268992963977, 17.946608627778943 ], [ 77.388698327836593, 17.946736149166334 ], [ 77.388390134609665, 17.946790569291029 ], [ 77.38830690874596, 17.946805261629173 ], [ 77.387920395123743, 17.946873510029558 ], [ 77.387735351770687, 17.946906185776168 ], [ 77.387393607177259, 17.946985893728964 ], [ 77.38716152736859, 17.947040024564185 ], [ 77.386308442273304, 17.947176410053537 ], [ 77.385973175224933, 17.947226270065684 ], [ 77.385606720330472, 17.94728076243327 ], [ 77.384705147350587, 17.94736353402924 ], [ 77.384570094515681, 17.947375929507039 ], [ 77.383715703198817, 17.947420565270477 ], [ 77.383654319208645, 17.947421492335494 ], [ 77.381816832372394, 17.947449233149051 ], [ 77.381710099062133, 17.947374194113817 ], [ 77.381734698360717, 17.947150197884639 ], [ 77.381753719187628, 17.946976983860445 ], [ 77.381765511584589, 17.946869601161261 ], [ 77.381964205131993, 17.945178256050287 ], [ 77.381988370236513, 17.944781185989974 ], [ 77.382074500313706, 17.943365917130471 ], [ 77.382098806601647, 17.94301498151405 ], [ 77.382104545258457, 17.94293205130478 ], [ 77.382119930333829, 17.942709886033864 ], [ 77.382124194196322, 17.942648320905413 ], [ 77.382146540975185, 17.942325611842307 ], [ 77.38216447468335, 17.942066644719421 ], [ 77.382482820400881, 17.941960361713409 ], [ 77.383260195984988, 17.941700827658231 ], [ 77.383714591864049, 17.941561646601627 ], [ 77.383797361185856, 17.941383483486142 ], [ 77.383881716178706, 17.941201906542528 ], [ 77.383737578098021, 17.940928351838902 ], [ 77.384005564897066, 17.940849443860618 ], [ 77.384145197139517, 17.940737538272536 ], [ 77.386230441938963, 17.939164085595301 ], [ 77.386703961812429, 17.938741247939401 ], [ 77.386837209277459, 17.93862226471488 ], [ 77.387073211357077, 17.938411521302235 ], [ 77.387350766536613, 17.938166118524851 ], [ 77.38804879296535, 17.937736598616645 ], [ 77.388079912798602, 17.937703137949232 ], [ 77.388181267627814, 17.937654729699076 ], [ 77.388394124069791, 17.93738397446295 ], [ 77.388764995272297, 17.936966573189281 ], [ 77.389719752451867, 17.935892018590714 ], [ 77.390062741607807, 17.935580944167548 ], [ 77.390116190532382, 17.935532467832829 ], [ 77.391028569234592, 17.934573965226438 ], [ 77.391206859398878, 17.934168761288984 ], [ 77.391952466754134, 17.933564523555461 ], [ 77.392728689993504, 17.932296614197707 ], [ 77.393580382960224, 17.931518593840948 ], [ 77.39391707719696, 17.931126300317885 ], [ 77.393939014357514, 17.931100743299876 ], [ 77.394384001101585, 17.930744959162428 ], [ 77.394956668733585, 17.930276842361042 ], [ 77.395017895093304, 17.930226793229931 ], [ 77.396086651260049, 17.929289972090807 ], [ 77.396172602642437, 17.929205802817403 ], [ 77.396911312266454, 17.928442988673261 ], [ 77.398083559715644, 17.927605001858197 ], [ 77.39720699834335, 17.926417307976212 ], [ 77.39691661846453, 17.92593402024292 ], [ 77.396317385682337, 17.924936682794282 ], [ 77.396222519396758, 17.924755529005864 ], [ 77.395543868142127, 17.923459571585052 ], [ 77.395085226719019, 17.922583733814847 ], [ 77.394110249967611, 17.921324085345052 ], [ 77.393958673140787, 17.92108490142099 ], [ 77.393869834653117, 17.920944714381445 ], [ 77.392948520965433, 17.919490886016643 ], [ 77.392262630819715, 17.918863578048995 ], [ 77.39042526137824, 17.917183101287904 ], [ 77.390166214687824, 17.916869720110522 ], [ 77.388326110096543, 17.915003460612439 ], [ 77.388232263102083, 17.9148796277379 ], [ 77.38806128281108, 17.914824263121002 ], [ 77.387155870263399, 17.914531067893833 ], [ 77.387017175573561, 17.91448616008201 ], [ 77.386938845290359, 17.914460788766988 ], [ 77.386273835108653, 17.914340445847319 ], [ 77.385916528492544, 17.914200950637809 ], [ 77.385837729044482, 17.914170186886999 ], [ 77.382948862164255, 17.912817859278661 ], [ 77.38287885378152, 17.91278508517609 ], [ 77.381845532916614, 17.911823632071389 ], [ 77.380928678055099, 17.910956750474607 ], [ 77.380735412884505, 17.910769242655512 ], [ 77.379918651349669, 17.909992834520118 ], [ 77.379833019369784, 17.910010358222728 ], [ 77.378595483911582, 17.910263607493665 ], [ 77.377586107011155, 17.910126436970092 ], [ 77.376811800840684, 17.91021675844263 ], [ 77.376242768245561, 17.910366850994098 ], [ 77.375557689201528, 17.910572044253485 ], [ 77.375316416498521, 17.910644305496465 ], [ 77.373760851351363, 17.911201035847998 ], [ 77.371826493826632, 17.911253509001746 ], [ 77.369429045416027, 17.91120528473289 ], [ 77.366829013402352, 17.910863894540928 ], [ 77.365515842531991, 17.910782377788284 ], [ 77.365508706796135, 17.909610710152783 ], [ 77.36549734343113, 17.90954436781082 ], [ 77.365230527284226, 17.907985341187317 ], [ 77.365121898752705, 17.907350612031973 ], [ 77.365040529386107, 17.907140678484058 ], [ 77.364771542344172, 17.906446707250151 ], [ 77.364477205451607, 17.905687317999746 ], [ 77.3642278303235, 17.905043932687466 ], [ 77.364192349388546, 17.904952404519157 ], [ 77.36361974159108, 17.903475046829907 ], [ 77.36357168919865, 17.903351078493401 ], [ 77.363362531432685, 17.902811429085975 ], [ 77.362037970374303, 17.902327916352153 ], [ 77.362135045734092, 17.902273304560524 ], [ 77.362233210127641, 17.902218078846435 ], [ 77.362895893534912, 17.90149194948626 ], [ 77.36261529172539, 17.90118894596111 ], [ 77.362585594916311, 17.901156886328337 ], [ 77.362081132217327, 17.900615666095046 ], [ 77.3619860890621, 17.90051369705678 ], [ 77.361830175895605, 17.90034642591317 ], [ 77.36117470982397, 17.899643199161051 ], [ 77.362751018190608, 17.898704072808204 ], [ 77.363310131989124, 17.898543851259696 ], [ 77.363662074428234, 17.898678925214 ], [ 77.364892122746554, 17.8991509632496 ], [ 77.365249768906253, 17.900447271651476 ], [ 77.36623597284445, 17.899874287947082 ], [ 77.365200916742879, 17.897164821417924 ], [ 77.36501658508783, 17.89671163456061 ], [ 77.366456937492586, 17.894988207417374 ], [ 77.367835639186168, 17.893338493435202 ], [ 77.368517795661631, 17.893739416962628 ], [ 77.369504226707207, 17.894071839922137 ], [ 77.370076486322617, 17.895203963615867 ], [ 77.369701734963996, 17.89572271893568 ], [ 77.369402519359184, 17.89613689807658 ], [ 77.369895684606774, 17.89718952085623 ], [ 77.371998151101494, 17.89698270066868 ], [ 77.372110958271321, 17.896971592463427 ], [ 77.372293885288116, 17.89691293104697 ], [ 77.374371712455044, 17.89625578500338 ], [ 77.376368323901445, 17.895023816747109 ], [ 77.375029558503329, 17.893787944284359 ], [ 77.375251117479081, 17.892686292593059 ], [ 77.376619783508389, 17.892081796688814 ], [ 77.378362735716195, 17.891403799079544 ], [ 77.37963822312733, 17.891030891479922 ], [ 77.379637703370406, 17.891030116532637 ], [ 77.378674195647889, 17.888982354087243 ], [ 77.377540953693483, 17.888194452137675 ], [ 77.37753093611235, 17.885977529285739 ], [ 77.377647225323216, 17.885991083308671 ], [ 77.377697641904959, 17.885996968318899 ], [ 77.377868739957805, 17.886063149471713 ], [ 77.378506562520997, 17.886309870697524 ], [ 77.378603563910545, 17.886347406753764 ], [ 77.379230621589983, 17.886589937593907 ], [ 77.379543361776271, 17.886710911948011 ], [ 77.38086258728211, 17.887269830262579 ], [ 77.380888110696077, 17.887280647863076 ], [ 77.381024306413693, 17.887324176842192 ], [ 77.381895832054795, 17.887481885432475 ], [ 77.382017683551325, 17.887503934950495 ], [ 77.382314489083655, 17.887557642097018 ], [ 77.382520869445756, 17.886772337123713 ], [ 77.382553418704262, 17.886648561297214 ], [ 77.383196305981457, 17.884930508741782 ], [ 77.383267765132047, 17.884785358506413 ], [ 77.383317896454983, 17.884734002078911 ], [ 77.3833481030711, 17.884692441215496 ], [ 77.383699736585953, 17.885327539802244 ], [ 77.384166160045112, 17.886169996856175 ], [ 77.384733800464943, 17.886744596628738 ], [ 77.38509389661057, 17.887239800644039 ], [ 77.385929667693816, 17.886933061084981 ], [ 77.386674858100875, 17.886714957291559 ], [ 77.387123444954725, 17.886545868346673 ], [ 77.387840311961881, 17.886275676719013 ], [ 77.389556614641251, 17.886314393121985 ], [ 77.390487015267411, 17.886324147890775 ], [ 77.391800979167556, 17.885923155807621 ], [ 77.392263009719386, 17.885789177112489 ], [ 77.392787475776686, 17.885637062882534 ], [ 77.392925227566025, 17.885597114732153 ], [ 77.392956740371034, 17.885584835548915 ], [ 77.393329840652683, 17.885439420394725 ], [ 77.394223013225073, 17.885195934059848 ], [ 77.394477158926932, 17.885126654825658 ], [ 77.395331413849931, 17.885159872429242 ], [ 77.395476768190861, 17.887020726816978 ], [ 77.395489228099777, 17.887151490296738 ], [ 77.395683326429605, 17.889188712899131 ], [ 77.395721202121962, 17.889619799732536 ], [ 77.395728679481067, 17.88970499873243 ], [ 77.395930791875003, 17.890770660061495 ], [ 77.395955906587872, 17.890903144571958 ], [ 77.396062187138966, 17.891463762196526 ], [ 77.396219184952969, 17.892194232543293 ], [ 77.396386908085518, 17.893144596076802 ], [ 77.397148027906738, 17.893340146277147 ], [ 77.39714943338646, 17.893380442741901 ], [ 77.397152524059948, 17.89346837366277 ], [ 77.397160608270184, 17.893699081357116 ], [ 77.397879547242681, 17.893771747951945 ], [ 77.398345717669258, 17.893818863396291 ], [ 77.398929313500389, 17.893918515520152 ], [ 77.399635456389575, 17.893961020859816 ], [ 77.400495560594095, 17.894024667144237 ], [ 77.401137483525503, 17.894143699811089 ], [ 77.402330612993367, 17.894119517585018 ], [ 77.404500748692783, 17.894149913108201 ], [ 77.404627461930644, 17.894151686985548 ], [ 77.408431682201467, 17.894204908371069 ], [ 77.408912205222961, 17.894130717393139 ], [ 77.408906368349335, 17.894045103710912 ], [ 77.409269719439379, 17.894056914313602 ], [ 77.409606537787894, 17.89423119262932 ], [ 77.409918661255148, 17.894283119534375 ], [ 77.410447852599802, 17.894540580992373 ], [ 77.410885108513213, 17.894701014897134 ], [ 77.411064817062154, 17.894766950419296 ], [ 77.411142195411756, 17.894796514423909 ], [ 77.412101128554937, 17.895162877186753 ], [ 77.412485418525776, 17.895272130491588 ], [ 77.412635686329153, 17.895314851703553 ], [ 77.414225650227507, 17.895763663162434 ], [ 77.413960583136912, 17.896806980055956 ], [ 77.414661189268315, 17.8970278924258 ], [ 77.415459908497056, 17.897279738037117 ], [ 77.415564119767538, 17.897312597075125 ], [ 77.415607589059363, 17.897326303083016 ], [ 77.415723340729329, 17.897358733371366 ], [ 77.416850676202287, 17.897674590719529 ], [ 77.417303491078968, 17.897895918972146 ], [ 77.417900533329288, 17.897851950719836 ], [ 77.417975479313597, 17.897849382027491 ], [ 77.418161074386603, 17.897885478035114 ], [ 77.419347174371936, 17.897860916660282 ], [ 77.419467420677535, 17.89793768989988 ], [ 77.41954344280785, 17.897986228314309 ], [ 77.419777025084144, 17.898135363240826 ], [ 77.419996284855543, 17.89810353342715 ], [ 77.420175334498268, 17.898188674830251 ], [ 77.421027280652268, 17.89819657407152 ], [ 77.42266232872548, 17.898411792614585 ], [ 77.423395910959528, 17.898549878975622 ], [ 77.423487596394651, 17.898575635796558 ], [ 77.424562422529362, 17.89887757447454 ], [ 77.425703658973333, 17.899034235520833 ], [ 77.426013930832099, 17.89907682531128 ], [ 77.427349455830793, 17.899302094413382 ], [ 77.428937144176757, 17.899209862348034 ], [ 77.429511911828513, 17.899176469868383 ], [ 77.429563073801631, 17.898734635640761 ], [ 77.429573601829404, 17.898735451667712 ], [ 77.429844089384659, 17.898756414187798 ], [ 77.429870181595632, 17.898920749858231 ], [ 77.429907576420433, 17.899156260019652 ], [ 77.429926472936359, 17.899275261293127 ], [ 77.429916026225044, 17.899368504533726 ], [ 77.43001483834324, 17.899658872783721 ], [ 77.429879995491874, 17.900964513173143 ], [ 77.429911245727141, 17.900986329236741 ], [ 77.429665863390113, 17.901257955581357 ], [ 77.42956160916971, 17.9013733589432 ], [ 77.429422729169147, 17.901792463545224 ], [ 77.429172667797502, 17.902253671115115 ], [ 77.427943434149157, 17.904520818975246 ], [ 77.427845219472957, 17.904701963280282 ], [ 77.427362604458551, 17.90521616253038 ], [ 77.427136053472353, 17.905849529622365 ], [ 77.426817641994177, 17.906774708497579 ], [ 77.426423782987982, 17.907062077454864 ], [ 77.426294515657148, 17.907453170726274 ], [ 77.426113973373134, 17.907999391437002 ], [ 77.426089332429072, 17.908156755447987 ], [ 77.425918121032112, 17.909250151479078 ], [ 77.425921649834322, 17.909619829716803 ], [ 77.425302259511, 17.910026100697106 ], [ 77.424747585385191, 17.910232552224201 ], [ 77.42463646846349, 17.910273910018045 ], [ 77.424008358270768, 17.910817018870297 ], [ 77.423676648074519, 17.911116076027632 ], [ 77.423554249517068, 17.911509730922035 ], [ 77.42223099997284, 17.912700890640625 ], [ 77.422193612886431, 17.912865124164284 ], [ 77.422132842324913, 17.91341829692854 ], [ 77.421674460024548, 17.913566955447717 ], [ 77.421289172811939, 17.913769524291205 ], [ 77.421106146815376, 17.913865751752887 ], [ 77.420677241649571, 17.914770375033076 ], [ 77.420382359081088, 17.915392325306126 ], [ 77.420362163734453, 17.915588974183159 ], [ 77.420309802982416, 17.916098833435292 ], [ 77.420256734320361, 17.916580616066295 ], [ 77.420245292900177, 17.916684485348856 ], [ 77.420168528102735, 17.917381385079668 ], [ 77.420166140687272, 17.917416019622163 ], [ 77.4201093475438, 17.918239821545718 ], [ 77.420145386434598, 17.918324567655226 ], [ 77.420287846404563, 17.918659555598285 ], [ 77.420311122646368, 17.918791453832331 ], [ 77.420327945743011, 17.918886777284651 ], [ 77.420561117169157, 17.919352542662924 ], [ 77.420670897659434, 17.919571833472212 ], [ 77.420680714106041, 17.91966101012547 ], [ 77.420694686469403, 17.919787943532096 ], [ 77.420698510682556, 17.919802608353287 ], [ 77.421094328307916, 17.921320402332235 ], [ 77.421151861477227, 17.921467120801797 ], [ 77.421355535055, 17.92198651529047 ], [ 77.421565262282897, 17.922347222656295 ], [ 77.421732948054952, 17.922355662332116 ], [ 77.421878189098692, 17.922622993783822 ], [ 77.422028724202931, 17.922900070701587 ], [ 77.422167886531128, 17.923290239455934 ], [ 77.422173143299702, 17.923304977595272 ], [ 77.422745865561723, 17.92324095276874 ], [ 77.423426671009523, 17.92333090583034 ], [ 77.423564623000999, 17.923325863784711 ], [ 77.424583144510592, 17.92328863207171 ], [ 77.424673436353231, 17.923291021052805 ], [ 77.425476451569935, 17.92331227501758 ], [ 77.426350488860052, 17.92333571269851 ], [ 77.42652284278752, 17.923340333383873 ], [ 77.426611213223723, 17.924648333180841 ], [ 77.426652055720083, 17.925155646499832 ], [ 77.426688598723942, 17.92560955518849 ], [ 77.426687699125139, 17.926716377332628 ], [ 77.4266862017964, 17.927557020212532 ], [ 77.426685365286517, 17.928026547763988 ], [ 77.426744082627479, 17.928447518399011 ], [ 77.426760662705092, 17.928566392253678 ], [ 77.426819635432466, 17.929047115033196 ], [ 77.426952792567675, 17.929746907629855 ], [ 77.427014628255549, 17.930071874898331 ], [ 77.427764062191912, 17.930001154950634 ], [ 77.427916917859932, 17.929966515491024 ], [ 77.430795716454739, 17.929646363478934 ], [ 77.431153580812293, 17.929880552405404 ], [ 77.431237067456934, 17.929990834367871 ], [ 77.431474992264228, 17.930165488166356 ], [ 77.431496816969783, 17.930251870498761 ], [ 77.431524360277351, 17.930360890584247 ], [ 77.432264639225494, 17.930749204925476 ], [ 77.432323753820896, 17.930783992528415 ], [ 77.432387271586848, 17.930821372285646 ], [ 77.43316184096399, 17.9312771908067 ], [ 77.43456689525577, 17.93119710660579 ], [ 77.434643935713808, 17.93202862863183 ], [ 77.434675304866289, 17.932367203719547 ], [ 77.434219457664241, 17.936400730772885 ], [ 77.434177753653316, 17.93676974187472 ], [ 77.434176081102976, 17.936784537454219 ], [ 77.434116177964057, 17.937082350296571 ], [ 77.434092614741772, 17.937274292937513 ], [ 77.434068003833929, 17.937474770441835 ], [ 77.434057937120883, 17.937556766664763 ], [ 77.434473246862126, 17.938185306866 ], [ 77.436067193453567, 17.937660667923392 ], [ 77.437277116382731, 17.937296684396131 ], [ 77.437838472176978, 17.93712094235438 ], [ 77.438962727286565, 17.936768967405605 ], [ 77.439129399895251, 17.936731121321255 ], [ 77.441170876147339, 17.93980896248096 ], [ 77.441797547490523, 17.940844238268003 ], [ 77.442024181722303, 17.941218640767008 ], [ 77.444438124578284, 17.939896948346057 ], [ 77.445226169504679, 17.939465464011459 ], [ 77.445379635445022, 17.939381434697736 ], [ 77.445821694750634, 17.939139387590913 ], [ 77.44739512395418, 17.937376961018256 ], [ 77.447555963804234, 17.937196799501116 ], [ 77.44881261152122, 17.935789170126572 ], [ 77.448955263057783, 17.935629376495857 ], [ 77.45047096145818, 17.935089439819819 ], [ 77.451260152438081, 17.934806989876243 ], [ 77.453868246007929, 17.936627495726164 ], [ 77.454269832498269, 17.936727531253474 ], [ 77.455249843453714, 17.936931907202339 ], [ 77.455891146122042, 17.937065642728143 ], [ 77.456384349374588, 17.93648389387587 ], [ 77.458808640617875, 17.936177110755256 ], [ 77.459644630659696, 17.936071312560404 ], [ 77.460214371620324, 17.937499442883048 ], [ 77.460589214932369, 17.937956216641187 ], [ 77.46177540063097, 17.939347692783304 ], [ 77.461774743313185, 17.939460597956007 ], [ 77.46176389922816, 17.939511110785155 ], [ 77.4616802421058, 17.939900807145793 ], [ 77.461526029106594, 17.940619169668956 ], [ 77.461030082066486, 17.942929366620479 ], [ 77.460920133913064, 17.943441519944223 ], [ 77.461182697195994, 17.944097392941678 ], [ 77.4615787796006, 17.944155219624282 ], [ 77.462752515782768, 17.944326572851388 ], [ 77.463955671137171, 17.945367229209143 ], [ 77.465110631445228, 17.946204077351656 ], [ 77.465245995231172, 17.946359804851216 ], [ 77.465906917066178, 17.947120154203677 ], [ 77.466060385785624, 17.947296707893113 ], [ 77.466180171661321, 17.947434513602829 ], [ 77.466214448257503, 17.947450048321727 ], [ 77.467620595425501, 17.94808730707673 ], [ 77.467962376888508, 17.948263666310776 ], [ 77.468074980480935, 17.948105781461127 ], [ 77.468403253715934, 17.947840306475886 ], [ 77.468707425435696, 17.947594322060571 ], [ 77.469515449567822, 17.94714932388592 ], [ 77.470585041652697, 17.946560265748701 ], [ 77.471989665979535, 17.945453218316189 ], [ 77.472094004052423, 17.945370984556448 ], [ 77.472385599225291, 17.945141162565257 ], [ 77.4730981190921, 17.945308023759075 ], [ 77.473799631780807, 17.945472303847996 ], [ 77.474172764619738, 17.945559682956812 ], [ 77.474272998467384, 17.946896660866795 ], [ 77.474304198617475, 17.947312820551964 ], [ 77.474337301434588, 17.947754350708458 ], [ 77.474560212559666, 17.949670298520498 ], [ 77.47454170131428, 17.950328428012934 ], [ 77.475671151138727, 17.950032023826626 ], [ 77.475881802163286, 17.949976741352362 ], [ 77.477229167228799, 17.949514423037137 ], [ 77.478471816185603, 17.949082221004083 ], [ 77.47860945508117, 17.95020670990403 ], [ 77.478983662211704, 17.951964353749329 ], [ 77.476694229872848, 17.953102657361804 ], [ 77.475261977060441, 17.953603488098395 ], [ 77.475365256502371, 17.95454639285224 ], [ 77.475457045553739, 17.95541365444717 ], [ 77.475682279072515, 17.955451098363202 ], [ 77.477912865194256, 17.954610821215255 ], [ 77.479204419438901, 17.954186641693006 ], [ 77.480281033094599, 17.953792394966658 ], [ 77.480431613392042, 17.95365526664699 ], [ 77.480736640304784, 17.953377488494962 ], [ 77.482920970001786, 17.952600199385664 ], [ 77.482956454585121, 17.952685052265444 ], [ 77.484251966721956, 17.952334593313928 ], [ 77.485365668130228, 17.95218261226033 ], [ 77.485564118552475, 17.952292149628292 ], [ 77.487046535766993, 17.951925692844828 ], [ 77.487081980199676, 17.95165795692251 ], [ 77.487772298886966, 17.951433928308585 ], [ 77.488683862666747, 17.950916584074065 ], [ 77.492206303577134, 17.95031800536033 ], [ 77.492282281185851, 17.950233945326378 ], [ 77.492330345939536, 17.95018076723974 ], [ 77.492832934307344, 17.949624705959014 ], [ 77.494662106486274, 17.948879633248314 ], [ 77.494901228487237, 17.949324266996634 ], [ 77.496483755946571, 17.94894133066791 ], [ 77.499713620813807, 17.948173318863304 ], [ 77.499824108013414, 17.948147045506726 ], [ 77.501695231569656, 17.948541456746991 ], [ 77.503112955411225, 17.947254250318231 ], [ 77.503581006708757, 17.946829282681048 ], [ 77.505196652560173, 17.94536233057751 ], [ 77.50523490419728, 17.945282017143288 ], [ 77.505827716857254, 17.945260993080865 ], [ 77.507063954514663, 17.945217142628721 ], [ 77.507837465197866, 17.945189721211669 ], [ 77.507892840263011, 17.945142499382015 ], [ 77.508329700395805, 17.944769987765753 ], [ 77.50857430627137, 17.944769136103023 ], [ 77.509131194403153, 17.944730605107974 ], [ 77.509254515216909, 17.94472207332355 ], [ 77.509327510627926, 17.944717016053254 ], [ 77.509413727932923, 17.944757065200353 ], [ 77.509494504319917, 17.94477482594499 ], [ 77.509498318810387, 17.944775664452123 ], [ 77.509663341685624, 17.944791490881567 ], [ 77.511424349011307, 17.944960358950237 ], [ 77.511788835391187, 17.944983679972879 ], [ 77.511861770891258, 17.944988351366458 ], [ 77.512004583630443, 17.944997487074239 ], [ 77.512989473823069, 17.945060515592001 ], [ 77.513431647772464, 17.945169583689353 ], [ 77.513425878934754, 17.945236714378364 ], [ 77.513174114199558, 17.946261219745669 ], [ 77.514282879105281, 17.946656836051268 ], [ 77.514404597528582, 17.946648511282113 ], [ 77.514979697073926, 17.946609201458006 ], [ 77.515179596942431, 17.946595539997968 ], [ 77.515187959742576, 17.946585444526214 ], [ 77.515711846070246, 17.945952987367406 ], [ 77.515783194422553, 17.945866837206413 ], [ 77.5163908979263, 17.945962963108144 ], [ 77.516544249080781, 17.945987222136118 ], [ 77.516763557590977, 17.946021908294487 ], [ 77.516802665887113, 17.946027126448381 ], [ 77.517006591910715, 17.946054334884614 ], [ 77.517283108644023, 17.946091227572907 ], [ 77.517363446897278, 17.947898841080544 ], [ 77.517612331431209, 17.949294496727035 ], [ 77.517922038623439, 17.950995382761128 ], [ 77.517926921240914, 17.951022195567145 ], [ 77.517940203349326, 17.951095146465992 ], [ 77.518140578971, 17.952094894801821 ], [ 77.518260146789956, 17.952872028891541 ], [ 77.518464526782083, 17.954200386586617 ], [ 77.518651151826617, 17.95541332035134 ], [ 77.518669263493365, 17.955531033869782 ], [ 77.51896385157049, 17.957328629727449 ], [ 77.518862512288749, 17.958356302409989 ], [ 77.519154391066877, 17.959317452779175 ], [ 77.519298185518366, 17.95971984086907 ], [ 77.519324561552224, 17.959793647449334 ], [ 77.519561174520419, 17.960279150352783 ], [ 77.519632021198618, 17.960424521584624 ], [ 77.519893731980503, 17.960961536311494 ], [ 77.519937723367462, 17.961051804259565 ], [ 77.520415089724978, 17.962207110828768 ], [ 77.520556785947733, 17.962550037390663 ], [ 77.520584829235474, 17.964271185738003 ], [ 77.521188760747364, 17.964179358369844 ], [ 77.521125942971565, 17.964432578391104 ], [ 77.520849935884726, 17.965329166430397 ], [ 77.520535923864728, 17.966072168267203 ], [ 77.520457850357687, 17.966194445738186 ], [ 77.520449892607417, 17.9662069151357 ], [ 77.520436093245877, 17.966304050782988 ], [ 77.520324119352381, 17.966453681836775 ], [ 77.520160929651212, 17.966708804749747 ], [ 77.519925740392168, 17.967035412952285 ], [ 77.519819402066489, 17.967289073606057 ], [ 77.519762756138903, 17.967457979650991 ], [ 77.519603722601133, 17.968127187150206 ], [ 77.518953217851717, 17.969269399162751 ], [ 77.517578302771767, 17.971169213374754 ], [ 77.5173268784323, 17.971472476862239 ], [ 77.517438078410606, 17.971506018797633 ], [ 77.517729270223171, 17.971593856117348 ], [ 77.518916255606442, 17.971995932183475 ], [ 77.520580018849913, 17.972244772495742 ], [ 77.520629924301701, 17.972247643355665 ], [ 77.521008165974962, 17.972326105241109 ], [ 77.521561667593417, 17.972303998040399 ], [ 77.521750797547142, 17.972296442880346 ], [ 77.52179247913385, 17.972294779084802 ], [ 77.522319000518337, 17.972330045693461 ], [ 77.523805730708816, 17.971657510214079 ], [ 77.524012883370162, 17.971621970818553 ], [ 77.524327560974612, 17.971567984490694 ], [ 77.525899548004006, 17.97129828229707 ], [ 77.526529172128605, 17.970953044817136 ], [ 77.526766483365435, 17.970894820835234 ], [ 77.526890767721881, 17.97075477278382 ], [ 77.527065284690948, 17.970659080372062 ], [ 77.527899709948542, 17.970510060727086 ], [ 77.528547064673475, 17.971303417968411 ], [ 77.528576932692673, 17.9713400260128 ], [ 77.528867361313502, 17.971855461845031 ], [ 77.529295723512448, 17.972555295543096 ], [ 77.529405561589755, 17.972647052358592 ], [ 77.529627496856463, 17.972888632230458 ], [ 77.530340333906139, 17.973664604952013 ], [ 77.53085010993064, 17.974182114174404 ], [ 77.531466510778287, 17.974807890616901 ], [ 77.531533611384106, 17.974876009525175 ], [ 77.532289631930496, 17.975893185273524 ], [ 77.532406142379713, 17.976017513301482 ], [ 77.533233944392151, 17.976782832540714 ], [ 77.533576474454719, 17.977085838727259 ], [ 77.534209667197089, 17.978203521334141 ], [ 77.534663456210765, 17.979132738464877 ], [ 77.534722581650485, 17.97927497657588 ], [ 77.535349773450847, 17.981012288489765 ], [ 77.535374390503961, 17.981080463686439 ], [ 77.535994517122035, 17.981045553611711 ], [ 77.535982124947267, 17.980798271333313 ], [ 77.535985238920276, 17.980806166520502 ], [ 77.536616894594232, 17.980815663045803 ], [ 77.536511118195151, 17.97929041119616 ], [ 77.536503210636596, 17.979176424971229 ], [ 77.536738069558794, 17.979144901603906 ], [ 77.536739929888157, 17.979144650568877 ], [ 77.536940604388562, 17.97772963244671 ], [ 77.536996609025678, 17.977554612560404 ], [ 77.537007363870885, 17.977364672458922 ], [ 77.537025501629174, 17.977044167533059 ], [ 77.537044004536597, 17.976717250017817 ], [ 77.538293927855335, 17.976685008403088 ], [ 77.539608308175005, 17.976761629052731 ], [ 77.539619575694104, 17.976650804018153 ], [ 77.539672461307589, 17.976649439262982 ], [ 77.541763431298165, 17.976505251967318 ], [ 77.541781699941723, 17.977861157870354 ], [ 77.543331152436551, 17.977785710137493 ], [ 77.543341455579693, 17.977784610405486 ], [ 77.543341374255704, 17.977733480173338 ], [ 77.543326106402276, 17.977600216189551 ], [ 77.543217052511622, 17.976648335054321 ], [ 77.543166504465219, 17.976491827310504 ], [ 77.543347552474174, 17.976374860788734 ], [ 77.543336393962605, 17.976315255397253 ], [ 77.543802340983191, 17.97610598781576 ], [ 77.54445424208069, 17.976002424333021 ], [ 77.546256668191731, 17.975457681842148 ], [ 77.546417145619827, 17.975409179869754 ], [ 77.546823231200563, 17.975255665046127 ], [ 77.548630260655301, 17.97457253146548 ], [ 77.548665083858154, 17.974559367453725 ], [ 77.548802651356709, 17.974507359905363 ], [ 77.549530109725183, 17.974232342403287 ], [ 77.549846105297917, 17.97414407499905 ], [ 77.551855623400627, 17.973582735407842 ], [ 77.551938180331703, 17.973651727653571 ], [ 77.55218825009463, 17.974098993358176 ], [ 77.55264106273485, 17.975097276383501 ], [ 77.552724596018322, 17.975281433066762 ], [ 77.55273464140744, 17.975303580244056 ], [ 77.553066678890474, 17.975940070865196 ], [ 77.553396890613385, 17.976573057017511 ], [ 77.553638581763877, 17.977029688253946 ], [ 77.553886602970053, 17.977574489035266 ], [ 77.554210728762214, 17.978240091342212 ], [ 77.554599601296005, 17.979046520459125 ], [ 77.554651246842013, 17.979153615300579 ], [ 77.55514615953625, 17.980217821936566 ], [ 77.555180205942236, 17.980303748804751 ], [ 77.555223915497464, 17.980414066540725 ], [ 77.555314610640963, 17.9806429675989 ], [ 77.555969749771492, 17.981741860285691 ], [ 77.556010809112081, 17.981851774666726 ], [ 77.556101509232306, 17.982094580602674 ], [ 77.556522047781925, 17.982862404286859 ], [ 77.55697733913604, 17.98368487358146 ], [ 77.557428113146642, 17.984454535156917 ], [ 77.557597073172957, 17.984743016214438 ], [ 77.557624684820823, 17.984819214788491 ], [ 77.557631196776128, 17.984841276342408 ], [ 77.557683557808289, 17.985018693674558 ], [ 77.557835824225251, 17.985534614530803 ], [ 77.558442988105497, 17.98684701216737 ], [ 77.559578879181714, 17.986164957573052 ], [ 77.560876640869338, 17.985356611159471 ], [ 77.561783447149963, 17.984798594028458 ], [ 77.561801392087744, 17.984787551758714 ], [ 77.562905675837527, 17.985747070166589 ], [ 77.564010605704297, 17.98505813419575 ], [ 77.565696181270454, 17.985310834538101 ], [ 77.566109699292653, 17.985186259111508 ], [ 77.566484852517732, 17.985091249986301 ], [ 77.566588210193572, 17.985065073977093 ], [ 77.567263587582829, 17.985069079288355 ], [ 77.567426236446991, 17.985070042893252 ], [ 77.567875972176481, 17.985072708610218 ], [ 77.567980057018872, 17.985073324310065 ], [ 77.568048457773529, 17.985073730092413 ], [ 77.568601791024264, 17.985181059848962 ], [ 77.569316003014407, 17.98528413076188 ], [ 77.570831420108419, 17.985202389112434 ], [ 77.570889373271314, 17.985192631454705 ], [ 77.572589309588039, 17.984906416576724 ], [ 77.574313574262831, 17.984701767418851 ], [ 77.574397852443326, 17.984747318450722 ], [ 77.574572989404572, 17.984709207278144 ], [ 77.574575762865734, 17.984708604172823 ], [ 77.574682642452018, 17.984685344860175 ], [ 77.574796440531344, 17.984762109147077 ], [ 77.576948622068628, 17.986213881973292 ], [ 77.577332364263214, 17.986618999815249 ], [ 77.577641026653055, 17.986900314231271 ], [ 77.577602810171413, 17.986908153251356 ], [ 77.578417529670119, 17.987801492400347 ], [ 77.579600550195906, 17.988763707676856 ], [ 77.580294068758604, 17.989423188484626 ], [ 77.581227015376228, 17.989505460896407 ], [ 77.583085382858087, 17.991005569768905 ], [ 77.583620552112706, 17.991268220199505 ], [ 77.585566300860151, 17.992378266367119 ], [ 77.586072570803182, 17.992431643037804 ], [ 77.586421186442124, 17.99246839733792 ], [ 77.586983926842251, 17.992459591332427 ], [ 77.587458245935778, 17.992506642927463 ], [ 77.587536290447773, 17.993296172840502 ], [ 77.588165743440769, 17.9932843143804 ], [ 77.588199973935957, 17.993368186132731 ], [ 77.590169237166577, 17.993291907528402 ], [ 77.590314543513259, 17.993286612092014 ], [ 77.591681826257542, 17.99323678274402 ], [ 77.593418032781059, 17.994369424330291 ], [ 77.594031817714509, 17.994114358949613 ], [ 77.594177230256335, 17.994192770193045 ], [ 77.594264051503089, 17.994393625823101 ], [ 77.594430691792425, 17.994302642487476 ], [ 77.595480928351932, 17.993761827320565 ], [ 77.596435471620239, 17.993270281976905 ], [ 77.596998884975022, 17.993445090952278 ], [ 77.597367321080483, 17.993152513594449 ], [ 77.597567598593983, 17.99323820882303 ], [ 77.597838855241818, 17.992964867784085 ], [ 77.597761522049325, 17.992722399901769 ], [ 77.59796959054691, 17.992499288116957 ], [ 77.597820047346573, 17.99209205391287 ], [ 77.598129409549557, 17.991763897788569 ], [ 77.598400224045037, 17.991301886751636 ], [ 77.598462418523553, 17.991195784471593 ], [ 77.598577422935264, 17.990953664784488 ], [ 77.598448492732956, 17.990828334163957 ], [ 77.59760480968275, 17.990279239400198 ], [ 77.597515863650344, 17.990118321350547 ], [ 77.59719893584608, 17.989544936770578 ], [ 77.596672034951197, 17.988747335901557 ], [ 77.596649142426131, 17.988712680663344 ], [ 77.596629371115867, 17.988622904779294 ], [ 77.596479765373971, 17.987943588033978 ], [ 77.596418656513123, 17.98751382978778 ], [ 77.596388672426329, 17.987302959123017 ], [ 77.596094696372987, 17.985979936978314 ], [ 77.596007190590839, 17.985553498717458 ], [ 77.595982381860438, 17.98468905214855 ], [ 77.596197123745085, 17.984670491847151 ], [ 77.596194352685387, 17.984647513226324 ], [ 77.596098131732589, 17.983849522322945 ], [ 77.596089380380505, 17.983776946458548 ], [ 77.595772383456847, 17.983066394917604 ], [ 77.595430766094665, 17.982300649034656 ], [ 77.595092247992767, 17.98154184170739 ], [ 77.594948856690294, 17.981468932615929 ], [ 77.594693927298238, 17.981290258738142 ], [ 77.594638109326993, 17.981251137275851 ], [ 77.594576062217101, 17.980892671626563 ], [ 77.594586634710836, 17.980344291289363 ], [ 77.594514773317769, 17.980074521389799 ], [ 77.594433046074144, 17.979932821793597 ], [ 77.594410176172332, 17.97993484563203 ], [ 77.594337336684816, 17.979873442721757 ], [ 77.593968538290156, 17.979960606961246 ], [ 77.593949622464123, 17.979965076737297 ], [ 77.593944629835008, 17.979924822348206 ], [ 77.593897926447525, 17.979940105766147 ], [ 77.593492194115555, 17.980072881953209 ], [ 77.593175893310573, 17.980176391253266 ], [ 77.591985939291078, 17.980313990713167 ], [ 77.591595404311064, 17.980359148581126 ], [ 77.590269025450056, 17.980458640630388 ], [ 77.590220689534604, 17.980462265967269 ], [ 77.590161031797251, 17.98046673979723 ], [ 77.590155577353372, 17.980467149549835 ], [ 77.589768557103426, 17.98049617781296 ], [ 77.586841240679348, 17.980912613662667 ], [ 77.586726427040531, 17.980887759704309 ], [ 77.586722425653122, 17.98107613703209 ], [ 77.586721364179567, 17.981126079024719 ], [ 77.586720725060474, 17.981156175743653 ], [ 77.586665122752436, 17.981142886120264 ], [ 77.585188107951453, 17.980789867716208 ], [ 77.584296933202864, 17.98056560716747 ], [ 77.584075672831389, 17.980509926855841 ], [ 77.583031325669197, 17.979932998282155 ], [ 77.582889110589775, 17.979854432905043 ], [ 77.582870484659551, 17.979848175951698 ], [ 77.579752113846837, 17.978800556545298 ], [ 77.579130882374002, 17.977555730997253 ], [ 77.578055952926448, 17.977727085141648 ], [ 77.577149919160718, 17.977639649409987 ], [ 77.576913044485849, 17.977641068049799 ], [ 77.576490685686053, 17.977643594411447 ], [ 77.575137959435011, 17.977099234602917 ], [ 77.573926671279821, 17.976420080199894 ], [ 77.573902759540033, 17.976396073866432 ], [ 77.573680867767933, 17.976173299524049 ], [ 77.57355920693341, 17.976203924755303 ], [ 77.573606181897318, 17.976560916273378 ], [ 77.573547684606382, 17.976651417245829 ], [ 77.57310092260866, 17.977342583585791 ], [ 77.572921632850807, 17.977672518093716 ], [ 77.572766575576694, 17.97787006982945 ], [ 77.571908609366176, 17.978308640806691 ], [ 77.571151574621922, 17.978695611700498 ], [ 77.570885321361501, 17.978858329741879 ], [ 77.570248154275248, 17.979247725721301 ], [ 77.570091384104956, 17.979350740397226 ], [ 77.569568675204934, 17.979694210151365 ], [ 77.569169865192777, 17.979916019223324 ], [ 77.569157219879955, 17.979923051492126 ], [ 77.569180271229598, 17.979949427889828 ], [ 77.569100351062659, 17.980006775414818 ], [ 77.569079930434555, 17.979982064723902 ], [ 77.567580693195723, 17.978078027185056 ], [ 77.567139300484953, 17.97745776329365 ], [ 77.565722215694137, 17.975504552958771 ], [ 77.565246333799706, 17.974810108677744 ], [ 77.563998632855771, 17.972753563096745 ], [ 77.563849383865971, 17.972229128862793 ], [ 77.563431220310221, 17.971445993482213 ], [ 77.562810598330415, 17.970171292914241 ], [ 77.562584565682911, 17.969786801071951 ], [ 77.561973692515124, 17.969273627999467 ], [ 77.561237233802075, 17.968804785943412 ], [ 77.561003164790407, 17.968671392335285 ], [ 77.560265689491843, 17.968080812763038 ], [ 77.559825773444771, 17.967674378020302 ], [ 77.559339931890676, 17.967058239310756 ], [ 77.558599726890876, 17.966137066447111 ], [ 77.557983100428359, 17.965248269410782 ], [ 77.557434404961327, 17.964766745178043 ], [ 77.557493500642906, 17.96460446228523 ], [ 77.557923495012773, 17.963423641833934 ], [ 77.558009800316626, 17.963186634279857 ], [ 77.558639896215624, 17.961971239480071 ], [ 77.558643684092928, 17.961928514684821 ], [ 77.558649965723959, 17.96185765330906 ], [ 77.558761389674544, 17.960600730523019 ], [ 77.558831863316044, 17.959805734955236 ], [ 77.558868365838393, 17.959252179417213 ], [ 77.558855701135357, 17.958979717685427 ], [ 77.559133917289515, 17.958930543937768 ], [ 77.55905700159758, 17.957207724138282 ], [ 77.559586927612699, 17.957056513368805 ], [ 77.560486066767169, 17.956956273963137 ], [ 77.560731534379428, 17.956928907582668 ], [ 77.561678634502243, 17.95673651372433 ], [ 77.562562941026926, 17.95667268989321 ], [ 77.562615773138461, 17.956667895584363 ], [ 77.563485638100119, 17.956588946654598 ], [ 77.564056629233633, 17.956537120353946 ], [ 77.564860308079716, 17.956271686563593 ], [ 77.565015670401905, 17.956845273380544 ], [ 77.566598737426546, 17.956671162016612 ], [ 77.566649269034059, 17.956681678887765 ], [ 77.566715300869504, 17.956695422606714 ], [ 77.56860934346966, 17.957089631632901 ], [ 77.570212340174393, 17.957484806415575 ], [ 77.570346645026973, 17.957517916052364 ], [ 77.572078336220898, 17.957627692498335 ], [ 77.572149152542679, 17.957460213817516 ], [ 77.571662947582809, 17.956213991215773 ], [ 77.571479091602427, 17.955742733617267 ], [ 77.571312941841228, 17.955443839342426 ], [ 77.571054658512622, 17.954979200967973 ], [ 77.570973429436492, 17.954833072956308 ], [ 77.570823538103667, 17.954563421735134 ], [ 77.570642661613476, 17.95425144482688 ], [ 77.570532126501263, 17.954062610236594 ], [ 77.570050814091147, 17.953240357708218 ], [ 77.569335513024996, 17.951780658879933 ], [ 77.569248397099472, 17.951223711745076 ], [ 77.569176326202225, 17.950762941712519 ], [ 77.56900878749839, 17.949329823585344 ], [ 77.568948066029733, 17.948311029142793 ], [ 77.568911443473922, 17.947696565773434 ], [ 77.568948764990978, 17.946618692468501 ], [ 77.56895048469984, 17.94656901663113 ], [ 77.568951270141355, 17.94656414469906 ], [ 77.569055897968141, 17.945915012331273 ], [ 77.569052713000289, 17.945873890800165 ], [ 77.569062564970778, 17.945873648445041 ], [ 77.569206383045028, 17.945870115154417 ], [ 77.570774540270406, 17.945858911904871 ], [ 77.570830399213648, 17.945830211428461 ], [ 77.570919780020375, 17.945784286035146 ], [ 77.572107074962773, 17.945174235167777 ], [ 77.572944210039353, 17.944744096267922 ], [ 77.573234328070285, 17.944699607154426 ], [ 77.573447257222753, 17.944689572641472 ], [ 77.574356552600619, 17.944660789680256 ], [ 77.575701239491622, 17.944642075059942 ], [ 77.575859006560677, 17.944630162374434 ], [ 77.576379488986674, 17.944590861436811 ], [ 77.576887277100283, 17.944576675495842 ], [ 77.577220691669325, 17.944567360567948 ], [ 77.578055485851991, 17.944451986982038 ], [ 77.578136771833258, 17.944608778955818 ], [ 77.578200392988364, 17.944600230505429 ], [ 77.578230689760403, 17.944596159708588 ], [ 77.578927917825837, 17.944502463359569 ], [ 77.580055417316373, 17.944285830354026 ], [ 77.580128782522166, 17.944213882707384 ], [ 77.580581012257284, 17.944127959947178 ], [ 77.580604064732398, 17.94412612818482 ], [ 77.581458228633224, 17.944058292387638 ], [ 77.582374619086366, 17.94402556858206 ], [ 77.582905999189592, 17.943982594188071 ], [ 77.583216625000247, 17.944018791470331 ], [ 77.583674411979203, 17.944072135546353 ], [ 77.583803621877891, 17.944079838375959 ], [ 77.584344389620753, 17.944112076059096 ], [ 77.585275286396055, 17.944148132007726 ], [ 77.5853610252897, 17.944154909811854 ], [ 77.587050561152978, 17.944288462247439 ], [ 77.587170869377331, 17.944301395759656 ], [ 77.587163618787343, 17.944244602276736 ], [ 77.587852568275011, 17.944330407111035 ], [ 77.587778486761948, 17.942678129612862 ], [ 77.587955870915181, 17.941753190396241 ], [ 77.588323028811871, 17.940715854873464 ], [ 77.588453353857446, 17.940347648129464 ], [ 77.588569325022192, 17.940289322420412 ], [ 77.58859278468384, 17.940277522961821 ], [ 77.588339635502891, 17.93832212218074 ], [ 77.58831796662443, 17.937966121160645 ], [ 77.588308641153986, 17.937812915945603 ], [ 77.588298528455425, 17.937646775929881 ], [ 77.588287255821712, 17.937510836266767 ], [ 77.588208881754596, 17.936561557047984 ], [ 77.588127784616901, 17.93564278420406 ], [ 77.587968647751239, 17.933942205616134 ], [ 77.587963421077902, 17.933859682392278 ], [ 77.588899158620919, 17.933744444511415 ], [ 77.589014286484854, 17.933730266506299 ], [ 77.589197474994123, 17.9337077061864 ], [ 77.589485591787593, 17.933619126273896 ], [ 77.589423092818365, 17.933524184701145 ], [ 77.590008347902753, 17.933481776001845 ], [ 77.591411425828795, 17.933380096648634 ], [ 77.592119666458956, 17.933117227839112 ], [ 77.592961746056758, 17.932804679907012 ], [ 77.593311468206949, 17.93269735278718 ], [ 77.59351150443068, 17.932635961823561 ], [ 77.593684641660289, 17.932585420382885 ], [ 77.594575336945965, 17.932368600028639 ], [ 77.594638421914496, 17.932353242632527 ], [ 77.595303730586664, 17.932171612622831 ], [ 77.596218165298467, 17.931944641256823 ], [ 77.596826569153052, 17.931793628248638 ], [ 77.597167777402646, 17.931723313258964 ], [ 77.597321254725756, 17.931691684497377 ], [ 77.597605071367198, 17.931633194666844 ], [ 77.598376677439219, 17.931553847769525 ], [ 77.59842940401775, 17.931548425610991 ], [ 77.599191359802674, 17.931435390314121 ], [ 77.599710926247468, 17.931363366600262 ], [ 77.600073319097717, 17.931313130200394 ], [ 77.601022328541376, 17.931130757909123 ], [ 77.601059858980534, 17.931373577836521 ], [ 77.601122274879145, 17.931357902270005 ], [ 77.601126015479267, 17.931369057081472 ], [ 77.603024117481539, 17.930990814300202 ], [ 77.60300657972752, 17.930804484909675 ], [ 77.603067314075005, 17.93079507719294 ], [ 77.603056700820503, 17.930661946620123 ], [ 77.602711707241085, 17.929078178231158 ], [ 77.60268943590178, 17.928975931149175 ], [ 77.602468179073767, 17.926841470822009 ], [ 77.602440783317604, 17.926577179484479 ], [ 77.602371011832005, 17.925904082069884 ], [ 77.602360987864515, 17.925807375792285 ], [ 77.602352245186452, 17.925706414960572 ], [ 77.602283441485497, 17.924911722292016 ], [ 77.602258896986555, 17.924524901970127 ], [ 77.602188911345181, 17.924098470935476 ], [ 77.602200958745669, 17.923611814835454 ], [ 77.602210177452264, 17.923239352478905 ], [ 77.602170690962623, 17.921261461061906 ], [ 77.602168487058577, 17.921256158600997 ], [ 77.60164837334132, 17.920009792417325 ], [ 77.60163327105596, 17.919973597361384 ], [ 77.601764105727625, 17.919966299330731 ], [ 77.601897989202044, 17.919948456320306 ], [ 77.603747404941572, 17.919690150217903 ], [ 77.603772594105251, 17.919686629354835 ], [ 77.604168882101504, 17.91963128127659 ], [ 77.604600722223992, 17.919542031076151 ], [ 77.605150825355324, 17.919415580967286 ], [ 77.605506795283247, 17.919291169797191 ], [ 77.606014773876709, 17.919113625994552 ], [ 77.606037656758076, 17.919104720730086 ], [ 77.607161265751657, 17.918667655473502 ], [ 77.607271024079338, 17.918624949313227 ], [ 77.60733705356526, 17.9185992733982 ], [ 77.608396829446619, 17.918188553444544 ], [ 77.609634401805735, 17.917647631285451 ], [ 77.609744129861198, 17.917599667285277 ], [ 77.609888557109457, 17.917536551083437 ], [ 77.610547614341172, 17.917216912707296 ], [ 77.610713686348504, 17.917143078048365 ], [ 77.610845752963613, 17.917091764624725 ], [ 77.611459679821593, 17.916922720978153 ], [ 77.611561408013586, 17.916900313930011 ], [ 77.611628493925338, 17.916885535630506 ], [ 77.613229094812283, 17.916532950309783 ], [ 77.616225997126534, 17.915913153333367 ], [ 77.618154643189229, 17.915841327935887 ], [ 77.618630277595315, 17.915801465104447 ], [ 77.618637087005027, 17.9158008992618 ], [ 77.619002200004999, 17.915770292574237 ], [ 77.620824142905548, 17.915727690119482 ], [ 77.620878708311366, 17.915726415419027 ], [ 77.620840148408348, 17.916664708975578 ], [ 77.62055983069942, 17.918719074169292 ], [ 77.620399927172272, 17.92139802384585 ], [ 77.620469187019864, 17.922510195992825 ], [ 77.620760533892394, 17.92330951433075 ], [ 77.621109252720373, 17.92417812688495 ], [ 77.621227922877523, 17.924765198983138 ], [ 77.621917228722907, 17.927555640276147 ], [ 77.622230769620458, 17.928852484263572 ], [ 77.621321865755107, 17.931394077281528 ], [ 77.620278124867909, 17.93343013529843 ], [ 77.619937729628191, 17.934147167140871 ], [ 77.619600538379672, 17.935164729537767 ], [ 77.619523635157307, 17.935327995849939 ], [ 77.619364845025117, 17.935665113130195 ], [ 77.619206435011378, 17.935930461304508 ], [ 77.618954874675012, 17.93655434975917 ], [ 77.618100807848094, 17.938408763701382 ], [ 77.618795011262947, 17.939611840688194 ], [ 77.618961806051942, 17.939839002132892 ], [ 77.61902794736227, 17.939929080246269 ], [ 77.619270577785457, 17.940259518409 ], [ 77.619437209005241, 17.94045715467001 ], [ 77.620112961914373, 17.941269387655865 ], [ 77.620182840593131, 17.941457028032993 ], [ 77.620459142388711, 17.941925873856892 ], [ 77.621239980526042, 17.943250834212048 ], [ 77.621972587807093, 17.944732840583427 ], [ 77.622280996485259, 17.944957490366793 ], [ 77.62263410053383, 17.944977369059409 ], [ 77.623085584866033, 17.945491178866966 ], [ 77.624459779079132, 17.945291899546863 ], [ 77.624557003326544, 17.945412940278754 ], [ 77.624581262679044, 17.945617389294334 ], [ 77.624502909676991, 17.945767271485149 ], [ 77.624468706156264, 17.945832697158554 ], [ 77.624441597725763, 17.945884553628304 ], [ 77.624647823065914, 17.945843187263488 ], [ 77.625130303051137, 17.945725959714775 ], [ 77.627063923909077, 17.945589082114022 ], [ 77.628281891271442, 17.945834199959354 ], [ 77.628450879445126, 17.945855365451603 ], [ 77.628634582685834, 17.945878373445634 ], [ 77.629623292349279, 17.946002200711892 ], [ 77.629715107636216, 17.946013698779257 ], [ 77.629910722429784, 17.946038197736915 ], [ 77.631464639733892, 17.94636404674074 ], [ 77.632621188917255, 17.946573979373579 ], [ 77.632745677062687, 17.947291761072314 ], [ 77.632778725640918, 17.947688164376427 ], [ 77.632790292123332, 17.947826894739578 ], [ 77.632850807837144, 17.94855275223907 ], [ 77.63288844657643, 17.9486841101204 ], [ 77.633040125773377, 17.949440009392262 ], [ 77.632485718407239, 17.950465602331828 ], [ 77.632467162917607, 17.950929134131801 ], [ 77.632663780514648, 17.952332271372011 ], [ 77.63281239492899, 17.953295765569152 ], [ 77.632922103427006, 17.95400701409978 ], [ 77.633026723278221, 17.954897565056488 ], [ 77.633112850218581, 17.955630679971204 ], [ 77.633194956673222, 17.956409583559502 ], [ 77.632303937994124, 17.956913444475695 ], [ 77.63084738768589, 17.957673211448196 ], [ 77.630767221772416, 17.957711781204821 ], [ 77.629985413053561, 17.958087939661151 ], [ 77.628770757913685, 17.958472421298044 ], [ 77.627633757796289, 17.958658657475411 ], [ 77.626039317906532, 17.958919502128097 ], [ 77.625969457797808, 17.958933408877996 ], [ 77.625025767167699, 17.959121256636976 ], [ 77.624878901338349, 17.959168152752305 ], [ 77.624525088012064, 17.95928112728571 ], [ 77.625708308145462, 17.960011088811125 ], [ 77.626221634650364, 17.96064683825298 ], [ 77.626771407190148, 17.961319748668412 ], [ 77.627093901153188, 17.961608599801615 ], [ 77.628100801858636, 17.962412871634164 ], [ 77.628702304475198, 17.962902449957589 ], [ 77.629029461393984, 17.963258404104774 ], [ 77.629776182271499, 17.96408469017733 ], [ 77.630500750564522, 17.96493005180977 ], [ 77.630991188624321, 17.965609056038605 ], [ 77.631269365036516, 17.965831283464549 ], [ 77.632279655056848, 17.966654295471006 ], [ 77.632614481496759, 17.966926863834598 ], [ 77.633173048921222, 17.967556658661103 ], [ 77.633284656956704, 17.967678144902447 ], [ 77.63339170932457, 17.967794669940051 ], [ 77.633323557617757, 17.967675041090384 ], [ 77.633264474053632, 17.967027887773451 ], [ 77.633264200806295, 17.96632037173821 ], [ 77.633247728377711, 17.965578262406957 ], [ 77.633244081975135, 17.964819584204665 ], [ 77.633293971422702, 17.963864004691956 ], [ 77.633323586468833, 17.963591622855464 ], [ 77.633410632852602, 17.962699157023778 ], [ 77.633363017164029, 17.961598864317082 ], [ 77.633350111940487, 17.961002405324162 ], [ 77.633350216454659, 17.960435428064194 ], [ 77.633473543976763, 17.960372159696593 ], [ 77.634472097789498, 17.959859624143348 ], [ 77.634956414528574, 17.959604659626571 ], [ 77.635447514755469, 17.959338471343543 ], [ 77.635256212117, 17.958777459572971 ], [ 77.635051507412882, 17.957721629391262 ], [ 77.635346087767246, 17.957023129961623 ], [ 77.635726995045246, 17.956076935357924 ], [ 77.636729829869665, 17.953998255187727 ], [ 77.637019638554946, 17.953960706225189 ], [ 77.637104458608562, 17.95220421277747 ], [ 77.637595818202129, 17.952119296696001 ], [ 77.638931472933265, 17.952058440514119 ], [ 77.639279537582055, 17.952036437817995 ], [ 77.639673498956427, 17.951906070262588 ], [ 77.64067701951862, 17.951804066492617 ], [ 77.640667535075536, 17.952141088084606 ], [ 77.640797447611973, 17.95310422324086 ], [ 77.640828246824313, 17.953393601607345 ], [ 77.64084477178794, 17.953548873628961 ], [ 77.64093183700659, 17.953730753300587 ], [ 77.641645790077916, 17.953583675117535 ], [ 77.641926765154892, 17.953504967360395 ], [ 77.642352970411679, 17.953095293536844 ], [ 77.642717973985029, 17.952866960920371 ], [ 77.644035921403301, 17.952219492659907 ], [ 77.645091956103727, 17.9517157790035 ], [ 77.645536307025651, 17.951634079470242 ], [ 77.645582210606506, 17.951623188415564 ], [ 77.646406836895238, 17.95142753395886 ], [ 77.647034325105565, 17.95122292691325 ], [ 77.647498904516155, 17.951057316440103 ], [ 77.647810738561361, 17.950954695316288 ], [ 77.648976813467513, 17.950375687763362 ], [ 77.649269462266929, 17.950222470262819 ], [ 77.650464945664567, 17.949486768184379 ], [ 77.650617515045695, 17.95015479097906 ], [ 77.650957230946375, 17.952725968787433 ], [ 77.650615760513546, 17.955467607443232 ], [ 77.650928165803876, 17.958492470287943 ], [ 77.651519356179961, 17.960945364642271 ], [ 77.652297066580431, 17.962820644243713 ], [ 77.65406023423202, 17.965431194779796 ], [ 77.655757819393926, 17.968129821728063 ], [ 77.656318689246262, 17.969180840544944 ], [ 77.656418281443493, 17.969983955520497 ], [ 77.65540743321786, 17.971503323488822 ], [ 77.651206467677369, 17.975398246364769 ], [ 77.650141710828763, 17.97695798008743 ], [ 77.649732640655657, 17.977738133628353 ], [ 77.648768468516764, 17.979387698529482 ], [ 77.648738692171122, 17.979411024686385 ], [ 77.648765862902721, 17.979457192652003 ], [ 77.64843483226332, 17.981738784983609 ], [ 77.648538855859485, 17.982421312952884 ], [ 77.649982041114399, 17.984356893401355 ], [ 77.651619074012345, 17.985850244569441 ], [ 77.652153594666572, 17.987736092449673 ], [ 77.652430265933759, 17.9904830603496 ], [ 77.652768751416687, 17.991818267543312 ], [ 77.652849081946115, 17.995173430519323 ], [ 77.651292620261714, 17.997590678851417 ], [ 77.648608639516695, 18.000280252668496 ], [ 77.647128310802856, 18.000488321797995 ], [ 77.642992755939702, 17.998488323092673 ], [ 77.639396795375276, 17.997427171798414 ], [ 77.638166246526936, 17.997252908075701 ], [ 77.634831067080697, 17.997471538874152 ], [ 77.634244433073178, 17.997918761670103 ], [ 77.633309331719019, 17.998606353473846 ], [ 77.632524819844562, 17.998875166600129 ], [ 77.631887635542839, 17.998708560172901 ], [ 77.631189626771473, 17.998654886400619 ], [ 77.629901199719612, 17.998586447101868 ], [ 77.62911866227617, 17.998487774834029 ], [ 77.628645669433766, 17.99860596139068 ], [ 77.628564828387013, 17.998680920623922 ], [ 77.627622368793183, 17.997735874888765 ], [ 77.627548086934056, 17.997670012548365 ], [ 77.627136268472412, 17.996602248638386 ], [ 77.626303439751055, 17.996600249949395 ], [ 77.623127331957349, 18.002758214706208 ], [ 77.621914748682329, 18.003609070529873 ], [ 77.620599293860252, 18.004956696532691 ], [ 77.61991235799141, 18.005860689610291 ], [ 77.619634675230799, 18.006469979445509 ], [ 77.619317276598949, 18.006875842631736 ], [ 77.617751376329153, 18.007984645394288 ], [ 77.616579411400295, 18.008063746229599 ], [ 77.613553015335626, 18.008331088030392 ], [ 77.612977276203196, 18.00839852520744 ], [ 77.612554098212158, 18.008550466256693 ], [ 77.610644465179035, 18.008781922109687 ], [ 77.610254776508441, 18.009053141483314 ], [ 77.609692141397645, 18.009189430916702 ], [ 77.6085438881248, 18.009959889853633 ], [ 77.60819336576823, 18.009745815062431 ], [ 77.607446055413774, 18.010416098955247 ], [ 77.607121490739345, 18.012155756775766 ], [ 77.607442088054171, 18.015839298380875 ], [ 77.606816312220118, 18.017624899242566 ], [ 77.604322901420829, 18.019876429246533 ], [ 77.60296497812331, 18.020452569068773 ], [ 77.602956566737063, 18.020830980324831 ], [ 77.600287495330747, 18.021107033593239 ], [ 77.599710451348713, 18.020018315441593 ], [ 77.599629589920326, 18.018321085178528 ], [ 77.599866520431874, 18.018230118704441 ], [ 77.599269049651639, 18.017480569589448 ], [ 77.598927157290092, 18.016725783463883 ], [ 77.598101592394045, 18.015643795595896 ], [ 77.597604589428457, 18.014972570504042 ], [ 77.596127060565095, 18.013658364725337 ], [ 77.593407711353038, 18.012580800551799 ], [ 77.592157344519833, 18.012514787285657 ], [ 77.590348640663834, 18.012602876357771 ], [ 77.587451207474899, 18.014186074626604 ], [ 77.586348862003845, 18.015340134397157 ], [ 77.585716063083893, 18.017883643985726 ], [ 77.585441980255723, 18.019122562565663 ], [ 77.585330627840477, 18.019032583339648 ], [ 77.585307771028042, 18.019190977863005 ], [ 77.584876899064739, 18.020669048702413 ], [ 77.58483073801635, 18.021346330470582 ], [ 77.584714525637821, 18.023051377361853 ], [ 77.584536027199704, 18.02319906082883 ], [ 77.58469367779044, 18.026284716454473 ], [ 77.584286232987353, 18.027867624910176 ], [ 77.582986396745028, 18.029447806299974 ], [ 77.581457394793034, 18.030876031393507 ], [ 77.580829793650096, 18.031820210861273 ], [ 77.580137979183746, 18.032495790646099 ], [ 77.578185851693732, 18.033250647142886 ], [ 77.577475606172143, 18.033362889306858 ], [ 77.575513561319283, 18.033356087799145 ], [ 77.573175713776038, 18.032871836600158 ], [ 77.571867580936186, 18.033217279211499 ], [ 77.571011897006059, 18.033701791558268 ], [ 77.566442547468327, 18.035341569192653 ], [ 77.562723380621478, 18.03646686616538 ], [ 77.560852164462077, 18.036781747892842 ], [ 77.557395260780723, 18.037187551368792 ], [ 77.554793928169389, 18.037302678375369 ], [ 77.553603016802953, 18.037224828020779 ], [ 77.553476517509267, 18.037122432325678 ], [ 77.553160479067316, 18.036866610118246 ], [ 77.550009479560956, 18.036180262527186 ], [ 77.5489244980987, 18.03620463915826 ], [ 77.547032924570942, 18.036238465919141 ], [ 77.546610778169793, 18.0364555941016 ], [ 77.546487852564809, 18.036177827073733 ], [ 77.54419147266178, 18.036852888449356 ], [ 77.542781228596766, 18.037915937986099 ], [ 77.542682476702225, 18.038008954160517 ], [ 77.541216208806901, 18.039389996026941 ], [ 77.540145572994575, 18.040216640700041 ], [ 77.538041521205216, 18.040882102639181 ], [ 77.534989926464348, 18.041024539602681 ], [ 77.53337957976332, 18.041052368322323 ], [ 77.531694205307346, 18.041531132788549 ], [ 77.529958575209321, 18.042353327647884 ], [ 77.526534488482511, 18.044197205776008 ], [ 77.524888842177745, 18.045075317668942 ], [ 77.522956610282634, 18.045609881452158 ], [ 77.521668223355576, 18.045931374026619 ], [ 77.520798974681369, 18.04652293668757 ], [ 77.520644726454364, 18.046627906126691 ], [ 77.518741301127292, 18.048239807372763 ], [ 77.516845338295269, 18.051012887335137 ], [ 77.515305084633297, 18.052988762708654 ], [ 77.514185778462405, 18.055799077889699 ], [ 77.513417575165917, 18.057090387917537 ], [ 77.512169285033252, 18.057653703834763 ], [ 77.510538328452682, 18.058352261307284 ], [ 77.508431717541811, 18.059013255076358 ], [ 77.506340953809499, 18.059586058088275 ], [ 77.505170304205606, 18.059998467183554 ], [ 77.502277769601406, 18.059822484685888 ], [ 77.501060341506246, 18.060109193005125 ], [ 77.500016042368159, 18.060365500190326 ], [ 77.498664339418596, 18.060292271454092 ], [ 77.498040507210646, 18.060064562342273 ], [ 77.496868575070323, 18.058345230816133 ], [ 77.497200502276513, 18.057246482497415 ], [ 77.497253525514353, 18.054351126298833 ], [ 77.498438334152254, 18.051692980934742 ], [ 77.498749024914702, 18.050574173578543 ], [ 77.499094887678297, 18.049172099121652 ], [ 77.499228838314338, 18.04862907359162 ], [ 77.49943527406289, 18.048175060542377 ], [ 77.500638215771218, 18.046230721690744 ], [ 77.500694057739821, 18.043750002333955 ], [ 77.500054793189108, 18.0423422253923 ], [ 77.496807763380573, 18.040839963361432 ], [ 77.494995053883926, 18.03961712239547 ], [ 77.492100513670636, 18.03720828288586 ], [ 77.490379075001684, 18.034545958978494 ], [ 77.489417468705625, 18.031975170188417 ], [ 77.488296599168933, 18.029131208243925 ], [ 77.487657298815307, 18.027765002988307 ], [ 77.486684990123194, 18.025687095539606 ], [ 77.485886974073296, 18.024060907753142 ], [ 77.484432512668008, 18.0228221939179 ], [ 77.482839978941868, 18.022406492528589 ], [ 77.482280090320913, 18.022204143015912 ], [ 77.48072348230113, 18.02295304895766 ], [ 77.477842469600162, 18.024942858022492 ], [ 77.475333717153163, 18.026916805399402 ], [ 77.473103007805349, 18.02984842334234 ], [ 77.472889685028122, 18.030096305074895 ], [ 77.471987301457034, 18.032417392711185 ], [ 77.471509024449162, 18.033831614447855 ], [ 77.469861915097169, 18.03618431954138 ], [ 77.467449725013097, 18.037595767375404 ], [ 77.466295201011121, 18.037937874596203 ], [ 77.464303925491777, 18.038388257765998 ], [ 77.461519608661462, 18.03894977651483 ], [ 77.458392348179387, 18.039419607086675 ], [ 77.456795584382874, 18.039568904987714 ], [ 77.45468018508204, 18.04022016540755 ], [ 77.453345104717485, 18.040508339652561 ], [ 77.451543886100524, 18.041890816500338 ], [ 77.450330763104844, 18.043472752870333 ], [ 77.449552759223394, 18.045333240895484 ], [ 77.448743298331706, 18.047848439666783 ], [ 77.447465037661047, 18.049882696615292 ], [ 77.44575664360481, 18.052078091484418 ], [ 77.443858609265476, 18.054064055065329 ], [ 77.444184291384971, 18.054386280199605 ], [ 77.444332031473962, 18.054531303615018 ], [ 77.444497922336296, 18.054694138390833 ], [ 77.444590666378545, 18.054785174855386 ], [ 77.444943991107394, 18.054458603507619 ], [ 77.44501637970906, 18.054529219798859 ], [ 77.445065430211542, 18.054580994713081 ], [ 77.443382109689779, 18.056397804845147 ], [ 77.442715013600491, 18.060188954708138 ], [ 77.44323403215256, 18.061749342820935 ], [ 77.446001010184261, 18.065092045203428 ], [ 77.446345063783184, 18.067812676154844 ], [ 77.446067589215929, 18.067784925097612 ], [ 77.445464044646272, 18.067785408284916 ], [ 77.445084326208274, 18.069254786672033 ] ], [ [ 77.512854351786132, 17.995687742732372 ], [ 77.512367070342734, 17.996484913141114 ], [ 77.512807963236384, 17.996744079324049 ], [ 77.513309673902683, 17.99693096039471 ], [ 77.513609249788416, 17.997448011112613 ], [ 77.513691577648984, 17.997590102714007 ], [ 77.513711306920229, 17.997634685617573 ], [ 77.514134922854311, 17.997645517728323 ], [ 77.514571129634106, 17.997759363696051 ], [ 77.514770211590388, 17.997714204893882 ], [ 77.5147897010213, 17.997662258833277 ], [ 77.514819934273675, 17.99758168052244 ], [ 77.515178672911389, 17.996625522830154 ], [ 77.515903566116179, 17.996204819239733 ], [ 77.517468873888546, 17.996140003988835 ], [ 77.517404795518473, 17.995738675097794 ], [ 77.51733737907341, 17.99529817548337 ], [ 77.517238320191325, 17.994440235575155 ], [ 77.517043428865477, 17.993584769019655 ], [ 77.51691043768362, 17.993000999286043 ], [ 77.516890445997859, 17.993006174004218 ], [ 77.515575897381879, 17.993236344351743 ], [ 77.514544042637425, 17.993788654562152 ], [ 77.514198268563675, 17.994545783219863 ], [ 77.514116606400819, 17.995695750336417 ], [ 77.513324581418516, 17.995367381996353 ], [ 77.513053081604056, 17.995354547722844 ], [ 77.512854351786132, 17.995687742732372 ] ] ] } }
]
}
