{
"type": "FeatureCollection",
"name": "villages_in_police_area.writing_20260805_172659",
"crs": { "type": "name", "properties": { "name": "urn:ogc:def:crs:OGC:1.3:CRS84" } },
"features": [
{ "type": "Feature", "properties": { "OBJECTID": 26321, "KGISVillageID": 1118, "KGISVillageCode": "0112030006", "KGISVillageName": "Yaranala", "KGISHobliID": 791, "UniqueVillageCode": "0112030006_1", "Bhucode": "010101003032", "CensusVillageCode": "2955505433597142", "BhoomiVillageCode": "0112030006", "created_user": "SA", "created_date": 1556019584000.0, "last_edited_user": "SURESHBV2", "last_edited_date": 1724225561000.0, "LGDGPCode": "215840", "LGDGPCode_Secondary": null, "Category": "Cadastral data available and has bhoomi linkage", "SHAPE.STArea()": 7311318.5179837951, "SHAPE.STLength()": 11271.899909542199, "LGD_VillageCode": 597142.0, "_overlap_percent": 99.457842532715119, "_police_station": "Nippani Town PS", "_police_feature_index": "361", "_admin_layer": "Village", "_geometry_clipped": true }, "geometry": { "type": "Polygon", "coordinates": [ [ [ 74.376434327231252, 16.360243445880528 ], [ 74.37645435469436, 16.360338998244 ], [ 74.376455861788301, 16.360346186516839 ], [ 74.376530660129703, 16.360703046602666 ], [ 74.376533811746611, 16.360718081640535 ], [ 74.3765357818463, 16.360727482382032 ], [ 74.376549658306544, 16.360793408053091 ], [ 74.376550592518626, 16.360826802391134 ], [ 74.376550713655618, 16.360831114663991 ], [ 74.376551603318177, 16.360862910659485 ], [ 74.376553991451246, 16.360948260183957 ], [ 74.376554453069986, 16.360964768859755 ], [ 74.376557820006639, 16.361085098407766 ], [ 74.376549128409309, 16.361568400297465 ], [ 74.376546782585393, 16.361698860845525 ], [ 74.376547962196966, 16.361875545237826 ], [ 74.376548322558676, 16.361929547376533 ], [ 74.376548974179528, 16.362027172120513 ], [ 74.376574611126372, 16.362381400752277 ], [ 74.376608130644698, 16.362844551569566 ], [ 74.376634848552897, 16.363027344584467 ], [ 74.376636063717768, 16.363035656523738 ], [ 74.376702046293474, 16.363487077702235 ], [ 74.376726915958798, 16.363657220567585 ], [ 74.376730072091789, 16.363693855858802 ], [ 74.376731514986304, 16.363710954107525 ], [ 74.376735226032409, 16.363747101995408 ], [ 74.376814548720745, 16.364519769389275 ], [ 74.376820579428909, 16.364578515126304 ], [ 74.376861815422799, 16.364980185604459 ], [ 74.376914971597529, 16.365566927527599 ], [ 74.376915139848123, 16.365568788385175 ], [ 74.376917414100774, 16.365593890987551 ], [ 74.376929934590152, 16.365721655558971 ], [ 74.376937148870027, 16.365789548394776 ], [ 74.377024992636436, 16.366616186732269 ], [ 74.377027162851988, 16.366636608294055 ], [ 74.377117561127378, 16.367487286915885 ], [ 74.377126805363076, 16.367571744569133 ], [ 74.377134947646368, 16.36764613512241 ], [ 74.377168536001903, 16.367953003044967 ], [ 74.377266965639492, 16.368584031921106 ], [ 74.377267122566053, 16.368585036689986 ], [ 74.37728546874294, 16.368702656073989 ], [ 74.377292649899061, 16.368754194258468 ], [ 74.377302018580707, 16.368821303375583 ], [ 74.377383848474892, 16.369407476267572 ], [ 74.377420100704782, 16.369799548857653 ], [ 74.377424584595261, 16.36984804445051 ], [ 74.377430210057867, 16.36990888615146 ], [ 74.37744359116958, 16.370053598021343 ], [ 74.377461679343398, 16.370249370687272 ], [ 74.377467689438717, 16.370314416054295 ], [ 74.377491262710649, 16.370569548398684 ], [ 74.377539885898855, 16.371095795909842 ], [ 74.377548820380611, 16.37119268845159 ], [ 74.377549658626549, 16.371201773965389 ], [ 74.377571688773642, 16.37193726032605 ], [ 74.377571779409166, 16.371940272603659 ], [ 74.377571840898625, 16.37197195674052 ], [ 74.377571841585507, 16.371972035387461 ], [ 74.377573511599593, 16.372827940075663 ], [ 74.377573084774426, 16.372919102720033 ], [ 74.377571701304475, 16.373214428315247 ], [ 74.377591136966615, 16.373471380697133 ], [ 74.377592306066617, 16.373486862735163 ], [ 74.377593132786672, 16.373497813091593 ], [ 74.377614058680891, 16.373774997882045 ], [ 74.37765624847313, 16.374333845775048 ], [ 74.377664812268677, 16.374447278835515 ], [ 74.377683860211761, 16.37469958547225 ], [ 74.377689494534451, 16.374774217146488 ], [ 74.377694577991363, 16.37484155762402 ], [ 74.377719183077332, 16.375163035750433 ], [ 74.377729527399467, 16.375298180958051 ], [ 74.37778892034801, 16.376074168424044 ], [ 74.377825857268533, 16.376375733377905 ], [ 74.377842128649405, 16.37649946907743 ], [ 74.377908294180273, 16.377002622137073 ], [ 74.378031651851586, 16.377887533617983 ], [ 74.378031003827388, 16.377952221177907 ], [ 74.37803042860989, 16.378009598595419 ], [ 74.378026664881915, 16.378441457186284 ], [ 74.378012545521898, 16.37856120334526 ], [ 74.377987401392033, 16.378774454590946 ], [ 74.377974579919837, 16.379526031067797 ], [ 74.377973634067246, 16.379606961063775 ], [ 74.377967790124174, 16.380107081689633 ], [ 74.377974148036742, 16.38020369805815 ], [ 74.37797890327019, 16.380275968654633 ], [ 74.377983965399295, 16.380355697859297 ], [ 74.37798458987703, 16.380422160029603 ], [ 74.37879165967135, 16.380551394462831 ], [ 74.37896302471222, 16.380578834748199 ], [ 74.379107530968042, 16.380599202588634 ], [ 74.379479778070703, 16.380626397061235 ], [ 74.380136599347864, 16.380669533615478 ], [ 74.380236597028869, 16.380675618023609 ], [ 74.380248711718878, 16.380676355177322 ], [ 74.380312711738327, 16.380680248993656 ], [ 74.380335714449757, 16.380681718775701 ], [ 74.380674306560564, 16.380703349388117 ], [ 74.381061696936769, 16.380728097026424 ], [ 74.381551334919607, 16.380759375488033 ], [ 74.381594157269305, 16.38076211107396 ], [ 74.382375160803136, 16.380812000195608 ], [ 74.382388299614448, 16.380812839668376 ], [ 74.382671148294975, 16.380830906379057 ], [ 74.382694336932104, 16.38083222548768 ], [ 74.382795750705085, 16.380837996450879 ], [ 74.382935300477811, 16.380851471589544 ], [ 74.383039118385469, 16.380858315259552 ], [ 74.383053069008568, 16.380859172438381 ], [ 74.38458311378902, 16.380953163028181 ], [ 74.384650049902689, 16.380957274740695 ], [ 74.385845535527665, 16.38103070590352 ], [ 74.385879992261053, 16.38103252580089 ], [ 74.387106408396377, 16.381097281571034 ], [ 74.387129066555332, 16.381098477516478 ], [ 74.387145121986379, 16.381096724479967 ], [ 74.388104559063009, 16.380991967147036 ], [ 74.388159180399512, 16.3809859591099 ], [ 74.389149450275582, 16.38087703526929 ], [ 74.389697664797652, 16.380816414042467 ], [ 74.389720568752026, 16.380815053102843 ], [ 74.389926491741662, 16.380802812956926 ], [ 74.389961847120063, 16.380802628891502 ], [ 74.390519593316569, 16.380799722415126 ], [ 74.390567534175048, 16.380799464413315 ], [ 74.391178323177741, 16.380796174644388 ], [ 74.391198247155131, 16.380796732177171 ], [ 74.391318984827464, 16.380800112426098 ], [ 74.391420110320908, 16.380802944133276 ], [ 74.391438403289825, 16.380803436360985 ], [ 74.392339755192125, 16.380827683708119 ], [ 74.394127195658726, 16.380858017359021 ], [ 74.394252759811309, 16.38086014788599 ], [ 74.395003243083295, 16.380872878647679 ], [ 74.395022859201347, 16.380873982737338 ], [ 74.395131328324496, 16.380880088053257 ], [ 74.39516112739112, 16.38083488047274 ], [ 74.39525255192811, 16.380696185522947 ], [ 74.395295957768695, 16.380630336984868 ], [ 74.395322862848985, 16.380589519762339 ], [ 74.395849163511372, 16.379791088861857 ], [ 74.395864864434557, 16.379767269219698 ], [ 74.396051738889597, 16.379483766657014 ], [ 74.396192211726444, 16.379247973213662 ], [ 74.39623063488142, 16.379183476052674 ], [ 74.39676032173206, 16.378356629733144 ], [ 74.396801822591087, 16.378295736347994 ], [ 74.396905912030817, 16.378119952765861 ], [ 74.396908198663709, 16.378115090553198 ], [ 74.396926805583476, 16.378075528430539 ], [ 74.397034455235428, 16.377846645120016 ], [ 74.397132972289725, 16.377637178101889 ], [ 74.397316409902743, 16.377006570050693 ], [ 74.397325190417732, 16.376976386426445 ], [ 74.397547428065238, 16.376272445483007 ], [ 74.397817373396137, 16.375771692483589 ], [ 74.397844835521198, 16.37572074933426 ], [ 74.398056498026079, 16.375328110028718 ], [ 74.398310276450815, 16.374789977103575 ], [ 74.398415969577769, 16.374495038953317 ], [ 74.398424183494754, 16.374472118833136 ], [ 74.398539401051877, 16.374150602253039 ], [ 74.398830503491482, 16.373421613882005 ], [ 74.398854279584242, 16.373362073259816 ], [ 74.398881739510287, 16.373293305509581 ], [ 74.39916863881777, 16.372545038274726 ], [ 74.399174498565586, 16.372529754442972 ], [ 74.399137151104611, 16.37252535582147 ], [ 74.39912063585318, 16.372523410355665 ], [ 74.398843646692441, 16.372490559533709 ], [ 74.398826269410222, 16.372488498587682 ], [ 74.39865610134035, 16.372400146984695 ], [ 74.398643300084075, 16.372393500611402 ], [ 74.398607409598426, 16.372369564090217 ], [ 74.398490028297886, 16.37229127875095 ], [ 74.397743705420382, 16.371793527929672 ], [ 74.397668579951315, 16.37176435171817 ], [ 74.397768942343689, 16.371278154288557 ], [ 74.397779874861513, 16.371225193179331 ], [ 74.397955582243497, 16.370373991954356 ], [ 74.397959075253468, 16.370357070629783 ], [ 74.39792864087039, 16.37001708819961 ], [ 74.397922537165329, 16.369948903457981 ], [ 74.39788226657079, 16.369499033706898 ], [ 74.397857275197012, 16.369219848688982 ], [ 74.397854863340385, 16.369145628763146 ], [ 74.397671182238767, 16.369107978402365 ], [ 74.397587496385768, 16.369090824876295 ], [ 74.397389776211583, 16.369050296556001 ], [ 74.397341104612693, 16.369040320292363 ], [ 74.397188013871855, 16.369021671677167 ], [ 74.397134683065374, 16.368787629155008 ], [ 74.397211824304335, 16.367842363157617 ], [ 74.39721695374277, 16.367779502370624 ], [ 74.397232341967396, 16.367590941701003 ], [ 74.39724223594412, 16.367469998354323 ], [ 74.397307745816434, 16.366557935970704 ], [ 74.39729202607289, 16.366488582872925 ], [ 74.39709286029327, 16.365609900329037 ], [ 74.397068426498208, 16.365510593702055 ], [ 74.39755248678685, 16.364796948366937 ], [ 74.397581646716603, 16.36475395769714 ], [ 74.397687553339281, 16.364597819878327 ], [ 74.398290124628488, 16.363689392686048 ], [ 74.398347471490325, 16.363602937362163 ], [ 74.39844662245541, 16.363452231643254 ], [ 74.398852265795952, 16.362835665689083 ], [ 74.399108430659254, 16.362410242391444 ], [ 74.399181553353429, 16.362289013657332 ], [ 74.399622682096179, 16.361558460058728 ], [ 74.399637717130815, 16.361538640006888 ], [ 74.400038138638223, 16.361010539702999 ], [ 74.400208169752872, 16.360751155474485 ], [ 74.400251033278266, 16.360685765990411 ], [ 74.400461653561237, 16.360364460414871 ], [ 74.400709034850991, 16.360125214787299 ], [ 74.40081738937802, 16.360010553515348 ], [ 74.400837909202806, 16.359988839784322 ], [ 74.4009492201494, 16.359871813928066 ], [ 74.400957609184147, 16.359862994253906 ], [ 74.401369619137895, 16.359429391538573 ], [ 74.401326219257498, 16.35932171851821 ], [ 74.401060353976689, 16.358656309798661 ], [ 74.400744847368927, 16.357865311286073 ], [ 74.400726023903488, 16.357818120288421 ], [ 74.400597669083496, 16.357496323713747 ], [ 74.400567326944639, 16.357420142192758 ], [ 74.399299584511382, 16.356223989959261 ], [ 74.39921910610677, 16.35562578146741 ], [ 74.399189974248188, 16.35540915536053 ], [ 74.399267414453192, 16.355173316380977 ], [ 74.399292372193045, 16.355097310397205 ], [ 74.399389549172469, 16.354801366668497 ], [ 74.399693693094179, 16.354222265655807 ], [ 74.399837462098716, 16.3539486007138 ], [ 74.399881447390882, 16.35386492531158 ], [ 74.400112806222737, 16.353568549632683 ], [ 74.400203102354439, 16.353452930424389 ], [ 74.400096568657204, 16.353424054550576 ], [ 74.399998515255191, 16.353397488000628 ], [ 74.399836203355832, 16.353353531375618 ], [ 74.399824461637692, 16.353351053606243 ], [ 74.399754834731908, 16.353336358363663 ], [ 74.399708260855348, 16.353326528836945 ], [ 74.399546390027211, 16.353292389449962 ], [ 74.39943301961199, 16.353268496333325 ], [ 74.399387686109435, 16.353246794828085 ], [ 74.39921600040033, 16.353164608378773 ], [ 74.399096611812794, 16.353116511330594 ], [ 74.398868539724049, 16.353024630131454 ], [ 74.39905249001383, 16.353136102000413 ], [ 74.399115350388172, 16.35331670623582 ], [ 74.399169636913086, 16.353472677258939 ], [ 74.39904821732226, 16.353549175683611 ], [ 74.398988368654074, 16.353586881326763 ], [ 74.397980356566791, 16.353088274105179 ], [ 74.39769336772622, 16.35294631476588 ], [ 74.397664833212971, 16.352932200005245 ], [ 74.396193297312109, 16.352204296384581 ], [ 74.396136267996155, 16.352176085561624 ], [ 74.394121115420035, 16.351179253709336 ], [ 74.392986687825925, 16.350616969395318 ], [ 74.390363547758056, 16.349316746298452 ], [ 74.39036320694261, 16.349316594409764 ], [ 74.389051213167221, 16.348731850158195 ], [ 74.388467552249239, 16.348471714290074 ], [ 74.388467552011292, 16.348471714184019 ], [ 74.387702528892589, 16.349182483921862 ], [ 74.387506452466425, 16.349290416581844 ], [ 74.387506450464556, 16.349290418471664 ], [ 74.387434972657132, 16.349357895370414 ], [ 74.386826895041324, 16.349664488067582 ], [ 74.386826877453601, 16.34966449693523 ], [ 74.386534359961942, 16.349825516755836 ], [ 74.386205531231255, 16.350058848051685 ], [ 74.38494955355516, 16.350503353384976 ], [ 74.384993842344642, 16.350678324359027 ], [ 74.385158061203654, 16.351273114053086 ], [ 74.385240148303637, 16.351570426073195 ], [ 74.38516675551503, 16.351594704995314 ], [ 74.384915416845558, 16.3516778526267 ], [ 74.384925868591466, 16.351828814019147 ], [ 74.384341765762201, 16.35199524298168 ], [ 74.384116061241784, 16.352059552608743 ], [ 74.383884828144829, 16.352049509762249 ], [ 74.383884825147092, 16.352049510798913 ], [ 74.383759904362151, 16.352092709582614 ], [ 74.382335877766394, 16.352078538004726 ], [ 74.381643438078456, 16.351802553322816 ], [ 74.381515661831742, 16.351751624986328 ], [ 74.381515657959838, 16.351751623443089 ], [ 74.381428591643029, 16.351727722609841 ], [ 74.381406256746033, 16.351721591444775 ], [ 74.380860426148757, 16.351653631320374 ], [ 74.380860425883625, 16.351653631330532 ], [ 74.380664858035473, 16.351661121940435 ], [ 74.380570685499009, 16.351740383449012 ], [ 74.38038634239588, 16.351895539018049 ], [ 74.380292740684496, 16.351918616004237 ], [ 74.380017977149222, 16.351986358471937 ], [ 74.379933014429753, 16.352007304746465 ], [ 74.379996091466538, 16.353056415036463 ], [ 74.380018614657118, 16.353431040683276 ], [ 74.380026205457611, 16.353557287457424 ], [ 74.379987789152324, 16.353597987623907 ], [ 74.379893290837146, 16.353698103201985 ], [ 74.379873976508762, 16.353718564600364 ], [ 74.379822752177091, 16.353772833548469 ], [ 74.379804813129198, 16.35379183998522 ], [ 74.379732049863335, 16.353868928527934 ], [ 74.378687713711997, 16.354975329732028 ], [ 74.378755416734336, 16.355627286147524 ], [ 74.378716292819576, 16.355931168249047 ], [ 74.378688147822231, 16.35719816415294 ], [ 74.378688147830871, 16.357198164392859 ], [ 74.378709331990947, 16.357786398578032 ], [ 74.378710720796889, 16.357923942883776 ], [ 74.378184034763862, 16.358489561737205 ], [ 74.378183965453132, 16.358489636170809 ], [ 74.377405368970528, 16.359355422680434 ], [ 74.376884049960438, 16.359935111394368 ], [ 74.376430766051783, 16.360223822908775 ], [ 74.376434324965956, 16.360243435073158 ], [ 74.376434327231252, 16.360243445880528 ] ] ] } },
{ "type": "Feature", "properties": { "OBJECTID": 26301, "KGISVillageID": 1098, "KGISVillageCode": "0112030005", "KGISVillageName": "Gavhana", "KGISHobliID": 791, "UniqueVillageCode": "0112030005_1", "Bhucode": "010101003010", "CensusVillageCode": "2955505433597145", "BhoomiVillageCode": "0112030005", "created_user": "SA", "created_date": 1556019584000.0, "last_edited_user": "SURESHBV2", "last_edited_date": 1724225543000.0, "LGDGPCode": "215840", "LGDGPCode_Secondary": null, "Category": "Cadastral data available and has bhoomi linkage", "SHAPE.STArea()": 4958316.0528151346, "SHAPE.STLength()": 10098.780303866775, "LGD_VillageCode": 597145.0, "_overlap_percent": 99.775944034967878, "_police_station": "Nippani Town PS", "_police_feature_index": "361", "_admin_layer": "Village", "_geometry_clipped": true }, "geometry": { "type": "Polygon", "coordinates": [ [ [ 74.401369619137895, 16.359429391538573 ], [ 74.400957609184147, 16.359862994253906 ], [ 74.4009492201494, 16.359871813928066 ], [ 74.400837909202806, 16.359988839784322 ], [ 74.40081738937802, 16.360010553515348 ], [ 74.400709034850991, 16.360125214787299 ], [ 74.400461653561237, 16.360364460414871 ], [ 74.400251033278266, 16.360685765990411 ], [ 74.400208169752872, 16.360751155474485 ], [ 74.400038138638223, 16.361010539702999 ], [ 74.399637717130815, 16.361538640006888 ], [ 74.399622682096179, 16.361558460058728 ], [ 74.399181553353429, 16.362289013657332 ], [ 74.399108430659254, 16.362410242391444 ], [ 74.398852265795952, 16.362835665689083 ], [ 74.39844662245541, 16.363452231643254 ], [ 74.398347471490325, 16.363602937362163 ], [ 74.398290124628488, 16.363689392686048 ], [ 74.397687553339281, 16.364597819878327 ], [ 74.397581646716603, 16.36475395769714 ], [ 74.39755248678685, 16.364796948366937 ], [ 74.397068426498208, 16.365510593702055 ], [ 74.39709286029327, 16.365609900329037 ], [ 74.39729202607289, 16.366488582872925 ], [ 74.397307745816434, 16.366557935970704 ], [ 74.39724223594412, 16.367469998354323 ], [ 74.397232341967396, 16.367590941701003 ], [ 74.39721695374277, 16.367779502370624 ], [ 74.397211824304335, 16.367842363157617 ], [ 74.397134683065374, 16.368787629155008 ], [ 74.397188013871855, 16.369021671677167 ], [ 74.397341104612693, 16.369040320292363 ], [ 74.397389776211583, 16.369050296556001 ], [ 74.397587496385768, 16.369090824876295 ], [ 74.397671182238767, 16.369107978402365 ], [ 74.397854863340385, 16.369145628763146 ], [ 74.397857275197012, 16.369219848688982 ], [ 74.39788226657079, 16.369499033706898 ], [ 74.397922537165329, 16.369948903457981 ], [ 74.39792864087039, 16.37001708819961 ], [ 74.397959075253468, 16.370357070629783 ], [ 74.397955582243497, 16.370373991954356 ], [ 74.397779874861513, 16.371225193179331 ], [ 74.397768942343689, 16.371278154288557 ], [ 74.397668579951315, 16.37176435171817 ], [ 74.397743705420382, 16.371793527929672 ], [ 74.398490028297886, 16.37229127875095 ], [ 74.398607409598426, 16.372369564090217 ], [ 74.398643300084075, 16.372393500611402 ], [ 74.39865610134035, 16.372400146984695 ], [ 74.398826269410222, 16.372488498587682 ], [ 74.398843646692441, 16.372490559533709 ], [ 74.39912063585318, 16.372523410355665 ], [ 74.399137151104611, 16.37252535582147 ], [ 74.399174498565586, 16.372529754442972 ], [ 74.39916863881777, 16.372545038274726 ], [ 74.398881739510287, 16.373293305509581 ], [ 74.398854279584242, 16.373362073259816 ], [ 74.398830503491482, 16.373421613882005 ], [ 74.398539401051877, 16.374150602253039 ], [ 74.398424183494754, 16.374472118833136 ], [ 74.398415969577769, 16.374495038953317 ], [ 74.398310276450815, 16.374789977103575 ], [ 74.398056498026079, 16.375328110028718 ], [ 74.397844835521198, 16.37572074933426 ], [ 74.397817373396137, 16.375771692483589 ], [ 74.397547428065238, 16.376272445483007 ], [ 74.397325190417732, 16.376976386426445 ], [ 74.397316409902743, 16.377006570050693 ], [ 74.397132972289725, 16.377637178101889 ], [ 74.397034455235428, 16.377846645120016 ], [ 74.396926805583476, 16.378075528430539 ], [ 74.396908198663709, 16.378115090553198 ], [ 74.396905912030817, 16.378119952765861 ], [ 74.396801822591087, 16.378295736347994 ], [ 74.39676032173206, 16.378356629733144 ], [ 74.39623063488142, 16.379183476052674 ], [ 74.396192211726444, 16.379247973213662 ], [ 74.396051738889597, 16.379483766657014 ], [ 74.395864864434557, 16.379767269219698 ], [ 74.395849163511372, 16.379791088861857 ], [ 74.395322862848985, 16.380589519762339 ], [ 74.395295957768695, 16.380630336984868 ], [ 74.39525255192811, 16.380696185522947 ], [ 74.39516112739112, 16.38083488047274 ], [ 74.395131328324496, 16.380880088053257 ], [ 74.395293832621036, 16.380963330356277 ], [ 74.395408500959817, 16.380964524016306 ], [ 74.395479562378156, 16.380965261500727 ], [ 74.395528663018339, 16.380965771360628 ], [ 74.395601984930039, 16.380975012579899 ], [ 74.395631080810801, 16.380978679464782 ], [ 74.395714559711649, 16.380989200000144 ], [ 74.39668262663622, 16.38111120442851 ], [ 74.397359438592318, 16.381196500269759 ], [ 74.397386487014117, 16.381205831632489 ], [ 74.39754298651944, 16.381290586357199 ], [ 74.397582251460392, 16.381381871021386 ], [ 74.397601502271073, 16.381426627275054 ], [ 74.397710619815953, 16.381680309677918 ], [ 74.397738562291138, 16.38180407939149 ], [ 74.397735037843702, 16.381842434547696 ], [ 74.397822073803056, 16.381841953224736 ], [ 74.397859778478932, 16.381840976358038 ], [ 74.397922187576413, 16.3818393587473 ], [ 74.398034897044411, 16.38183643776328 ], [ 74.398206282782795, 16.381831996823404 ], [ 74.398209508030888, 16.381831912938377 ], [ 74.398227476404301, 16.381725228467214 ], [ 74.398234242549989, 16.381685057460878 ], [ 74.398241790791971, 16.381640244110102 ], [ 74.398739032284865, 16.381799765587743 ], [ 74.398799229086436, 16.381819077263302 ], [ 74.399043473048735, 16.381897432891954 ], [ 74.399090521611114, 16.381912526090279 ], [ 74.399230757108938, 16.381957514659341 ], [ 74.399804314875126, 16.382141515806854 ], [ 74.399828677884912, 16.382149331386199 ], [ 74.399836753983735, 16.382151922589802 ], [ 74.399931685829074, 16.382182376774573 ], [ 74.400235609295493, 16.382276905050247 ], [ 74.40027931777162, 16.382290499634333 ], [ 74.400332889412581, 16.382238276468058 ], [ 74.400565278923224, 16.382011739168284 ], [ 74.400616873374503, 16.381961444780671 ], [ 74.400677295407519, 16.381902545348783 ], [ 74.400717823269503, 16.381906810882946 ], [ 74.400747006968558, 16.381918289399525 ], [ 74.400804877744875, 16.381941049749834 ], [ 74.400968331478239, 16.382005511455798 ], [ 74.401107004986017, 16.382060200235877 ], [ 74.402222199727717, 16.38212511936073 ], [ 74.402249842523005, 16.382082738549094 ], [ 74.402325677153627, 16.381966474169449 ], [ 74.402756022796638, 16.381306693470673 ], [ 74.402817733247545, 16.381205417257302 ], [ 74.402834885901598, 16.381177267576422 ], [ 74.402859898687908, 16.381174968351381 ], [ 74.402920083106295, 16.381168597109323 ], [ 74.403067501243825, 16.381152990696926 ], [ 74.403237647637411, 16.381134977187255 ], [ 74.403626270692271, 16.381093833767427 ], [ 74.404719372652067, 16.38017513485385 ], [ 74.404766381281732, 16.380132753314168 ], [ 74.405298691361139, 16.379641847990676 ], [ 74.40531447073198, 16.379627296211133 ], [ 74.405626471551884, 16.379339561458089 ], [ 74.40605299158878, 16.379520364113805 ], [ 74.406556147396458, 16.379733651883239 ], [ 74.406606407159174, 16.379752713648209 ], [ 74.408125150920981, 16.380328719452454 ], [ 74.408361469388694, 16.380350939972022 ], [ 74.408580013474321, 16.380371489462739 ], [ 74.408635086447262, 16.380376667576609 ], [ 74.408911975389529, 16.380402703230711 ], [ 74.408984590783916, 16.380410736441586 ], [ 74.409025264987463, 16.380423591193257 ], [ 74.409030451468453, 16.380425230188557 ], [ 74.409370271850122, 16.380532629151077 ], [ 74.409798442625601, 16.380667949459529 ], [ 74.409974043477732, 16.380723447431798 ], [ 74.410407448259463, 16.380820911251199 ], [ 74.410411718190417, 16.38082187147684 ], [ 74.411966714365136, 16.381171550912683 ], [ 74.412410755435204, 16.381271402451318 ], [ 74.41241140579983, 16.381271548902234 ], [ 74.412415396891447, 16.38127244593537 ], [ 74.413351169504352, 16.379523251930177 ], [ 74.413473804118311, 16.379324733230376 ], [ 74.413736584612693, 16.378899343464724 ], [ 74.413782058800336, 16.378825730667064 ], [ 74.413977129397352, 16.378509948927327 ], [ 74.414474488383647, 16.377748503418292 ], [ 74.414631836069773, 16.377550110338113 ], [ 74.415495064810287, 16.376461693939408 ], [ 74.416113466363157, 16.375495028309516 ], [ 74.416474762474778, 16.375542516779642 ], [ 74.416526014498302, 16.375142611587201 ], [ 74.416615715920443, 16.374945782143659 ], [ 74.416658074368513, 16.374896189326925 ], [ 74.416729621225997, 16.37485521356183 ], [ 74.416560569786512, 16.374352553751745 ], [ 74.416403292375165, 16.373938607690185 ], [ 74.416166601949755, 16.37323671856598 ], [ 74.415988311264073, 16.372391765296019 ], [ 74.415951553825224, 16.372269206153014 ], [ 74.415563344563026, 16.371211475828702 ], [ 74.415508610655294, 16.370987921296766 ], [ 74.415467017815629, 16.370715606030743 ], [ 74.415356612029839, 16.370045439705347 ], [ 74.415366575262055, 16.369681938553192 ], [ 74.415376289590753, 16.369342880045519 ], [ 74.415406377487116, 16.368548755367847 ], [ 74.415424426456681, 16.368325879211689 ], [ 74.415476612858342, 16.368170534880917 ], [ 74.415736611770086, 16.367488545550309 ], [ 74.415935564669979, 16.36689764593174 ], [ 74.416131112203431, 16.366331163704132 ], [ 74.416358938499187, 16.365700811155694 ], [ 74.416455187319798, 16.365570325749879 ], [ 74.41672785519701, 16.365203155078515 ], [ 74.417280440041196, 16.364377220596637 ], [ 74.417492162377528, 16.364091978811675 ], [ 74.417603592139841, 16.36370803607555 ], [ 74.417910467291961, 16.362766765870408 ], [ 74.417946462452974, 16.362647937108161 ], [ 74.418049409486031, 16.361845318119379 ], [ 74.418085455958561, 16.361564378521859 ], [ 74.418144030599862, 16.361107865875603 ], [ 74.418119237480255, 16.361105192152436 ], [ 74.418096002823859, 16.361102686349888 ], [ 74.418220187237395, 16.360536222254552 ], [ 74.418241565272666, 16.360415733117822 ], [ 74.418373673093825, 16.359801091906455 ], [ 74.418435869231757, 16.359382429303746 ], [ 74.417953286331723, 16.358642380414874 ], [ 74.417641579313027, 16.358186855006068 ], [ 74.41736431327891, 16.357747501525072 ], [ 74.417299176481578, 16.357656160420071 ], [ 74.417119404666749, 16.35753728816114 ], [ 74.41659725467116, 16.357192020373205 ], [ 74.416117432675335, 16.356874738961405 ], [ 74.415660435074585, 16.356919458980965 ], [ 74.414335568803935, 16.357037221194439 ], [ 74.413652834738841, 16.356833961183966 ], [ 74.413584656549716, 16.356813663532204 ], [ 74.412512936031931, 16.355940708601484 ], [ 74.412268382010438, 16.355749068275234 ], [ 74.411967578272254, 16.355513347689595 ], [ 74.41057326570413, 16.355304329706065 ], [ 74.410464397743098, 16.355288009528817 ], [ 74.410311695884545, 16.35526511771733 ], [ 74.408420092790166, 16.356054178120633 ], [ 74.40824430471244, 16.356709707438391 ], [ 74.408209474750578, 16.356839598717297 ], [ 74.407855159577664, 16.358160860145233 ], [ 74.40772539109895, 16.358644770168933 ], [ 74.407655389971836, 16.35905039708938 ], [ 74.407559525403542, 16.359129692264418 ], [ 74.406627415810803, 16.359900699109414 ], [ 74.406054718258645, 16.359893602797786 ], [ 74.405925695629833, 16.359918922607662 ], [ 74.405171971456312, 16.359201938708175 ], [ 74.404103558037491, 16.359875835347019 ], [ 74.403465788474634, 16.360123399452135 ], [ 74.402851086569811, 16.360279968345022 ], [ 74.402659288996219, 16.360143272423795 ], [ 74.401937199795086, 16.359628628244401 ], [ 74.401509482740039, 16.359323784967973 ], [ 74.401369619137895, 16.359429391538573 ] ] ] } },
{ "type": "Feature", "properties": { "OBJECTID": 26317, "KGISVillageID": 1114, "KGISVillageCode": "0112030016", "KGISVillageName": "Shiraguppi", "KGISHobliID": 791, "UniqueVillageCode": "0112030016_1", "Bhucode": "010101003028", "CensusVillageCode": "2955505433597137", "BhoomiVillageCode": "0112030016", "created_user": "SA", "created_date": 1556019584000.0, "last_edited_user": "SURESHBV2", "last_edited_date": 1724225561000.0, "LGDGPCode": "215832", "LGDGPCode_Secondary": null, "Category": "Cadastral data available and has bhoomi linkage", "SHAPE.STArea()": 8889970.9909880459, "SHAPE.STLength()": 14185.085170647422, "LGD_VillageCode": 597137.0, "_overlap_percent": 99.999999980319046, "_police_station": "Nippani Town PS", "_police_feature_index": "361", "_admin_layer": "Village", "_geometry_clipped": true }, "geometry": { "type": "Polygon", "coordinates": [ [ [ 74.36326003492313, 16.398249749357397 ], [ 74.36339826381905, 16.398061718464511 ], [ 74.363444190497162, 16.397999244716747 ], [ 74.36360213101247, 16.397784398614395 ], [ 74.363797154560629, 16.397057185986945 ], [ 74.363816039438902, 16.39691763730092 ], [ 74.363820346630945, 16.396885809233776 ], [ 74.363838173166258, 16.39675407478952 ], [ 74.363776618938005, 16.396403046156333 ], [ 74.363884272584727, 16.396086784139431 ], [ 74.363989984691074, 16.396014828664136 ], [ 74.364083157771262, 16.395951407468765 ], [ 74.364168130732352, 16.395893568700831 ], [ 74.364211075673509, 16.395864337015183 ], [ 74.364653294699309, 16.395831449720244 ], [ 74.364664767405117, 16.395765025204192 ], [ 74.364700116974689, 16.395560351489983 ], [ 74.364710018723699, 16.395503023297817 ], [ 74.364881207002014, 16.395107547810721 ], [ 74.364979271025007, 16.395100318502159 ], [ 74.365081741234988, 16.395092764370347 ], [ 74.365103472492876, 16.395091151329261 ], [ 74.365162151570374, 16.395086796030824 ], [ 74.365201083782765, 16.395083469473363 ], [ 74.366219046238868, 16.394996475719154 ], [ 74.366307332162705, 16.394950849504944 ], [ 74.366310869489368, 16.394949021508321 ], [ 74.366315958718332, 16.394948875939704 ], [ 74.366797738688277, 16.394714489235955 ], [ 74.367130697715979, 16.394552502872443 ], [ 74.367284971494271, 16.394478944451304 ], [ 74.367318215649235, 16.394463094080802 ], [ 74.367456243794692, 16.394397281507626 ], [ 74.367546706833153, 16.394354148098294 ], [ 74.369361743156034, 16.39342276508382 ], [ 74.369389710817998, 16.393408413589576 ], [ 74.369557145260842, 16.39332249326096 ], [ 74.369572150890647, 16.393233480860847 ], [ 74.369582673891713, 16.393127519302038 ], [ 74.369586113477197, 16.393092887095278 ], [ 74.369596006409651, 16.392993272167082 ], [ 74.369607981067162, 16.392872699704949 ], [ 74.369772032199691, 16.391220801031494 ], [ 74.369817415476575, 16.391134841893177 ], [ 74.369817222630459, 16.3911278329001 ], [ 74.369826623307475, 16.391089783486549 ], [ 74.37033551149095, 16.389029930968633 ], [ 74.370340754578677, 16.388990878330457 ], [ 74.370398544400686, 16.388560457142095 ], [ 74.370524401003081, 16.387747874484301 ], [ 74.370551821031171, 16.387557912957881 ], [ 74.370580098118509, 16.387566476730139 ], [ 74.370816236123602, 16.387637993195199 ], [ 74.371098387099764, 16.387723444139542 ], [ 74.371216769611408, 16.38773406522289 ], [ 74.371238671150948, 16.38773602991046 ], [ 74.37124516358557, 16.387712627654494 ], [ 74.371386902401639, 16.387201754821696 ], [ 74.371389056396666, 16.387202274708667 ], [ 74.371395478072969, 16.387170847761052 ], [ 74.371397014523595, 16.387163326865998 ], [ 74.371408057479371, 16.387109120317088 ], [ 74.371485922212088, 16.386726890118503 ], [ 74.371501415263168, 16.38662382774713 ], [ 74.371544864967746, 16.38633479716032 ], [ 74.371545483072111, 16.386330687785808 ], [ 74.371641075720774, 16.385694800724146 ], [ 74.371650872745533, 16.385627547154744 ], [ 74.371667018884409, 16.385516701780727 ], [ 74.371678538431595, 16.385437615963983 ], [ 74.371769175673563, 16.385443154017558 ], [ 74.371814835088998, 16.385445943482502 ], [ 74.371816476877555, 16.385445575952001 ], [ 74.371933165630608, 16.385419467153501 ], [ 74.372053056398727, 16.385392642868208 ], [ 74.372191828623741, 16.385361592785934 ], [ 74.372373079210746, 16.385321038516015 ], [ 74.372409013020032, 16.385198303518255 ], [ 74.372510638407661, 16.384851187579784 ], [ 74.372563965457644, 16.384663955154672 ], [ 74.372768072923861, 16.38394732443895 ], [ 74.372922454207213, 16.383405278548029 ], [ 74.372923658445316, 16.38340117543375 ], [ 74.372938401271398, 16.383326814188454 ], [ 74.373160244654414, 16.382207833042539 ], [ 74.373178952634575, 16.382113361362087 ], [ 74.373221749128192, 16.38189746157007 ], [ 74.373230578974017, 16.381875922928437 ], [ 74.373252503505412, 16.381822447404087 ], [ 74.373725338357872, 16.380669167903459 ], [ 74.373759981506225, 16.3805846736016 ], [ 74.373801362412692, 16.380489495512816 ], [ 74.373811368274474, 16.380466480551465 ], [ 74.374682645081009, 16.378670995801649 ], [ 74.374720059508931, 16.378599607062544 ], [ 74.374827049470724, 16.378602555424816 ], [ 74.374919609383142, 16.378615291480273 ], [ 74.3749868021754, 16.378620198870646 ], [ 74.375340023605688, 16.37864599260984 ], [ 74.376262575754481, 16.378713358470232 ], [ 74.376448872241369, 16.378725510155267 ], [ 74.376826474209906, 16.379600620477465 ], [ 74.376830080925316, 16.379606601837484 ], [ 74.376864027126388, 16.379662888215936 ], [ 74.377014434276546, 16.379911513127251 ], [ 74.3771060022288, 16.380062876281151 ], [ 74.377194670535118, 16.38020944613632 ], [ 74.377272774730457, 16.380338551756395 ], [ 74.377473742631025, 16.380362156730147 ], [ 74.37798458987703, 16.380422160029603 ], [ 74.377983965399295, 16.380355697859297 ], [ 74.37797890327019, 16.380275968654633 ], [ 74.377974148036742, 16.38020369805815 ], [ 74.377967790124174, 16.380107081689633 ], [ 74.377973634067246, 16.379606961063775 ], [ 74.377974579919837, 16.379526031067797 ], [ 74.377987401392033, 16.378774454590946 ], [ 74.378012545521898, 16.37856120334526 ], [ 74.378026664881915, 16.378441457186284 ], [ 74.37803042860989, 16.378009598595419 ], [ 74.378031003827388, 16.377952221177907 ], [ 74.378031651851586, 16.377887533617983 ], [ 74.377908294180273, 16.377002622137073 ], [ 74.377842128649405, 16.37649946907743 ], [ 74.377825857268533, 16.376375733377905 ], [ 74.37778892034801, 16.376074168424044 ], [ 74.377729527399467, 16.375298180958051 ], [ 74.377719183077332, 16.375163035750433 ], [ 74.377694577991363, 16.37484155762402 ], [ 74.377689494534451, 16.374774217146488 ], [ 74.377683860211761, 16.37469958547225 ], [ 74.377664812268677, 16.374447278835515 ], [ 74.37765624847313, 16.374333845775048 ], [ 74.377614058680891, 16.373774997882045 ], [ 74.377593132786672, 16.373497813091593 ], [ 74.377592306066617, 16.373486862735163 ], [ 74.377591136966615, 16.373471380697133 ], [ 74.377571701304475, 16.373214428315247 ], [ 74.377573084774426, 16.372919102720033 ], [ 74.377573511599593, 16.372827940075663 ], [ 74.377571841585507, 16.371972035387461 ], [ 74.377571840898625, 16.37197195674052 ], [ 74.377571779409166, 16.371940272603659 ], [ 74.377571688773642, 16.37193726032605 ], [ 74.377549658626549, 16.371201773965389 ], [ 74.377548820380611, 16.37119268845159 ], [ 74.377539885898855, 16.371095795909842 ], [ 74.377491262710649, 16.370569548398684 ], [ 74.377467689438717, 16.370314416054295 ], [ 74.377461679343398, 16.370249370687272 ], [ 74.37744359116958, 16.370053598021343 ], [ 74.377430210057867, 16.36990888615146 ], [ 74.377424584595261, 16.36984804445051 ], [ 74.377420100704782, 16.369799548857653 ], [ 74.377383848474892, 16.369407476267572 ], [ 74.377302018580707, 16.368821303375583 ], [ 74.377292649899061, 16.368754194258468 ], [ 74.37728546874294, 16.368702656073989 ], [ 74.377267122566053, 16.368585036689986 ], [ 74.377266965639492, 16.368584031921106 ], [ 74.377168536001903, 16.367953003044967 ], [ 74.377134947646368, 16.36764613512241 ], [ 74.377126805363076, 16.367571744569133 ], [ 74.377117561127378, 16.367487286915885 ], [ 74.377027162851988, 16.366636608294055 ], [ 74.377024992636436, 16.366616186732269 ], [ 74.376937148870027, 16.365789548394776 ], [ 74.376929934590152, 16.365721655558971 ], [ 74.376917414100774, 16.365593890987551 ], [ 74.376915139848123, 16.365568788385175 ], [ 74.376914971597529, 16.365566927527599 ], [ 74.376861815422799, 16.364980185604459 ], [ 74.376820579428909, 16.364578515126304 ], [ 74.376814548720745, 16.364519769389275 ], [ 74.376735226032409, 16.363747101995408 ], [ 74.376731514986304, 16.363710954107525 ], [ 74.376730072091789, 16.363693855858802 ], [ 74.376726915958798, 16.363657220567585 ], [ 74.376702046293474, 16.363487077702235 ], [ 74.376636063717768, 16.363035656523738 ], [ 74.376634848552897, 16.363027344584467 ], [ 74.376608130644698, 16.362844551569566 ], [ 74.376574611126372, 16.362381400752277 ], [ 74.376548974179528, 16.362027172120513 ], [ 74.376548322558676, 16.361929547376533 ], [ 74.376547962196966, 16.361875545237826 ], [ 74.376546782585393, 16.361698860845525 ], [ 74.376549128409309, 16.361568400297465 ], [ 74.376557820006639, 16.361085098407766 ], [ 74.376554453069986, 16.360964768859755 ], [ 74.376553991451246, 16.360948260183957 ], [ 74.376551603318177, 16.360862910659485 ], [ 74.376550713655618, 16.360831114663991 ], [ 74.376540987916357, 16.360831221476783 ], [ 74.37552622359577, 16.3607334216493 ], [ 74.374745266162506, 16.360658152607627 ], [ 74.374430750346491, 16.360597638594481 ], [ 74.373672202339037, 16.360451687852152 ], [ 74.373560421263349, 16.360444822549475 ], [ 74.372551885588635, 16.360383899741503 ], [ 74.372019554454781, 16.360226453874535 ], [ 74.371428486706975, 16.36005163262233 ], [ 74.370528839189873, 16.35986394030364 ], [ 74.370380622873299, 16.359833018445592 ], [ 74.370105469530941, 16.359545273148647 ], [ 74.36935362479332, 16.358759014797549 ], [ 74.369048074094394, 16.357916891541411 ], [ 74.368906608469402, 16.35633389908574 ], [ 74.367902328616651, 16.355288184986009 ], [ 74.367204717486175, 16.354300048772867 ], [ 74.367195685336384, 16.354218931520339 ], [ 74.367101942907951, 16.353376997615033 ], [ 74.367091466748491, 16.353282912262138 ], [ 74.367108615921538, 16.352920324823312 ], [ 74.367132113501427, 16.352423546614752 ], [ 74.367150108336801, 16.352043094816647 ], [ 74.367060664694591, 16.352076733049344 ], [ 74.364162613512448, 16.353166656775116 ], [ 74.364089217302933, 16.353194260252572 ], [ 74.364047550854877, 16.353181752030494 ], [ 74.36140291940103, 16.352387852064986 ], [ 74.35963652564719, 16.353856883315501 ], [ 74.358284970567667, 16.355001983333267 ], [ 74.358055917279287, 16.355196045460776 ], [ 74.357169292977972, 16.35599448797311 ], [ 74.356420992612072, 16.357484709528844 ], [ 74.356384173513405, 16.357558034987104 ], [ 74.354398331167502, 16.361512648090432 ], [ 74.35442287291707, 16.362232785009319 ], [ 74.35432653389654, 16.364119448508585 ], [ 74.354188634306482, 16.364440435648596 ], [ 74.353523897808344, 16.36598770600316 ], [ 74.35372149387166, 16.366287356439535 ], [ 74.354095465975647, 16.366854463112926 ], [ 74.354353629169708, 16.369134764205647 ], [ 74.35452839792741, 16.370538961083625 ], [ 74.35396885699457, 16.371539301281423 ], [ 74.353604396435216, 16.372634034626692 ], [ 74.35337652149002, 16.373330764145777 ], [ 74.353300420499025, 16.373718300631303 ], [ 74.353157460383031, 16.374293433995387 ], [ 74.353111244096411, 16.37507471442445 ], [ 74.352990343583357, 16.375097219394807 ], [ 74.352924867410934, 16.375283336162514 ], [ 74.35288705315314, 16.375989863032867 ], [ 74.352914911052736, 16.376614436199329 ], [ 74.352824645481405, 16.377395457982036 ], [ 74.352787069846144, 16.377720577430047 ], [ 74.352686875419394, 16.37897745475097 ], [ 74.352669077307368, 16.379731345276539 ], [ 74.352592313620633, 16.381782537980733 ], [ 74.354095461263654, 16.381784955099832 ], [ 74.355282361898091, 16.38170653965987 ], [ 74.355389822314706, 16.381699439216053 ], [ 74.355576772395082, 16.38229402587211 ], [ 74.355792108583344, 16.382691166761738 ], [ 74.356187711895515, 16.382991270233031 ], [ 74.356930612104023, 16.383319282312609 ], [ 74.35706210450914, 16.384449050738237 ], [ 74.357173984128138, 16.385275448756868 ], [ 74.357130015951867, 16.38536013662727 ], [ 74.356900540842446, 16.385542840726465 ], [ 74.356994785323963, 16.385835098915688 ], [ 74.357291385359559, 16.385966272218106 ], [ 74.357151004534927, 16.386189287834394 ], [ 74.356988020518159, 16.386298223178319 ], [ 74.356999098702588, 16.38686457454865 ], [ 74.357159560795665, 16.386920313174073 ], [ 74.357399270014184, 16.386996895919136 ], [ 74.357511309571407, 16.387167529769911 ], [ 74.357688566043379, 16.387238965037959 ], [ 74.357731458242654, 16.387346419579686 ], [ 74.357732695153274, 16.38743934414196 ], [ 74.357709038225593, 16.38757907750044 ], [ 74.357550439327071, 16.387847806110649 ], [ 74.357642922225921, 16.388130706261876 ], [ 74.357678495077536, 16.388233977531581 ], [ 74.357719648474287, 16.388353446721528 ], [ 74.357816634702829, 16.388604468834387 ], [ 74.357618694060449, 16.388843028799627 ], [ 74.357804023045858, 16.388935093528961 ], [ 74.357624255300905, 16.38936086575989 ], [ 74.357642845068838, 16.389720736598214 ], [ 74.357811763439571, 16.389764597271277 ], [ 74.357924202428023, 16.389835592238036 ], [ 74.357964547938693, 16.389861065143602 ], [ 74.358046866733702, 16.390015162265041 ], [ 74.358212945426729, 16.389892232416237 ], [ 74.35830280491291, 16.39014693338104 ], [ 74.358391487251183, 16.390745839732809 ], [ 74.358479990857347, 16.390871949974837 ], [ 74.358376724019777, 16.391207566413403 ], [ 74.358822302220048, 16.391448660873738 ], [ 74.358696846913958, 16.391681681765292 ], [ 74.358949312449312, 16.391946597597116 ], [ 74.35954201561438, 16.392138306379735 ], [ 74.359621940999418, 16.392160039601126 ], [ 74.359773475090847, 16.392201244239857 ], [ 74.359950951737943, 16.392594273083983 ], [ 74.360424647107124, 16.39284896405751 ], [ 74.360826761690873, 16.392813173917691 ], [ 74.361063955383898, 16.392931548720867 ], [ 74.361444851735797, 16.393071958872639 ], [ 74.36172649441616, 16.39330381368686 ], [ 74.361732023273191, 16.393353549189975 ], [ 74.361726402391568, 16.393404804760717 ], [ 74.361718406395028, 16.393477700260249 ], [ 74.361680668859023, 16.393621479026212 ], [ 74.361745105748369, 16.393783038750524 ], [ 74.362102533138597, 16.393798789106008 ], [ 74.362019979980616, 16.394013207562786 ], [ 74.362036672335208, 16.39416222092073 ], [ 74.362263986056675, 16.394399098065012 ], [ 74.36228217229619, 16.394680175498166 ], [ 74.362502080738096, 16.394995523530962 ], [ 74.362999743903757, 16.395454145453368 ], [ 74.362783003026053, 16.395957460183741 ], [ 74.362817323326695, 16.396185930766784 ], [ 74.362928577179545, 16.396378865649009 ], [ 74.362565018927739, 16.397313970952204 ], [ 74.36256597358296, 16.397432144033683 ], [ 74.362676186989518, 16.397596712330657 ], [ 74.363177425235023, 16.397492042900609 ], [ 74.363254097130081, 16.397594152333099 ], [ 74.363168462056805, 16.39791643048331 ], [ 74.363171046081789, 16.398170140152054 ], [ 74.36326003492313, 16.398249749357397 ] ] ] } },
{ "type": "Feature", "properties": { "OBJECTID": 26312, "KGISVillageID": 1109, "KGISVillageCode": "0112030001", "KGISVillageName": "Nippani", "KGISHobliID": 791, "UniqueVillageCode": "0112030001_1", "Bhucode": "010101003023", "CensusVillageCode": "2955505433803021", "BhoomiVillageCode": "0112030001", "created_user": "SA", "created_date": 1556019584000.0, "last_edited_user": "SURESHBV2", "last_edited_date": 1724225543000.0, "LGDGPCode": " ", "LGDGPCode_Secondary": null, "Category": "Cadastral data available and has bhoomi linkage", "SHAPE.STArea()": 20617036.38779347, "SHAPE.STLength()": 19530.544365167789, "LGD_VillageCode": 597143.0, "_overlap_percent": 99.903779630865557, "_police_station": "Nippani Town PS", "_police_feature_index": "361", "_admin_layer": "Village", "_geometry_clipped": true }, "geometry": { "type": "Polygon", "coordinates": [ [ [ 74.369051432336903, 16.422257328353098 ], [ 74.369219774386252, 16.422232093906974 ], [ 74.369317753854759, 16.422244248167488 ], [ 74.369373762457727, 16.422251196082669 ], [ 74.369402192742527, 16.422254722839714 ], [ 74.369859862717277, 16.422311497776732 ], [ 74.370060296997408, 16.422336361461923 ], [ 74.37023255234628, 16.422363706781894 ], [ 74.370257739137429, 16.422366970587198 ], [ 74.370438505855248, 16.422390396389119 ], [ 74.370448477405631, 16.422391688213885 ], [ 74.370453717360121, 16.422392367430717 ], [ 74.370613894992658, 16.422413124475952 ], [ 74.371137258944188, 16.422480945445436 ], [ 74.371435415418006, 16.422525953239479 ], [ 74.371502708343144, 16.422527654345625 ], [ 74.371637172504862, 16.422531055503434 ], [ 74.371666154913243, 16.422528324316019 ], [ 74.371695148625165, 16.422525591628727 ], [ 74.37180732201422, 16.422516347101592 ], [ 74.371844461267983, 16.422508966197569 ], [ 74.372212692327494, 16.422476107547354 ], [ 74.372227853651566, 16.422474754452352 ], [ 74.372825547685551, 16.422421418053919 ], [ 74.372967008701153, 16.422410918906607 ], [ 74.373020177077549, 16.422406972795887 ], [ 74.373682829314419, 16.42235778814722 ], [ 74.37381696074219, 16.422349826574628 ], [ 74.373827998780513, 16.422349171579029 ], [ 74.373875407192187, 16.422345765816388 ], [ 74.374388604144912, 16.422308899828973 ], [ 74.374518424385144, 16.422299173990861 ], [ 74.374606079157132, 16.422292606573809 ], [ 74.37489641834236, 16.422270853159652 ], [ 74.375210416592424, 16.422242155014033 ], [ 74.375305703948655, 16.422233445934534 ], [ 74.375756694257475, 16.422192226959698 ], [ 74.376472418678702, 16.422126868428105 ], [ 74.3764982500727, 16.42212451076967 ], [ 74.376746877497141, 16.422095997658225 ], [ 74.376822278693922, 16.42208735089271 ], [ 74.376856752469806, 16.42208339713472 ], [ 74.37750658914176, 16.421992816984073 ], [ 74.378255563964785, 16.421882238081956 ], [ 74.378447420389492, 16.421852720475428 ], [ 74.378494739794746, 16.421845439929452 ], [ 74.378985819220418, 16.421769885400462 ], [ 74.379945237534457, 16.421779175891913 ], [ 74.379987784883866, 16.421779588083478 ], [ 74.380038926165213, 16.421780082911418 ], [ 74.380991741161992, 16.421526750916534 ], [ 74.381053624279048, 16.421514796757027 ], [ 74.381277841804106, 16.421471485278353 ], [ 74.381770179747349, 16.421414706762711 ], [ 74.382468444800594, 16.421334176463869 ], [ 74.382663863434871, 16.421311638597309 ], [ 74.382657042731964, 16.421363980666968 ], [ 74.383360426470574, 16.421290100039638 ], [ 74.384380355757344, 16.421214585468338 ], [ 74.384380360668203, 16.421214585104828 ], [ 74.384455539632711, 16.421205166935216 ], [ 74.384466712791166, 16.421207382754233 ], [ 74.38462184610853, 16.421238202408311 ], [ 74.384762454609628, 16.421228870628479 ], [ 74.385077650831789, 16.421196334666007 ], [ 74.385126115679199, 16.421191328525566 ], [ 74.38532868322163, 16.421311180309058 ], [ 74.38550319593638, 16.421414427197906 ], [ 74.387037785936101, 16.42232241575352 ], [ 74.388597835833608, 16.422153353764713 ], [ 74.389441800160384, 16.422053363215618 ], [ 74.38974744818313, 16.421988481716895 ], [ 74.3896534431981, 16.421886752184733 ], [ 74.389798740102123, 16.421841569590672 ], [ 74.389927953999319, 16.421801387890618 ], [ 74.389968799333289, 16.42178868566565 ], [ 74.390166526457435, 16.421750842528699 ], [ 74.390189587087164, 16.42174642946566 ], [ 74.390486786786127, 16.42168954636621 ], [ 74.390650405914315, 16.421658230704505 ], [ 74.391883700806673, 16.421584236130482 ], [ 74.393166531207513, 16.421488645280341 ], [ 74.393292084466765, 16.421524112564843 ], [ 74.394342117020344, 16.421435233441464 ], [ 74.394819406189683, 16.421394826703803 ], [ 74.39481940652179, 16.421394826593701 ], [ 74.39541018381405, 16.421339413329296 ], [ 74.396694331140679, 16.421246591529233 ], [ 74.397141871989689, 16.421268688823776 ], [ 74.397242963097383, 16.421271883462559 ], [ 74.397409173205247, 16.42127713523448 ], [ 74.398102637144902, 16.421299045663954 ], [ 74.398346173690996, 16.421289692428417 ], [ 74.398356300438252, 16.421289303812696 ], [ 74.399771418756615, 16.420964108436358 ], [ 74.400578319976688, 16.420939200412722 ], [ 74.40195181164907, 16.420852506007773 ], [ 74.40193687001549, 16.420670887859846 ], [ 74.401919512029608, 16.420062834154638 ], [ 74.401896086884904, 16.419954101941777 ], [ 74.401859180731975, 16.419782797819682 ], [ 74.401855023885446, 16.419617165332866 ], [ 74.401849168831518, 16.419383893427131 ], [ 74.401858015083704, 16.419315526521583 ], [ 74.401913225409942, 16.418879781503964 ], [ 74.40193359300423, 16.418750298758646 ], [ 74.401939821535407, 16.418710698466661 ], [ 74.402027197231789, 16.418155219120724 ], [ 74.402033396648392, 16.418115937839037 ], [ 74.40206984761474, 16.41798596390321 ], [ 74.402077437020651, 16.417958902746804 ], [ 74.402127045090936, 16.41778201164804 ], [ 74.402174629545755, 16.417612336541076 ], [ 74.402187399112378, 16.417583753384807 ], [ 74.402265293063095, 16.417486419277338 ], [ 74.402435487323118, 16.417271465416455 ], [ 74.402670255462866, 16.416605520179157 ], [ 74.402882756237602, 16.416109480991668 ], [ 74.40311505480598, 16.415707765912803 ], [ 74.403129304539675, 16.415679889272742 ], [ 74.403134985066544, 16.415668762245211 ], [ 74.403159218644888, 16.41562123195521 ], [ 74.40317657884448, 16.415587171993256 ], [ 74.403413696395219, 16.415121960386632 ], [ 74.403455352006958, 16.415039977923293 ], [ 74.4035386947712, 16.414909876471487 ], [ 74.40362873832008, 16.414852072299027 ], [ 74.403763034090019, 16.414671788079378 ], [ 74.403880259852542, 16.414488709077634 ], [ 74.40388906330287, 16.414474960351455 ], [ 74.404091489632236, 16.414158816218933 ], [ 74.404130861756016, 16.414097326328733 ], [ 74.404286310781103, 16.413854549183171 ], [ 74.404301893397545, 16.413830212539388 ], [ 74.404319621569741, 16.413802525557305 ], [ 74.404691227149627, 16.41328614047714 ], [ 74.404695225366098, 16.413280584287868 ], [ 74.405539359687779, 16.412922959786378 ], [ 74.405662576671489, 16.412873114857355 ], [ 74.405789409202626, 16.412821564354928 ], [ 74.405974422395332, 16.412516710107958 ], [ 74.405987196282311, 16.412495662145332 ], [ 74.406003370782926, 16.412352727721732 ], [ 74.406014813241441, 16.412214291605071 ], [ 74.406049380576519, 16.411796100267253 ], [ 74.406090949527922, 16.411643302133946 ], [ 74.406118039872808, 16.411543722881678 ], [ 74.406342477614572, 16.410748384160687 ], [ 74.406434711179486, 16.41038194038067 ], [ 74.406440016949489, 16.410360860435112 ], [ 74.406467141099895, 16.41025309670863 ], [ 74.406465608694901, 16.410199424862135 ], [ 74.406464777350777, 16.410170289518955 ], [ 74.406465953379694, 16.409574866226404 ], [ 74.406466057901142, 16.409522169859439 ], [ 74.406467607225977, 16.408737494282594 ], [ 74.406001062142337, 16.408652969542743 ], [ 74.405982580034816, 16.408454354966942 ], [ 74.405971623015617, 16.408336608711693 ], [ 74.405955046934409, 16.408077766492411 ], [ 74.405951318838021, 16.408009165767165 ], [ 74.405939940403314, 16.407777843191013 ], [ 74.405939913961561, 16.407777298025088 ], [ 74.405936671387551, 16.40771072897698 ], [ 74.405927117786888, 16.407484814555158 ], [ 74.405925738036203, 16.407452177500428 ], [ 74.405894560693923, 16.406714923559047 ], [ 74.405891120040195, 16.406653455022216 ], [ 74.405867496797654, 16.406312506437889 ], [ 74.405857742942032, 16.406138418480943 ], [ 74.405859196769228, 16.405709615656079 ], [ 74.405863630964006, 16.405687782958402 ], [ 74.405997687855489, 16.405362677312514 ], [ 74.40602962881421, 16.405178383897145 ], [ 74.406066673148331, 16.404964645555168 ], [ 74.406178329662936, 16.404510403691617 ], [ 74.406252917530182, 16.404200834462781 ], [ 74.406297858429667, 16.404014311369668 ], [ 74.406351328391537, 16.403733010824737 ], [ 74.406412391705445, 16.403411763750398 ], [ 74.406587759053934, 16.403159974693658 ], [ 74.406620671512229, 16.403051278923268 ], [ 74.406628694344079, 16.403024782826471 ], [ 74.406683381229968, 16.402844171123853 ], [ 74.406700809026006, 16.402643453988652 ], [ 74.406700820672071, 16.4026433193306 ], [ 74.406734483522783, 16.402243575707296 ], [ 74.406824216038586, 16.401845272113462 ], [ 74.406962277039, 16.401029528483495 ], [ 74.406984891409891, 16.400949814552163 ], [ 74.407005120260933, 16.400682108691527 ], [ 74.407016575975803, 16.40064205643213 ], [ 74.407024812598564, 16.400613252182978 ], [ 74.407088490520266, 16.400481248425844 ], [ 74.407101728588003, 16.400453806092514 ], [ 74.407095189416665, 16.400089224383912 ], [ 74.407090349118917, 16.399835379710936 ], [ 74.407189807318858, 16.399246042724268 ], [ 74.407196651526107, 16.399205399808132 ], [ 74.407266584523811, 16.399186388606353 ], [ 74.407368693761228, 16.399158630909298 ], [ 74.407445999968331, 16.399137684247584 ], [ 74.407552110986217, 16.399108932528165 ], [ 74.40754178953506, 16.399014925284295 ], [ 74.407538947834155, 16.398989043045077 ], [ 74.407535548291833, 16.398958105157405 ], [ 74.40754633903947, 16.398933790846094 ], [ 74.407665031883965, 16.398665884089603 ], [ 74.408044280189628, 16.397886858028539 ], [ 74.408129260711277, 16.397876634763318 ], [ 74.40838428881743, 16.397845822176638 ], [ 74.408618247591093, 16.397817555248466 ], [ 74.409067226049956, 16.397660859385336 ], [ 74.409296291371618, 16.397570171687534 ], [ 74.409425827962323, 16.397518888338411 ], [ 74.409489718749185, 16.397485012646595 ], [ 74.409514797624979, 16.397471715218831 ], [ 74.409903992276867, 16.397091479389424 ], [ 74.409931016288255, 16.397065077135927 ], [ 74.409993226336695, 16.3970042990296 ], [ 74.410061422145773, 16.396906266236449 ], [ 74.410613756298304, 16.396190990128687 ], [ 74.410642779275662, 16.396140369771615 ], [ 74.410873267058491, 16.395738363390695 ], [ 74.410894752941672, 16.395700889061764 ], [ 74.411150351438664, 16.39516420189489 ], [ 74.411184537132996, 16.395083238366908 ], [ 74.411223611556693, 16.394990696161621 ], [ 74.411236950082625, 16.394959106404755 ], [ 74.411652716101131, 16.394071773198299 ], [ 74.411665051350099, 16.394016851913488 ], [ 74.411672235513194, 16.39398486704567 ], [ 74.411718269540941, 16.393779912733859 ], [ 74.411720375719625, 16.393770533635578 ], [ 74.41172494305043, 16.393750198104719 ], [ 74.411755636768262, 16.393613540805489 ], [ 74.411775110519002, 16.393526838805769 ], [ 74.411795582690957, 16.393449440517074 ], [ 74.411819346761078, 16.393260268618835 ], [ 74.411839810434131, 16.393184749647268 ], [ 74.411848523349065, 16.393152596386837 ], [ 74.411909339287092, 16.393002793726431 ], [ 74.412109181263901, 16.392572751117598 ], [ 74.412472546185043, 16.391908060325239 ], [ 74.412513438010066, 16.391833258228473 ], [ 74.412637998416997, 16.391605403084963 ], [ 74.41269931366574, 16.391490792098221 ], [ 74.412896667295158, 16.391121896866679 ], [ 74.412935675568846, 16.39105428771088 ], [ 74.412989237624316, 16.390961452891926 ], [ 74.412989262361648, 16.390961409049968 ], [ 74.412989262368029, 16.390961409038496 ], [ 74.412989262372136, 16.390961409031387 ], [ 74.413290567471321, 16.390427406269009 ], [ 74.413633333641897, 16.389987135315206 ], [ 74.414070836560924, 16.389802246442219 ], [ 74.414279033163268, 16.389062781902467 ], [ 74.414293805078742, 16.388891730784167 ], [ 74.414294404889858, 16.388884781837671 ], [ 74.414333117742544, 16.388436510530429 ], [ 74.414385473571087, 16.38782580152337 ], [ 74.414372124538218, 16.387771916776884 ], [ 74.414344620589503, 16.387660888943731 ], [ 74.414344620649089, 16.387660888395761 ], [ 74.414333198944618, 16.38761478097614 ], [ 74.414416493052215, 16.386849932890605 ], [ 74.414441049194849, 16.386063308239574 ], [ 74.414458606967088, 16.385741720597149 ], [ 74.414569831929668, 16.384980406784724 ], [ 74.414559614104661, 16.383952522631454 ], [ 74.414534297493574, 16.383411684557824 ], [ 74.4135620391923, 16.382823518182306 ], [ 74.413213448984365, 16.382587642913272 ], [ 74.412429239791322, 16.381791263119201 ], [ 74.412277639644131, 16.381617540860503 ], [ 74.412310368665516, 16.381535551568447 ], [ 74.412307252972184, 16.381532130737931 ], [ 74.412341736312158, 16.381445857360085 ], [ 74.41241140579983, 16.381271548902234 ], [ 74.412410755435204, 16.381271402451318 ], [ 74.411966714365136, 16.381171550912683 ], [ 74.410411718190417, 16.38082187147684 ], [ 74.410407448259463, 16.380820911251199 ], [ 74.409974043477732, 16.380723447431798 ], [ 74.409798442625601, 16.380667949459529 ], [ 74.409370271850122, 16.380532629151077 ], [ 74.409030451468453, 16.380425230188557 ], [ 74.409025264987463, 16.380423591193257 ], [ 74.408984590783916, 16.380410736441586 ], [ 74.408911975389529, 16.380402703230711 ], [ 74.408635086447262, 16.380376667576609 ], [ 74.408580013474321, 16.380371489462739 ], [ 74.408361469388694, 16.380350939972022 ], [ 74.408125150920981, 16.380328719452454 ], [ 74.406606407159174, 16.379752713648209 ], [ 74.406556147396458, 16.379733651883239 ], [ 74.40605299158878, 16.379520364113805 ], [ 74.405626471551884, 16.379339561458089 ], [ 74.40531447073198, 16.379627296211133 ], [ 74.405298691361139, 16.379641847990676 ], [ 74.404766381281732, 16.380132753314168 ], [ 74.404719372652067, 16.38017513485385 ], [ 74.403626270692271, 16.381093833767427 ], [ 74.403237647637411, 16.381134977187255 ], [ 74.403067501243825, 16.381152990696926 ], [ 74.402920083106295, 16.381168597109323 ], [ 74.402859898687908, 16.381174968351381 ], [ 74.402834885901598, 16.381177267576422 ], [ 74.402817733247545, 16.381205417257302 ], [ 74.402756022796638, 16.381306693470673 ], [ 74.402325677153627, 16.381966474169449 ], [ 74.402249842523005, 16.382082738549094 ], [ 74.402222199727717, 16.38212511936073 ], [ 74.401107004986017, 16.382060200235877 ], [ 74.400968331478239, 16.382005511455798 ], [ 74.400804877744875, 16.381941049749834 ], [ 74.400747006968558, 16.381918289399525 ], [ 74.400717823269503, 16.381906810882946 ], [ 74.400677295407519, 16.381902545348783 ], [ 74.400616873374503, 16.381961444780671 ], [ 74.400565278923224, 16.382011739168284 ], [ 74.400332889412581, 16.382238276468058 ], [ 74.40027931777162, 16.382290499634333 ], [ 74.400235609295493, 16.382276905050247 ], [ 74.399931685829074, 16.382182376774573 ], [ 74.399836753983735, 16.382151922589802 ], [ 74.399828677884912, 16.382149331386199 ], [ 74.399804314875126, 16.382141515806854 ], [ 74.399230757108938, 16.381957514659341 ], [ 74.399090521611114, 16.381912526090279 ], [ 74.399043473048735, 16.381897432891954 ], [ 74.398799229086436, 16.381819077263302 ], [ 74.398739032284865, 16.381799765587743 ], [ 74.398241790791971, 16.381640244110102 ], [ 74.398234242549989, 16.381685057460878 ], [ 74.398227476404301, 16.381725228467214 ], [ 74.398209508030888, 16.381831912938377 ], [ 74.398206282782795, 16.381831996823404 ], [ 74.398034897044411, 16.38183643776328 ], [ 74.397922187576413, 16.3818393587473 ], [ 74.397859778478932, 16.381840976358038 ], [ 74.397822073803056, 16.381841953224736 ], [ 74.397735037843702, 16.381842434547696 ], [ 74.397738562291138, 16.38180407939149 ], [ 74.397710619815953, 16.381680309677918 ], [ 74.397601502271073, 16.381426627275054 ], [ 74.397582251460392, 16.381381871021386 ], [ 74.39754298651944, 16.381290586357199 ], [ 74.397386487014117, 16.381205831632489 ], [ 74.397359438592318, 16.381196500269759 ], [ 74.39668262663622, 16.38111120442851 ], [ 74.395714559711649, 16.380989200000144 ], [ 74.395631080810801, 16.380978679464782 ], [ 74.395601984930039, 16.380975012579899 ], [ 74.395528663018339, 16.380965771360628 ], [ 74.395479562378156, 16.380965261500727 ], [ 74.395408500959817, 16.380964524016306 ], [ 74.395293832621036, 16.380963330356277 ], [ 74.395131328324496, 16.380880088053257 ], [ 74.395022859201347, 16.380873982737338 ], [ 74.395003243083295, 16.380872878647679 ], [ 74.394252759811309, 16.38086014788599 ], [ 74.394127195658726, 16.380858017359021 ], [ 74.392339755192125, 16.380827683708119 ], [ 74.391438403289825, 16.380803436360985 ], [ 74.391420110320908, 16.380802944133276 ], [ 74.391318984827464, 16.380800112426098 ], [ 74.391198247155131, 16.380796732177171 ], [ 74.391178323177741, 16.380796174644388 ], [ 74.390567534175048, 16.380799464413315 ], [ 74.390519593316569, 16.380799722415126 ], [ 74.389961847120063, 16.380802628891502 ], [ 74.389926491741662, 16.380802812956926 ], [ 74.389720568752026, 16.380815053102843 ], [ 74.389697664797652, 16.380816414042467 ], [ 74.389149450275582, 16.38087703526929 ], [ 74.388159180399512, 16.3809859591099 ], [ 74.388104559063009, 16.380991967147036 ], [ 74.387145121986379, 16.381096724479967 ], [ 74.387129066555332, 16.381098477516478 ], [ 74.387106408396377, 16.381097281571034 ], [ 74.385879992261053, 16.38103252580089 ], [ 74.385845535527665, 16.38103070590352 ], [ 74.384650049902689, 16.380957274740695 ], [ 74.38458311378902, 16.380953163028181 ], [ 74.383053069008568, 16.380859172438381 ], [ 74.383039118385469, 16.380858315259552 ], [ 74.382935300477811, 16.380851471589544 ], [ 74.382795750705085, 16.380837996450879 ], [ 74.382694336932104, 16.38083222548768 ], [ 74.382671148294975, 16.380830906379057 ], [ 74.382388299614448, 16.380812839668376 ], [ 74.382375160803136, 16.380812000195608 ], [ 74.381594157269305, 16.38076211107396 ], [ 74.381551334919607, 16.380759375488033 ], [ 74.381061696936769, 16.380728097026424 ], [ 74.380674306560564, 16.380703349388117 ], [ 74.380335714449757, 16.380681718775701 ], [ 74.380312711738327, 16.380680248993656 ], [ 74.380248711718878, 16.380676355177322 ], [ 74.380236597028869, 16.380675618023609 ], [ 74.380136599347864, 16.380669533615478 ], [ 74.379479778070703, 16.380626397061235 ], [ 74.379107530968042, 16.380599202588634 ], [ 74.37896302471222, 16.380578834748199 ], [ 74.37879165967135, 16.380551394462831 ], [ 74.37798458987703, 16.380422160029603 ], [ 74.377473742631025, 16.380362156730147 ], [ 74.377272774730457, 16.380338551756395 ], [ 74.377194670535118, 16.38020944613632 ], [ 74.3771060022288, 16.380062876281151 ], [ 74.377014434276546, 16.379911513127251 ], [ 74.376864027126388, 16.379662888215936 ], [ 74.376830080925316, 16.379606601837484 ], [ 74.376826474209906, 16.379600620477465 ], [ 74.376448872241369, 16.378725510155267 ], [ 74.376262575754481, 16.378713358470232 ], [ 74.375340023605688, 16.37864599260984 ], [ 74.3749868021754, 16.378620198870646 ], [ 74.374919609383142, 16.378615291480273 ], [ 74.374827049470724, 16.378602555424816 ], [ 74.374720059508931, 16.378599607062544 ], [ 74.374682645081009, 16.378670995801649 ], [ 74.373811368274474, 16.380466480551465 ], [ 74.373801362412692, 16.380489495512816 ], [ 74.373759981506225, 16.3805846736016 ], [ 74.373725338357872, 16.380669167903459 ], [ 74.373252503505412, 16.381822447404087 ], [ 74.373230578974017, 16.381875922928437 ], [ 74.373221749128192, 16.38189746157007 ], [ 74.373178952634575, 16.382113361362087 ], [ 74.373160244654414, 16.382207833042539 ], [ 74.372938401271398, 16.383326814188454 ], [ 74.372923658445316, 16.38340117543375 ], [ 74.372922454207213, 16.383405278548029 ], [ 74.372768072923861, 16.38394732443895 ], [ 74.372563965457644, 16.384663955154672 ], [ 74.372510638407661, 16.384851187579784 ], [ 74.372409013020032, 16.385198303518255 ], [ 74.372373079210746, 16.385321038516015 ], [ 74.372191828623741, 16.385361592785934 ], [ 74.372053056398727, 16.385392642868208 ], [ 74.371933165630608, 16.385419467153501 ], [ 74.371816476877555, 16.385445575952001 ], [ 74.371814835088998, 16.385445943482502 ], [ 74.371769175673563, 16.385443154017558 ], [ 74.371678538431595, 16.385437615963983 ], [ 74.371667018884409, 16.385516701780727 ], [ 74.371650872745533, 16.385627547154744 ], [ 74.371641075720774, 16.385694800724146 ], [ 74.371545483072111, 16.386330687785808 ], [ 74.371544864967746, 16.38633479716032 ], [ 74.371501415263168, 16.38662382774713 ], [ 74.371485922212088, 16.386726890118503 ], [ 74.371408057479371, 16.387109120317088 ], [ 74.371397014523595, 16.387163326865998 ], [ 74.371395478072969, 16.387170847761052 ], [ 74.371389056396666, 16.387202274708667 ], [ 74.371386902401639, 16.387201754821696 ], [ 74.37124516358557, 16.387712627654494 ], [ 74.371238671150948, 16.38773602991046 ], [ 74.371216769611408, 16.38773406522289 ], [ 74.371098387099764, 16.387723444139542 ], [ 74.370816236123602, 16.387637993195199 ], [ 74.370580098118509, 16.387566476730139 ], [ 74.370551821031171, 16.387557912957881 ], [ 74.370524401003081, 16.387747874484301 ], [ 74.370398544400686, 16.388560457142095 ], [ 74.370340754578677, 16.388990878330457 ], [ 74.37033551149095, 16.389029930968633 ], [ 74.369826623307475, 16.391089783486549 ], [ 74.369817222630459, 16.3911278329001 ], [ 74.369817415476575, 16.391134841893177 ], [ 74.369772032199691, 16.391220801031494 ], [ 74.369607981067162, 16.392872699704949 ], [ 74.369596006409651, 16.392993272167082 ], [ 74.369586113477197, 16.393092887095278 ], [ 74.369582673891713, 16.393127519302038 ], [ 74.369572150890647, 16.393233480860847 ], [ 74.369557145260842, 16.39332249326096 ], [ 74.369389710817998, 16.393408413589576 ], [ 74.369361743156034, 16.39342276508382 ], [ 74.367546706833153, 16.394354148098294 ], [ 74.367456243794692, 16.394397281507626 ], [ 74.367318215649235, 16.394463094080802 ], [ 74.367284971494271, 16.394478944451304 ], [ 74.367130697715979, 16.394552502872443 ], [ 74.366797738688277, 16.394714489235955 ], [ 74.366315958718332, 16.394948875939704 ], [ 74.366310869489368, 16.394949021508321 ], [ 74.366307332162705, 16.394950849504944 ], [ 74.366219046238868, 16.394996475719154 ], [ 74.365201083782765, 16.395083469473363 ], [ 74.365162151570374, 16.395086796030824 ], [ 74.365103472492876, 16.395091151329261 ], [ 74.365081741234988, 16.395092764370347 ], [ 74.364979271025007, 16.395100318502159 ], [ 74.364881207002014, 16.395107547810721 ], [ 74.364710018723699, 16.395503023297817 ], [ 74.364700116974689, 16.395560351489983 ], [ 74.364664767405117, 16.395765025204192 ], [ 74.364653294699309, 16.395831449720244 ], [ 74.364211075673509, 16.395864337015183 ], [ 74.364168130732352, 16.395893568700831 ], [ 74.364083157771262, 16.395951407468765 ], [ 74.363989984691074, 16.396014828664136 ], [ 74.363884272584727, 16.396086784139431 ], [ 74.363776618938005, 16.396403046156333 ], [ 74.363838173166258, 16.39675407478952 ], [ 74.363820346630945, 16.396885809233776 ], [ 74.363816039438902, 16.39691763730092 ], [ 74.363797154560629, 16.397057185986945 ], [ 74.36360213101247, 16.397784398614395 ], [ 74.363444190497162, 16.397999244716747 ], [ 74.36339826381905, 16.398061718464511 ], [ 74.36326003492313, 16.398249749357397 ], [ 74.363260034667661, 16.39824974970491 ], [ 74.363280909272035, 16.398268424211356 ], [ 74.363263180197066, 16.398298553748045 ], [ 74.363006498313027, 16.399129597564755 ], [ 74.362781998035956, 16.399630012982513 ], [ 74.362421956293517, 16.400749590237385 ], [ 74.36224077660097, 16.4014119550191 ], [ 74.36209687805605, 16.401618757480744 ], [ 74.362216558577117, 16.401745292849842 ], [ 74.362365415157328, 16.401588506745941 ], [ 74.3623687664046, 16.401595347420319 ], [ 74.362412979198282, 16.401548437466683 ], [ 74.362919727974528, 16.402584064107376 ], [ 74.363207171087026, 16.403568005797201 ], [ 74.363544758212328, 16.40482063462736 ], [ 74.363666660651504, 16.404724298143417 ], [ 74.363721584360505, 16.405294642400158 ], [ 74.363749822677121, 16.405587886513612 ], [ 74.363773199745566, 16.40583064693363 ], [ 74.363760992371525, 16.405872682967917 ], [ 74.363748629753601, 16.405915250778193 ], [ 74.3637517565992, 16.405944681602115 ], [ 74.36374031970729, 16.405986797707516 ], [ 74.363694087294363, 16.406156891394694 ], [ 74.363689821006687, 16.406172588390131 ], [ 74.363682304536724, 16.406200241256826 ], [ 74.363682304266135, 16.406200242252311 ], [ 74.36371516746776, 16.406536407601699 ], [ 74.363755798697156, 16.407617027959351 ], [ 74.363823828759038, 16.409426347690609 ], [ 74.363694412680346, 16.410087860986994 ], [ 74.363679229086173, 16.410145902518618 ], [ 74.363637812009358, 16.41030422033753 ], [ 74.363610793765559, 16.410409657659283 ], [ 74.36358920798898, 16.410493893701194 ], [ 74.363581986887212, 16.411713275605791 ], [ 74.363575641070867, 16.412233661079675 ], [ 74.363573704862361, 16.412448918587653 ], [ 74.363572635555997, 16.412567794995041 ], [ 74.363571234817115, 16.412723502205335 ], [ 74.363571187681046, 16.412728781182924 ], [ 74.363570895983543, 16.41276117005307 ], [ 74.363570298991164, 16.412833296938224 ], [ 74.363567081662993, 16.413222179369019 ], [ 74.36356698985476, 16.413233267219734 ], [ 74.363565376600903, 16.413428258757854 ], [ 74.36356755245707, 16.413673840248471 ], [ 74.363567949028422, 16.413718640748481 ], [ 74.363572038739449, 16.414180351034215 ], [ 74.363556165913508, 16.414299584832623 ], [ 74.363471935155673, 16.414932296930669 ], [ 74.363470131279783, 16.414945847230083 ], [ 74.363462319616062, 16.415004522120572 ], [ 74.363263973722354, 16.416229151084437 ], [ 74.363253560689756, 16.416293442245291 ], [ 74.363188792587749, 16.416693333697083 ], [ 74.363196467985063, 16.416764060992172 ], [ 74.36324972408066, 16.417254768220634 ], [ 74.363249794092624, 16.417255414763261 ], [ 74.36313004079436, 16.417504683427996 ], [ 74.362584443013162, 16.418640337177468 ], [ 74.362463295113969, 16.418882468911363 ], [ 74.362224273230964, 16.419427180712379 ], [ 74.362210181360666, 16.419457933059295 ], [ 74.362150543792438, 16.419733888553193 ], [ 74.362047065537041, 16.420207104556599 ], [ 74.362040617441394, 16.420236591968116 ], [ 74.361714749057498, 16.421726810616867 ], [ 74.361688304941723, 16.421847738558366 ], [ 74.361664112244327, 16.421958371834268 ], [ 74.36154213381829, 16.422516177782835 ], [ 74.361512596708891, 16.422573734261423 ], [ 74.361491448664225, 16.422614945570011 ], [ 74.361534456537683, 16.422614588214593 ], [ 74.36180052501129, 16.422612381497718 ], [ 74.361955623286008, 16.422611095569106 ], [ 74.363310210271308, 16.422599855559529 ], [ 74.363498876219296, 16.422598289708876 ], [ 74.363537761083265, 16.42259796645002 ], [ 74.363596497680604, 16.422597479172936 ], [ 74.363685181881067, 16.422596742750446 ], [ 74.364373922422601, 16.422570268309471 ], [ 74.365259282173227, 16.422536231471028 ], [ 74.366381430617665, 16.422507111692358 ], [ 74.367095717828889, 16.422489777518663 ], [ 74.367326148059902, 16.422475911908229 ], [ 74.367616994134067, 16.422455197924691 ], [ 74.367700868017607, 16.422449224049782 ], [ 74.367801162693638, 16.422439752603132 ], [ 74.368466486714425, 16.422345015652965 ], [ 74.369051432336903, 16.422257328353098 ] ] ] } }
]
}
