{
"type": "FeatureCollection",
"name": "wards_in_police_area.writing_20260805_172659",
"crs": { "type": "name", "properties": { "name": "urn:ogc:def:crs:OGC:1.3:CRS84" } },
"features": [
{ "type": "Feature", "properties": { "KGISWardID": 873, "KGISWardCode": "0502022", "KGISWardName": " ", "SHAPE.STArea()": 4780122.0516536897, "SHAPE.STLength()": 16114.235260450059, "OBJECTID": 15673, "KGISWardNo": "22", "KGISTownCode": "0502", "LGD_WardCode": 27416, "created_user": "SA", "created_date": 1634898537000, "last_edited_user": "SURESHBV1", "last_edited_date": 1692253949000, "_overlap_percent": 99.982083020081902, "_police_station": "Basava Kalyana Town PS", "_police_feature_index": "262", "_admin_layer": "Ward", "_geometry_clipped": true }, "geometry": { "type": "Polygon", "coordinates": [ [ [ 76.935546970123696, 17.815695734919483 ], [ 76.934902873163239, 17.816409532501464 ], [ 76.934790680792645, 17.816533864305875 ], [ 76.934732151091509, 17.816547169901259 ], [ 76.934134400383186, 17.816673499963429 ], [ 76.932957567184147, 17.816273075648883 ], [ 76.932563816186118, 17.816139098189993 ], [ 76.932143276877369, 17.815989379027428 ], [ 76.931291178953458, 17.815686015447461 ], [ 76.930968891498765, 17.815559766644107 ], [ 76.930489831090853, 17.815431643619778 ], [ 76.929917048540133, 17.815308758011557 ], [ 76.929560604836524, 17.815327788195251 ], [ 76.928511416534803, 17.815412990617819 ], [ 76.928280626273121, 17.815533594336461 ], [ 76.928288909744566, 17.817000032322778 ], [ 76.92730450033271, 17.816687077228732 ], [ 76.927028948925539, 17.816696812695874 ], [ 76.926498801580934, 17.816489738544245 ], [ 76.92624711211684, 17.816583794566004 ], [ 76.925986086177559, 17.8166813393225 ], [ 76.926205538665613, 17.816743024116292 ], [ 76.926519757687899, 17.817633158787789 ], [ 76.926795521883719, 17.8184143510125 ], [ 76.926974730301012, 17.819259390268776 ], [ 76.92705615906219, 17.819550701932091 ], [ 76.927163511066851, 17.819695765553792 ], [ 76.927512598567873, 17.820487911027893 ], [ 76.927581550267888, 17.820955733737954 ], [ 76.927592490109134, 17.821029957250023 ], [ 76.927612446884041, 17.821165364598865 ], [ 76.928125992662487, 17.821552112426076 ], [ 76.928541258011563, 17.821401920443876 ], [ 76.928581250476483, 17.821388869988589 ], [ 76.928645468855237, 17.821367911801399 ], [ 76.929658525262695, 17.821037303049344 ], [ 76.929838039268219, 17.820978718568579 ], [ 76.929885638910392, 17.820841368625267 ], [ 76.929902725375001, 17.820838106402331 ], [ 76.929973718090125, 17.820847148078233 ], [ 76.92999877267809, 17.820850339161797 ], [ 76.930087892793281, 17.820861688055473 ], [ 76.930178001257588, 17.820900351418022 ], [ 76.9310227516373, 17.821139841611405 ], [ 76.93101536123875, 17.821685212750054 ], [ 76.930977913038035, 17.822222997354718 ], [ 76.930959039693747, 17.822396438714676 ], [ 76.9309280266976, 17.822681414810493 ], [ 76.930838059958333, 17.822715195380155 ], [ 76.930516996377804, 17.82285282129347 ], [ 76.930667084595143, 17.82310825520663 ], [ 76.930979734463179, 17.823640349842499 ], [ 76.931169340238512, 17.824097435256647 ], [ 76.931448476351804, 17.824756817958093 ], [ 76.931580456582211, 17.825123159784365 ], [ 76.931666992834323, 17.825371863216077 ], [ 76.931736106581212, 17.825578666557206 ], [ 76.931816870698043, 17.825847505449573 ], [ 76.931893483913512, 17.826147939572611 ], [ 76.931942403480789, 17.826379803911923 ], [ 76.931980533537839, 17.826583090095365 ], [ 76.932022525093188, 17.826866655633349 ], [ 76.932056225879748, 17.82707572075002 ], [ 76.932077131135955, 17.827239538870799 ], [ 76.932087302415297, 17.827319235428245 ], [ 76.932120402585937, 17.827611493399555 ], [ 76.932150140476509, 17.828008486538341 ], [ 76.93217666653338, 17.828385429323063 ], [ 76.932193158350799, 17.828664944707523 ], [ 76.932220164204793, 17.829086345553986 ], [ 76.932245071191602, 17.829451830350152 ], [ 76.932272680720629, 17.829929161948073 ], [ 76.932302822008381, 17.830363438498928 ], [ 76.932330939870809, 17.830748973533932 ], [ 76.932370992718674, 17.831269206431738 ], [ 76.932400902783428, 17.831681973800411 ], [ 76.932422896009996, 17.831971009444874 ], [ 76.932444524351027, 17.832255240474851 ], [ 76.932471037113203, 17.832630748405435 ], [ 76.932474717555721, 17.832681433979584 ], [ 76.932504452254591, 17.833090811389095 ], [ 76.932531844360582, 17.83340894272229 ], [ 76.93255429947763, 17.833824651286747 ], [ 76.932572383909303, 17.834112755186755 ], [ 76.932589522641905, 17.834313379284946 ], [ 76.932610829896404, 17.834483842604222 ], [ 76.932650260021717, 17.834668469842363 ], [ 76.932707890449194, 17.834874430064225 ], [ 76.932780230423035, 17.835055863905517 ], [ 76.932866325692729, 17.835262976959481 ], [ 76.932889063268846, 17.835307209256136 ], [ 76.932991755508866, 17.835506989878887 ], [ 76.933133994711866, 17.835782390440166 ], [ 76.933213468618789, 17.835930766326037 ], [ 76.933418493791976, 17.836334625604582 ], [ 76.933548788445719, 17.836613013401063 ], [ 76.933782808500609, 17.837066784716914 ], [ 76.933940506885307, 17.837386492284892 ], [ 76.934056908311035, 17.837626291388574 ], [ 76.934334189685032, 17.838202978651211 ], [ 76.934511927856121, 17.838575554278314 ], [ 76.934782742554972, 17.839107843733771 ], [ 76.935021555631579, 17.83958881548282 ], [ 76.935272705657724, 17.840102651524923 ], [ 76.935454988084885, 17.840479484911835 ], [ 76.935634151572941, 17.840844873267613 ], [ 76.935753582753819, 17.841087510226895 ], [ 76.935931329126518, 17.841460083878502 ], [ 76.936142962241405, 17.841919810088537 ], [ 76.93625456815461, 17.842130971901771 ], [ 76.936338663682662, 17.842290772204326 ], [ 76.936418064095008, 17.842431973501593 ], [ 76.93652003378709, 17.842582991839397 ], [ 76.936605098299864, 17.842694017403812 ], [ 76.936712701086535, 17.842811992717593 ], [ 76.936797519470417, 17.842900072827938 ], [ 76.936892724318724, 17.842979445300436 ], [ 76.937049866438656, 17.84310840264785 ], [ 76.937318376446996, 17.843287885109625 ], [ 76.937541606808878, 17.843434829692075 ], [ 76.938071126225793, 17.843792436071194 ], [ 76.938529833022145, 17.844110583809321 ], [ 76.938958361991013, 17.844407517070007 ], [ 76.939353730701001, 17.844684698597849 ], [ 76.939452289623219, 17.844752517244238 ], [ 76.939679890297171, 17.844909127755372 ], [ 76.939917759970598, 17.845072803894794 ], [ 76.939955754965112, 17.845098946210452 ], [ 76.940295270790841, 17.845335089329101 ], [ 76.940479478773625, 17.845473811762254 ], [ 76.940618611712324, 17.845598640809477 ], [ 76.940754809386817, 17.845729237672952 ], [ 76.940889635640247, 17.845871320125077 ], [ 76.941050509803588, 17.846067643342622 ], [ 76.941170625758431, 17.846234254295393 ], [ 76.941406243986421, 17.846556047948472 ], [ 76.941638773946906, 17.846869267468211 ], [ 76.941783657534458, 17.847073379595766 ], [ 76.941810629352815, 17.84711137607632 ], [ 76.942026718693171, 17.847427626161998 ], [ 76.942139662022342, 17.847622992376962 ], [ 76.94219174122783, 17.847730042811811 ], [ 76.942263818721372, 17.847885655359384 ], [ 76.942303918563326, 17.847992824990921 ], [ 76.942340962239939, 17.848094286295023 ], [ 76.94239934469239, 17.848229958548327 ], [ 76.942555400531276, 17.848533896889382 ], [ 76.942707900639292, 17.848786238101091 ], [ 76.942835928211821, 17.848991492730654 ], [ 76.942938016280849, 17.84915254482021 ], [ 76.94305518899678, 17.849323485785483 ], [ 76.943129670216024, 17.849424574031683 ], [ 76.943209923320438, 17.849505526416703 ], [ 76.943314182468939, 17.849590541901964 ], [ 76.943442447719079, 17.849679622251589 ], [ 76.943582488326598, 17.849749937937968 ], [ 76.943719350046422, 17.849803076215334 ], [ 76.943989733180672, 17.849877829949214 ], [ 76.944362177236982, 17.849973081020622 ], [ 76.944716513757285, 17.850055603307911 ], [ 76.944958446374827, 17.850130641014811 ], [ 76.945084871854149, 17.850188184546479 ], [ 76.945161724944612, 17.850231879024712 ], [ 76.945211578015588, 17.8502715404288 ], [ 76.945252523374904, 17.850318462234345 ], [ 76.945298009312353, 17.850369640994842 ], [ 76.945354413566747, 17.850460869315352 ], [ 76.945398947341772, 17.850562255136417 ], [ 76.945453073101689, 17.850719481615069 ], [ 76.945470417873707, 17.8507996255303 ], [ 76.94550247214292, 17.850992928270454 ], [ 76.94550646596025, 17.85108467915137 ], [ 76.945520949987127, 17.851472780485601 ], [ 76.94552337315659, 17.85153772715358 ], [ 76.945523889606974, 17.851757873328285 ], [ 76.945524197737498, 17.851889105660167 ], [ 76.945520857928059, 17.852270644959955 ], [ 76.945517082558595, 17.85274971620316 ], [ 76.94551917141672, 17.853079569071735 ], [ 76.945518502682162, 17.853463804696883 ], [ 76.945518450807157, 17.853493561297508 ], [ 76.945769029345428, 17.853502615365091 ], [ 76.945896481248695, 17.853470747747849 ], [ 76.945996002128865, 17.853441070390062 ], [ 76.946083459915855, 17.853403864709069 ], [ 76.946113035172388, 17.853369148159842 ], [ 76.946138595689661, 17.853332558149908 ], [ 76.946272101602062, 17.853306366820856 ], [ 76.946387573393039, 17.853274618428166 ], [ 76.946420435162167, 17.853174849466065 ], [ 76.946506894132639, 17.853045862932941 ], [ 76.946536656484724, 17.853028355209624 ], [ 76.946818265785055, 17.853033193625233 ], [ 76.946823737009993, 17.853168913268611 ], [ 76.946922008726858, 17.853208090901305 ], [ 76.947101810407489, 17.853215856640109 ], [ 76.94739515191867, 17.853197631246349 ], [ 76.947420111840927, 17.853192214335007 ], [ 76.947427125569561, 17.853206821779185 ], [ 76.947492503693297, 17.853340002684384 ], [ 76.94751355741171, 17.853382892518077 ], [ 76.947521030684612, 17.853398115136667 ], [ 76.94753268935537, 17.853418235134658 ], [ 76.947390699065551, 17.853499580056052 ], [ 76.947508681962233, 17.853790030684383 ], [ 76.947669554593546, 17.854074278108296 ], [ 76.947577424309713, 17.854143121207191 ], [ 76.94757776461924, 17.854403669370136 ], [ 76.947570799199553, 17.854681024183563 ], [ 76.947516359830161, 17.854724593658375 ], [ 76.947494418316921, 17.854772619721466 ], [ 76.947486726155788, 17.854835739308552 ], [ 76.947478377601144, 17.854904251821804 ], [ 76.947330087077518, 17.855269071280095 ], [ 76.947312668387326, 17.855374835076706 ], [ 76.947292624972349, 17.855496531229299 ], [ 76.947316185521672, 17.856055645809906 ], [ 76.947326017913028, 17.856269876851602 ], [ 76.94720453496727, 17.856271991340392 ], [ 76.947035472419003, 17.856288020455573 ], [ 76.946972747938005, 17.856304424456582 ], [ 76.946917558250576, 17.856325053652693 ], [ 76.946826648801746, 17.856366119470763 ], [ 76.946704092598168, 17.856434675109597 ], [ 76.946720042849364, 17.856461628472314 ], [ 76.946886708032238, 17.856743294316963 ], [ 76.947259011630251, 17.857374464896619 ], [ 76.947421721247693, 17.857643938693737 ], [ 76.947562015210309, 17.857876287510503 ], [ 76.947798171679125, 17.858290811787509 ], [ 76.947860689863688, 17.858391411754095 ], [ 76.94788557193742, 17.858431449888009 ], [ 76.948001487190652, 17.858623435289207 ], [ 76.948100956424341, 17.858798401259094 ], [ 76.948123642751355, 17.858838305891855 ], [ 76.948327165978355, 17.859190049277004 ], [ 76.948413050206113, 17.859374685755657 ], [ 76.9484814083564, 17.859587448221795 ], [ 76.948836998723877, 17.859535871240674 ], [ 76.948992955638516, 17.85952396454033 ], [ 76.949368337658328, 17.859495306276663 ], [ 76.949340604771336, 17.859149455731945 ], [ 76.949279253667825, 17.858467377311868 ], [ 76.949246403871754, 17.858018313542676 ], [ 76.949200272084795, 17.857554804414743 ], [ 76.94917015904602, 17.857252240111993 ], [ 76.94915594695351, 17.856864184241481 ], [ 76.949098378123168, 17.85637557219794 ], [ 76.949096535948868, 17.856359930207525 ], [ 76.94910028972015, 17.856252134619357 ], [ 76.949105636747859, 17.856098523622109 ], [ 76.949105661516512, 17.856097853014816 ], [ 76.94913758032267, 17.855728458518325 ], [ 76.949147649590401, 17.855669868551235 ], [ 76.949055498934243, 17.855626200526885 ], [ 76.949003655829756, 17.855449830292418 ], [ 76.948972115936627, 17.855332082600075 ], [ 76.948893758088857, 17.855039546028351 ], [ 76.94882932552089, 17.854798997531773 ], [ 76.948657985940642, 17.854189265064107 ], [ 76.948315157115317, 17.854381700402953 ], [ 76.948255013928573, 17.854248702484561 ], [ 76.948189775864151, 17.854088100805331 ], [ 76.948137031391965, 17.853958254255193 ], [ 76.948095885489209, 17.85384073959176 ], [ 76.948021100909159, 17.853627148216184 ], [ 76.947986825031506, 17.853499758854998 ], [ 76.947974277530051, 17.853453117939175 ], [ 76.947943900689822, 17.853384896358193 ], [ 76.947869372516138, 17.853217517436647 ], [ 76.94784774128523, 17.85306474851733 ], [ 76.9478417865419, 17.852976363770033 ], [ 76.947866275769741, 17.852933091501956 ], [ 76.947957631467773, 17.852841346356357 ], [ 76.94808666752597, 17.852752491773551 ], [ 76.948131458074243, 17.852831511992747 ], [ 76.948151986906609, 17.852866391579884 ], [ 76.948253088624995, 17.852796911188495 ], [ 76.948409593343996, 17.85272841869012 ], [ 76.948720266389159, 17.852605796248358 ], [ 76.949013365082692, 17.852473786812372 ], [ 76.949152321317186, 17.852398295692758 ], [ 76.949296505580392, 17.85234426700454 ], [ 76.949319068064298, 17.852337370479432 ], [ 76.949490550824237, 17.852284958897425 ], [ 76.949607182040467, 17.852228491370887 ], [ 76.949656909948089, 17.852204414354446 ], [ 76.95005341628179, 17.852021889855436 ], [ 76.950244475998801, 17.85194198513399 ], [ 76.950234166247114, 17.851977606420224 ], [ 76.950227293822024, 17.852051273748618 ], [ 76.950255499790103, 17.852034183998768 ], [ 76.950358231454842, 17.852014309201625 ], [ 76.950390999846704, 17.852007970044024 ], [ 76.950875720479843, 17.851961051548979 ], [ 76.950964351614701, 17.851953935021708 ], [ 76.951174986249399, 17.851937022718605 ], [ 76.951287896332786, 17.851926094591331 ], [ 76.951659706300205, 17.851890104119253 ], [ 76.951906472455065, 17.851856932483141 ], [ 76.952028580956451, 17.851840518311139 ], [ 76.952379569224675, 17.851798759422195 ], [ 76.952565089684541, 17.851781605500996 ], [ 76.952764625622436, 17.851768134510472 ], [ 76.953114097529962, 17.851770372987403 ], [ 76.95335367068175, 17.85176606085242 ], [ 76.95367726873765, 17.851776207783661 ], [ 76.953843113814614, 17.851786020668417 ], [ 76.954063013710027, 17.851808677470729 ], [ 76.954321057588885, 17.851850076093573 ], [ 76.954687122510236, 17.851912662051195 ], [ 76.95494964805269, 17.851953057255884 ], [ 76.954988799112371, 17.851960873644352 ], [ 76.954955213953028, 17.851834420364785 ], [ 76.954886564180029, 17.8514533438243 ], [ 76.954666655543178, 17.850232602335321 ], [ 76.954642484618702, 17.850098425901678 ], [ 76.954617874586333, 17.850021808913404 ], [ 76.954347386605363, 17.849179715108555 ], [ 76.95431374546807, 17.849074979248769 ], [ 76.954710669974475, 17.847937963665597 ], [ 76.956946369173778, 17.848415789053274 ], [ 76.95788966839315, 17.848617387328293 ], [ 76.95789284175676, 17.848618065594316 ], [ 76.95807359513789, 17.847014574653123 ], [ 76.958109356537392, 17.84669732285024 ], [ 76.958171045239467, 17.846252477288584 ], [ 76.958087449581669, 17.845797950069937 ], [ 76.957496419669638, 17.845926094322589 ], [ 76.956293429261592, 17.846003713924098 ], [ 76.955131606222054, 17.846078667760668 ], [ 76.954528164159271, 17.846060708136914 ], [ 76.953772314815978, 17.846038210467182 ], [ 76.95370301221017, 17.846036146992979 ], [ 76.953578512877371, 17.846032440700636 ], [ 76.953685673198592, 17.845330569954733 ], [ 76.953699696279571, 17.845238713257743 ], [ 76.952005845682649, 17.84522115182115 ], [ 76.951822523963585, 17.845219250573294 ], [ 76.951569099826983, 17.845007107366268 ], [ 76.95091709087886, 17.845233526270757 ], [ 76.950910875063215, 17.845235684414344 ], [ 76.94920798634368, 17.845827024388367 ], [ 76.948083482859815, 17.846217505853698 ], [ 76.948022767522133, 17.846238589588598 ], [ 76.947560138564441, 17.845843477078013 ], [ 76.947481789082175, 17.845776561579306 ], [ 76.946732847508926, 17.845193158828696 ], [ 76.946614837790207, 17.845101233488144 ], [ 76.94609518102223, 17.845464560990198 ], [ 76.945914743683417, 17.845487851625073 ], [ 76.945904741169315, 17.845489143921885 ], [ 76.945626657930077, 17.845322822884196 ], [ 76.945752143585693, 17.844322102411908 ], [ 76.945780101470618, 17.844099138940397 ], [ 76.945794297570444, 17.843984638411403 ], [ 76.945917786237715, 17.842988624893962 ], [ 76.946253375398243, 17.842750910526906 ], [ 76.945605144753742, 17.841781388259506 ], [ 76.945468009192311, 17.841576281940721 ], [ 76.944855814835094, 17.840097655552285 ], [ 76.944566882034181, 17.839399786917703 ], [ 76.944342314114735, 17.838857377018631 ], [ 76.944153468451873, 17.838401246728363 ], [ 76.943883455555991, 17.83709493608799 ], [ 76.943763229564183, 17.83651328620703 ], [ 76.943516344002717, 17.835453831536963 ], [ 76.943481525805637, 17.835304416169162 ], [ 76.943421530102924, 17.835046957975447 ], [ 76.942508478691138, 17.833096760141832 ], [ 76.942202821040468, 17.832443890623537 ], [ 76.942820241540772, 17.832005178241364 ], [ 76.942799590401151, 17.830880857333625 ], [ 76.942844542220485, 17.830809252229862 ], [ 76.943038994250884, 17.830499499770717 ], [ 76.943060441756359, 17.830465336360142 ], [ 76.942708139061025, 17.830258723040046 ], [ 76.942644274833498, 17.830221268678464 ], [ 76.942417897875316, 17.829644830420879 ], [ 76.942265824483158, 17.829257591595031 ], [ 76.941525608895574, 17.827976353144567 ], [ 76.94145662130073, 17.827473971381725 ], [ 76.941431105552596, 17.827288149297711 ], [ 76.941418583229506, 17.827196952475891 ], [ 76.941721449068041, 17.826850453519832 ], [ 76.942714313586976, 17.826706734051637 ], [ 76.942727472916573, 17.826644346080318 ], [ 76.942912448402211, 17.825767300433803 ], [ 76.943021798090328, 17.825248823932185 ], [ 76.943033137464553, 17.825180061205579 ], [ 76.94304717376825, 17.824963509772399 ], [ 76.943093291760675, 17.82472102627143 ], [ 76.943056694342758, 17.824566055657968 ], [ 76.942715398707449, 17.823120869805575 ], [ 76.942708786783228, 17.823092867005521 ], [ 76.942674736919017, 17.822948687074312 ], [ 76.942640663310982, 17.822804398951995 ], [ 76.94262641358587, 17.822763390060135 ], [ 76.942260164465466, 17.821709377766489 ], [ 76.942184432577918, 17.82149143110162 ], [ 76.942040222662968, 17.821076413047194 ], [ 76.94203527747699, 17.82105945193549 ], [ 76.940490249807667, 17.821184598388978 ], [ 76.940187176678393, 17.82128814853229 ], [ 76.94019311346652, 17.820977755843749 ], [ 76.94020193036944, 17.820932752039045 ], [ 76.940147276952501, 17.820671590468852 ], [ 76.940086520464916, 17.820381266252955 ], [ 76.940080269951196, 17.820351396796045 ], [ 76.940074357342866, 17.819935637729998 ], [ 76.940069123159162, 17.819567563587189 ], [ 76.940065293154873, 17.819140449039629 ], [ 76.940016986048761, 17.81896045773663 ], [ 76.939821485184765, 17.818382368442066 ], [ 76.939781426026343, 17.817906324429583 ], [ 76.939738315458627, 17.817568940732023 ], [ 76.93971539462791, 17.817404097600708 ], [ 76.939448656015287, 17.815953642454488 ], [ 76.939045568471329, 17.815885280795513 ], [ 76.938369335877269, 17.815411808589467 ], [ 76.938148053380047, 17.815277965933092 ], [ 76.938135788304976, 17.815270664756095 ], [ 76.938118027305961, 17.815260210174671 ], [ 76.938006331542951, 17.815209440991143 ], [ 76.936512455586453, 17.814994596041476 ], [ 76.936512435808282, 17.814994594609715 ], [ 76.93640677134762, 17.814986944875113 ], [ 76.936355766448699, 17.814983252465151 ], [ 76.936251361185313, 17.814988377186395 ], [ 76.935546970123696, 17.815695734919483 ] ] ] } },
{ "type": "Feature", "properties": { "KGISWardID": 874, "KGISWardCode": "0502023", "KGISWardName": " ", "SHAPE.STArea()": 4494447.8483204199, "SHAPE.STLength()": 17224.35340101751, "OBJECTID": 15674, "KGISWardNo": "23", "KGISTownCode": "0502", "LGD_WardCode": 27417, "created_user": "SA", "created_date": 1634898537000, "last_edited_user": "SURESHBV1", "last_edited_date": 1692253949000, "_overlap_percent": 100.00000000000009, "_police_station": "Basava Kalyana Town PS", "_police_feature_index": "262", "_admin_layer": "Ward", "_geometry_clipped": true }, "geometry": { "type": "Polygon", "coordinates": [ [ [ 76.945259864440914, 17.859709665730325 ], [ 76.94500850731761, 17.859320150860267 ], [ 76.94481484925943, 17.858980060788657 ], [ 76.944977004608859, 17.858783899831373 ], [ 76.94509308912545, 17.858670394274618 ], [ 76.945182264898136, 17.858607354617245 ], [ 76.945345771928999, 17.858493375928884 ], [ 76.945444851762417, 17.858423065777529 ], [ 76.945511486895214, 17.858353081049383 ], [ 76.945641740920323, 17.858165330990182 ], [ 76.945777668062291, 17.857938177159543 ], [ 76.945906510245223, 17.857722858689332 ], [ 76.946017353219204, 17.857501265496371 ], [ 76.946128823831799, 17.857278419234419 ], [ 76.946311982370176, 17.856906080858501 ], [ 76.946417239800965, 17.856731513663476 ], [ 76.946446834603236, 17.856682430159488 ], [ 76.946548228840996, 17.856595364551353 ], [ 76.946720042849364, 17.856461628472314 ], [ 76.946704092598168, 17.856434675109597 ], [ 76.946615889430078, 17.856285609683514 ], [ 76.946548594583035, 17.856157199837163 ], [ 76.946396811811312, 17.855888875414578 ], [ 76.946377565796169, 17.85585485016426 ], [ 76.946153265544766, 17.855474147874201 ], [ 76.946055724977811, 17.855318789670761 ], [ 76.945956405823182, 17.855137633927701 ], [ 76.945864315707311, 17.854970395038951 ], [ 76.94584487291155, 17.854935085164108 ], [ 76.945737709401655, 17.85472102069949 ], [ 76.945686903416345, 17.854593880635051 ], [ 76.945622060003899, 17.854415248310282 ], [ 76.945589208493999, 17.854286494437424 ], [ 76.945574638843794, 17.854186242798619 ], [ 76.945549134992135, 17.854044508915351 ], [ 76.945527343386232, 17.853831025624334 ], [ 76.94552588885864, 17.853786281331445 ], [ 76.945518343498719, 17.853554308648953 ], [ 76.945518450807157, 17.853493561297508 ], [ 76.945518502682162, 17.853463804696883 ], [ 76.94551917141672, 17.853079569071735 ], [ 76.945517082558595, 17.85274971620316 ], [ 76.945520857928059, 17.852270644959955 ], [ 76.945524197737498, 17.851889105660167 ], [ 76.945523889606974, 17.851757873328285 ], [ 76.94552337315659, 17.85153772715358 ], [ 76.945520949987127, 17.851472780485601 ], [ 76.94550646596025, 17.85108467915137 ], [ 76.94550247214292, 17.850992928270454 ], [ 76.945470417873707, 17.8507996255303 ], [ 76.945453073101689, 17.850719481615069 ], [ 76.945398947341772, 17.850562255136417 ], [ 76.945354413566747, 17.850460869315352 ], [ 76.945298009312353, 17.850369640994842 ], [ 76.945252523374904, 17.850318462234345 ], [ 76.945211578015588, 17.8502715404288 ], [ 76.945161724944612, 17.850231879024712 ], [ 76.945084871854149, 17.850188184546479 ], [ 76.944958446374827, 17.850130641014811 ], [ 76.944716513757285, 17.850055603307911 ], [ 76.944362177236982, 17.849973081020622 ], [ 76.943989733180672, 17.849877829949214 ], [ 76.943719350046422, 17.849803076215334 ], [ 76.943582488326598, 17.849749937937968 ], [ 76.943442447719079, 17.849679622251589 ], [ 76.943314182468939, 17.849590541901964 ], [ 76.943209923320438, 17.849505526416703 ], [ 76.943129670216024, 17.849424574031683 ], [ 76.94305518899678, 17.849323485785483 ], [ 76.942938016280849, 17.84915254482021 ], [ 76.942835928211821, 17.848991492730654 ], [ 76.942707900639292, 17.848786238101091 ], [ 76.942555400531276, 17.848533896889382 ], [ 76.94239934469239, 17.848229958548327 ], [ 76.942340962239939, 17.848094286295023 ], [ 76.942303918563326, 17.847992824990921 ], [ 76.942263818721372, 17.847885655359384 ], [ 76.94219174122783, 17.847730042811811 ], [ 76.942139662022342, 17.847622992376962 ], [ 76.942026718693171, 17.847427626161998 ], [ 76.941810629352815, 17.84711137607632 ], [ 76.941783657534458, 17.847073379595766 ], [ 76.941638773946906, 17.846869267468211 ], [ 76.941406243986421, 17.846556047948472 ], [ 76.941170625758431, 17.846234254295393 ], [ 76.941050509803588, 17.846067643342622 ], [ 76.940889635640247, 17.845871320125077 ], [ 76.940754809386817, 17.845729237672952 ], [ 76.940618611712324, 17.845598640809477 ], [ 76.940479478773625, 17.845473811762254 ], [ 76.940295270790841, 17.845335089329101 ], [ 76.939955754965112, 17.845098946210452 ], [ 76.939917759970598, 17.845072803894794 ], [ 76.939679890297171, 17.844909127755372 ], [ 76.939452289623219, 17.844752517244238 ], [ 76.939353730701001, 17.844684698597849 ], [ 76.938958361991013, 17.844407517070007 ], [ 76.938529833022145, 17.844110583809321 ], [ 76.938071126225793, 17.843792436071194 ], [ 76.937541606808878, 17.843434829692075 ], [ 76.937318376446996, 17.843287885109625 ], [ 76.937049866438656, 17.84310840264785 ], [ 76.936892724318724, 17.842979445300436 ], [ 76.936797519470417, 17.842900072827938 ], [ 76.936712701086535, 17.842811992717593 ], [ 76.936605098299864, 17.842694017403812 ], [ 76.93652003378709, 17.842582991839397 ], [ 76.936418064095008, 17.842431973501593 ], [ 76.936338663682662, 17.842290772204326 ], [ 76.93625456815461, 17.842130971901771 ], [ 76.936142962241405, 17.841919810088537 ], [ 76.935931329126518, 17.841460083878502 ], [ 76.935753582753819, 17.841087510226895 ], [ 76.935634151572941, 17.840844873267613 ], [ 76.935454988084885, 17.840479484911835 ], [ 76.935272705657724, 17.840102651524923 ], [ 76.935021555631579, 17.83958881548282 ], [ 76.934782742554972, 17.839107843733771 ], [ 76.934511927856121, 17.838575554278314 ], [ 76.934334189685032, 17.838202978651211 ], [ 76.934056908311035, 17.837626291388574 ], [ 76.933940506885307, 17.837386492284892 ], [ 76.933782808500609, 17.837066784716914 ], [ 76.933548788445719, 17.836613013401063 ], [ 76.933418493791976, 17.836334625604582 ], [ 76.933213468618789, 17.835930766326037 ], [ 76.933133994711866, 17.835782390440166 ], [ 76.932991755508866, 17.835506989878887 ], [ 76.932889063268846, 17.835307209256136 ], [ 76.932866325692729, 17.835262976959481 ], [ 76.932780230423035, 17.835055863905517 ], [ 76.932707890449194, 17.834874430064225 ], [ 76.932650260021717, 17.834668469842363 ], [ 76.932610829896404, 17.834483842604222 ], [ 76.932589522641905, 17.834313379284946 ], [ 76.932572383909303, 17.834112755186755 ], [ 76.93255429947763, 17.833824651286747 ], [ 76.932531844360582, 17.83340894272229 ], [ 76.932504452254591, 17.833090811389095 ], [ 76.932474717555721, 17.832681433979584 ], [ 76.932471037113203, 17.832630748405435 ], [ 76.932444524351027, 17.832255240474851 ], [ 76.932422896009996, 17.831971009444874 ], [ 76.932400902783428, 17.831681973800411 ], [ 76.932370992718674, 17.831269206431738 ], [ 76.932330939870809, 17.830748973533932 ], [ 76.932302822008381, 17.830363438498928 ], [ 76.932272680720629, 17.829929161948073 ], [ 76.932245071191602, 17.829451830350152 ], [ 76.932220164204793, 17.829086345553986 ], [ 76.932193158350799, 17.828664944707523 ], [ 76.93217666653338, 17.828385429323063 ], [ 76.932150140476509, 17.828008486538341 ], [ 76.932120402585937, 17.827611493399555 ], [ 76.932087302415297, 17.827319235428245 ], [ 76.932077131135955, 17.827239538870799 ], [ 76.932056225879748, 17.82707572075002 ], [ 76.932022525093188, 17.826866655633349 ], [ 76.931980533537839, 17.826583090095365 ], [ 76.931942403480789, 17.826379803911923 ], [ 76.931893483913512, 17.826147939572611 ], [ 76.931816870698043, 17.825847505449573 ], [ 76.931736106581212, 17.825578666557206 ], [ 76.931666992834323, 17.825371863216077 ], [ 76.931580456582211, 17.825123159784365 ], [ 76.931448476351804, 17.824756817958093 ], [ 76.931169340238512, 17.824097435256647 ], [ 76.930979734463179, 17.823640349842499 ], [ 76.930667084595143, 17.82310825520663 ], [ 76.930516996377804, 17.82285282129347 ], [ 76.930838059958333, 17.822715195380155 ], [ 76.9309280266976, 17.822681414810493 ], [ 76.930959039693747, 17.822396438714676 ], [ 76.930977913038035, 17.822222997354718 ], [ 76.93101536123875, 17.821685212750054 ], [ 76.9310227516373, 17.821139841611405 ], [ 76.930178001257588, 17.820900351418022 ], [ 76.930087892793281, 17.820861688055473 ], [ 76.92999877267809, 17.820850339161797 ], [ 76.929973718090125, 17.820847148078233 ], [ 76.929902725375001, 17.820838106402331 ], [ 76.929885638910392, 17.820841368625267 ], [ 76.929838039268219, 17.820978718568579 ], [ 76.929658525262695, 17.821037303049344 ], [ 76.928645468855237, 17.821367911801399 ], [ 76.928581250476483, 17.821388869988589 ], [ 76.928541258011563, 17.821401920443876 ], [ 76.928125992662487, 17.821552112426076 ], [ 76.927612446884041, 17.821165364598865 ], [ 76.927592490109134, 17.821029957250023 ], [ 76.927581550267888, 17.820955733737954 ], [ 76.927512598567873, 17.820487911027893 ], [ 76.927163511066851, 17.819695765553792 ], [ 76.92705615906219, 17.819550701932091 ], [ 76.926974730301012, 17.819259390268776 ], [ 76.926795521883719, 17.8184143510125 ], [ 76.926519757687899, 17.817633158787789 ], [ 76.926205538665613, 17.816743024116292 ], [ 76.925986086177559, 17.8166813393225 ], [ 76.925840246989708, 17.816718801281485 ], [ 76.925787978160415, 17.817018107926941 ], [ 76.925788872392971, 17.817065006924981 ], [ 76.92580290376182, 17.817800529808213 ], [ 76.92493732588423, 17.818076221458327 ], [ 76.924891206335118, 17.818579093629783 ], [ 76.924457535577716, 17.819205703445235 ], [ 76.924826070382935, 17.820265702847855 ], [ 76.924965236028669, 17.820665975480047 ], [ 76.92486054973206, 17.821764785199029 ], [ 76.924816398529373, 17.821867557269421 ], [ 76.924510848676306, 17.822578794038435 ], [ 76.924106375826412, 17.822651233424679 ], [ 76.924117653209095, 17.822696564762538 ], [ 76.92441639557741, 17.823897367866198 ], [ 76.924530194310819, 17.824055039500912 ], [ 76.924593295482637, 17.824142467556392 ], [ 76.92467435372447, 17.824254777118718 ], [ 76.924890136715433, 17.824553748129791 ], [ 76.924953024773174, 17.82459355118117 ], [ 76.925847740380803, 17.82515983167815 ], [ 76.925996172520357, 17.82526769624074 ], [ 76.926027712669182, 17.825299064269355 ], [ 76.927691610246342, 17.826720255843068 ], [ 76.928047325078182, 17.82702407903616 ], [ 76.928271217530352, 17.827276552795556 ], [ 76.928206573362999, 17.827337204294054 ], [ 76.928195460648098, 17.827347629719984 ], [ 76.92799365913406, 17.827536249813992 ], [ 76.927785045291444, 17.827460835300684 ], [ 76.927242329333396, 17.82708848084491 ], [ 76.925788435942906, 17.82712381376809 ], [ 76.925467663725243, 17.827376769093807 ], [ 76.925533562653584, 17.827518104001282 ], [ 76.925715496924866, 17.827908304593954 ], [ 76.926144822016923, 17.828829088125019 ], [ 76.926253881851579, 17.829062986745203 ], [ 76.926269253073883, 17.829249293439588 ], [ 76.926393284872816, 17.830752543737663 ], [ 76.926428627703416, 17.830759534824342 ], [ 76.926964816477721, 17.830865589249594 ], [ 76.926932132227407, 17.830977904851594 ], [ 76.926889279766201, 17.831125169101522 ], [ 76.9266985369498, 17.831780654987483 ], [ 76.926663703783021, 17.83190035497832 ], [ 76.926556223409648, 17.832275609322089 ], [ 76.926429125814067, 17.83272103027177 ], [ 76.926425917919062, 17.833320723738268 ], [ 76.926421207522196, 17.834201159185078 ], [ 76.926418900537797, 17.834632163810909 ], [ 76.926416314007199, 17.835115749022695 ], [ 76.926416292651467, 17.835295301357213 ], [ 76.926411192804537, 17.836693145591937 ], [ 76.926407450887311, 17.837719055593805 ], [ 76.926382872948608, 17.837798976177382 ], [ 76.92636657612303, 17.837851946106429 ], [ 76.926052840567337, 17.838338816334151 ], [ 76.926154614034104, 17.83833352435909 ], [ 76.926219812501699, 17.838330136335429 ], [ 76.926765515537099, 17.838270265143166 ], [ 76.926918927626829, 17.838208784607389 ], [ 76.926952451463222, 17.838065885752808 ], [ 76.92785904503468, 17.837668311334102 ], [ 76.9287209319764, 17.83729033890971 ], [ 76.92921861751033, 17.837302119184166 ], [ 76.930524829677466, 17.837333033687877 ], [ 76.930602832011061, 17.83651604630009 ], [ 76.931642902051763, 17.836771559876325 ], [ 76.931756297149747, 17.836900358915514 ], [ 76.931792137115011, 17.836941066494397 ], [ 76.93215829830865, 17.837356965894948 ], [ 76.932492462062072, 17.837736520646228 ], [ 76.932529489058751, 17.83780030328807 ], [ 76.932615681060085, 17.837948775474842 ], [ 76.932697421015732, 17.838089583377414 ], [ 76.933046890013472, 17.838665924863534 ], [ 76.933291307291697, 17.839086819757 ], [ 76.933344735939031, 17.840110409141058 ], [ 76.933425533096965, 17.840254427769228 ], [ 76.933426143983198, 17.840265223462286 ], [ 76.934022376362648, 17.841320785728787 ], [ 76.934229126370298, 17.841686809251073 ], [ 76.933431152657121, 17.841969782133685 ], [ 76.93331926470465, 17.842009459060147 ], [ 76.93247388110909, 17.842309230588125 ], [ 76.93228750434352, 17.842375318941777 ], [ 76.932367973363142, 17.842567555167037 ], [ 76.932486737624501, 17.842851268572467 ], [ 76.932519296467078, 17.842929050151724 ], [ 76.932194803411321, 17.842814936168509 ], [ 76.932128004134526, 17.84279144440579 ], [ 76.931776384118564, 17.842692147517909 ], [ 76.931736294142738, 17.842680824646987 ], [ 76.931419768399763, 17.842841337884138 ], [ 76.931133218108101, 17.842986648800359 ], [ 76.930793708573432, 17.843158815471327 ], [ 76.930703536239065, 17.84320454256601 ], [ 76.930702362999156, 17.843201245705526 ], [ 76.930693578020623, 17.843204874168997 ], [ 76.930679067751328, 17.843211905680391 ], [ 76.930680496718708, 17.843214247765573 ], [ 76.930680730112556, 17.843215770495483 ], [ 76.930534858051274, 17.843287354395621 ], [ 76.930384575390676, 17.843080109299116 ], [ 76.930318762061802, 17.84298934823488 ], [ 76.930112394819275, 17.842707807770637 ], [ 76.930041418486681, 17.842610977610249 ], [ 76.929464126322841, 17.841823382899925 ], [ 76.929415650128504, 17.841757248215629 ], [ 76.928668438399328, 17.840737821873144 ], [ 76.926284166609975, 17.840933860023139 ], [ 76.926084831264774, 17.840950726976338 ], [ 76.926070563310603, 17.841044298296953 ], [ 76.92604802817587, 17.842268509875105 ], [ 76.926050554024357, 17.842335984330845 ], [ 76.92605315141742, 17.842405373417339 ], [ 76.926054321201804, 17.842436590907518 ], [ 76.926060107257697, 17.842657328839657 ], [ 76.926066720159781, 17.842909495434611 ], [ 76.92608417321361, 17.843575229930419 ], [ 76.9260917595699, 17.843864542623351 ], [ 76.926112471092651, 17.843999304432099 ], [ 76.926115491960459, 17.844018964644551 ], [ 76.926193424549012, 17.844526016359016 ], [ 76.926135288566243, 17.844658529758224 ], [ 76.926109019448134, 17.844651315596526 ], [ 76.925790303316745, 17.845356666893238 ], [ 76.92663747999319, 17.846126211497729 ], [ 76.927375253799056, 17.846813441181066 ], [ 76.927699859002502, 17.847115806595152 ], [ 76.928625870036726, 17.847978361136338 ], [ 76.929309704936941, 17.84861532816015 ], [ 76.929292885420537, 17.848663195302692 ], [ 76.929061221082833, 17.849322513858514 ], [ 76.931147783041496, 17.85109013476778 ], [ 76.930471569037266, 17.851853551166538 ], [ 76.928664699460867, 17.850337310818613 ], [ 76.928405365972907, 17.850755628175992 ], [ 76.92824089721978, 17.851020921150731 ], [ 76.927871199272673, 17.85101648695327 ], [ 76.927831903060252, 17.851015955538365 ], [ 76.926545706737272, 17.850998570121515 ], [ 76.925255037394919, 17.851201005205418 ], [ 76.925278901763804, 17.851346038945838 ], [ 76.925540838438934, 17.852937973008039 ], [ 76.925552444803827, 17.85300850181984 ], [ 76.924613669881566, 17.853656306688134 ], [ 76.924559061662762, 17.855096584155554 ], [ 76.92462678822524, 17.855113994159716 ], [ 76.925255570144586, 17.855275630229428 ], [ 76.925898602230433, 17.85544092884216 ], [ 76.926502079540157, 17.855596056268496 ], [ 76.926801273503671, 17.85566436585297 ], [ 76.927273667770791, 17.855772217435202 ], [ 76.927884692210739, 17.855825603158827 ], [ 76.928087516562101, 17.855843324460185 ], [ 76.928915532168517, 17.855915664798676 ], [ 76.929088301704041, 17.85594865798998 ], [ 76.929413611944113, 17.856010780243395 ], [ 76.929628032606004, 17.856051725141544 ], [ 76.92971501884405, 17.85595404996765 ], [ 76.92971527238619, 17.855953765580246 ], [ 76.929992444041901, 17.855642895155224 ], [ 76.930697745506279, 17.855763044285801 ], [ 76.930595102193109, 17.855854355466988 ], [ 76.930402310704324, 17.856025862557154 ], [ 76.929749871368102, 17.856047861770541 ], [ 76.929682532324094, 17.856049997013589 ], [ 76.929633097042498, 17.856051564816774 ], [ 76.929632105578833, 17.856053058104031 ], [ 76.929670835632308, 17.856065722685813 ], [ 76.929768344387853, 17.856097611336516 ], [ 76.930043530598809, 17.856186616611666 ], [ 76.930189153917908, 17.856233716573595 ], [ 76.930335650184091, 17.856281098693916 ], [ 76.930799116168771, 17.856430997178585 ], [ 76.931044880114868, 17.856580849168029 ], [ 76.932267804373524, 17.857326501499774 ], [ 76.932423167656538, 17.857420629285198 ], [ 76.932440120606628, 17.857457439809515 ], [ 76.932446487211976, 17.857471270090059 ], [ 76.932627052262816, 17.857863543543807 ], [ 76.932696227562914, 17.858013825694375 ], [ 76.932749179723672, 17.858128833197995 ], [ 76.93300050281816, 17.858673790186106 ], [ 76.933033456289522, 17.858670939302876 ], [ 76.933195333770556, 17.858656935700999 ], [ 76.933707975667332, 17.858657434956999 ], [ 76.933926827776759, 17.858657648178539 ], [ 76.934073796865519, 17.858826662067443 ], [ 76.934575192821541, 17.859403261643621 ], [ 76.934931403034611, 17.859373536509093 ], [ 76.935226608767778, 17.859349399574079 ], [ 76.93543616403521, 17.859332266589252 ], [ 76.935479353983041, 17.859328733675056 ], [ 76.935775347430564, 17.859070759382629 ], [ 76.936475929687077, 17.858460155119911 ], [ 76.936512917784597, 17.858427915756899 ], [ 76.936548657241971, 17.85839676570507 ], [ 76.936585373078913, 17.858401942918153 ], [ 76.936725210657883, 17.858350421573451 ], [ 76.936921972701413, 17.858310220648036 ], [ 76.937026384831441, 17.858270938587893 ], [ 76.937101003466324, 17.858246292037073 ], [ 76.937195950990372, 17.858254911117672 ], [ 76.937320745578134, 17.858253671498758 ], [ 76.937403031642887, 17.858245682460826 ], [ 76.937500449313958, 17.858251886311926 ], [ 76.937615596332833, 17.858281817575993 ], [ 76.937735890833835, 17.858326039063563 ], [ 76.937866350855757, 17.858386893248348 ], [ 76.938092561504533, 17.858530459323475 ], [ 76.938273690130828, 17.858660131729025 ], [ 76.938366634008375, 17.85871418677781 ], [ 76.93844962154111, 17.858770731279865 ], [ 76.938549948167164, 17.85881515249601 ], [ 76.938657894405722, 17.858871448803605 ], [ 76.938753412282395, 17.858932649678682 ], [ 76.938859067998621, 17.859008091142716 ], [ 76.938997276135112, 17.859092771045788 ], [ 76.939145077978111, 17.859141499164107 ], [ 76.939320336490681, 17.859189955934355 ], [ 76.939816080154131, 17.859328448746009 ], [ 76.940078848887509, 17.859390375743946 ], [ 76.940351420448948, 17.859435471071851 ], [ 76.940576493048681, 17.859473868863478 ], [ 76.940876675157455, 17.859533031904387 ], [ 76.941142046118486, 17.859604491849986 ], [ 76.941339818058808, 17.859657501883198 ], [ 76.941482474932712, 17.859691937935381 ], [ 76.941632488376882, 17.859714347952188 ], [ 76.941794878334548, 17.859727074277135 ], [ 76.942012099898591, 17.859732082830813 ], [ 76.942152025340803, 17.859745030756248 ], [ 76.942384545454061, 17.859786331804852 ], [ 76.942419633406985, 17.859792563062342 ], [ 76.942609735898927, 17.859828916207089 ], [ 76.942799736466526, 17.859855708035585 ], [ 76.943179140386874, 17.859854318395609 ], [ 76.943428808823128, 17.859859002034419 ], [ 76.943830805114246, 17.859869336835068 ], [ 76.943968132578107, 17.859872749003468 ], [ 76.944145041645314, 17.859911640734641 ], [ 76.944157592834088, 17.859870135710906 ], [ 76.944168042962303, 17.85984780661644 ], [ 76.944307131324223, 17.860013184450278 ], [ 76.94470943809398, 17.860511155835088 ], [ 76.945012326320878, 17.860818884310223 ], [ 76.945281475160797, 17.860946464558157 ], [ 76.945379282587567, 17.860965126244391 ], [ 76.945483371258277, 17.860984984623823 ], [ 76.945566442858166, 17.860978906766888 ], [ 76.945695634881176, 17.860759479512065 ], [ 76.945769082676819, 17.860627274664207 ], [ 76.945805273399287, 17.860512175277524 ], [ 76.945819043331127, 17.860491323554509 ], [ 76.945832286076694, 17.860471270321145 ], [ 76.945899075855067, 17.860415623450024 ], [ 76.946062011681548, 17.860249061708004 ], [ 76.946134405573346, 17.860203669023491 ], [ 76.945936540133346, 17.860188163605564 ], [ 76.945723894406058, 17.860144868944541 ], [ 76.945561010080439, 17.860086734400934 ], [ 76.94551723484399, 17.860044598708416 ], [ 76.945465151542308, 17.859994465420581 ], [ 76.945259864440914, 17.859709665730325 ] ] ] } },
{ "type": "Feature", "properties": { "KGISWardID": 872, "KGISWardCode": "0502021", "KGISWardName": " ", "SHAPE.STArea()": 55493.516339770002, "SHAPE.STLength()": 1034.4440969662837, "OBJECTID": 15672, "KGISWardNo": "21", "KGISTownCode": "0502", "LGD_WardCode": 27415, "created_user": "SA", "created_date": 1634898537000, "last_edited_user": "SURESHBV1", "last_edited_date": 1692253949000, "_overlap_percent": 100.00000000000003, "_police_station": "Basava Kalyana Town PS", "_police_feature_index": "262", "_admin_layer": "Ward", "_geometry_clipped": true }, "geometry": { "type": "Polygon", "coordinates": [ [ [ 76.946917558250576, 17.856325053652693 ], [ 76.946972747938005, 17.856304424456582 ], [ 76.947035472419003, 17.856288020455573 ], [ 76.94720453496727, 17.856271991340392 ], [ 76.947326017913028, 17.856269876851602 ], [ 76.947316185521672, 17.856055645809906 ], [ 76.947292624972349, 17.855496531229299 ], [ 76.947312668387326, 17.855374835076706 ], [ 76.947330087077518, 17.855269071280095 ], [ 76.947478377601144, 17.854904251821804 ], [ 76.947486726155788, 17.854835739308552 ], [ 76.947494418316921, 17.854772619721466 ], [ 76.947516359830161, 17.854724593658375 ], [ 76.947570799199553, 17.854681024183563 ], [ 76.94757776461924, 17.854403669370136 ], [ 76.947577424309713, 17.854143121207191 ], [ 76.947669554593546, 17.854074278108296 ], [ 76.947508681962233, 17.853790030684383 ], [ 76.947390699065551, 17.853499580056052 ], [ 76.94753268935537, 17.853418235134658 ], [ 76.947521030684612, 17.853398115136667 ], [ 76.94751355741171, 17.853382892518077 ], [ 76.947492503693297, 17.853340002684384 ], [ 76.947427125569561, 17.853206821779185 ], [ 76.947420111840927, 17.853192214335007 ], [ 76.94739515191867, 17.853197631246349 ], [ 76.947101810407489, 17.853215856640109 ], [ 76.946922008726858, 17.853208090901305 ], [ 76.946823737009993, 17.853168913268611 ], [ 76.946818265785055, 17.853033193625233 ], [ 76.946536656484724, 17.853028355209624 ], [ 76.946506894132639, 17.853045862932941 ], [ 76.946420435162167, 17.853174849466065 ], [ 76.946387573393039, 17.853274618428166 ], [ 76.946272101602062, 17.853306366820856 ], [ 76.946138595689661, 17.853332558149908 ], [ 76.946113035172388, 17.853369148159842 ], [ 76.946083459915855, 17.853403864709069 ], [ 76.945996002128865, 17.853441070390062 ], [ 76.945896481248695, 17.853470747747849 ], [ 76.945769029345428, 17.853502615365091 ], [ 76.945518450807157, 17.853493561297508 ], [ 76.945518343498719, 17.853554308648953 ], [ 76.94552588885864, 17.853786281331445 ], [ 76.945527343386232, 17.853831025624334 ], [ 76.945549134992135, 17.854044508915351 ], [ 76.945574638843794, 17.854186242798619 ], [ 76.945589208493999, 17.854286494437424 ], [ 76.945622060003899, 17.854415248310282 ], [ 76.945686903416345, 17.854593880635051 ], [ 76.945737709401655, 17.85472102069949 ], [ 76.94584487291155, 17.854935085164108 ], [ 76.945864315707311, 17.854970395038951 ], [ 76.945956405823182, 17.855137633927701 ], [ 76.946055724977811, 17.855318789670761 ], [ 76.946153265544766, 17.855474147874201 ], [ 76.946377565796169, 17.85585485016426 ], [ 76.946396811811312, 17.855888875414578 ], [ 76.946548594583035, 17.856157199837163 ], [ 76.946615889430078, 17.856285609683514 ], [ 76.946704092598168, 17.856434675109597 ], [ 76.946826648801746, 17.856366119470763 ], [ 76.946917558250576, 17.856325053652693 ] ] ] } },
{ "type": "Feature", "properties": { "KGISWardID": 875, "KGISWardCode": "0502019", "KGISWardName": " ", "SHAPE.STArea()": 794061.14745950501, "SHAPE.STLength()": 4251.4381289766425, "OBJECTID": 15670, "KGISWardNo": "19", "KGISTownCode": "0502", "LGD_WardCode": 27413, "created_user": "SA", "created_date": 1634898537000, "last_edited_user": "SURESHBV1", "last_edited_date": 1692253949000, "_overlap_percent": 100.0, "_police_station": "Basava Kalyana Town PS", "_police_feature_index": "262", "_admin_layer": "Ward", "_geometry_clipped": true }, "geometry": { "type": "Polygon", "coordinates": [ [ [ 76.95593601995219, 17.861349811537529 ], [ 76.956697793395719, 17.861389977546494 ], [ 76.957405631021075, 17.86149119476833 ], [ 76.957462236371029, 17.861491981710873 ], [ 76.958182863587467, 17.861478770955806 ], [ 76.958204628043035, 17.861481472326741 ], [ 76.958206131395031, 17.861477637462368 ], [ 76.958276392817851, 17.861298277341401 ], [ 76.958302145680975, 17.8612618303052 ], [ 76.958496376850718, 17.860990206591865 ], [ 76.958496494872662, 17.860990042786348 ], [ 76.958500101082379, 17.860984997866126 ], [ 76.958504483198183, 17.860978870053017 ], [ 76.958507927831675, 17.860980521285345 ], [ 76.958645612741648, 17.861046527263795 ], [ 76.958645643076608, 17.861046540510774 ], [ 76.958666551784887, 17.86105656291544 ], [ 76.958720237678733, 17.86108229946117 ], [ 76.959433612780572, 17.861424272350444 ], [ 76.959477148526744, 17.861417212620953 ], [ 76.959499675445898, 17.861413558580669 ], [ 76.959543488069244, 17.861406454495995 ], [ 76.959734034530882, 17.861375551641476 ], [ 76.960464316634528, 17.861266934723222 ], [ 76.960464447024449, 17.861250602750655 ], [ 76.960465128171919, 17.861165410126112 ], [ 76.960471054466865, 17.860423938837705 ], [ 76.960473873905656, 17.860071151546773 ], [ 76.96047073628398, 17.859997162072531 ], [ 76.960474460745345, 17.859997661275642 ], [ 76.960780817132189, 17.85989417144037 ], [ 76.96082219537908, 17.859880193783027 ], [ 76.960916171417878, 17.859869993948706 ], [ 76.961706315786913, 17.859784228027522 ], [ 76.962034128773581, 17.859722240604448 ], [ 76.962838304612461, 17.859570171656632 ], [ 76.962851050224174, 17.859567761270991 ], [ 76.962842694560109, 17.859544832859097 ], [ 76.962663527579195, 17.85905315714869 ], [ 76.962556482380606, 17.858759399185779 ], [ 76.962415289745294, 17.858371934428682 ], [ 76.96238419045585, 17.85823518047609 ], [ 76.962270140626003, 17.857733682561438 ], [ 76.962107467073352, 17.857761141448758 ], [ 76.962012789614107, 17.857777121821101 ], [ 76.961303983996828, 17.857896762512844 ], [ 76.960762894071976, 17.857885093795126 ], [ 76.960739514152536, 17.85775306636646 ], [ 76.960214576973627, 17.857808128360013 ], [ 76.95937825284868, 17.857895849409584 ], [ 76.95934624071603, 17.857896181861683 ], [ 76.959270307756199, 17.857664584005992 ], [ 76.959305622256878, 17.857050766409206 ], [ 76.959306236013646, 17.856820005858356 ], [ 76.959307409539349, 17.856378352048146 ], [ 76.959316689256156, 17.855763095650111 ], [ 76.959315997650137, 17.855643110593508 ], [ 76.959314938616245, 17.855459434517673 ], [ 76.959317968793542, 17.855359520960366 ], [ 76.959395805354461, 17.854879116165208 ], [ 76.959419945293149, 17.854730134031417 ], [ 76.959449353490797, 17.854548627338936 ], [ 76.959424745250004, 17.854496375320739 ], [ 76.95940457613888, 17.85445355042884 ], [ 76.959395450649694, 17.854434171038115 ], [ 76.959333716757939, 17.8543030922818 ], [ 76.958353415400296, 17.854534045940039 ], [ 76.957001655826801, 17.854925509750228 ], [ 76.956669919791437, 17.855021578368149 ], [ 76.956246061197461, 17.855144322234608 ], [ 76.955668225875499, 17.855311654742032 ], [ 76.955607594340989, 17.855345751619137 ], [ 76.955461245573488, 17.855428053887696 ], [ 76.95539212830424, 17.85546692286011 ], [ 76.955330170807883, 17.855501762937585 ], [ 76.954541880550053, 17.855725441292439 ], [ 76.954313653361496, 17.855790199757884 ], [ 76.954178653389874, 17.855781887273508 ], [ 76.954037544357703, 17.855802978071036 ], [ 76.953421048089496, 17.855849107355201 ], [ 76.953097831989894, 17.855858551703541 ], [ 76.952920371024931, 17.855914010597509 ], [ 76.952845371202073, 17.8559374498148 ], [ 76.952839913339972, 17.855939155962933 ], [ 76.952657505808858, 17.855996162073762 ], [ 76.952314138061737, 17.856066976673272 ], [ 76.951957051596523, 17.856140620260224 ], [ 76.95150772254911, 17.856138062353875 ], [ 76.950624669160121, 17.856133033105792 ], [ 76.950379058041648, 17.856161438138123 ], [ 76.950319473737068, 17.856168329182431 ], [ 76.950025155342942, 17.856181094236742 ], [ 76.949829207058841, 17.856189592354383 ], [ 76.949267902826392, 17.856236454299228 ], [ 76.949112590544942, 17.856249420601813 ], [ 76.94910028972015, 17.856252134619357 ], [ 76.949096535948868, 17.856359930207525 ], [ 76.949098378123168, 17.85637557219794 ], [ 76.94915594695351, 17.856864184241481 ], [ 76.94917015904602, 17.857252240111993 ], [ 76.949200272084795, 17.857554804414743 ], [ 76.949246403871754, 17.858018313542676 ], [ 76.949279253667825, 17.858467377311868 ], [ 76.949340604771336, 17.859149455731945 ], [ 76.949368337658328, 17.859495306276663 ], [ 76.949439999636311, 17.859840717662731 ], [ 76.949479249702506, 17.859960800268283 ], [ 76.949634339767798, 17.860448800058869 ], [ 76.949765449265016, 17.860935125902792 ], [ 76.949828542807381, 17.86122707884369 ], [ 76.949941453676303, 17.861692552314597 ], [ 76.949994513970481, 17.861921226714109 ], [ 76.950916852170465, 17.861803923027061 ], [ 76.951829576829539, 17.861723078706511 ], [ 76.952431244588638, 17.86161665869075 ], [ 76.95335523548269, 17.861539279431582 ], [ 76.953534300479703, 17.861531372845384 ], [ 76.954282277419352, 17.861462008021988 ], [ 76.954713782289488, 17.861431389 ], [ 76.955584201039485, 17.861362902262229 ], [ 76.95593601995219, 17.861349811537529 ] ] ] } },
{ "type": "Feature", "properties": { "KGISWardID": 6327, "KGISWardCode": "0502024", "KGISWardName": " ", "SHAPE.STArea()": 1097789.571820925, "SHAPE.STLength()": 7849.2452055979729, "OBJECTID": 15675, "KGISWardNo": "24", "KGISTownCode": "0502", "LGD_WardCode": 27418, "created_user": "SA", "created_date": 1634898537000, "last_edited_user": "SURESHBV1", "last_edited_date": 1692253949000, "_overlap_percent": 99.894775243465673, "_police_station": "Basava Kalyana Town PS", "_police_feature_index": "262", "_admin_layer": "Ward", "_geometry_clipped": true }, "geometry": { "type": "MultiPolygon", "coordinates": [ [ [ [ 76.942252271769405, 17.864904311848683 ], [ 76.94225227701736, 17.864904273851412 ], [ 76.94225228138086, 17.864904241283668 ], [ 76.94228154938618, 17.864698855235268 ], [ 76.942312548616272, 17.864481313154656 ], [ 76.942350161125717, 17.864217368934227 ], [ 76.942526948291771, 17.864191165658106 ], [ 76.94253997532212, 17.864189234383637 ], [ 76.942644185930675, 17.864173787827337 ], [ 76.942866947170785, 17.864140769482052 ], [ 76.942892880069778, 17.864449413916244 ], [ 76.942900742838958, 17.864598735786217 ], [ 76.942930933275946, 17.864792653586516 ], [ 76.942972238819593, 17.864860965723611 ], [ 76.943016700424906, 17.864892571672964 ], [ 76.943063432576523, 17.86492579203642 ], [ 76.944012419739948, 17.865028665185413 ], [ 76.944254198769627, 17.865055401351075 ], [ 76.944303088138, 17.864871764356682 ], [ 76.944442981057591, 17.864307432376389 ], [ 76.944499502575979, 17.864094987683647 ], [ 76.944630057416916, 17.864141427556238 ], [ 76.944748776817846, 17.864155182886449 ], [ 76.944843281260447, 17.864152624351835 ], [ 76.944928593947196, 17.864019635087704 ], [ 76.945420749704439, 17.863995229440157 ], [ 76.945456980763225, 17.864053540731256 ], [ 76.94603447346681, 17.864015340497325 ], [ 76.946070206502284, 17.864010527602407 ], [ 76.946524971004266, 17.863937264281009 ], [ 76.946542225353269, 17.863934706911248 ], [ 76.947216557179956, 17.863834742819328 ], [ 76.947724390066114, 17.86376393538265 ], [ 76.947934527610883, 17.863727781434577 ], [ 76.947949177283803, 17.863671818141526 ], [ 76.94803684152501, 17.863312169757798 ], [ 76.948146304077412, 17.862863095126411 ], [ 76.948268090799218, 17.862382278389973 ], [ 76.948333250015295, 17.862131115179221 ], [ 76.948406105586173, 17.861853102225059 ], [ 76.948430615567645, 17.861779448413717 ], [ 76.948473783378603, 17.861649722573077 ], [ 76.948564065544289, 17.861321815001695 ], [ 76.948618866677279, 17.861036333813093 ], [ 76.948649000886832, 17.860869662427415 ], [ 76.948650737842897, 17.860814175067382 ], [ 76.948654926242213, 17.86068028533683 ], [ 76.948630107160227, 17.860418547392872 ], [ 76.948594852245193, 17.860128612245383 ], [ 76.94859062425715, 17.860093849994616 ], [ 76.948554450188865, 17.859889594534351 ], [ 76.948495730339829, 17.859632020469171 ], [ 76.9484814083564, 17.859587448221795 ], [ 76.948413050206113, 17.859374685755657 ], [ 76.948327165978355, 17.859190049277004 ], [ 76.948123642751355, 17.858838305891855 ], [ 76.948100956424341, 17.858798401259094 ], [ 76.948001487190652, 17.858623435289207 ], [ 76.94788557193742, 17.858431449888009 ], [ 76.947860689863688, 17.858391411754095 ], [ 76.947798171679125, 17.858290811787509 ], [ 76.947562015210309, 17.857876287510503 ], [ 76.947421721247693, 17.857643938693737 ], [ 76.947259011630251, 17.857374464896619 ], [ 76.946886708032238, 17.856743294316963 ], [ 76.946720042849364, 17.856461628472314 ], [ 76.946548228840996, 17.856595364551353 ], [ 76.946446834603236, 17.856682430159488 ], [ 76.946417239800965, 17.856731513663476 ], [ 76.946311982370176, 17.856906080858501 ], [ 76.946128823831799, 17.857278419234419 ], [ 76.946017353219204, 17.857501265496371 ], [ 76.945906510245223, 17.857722858689332 ], [ 76.945777668062291, 17.857938177159543 ], [ 76.945641740920323, 17.858165330990182 ], [ 76.945511486895214, 17.858353081049383 ], [ 76.945444851762417, 17.858423065777529 ], [ 76.945345771928999, 17.858493375928884 ], [ 76.945182264898136, 17.858607354617245 ], [ 76.94509308912545, 17.858670394274618 ], [ 76.944977004608859, 17.858783899831373 ], [ 76.94481484925943, 17.858980060788657 ], [ 76.94500850731761, 17.859320150860267 ], [ 76.945259864440914, 17.859709665730325 ], [ 76.945465151542308, 17.859994465420581 ], [ 76.94551723484399, 17.860044598708416 ], [ 76.945561010080439, 17.860086734400934 ], [ 76.945723894406058, 17.860144868944541 ], [ 76.945936540133346, 17.860188163605564 ], [ 76.946134405573346, 17.860203669023491 ], [ 76.946062011681548, 17.860249061708004 ], [ 76.945899075855067, 17.860415623450024 ], [ 76.945832286076694, 17.860471270321145 ], [ 76.945819043331127, 17.860491323554509 ], [ 76.945805273399287, 17.860512175277524 ], [ 76.945769082676819, 17.860627274664207 ], [ 76.945695634881176, 17.860759479512065 ], [ 76.945566442858166, 17.860978906766888 ], [ 76.945483371258277, 17.860984984623823 ], [ 76.945379282587567, 17.860965126244391 ], [ 76.945281475160797, 17.860946464558157 ], [ 76.945012326320878, 17.860818884310223 ], [ 76.94470943809398, 17.860511155835088 ], [ 76.944307131324223, 17.860013184450278 ], [ 76.944168042962303, 17.85984780661644 ], [ 76.944157592834088, 17.859870135710906 ], [ 76.944145041645314, 17.859911640734641 ], [ 76.943968132578107, 17.859872749003468 ], [ 76.943830805114246, 17.859869336835068 ], [ 76.943428808823128, 17.859859002034419 ], [ 76.943179140386874, 17.859854318395609 ], [ 76.942799736466526, 17.859855708035585 ], [ 76.942609735898927, 17.859828916207089 ], [ 76.942419633406985, 17.859792563062342 ], [ 76.942384545454061, 17.859786331804852 ], [ 76.942152025340803, 17.859745030756248 ], [ 76.942012099898591, 17.859732082830813 ], [ 76.941794878334548, 17.859727074277135 ], [ 76.941632488376882, 17.859714347952188 ], [ 76.941482474932712, 17.859691937935381 ], [ 76.941339818058808, 17.859657501883198 ], [ 76.941142046118486, 17.859604491849986 ], [ 76.940876675157455, 17.859533031904387 ], [ 76.940576493048681, 17.859473868863478 ], [ 76.940351420448948, 17.859435471071851 ], [ 76.940078848887509, 17.859390375743946 ], [ 76.939816080154131, 17.859328448746009 ], [ 76.939320336490681, 17.859189955934355 ], [ 76.939145077978111, 17.859141499164107 ], [ 76.938997276135112, 17.859092771045788 ], [ 76.938859067998621, 17.859008091142716 ], [ 76.938753412282395, 17.858932649678682 ], [ 76.938657894405722, 17.858871448803605 ], [ 76.938549948167164, 17.85881515249601 ], [ 76.93844962154111, 17.858770731279865 ], [ 76.938366634008375, 17.85871418677781 ], [ 76.938273690130828, 17.858660131729025 ], [ 76.938092561504533, 17.858530459323475 ], [ 76.937866350855757, 17.858386893248348 ], [ 76.937735890833835, 17.858326039063563 ], [ 76.937615596332833, 17.858281817575993 ], [ 76.937500449313958, 17.858251886311926 ], [ 76.937403031642887, 17.858245682460826 ], [ 76.937320745578134, 17.858253671498758 ], [ 76.937195950990372, 17.858254911117672 ], [ 76.937101003466324, 17.858246292037073 ], [ 76.937026384831441, 17.858270938587893 ], [ 76.936921972701413, 17.858310220648036 ], [ 76.936725210657883, 17.858350421573451 ], [ 76.936585373078913, 17.858401942918153 ], [ 76.936548657241971, 17.85839676570507 ], [ 76.936512917784597, 17.858427915756899 ], [ 76.936475929687077, 17.858460155119911 ], [ 76.935775347430564, 17.859070759382629 ], [ 76.935479353983041, 17.859328733675056 ], [ 76.935653303920219, 17.859512078247658 ], [ 76.9356561259535, 17.859515149089347 ], [ 76.936627975159624, 17.860572361507842 ], [ 76.936740794284475, 17.860642104438789 ], [ 76.937076003981247, 17.860823731986017 ], [ 76.937371407126832, 17.860791875963976 ], [ 76.937409757386064, 17.860954655230483 ], [ 76.937440912335362, 17.861086893316944 ], [ 76.937595599481341, 17.861320955592728 ], [ 76.937638462910016, 17.86138581329411 ], [ 76.937758241229332, 17.861564506239311 ], [ 76.937580127613572, 17.861636028254164 ], [ 76.937653228213975, 17.861750653123906 ], [ 76.937804443529515, 17.861987768990318 ], [ 76.937853056344508, 17.861962764319703 ], [ 76.938055459723813, 17.86185864973276 ], [ 76.938235075487725, 17.861766257014896 ], [ 76.938250112670431, 17.861744720978642 ], [ 76.938437791843953, 17.861475919002423 ], [ 76.938656525400916, 17.861535410630953 ], [ 76.938723878411878, 17.861553727981843 ], [ 76.938725003609122, 17.861739999962914 ], [ 76.938725258111987, 17.861782094771929 ], [ 76.938459750610619, 17.861933609170606 ], [ 76.938404540002466, 17.862041692545329 ], [ 76.938390643584015, 17.862068898172321 ], [ 76.938310568599505, 17.862225659260087 ], [ 76.938262954919622, 17.862606546357881 ], [ 76.938570680037273, 17.862659607916481 ], [ 76.938539208364318, 17.862778996038063 ], [ 76.938528949964748, 17.862831968151195 ], [ 76.938484526464919, 17.863061345032968 ], [ 76.938547919815889, 17.863055854191387 ], [ 76.938564705700941, 17.863059854031313 ], [ 76.938601540811163, 17.863068630755606 ], [ 76.938618445782637, 17.863066906929848 ], [ 76.9386745099672, 17.863082434591817 ], [ 76.93875569832845, 17.863104923789674 ], [ 76.938839352605129, 17.863124602180026 ], [ 76.939428329601654, 17.863131902556617 ], [ 76.939735085535446, 17.863135704684662 ], [ 76.939735451992263, 17.863325670179332 ], [ 76.939744054023791, 17.863488254992411 ], [ 76.939744956006237, 17.863505303218144 ], [ 76.939749636774351, 17.863593769781655 ], [ 76.939808818251137, 17.863933987070663 ], [ 76.939894685149724, 17.864133025395549 ], [ 76.940183698812845, 17.864490724954798 ], [ 76.940724657381637, 17.864622785052976 ], [ 76.940731893723893, 17.864682754688811 ], [ 76.940962554131389, 17.864762820875704 ], [ 76.941097750821612, 17.864799721653078 ], [ 76.941412996793062, 17.864865904677874 ], [ 76.94155807619228, 17.864893144569479 ], [ 76.94160697958057, 17.864900847184256 ], [ 76.942246636432714, 17.864943859732779 ], [ 76.942252271769405, 17.864904311848683 ] ] ], [ [ [ 76.950624669160121, 17.856133033105792 ], [ 76.95150772254911, 17.856138062353875 ], [ 76.951957051596523, 17.856140620260224 ], [ 76.952314138061737, 17.856066976673272 ], [ 76.952657505808858, 17.855996162073762 ], [ 76.952839913339972, 17.855939155962933 ], [ 76.952845371202073, 17.8559374498148 ], [ 76.952920371024931, 17.855914010597509 ], [ 76.953097831989894, 17.855858551703541 ], [ 76.953421048089496, 17.855849107355201 ], [ 76.954037544357703, 17.855802978071036 ], [ 76.954178653389874, 17.855781887273508 ], [ 76.954313653361496, 17.855790199757884 ], [ 76.954541880550053, 17.855725441292439 ], [ 76.955330170807883, 17.855501762937585 ], [ 76.95539212830424, 17.85546692286011 ], [ 76.955461245573488, 17.855428053887696 ], [ 76.955607594340989, 17.855345751619137 ], [ 76.955668225875499, 17.855311654742032 ], [ 76.956246061197461, 17.855144322234608 ], [ 76.956669919791437, 17.855021578368149 ], [ 76.957001655826801, 17.854925509750228 ], [ 76.958353415400296, 17.854534045940039 ], [ 76.959333716757939, 17.8543030922818 ], [ 76.9593290669482, 17.854275977801628 ], [ 76.959324874800288, 17.8542515437642 ], [ 76.959301616399159, 17.854085138662203 ], [ 76.959258399971674, 17.853775949294366 ], [ 76.959264273701336, 17.853755289932526 ], [ 76.959272205352903, 17.853339883679368 ], [ 76.958454713870523, 17.852889131321604 ], [ 76.958128207735442, 17.852709099759132 ], [ 76.957661410385867, 17.852554541492879 ], [ 76.957580974215404, 17.852538072966897 ], [ 76.956693658357153, 17.852356409123402 ], [ 76.956525331961757, 17.852321946863508 ], [ 76.955334475269296, 17.852078129703674 ], [ 76.955135268783721, 17.852034028747543 ], [ 76.954999903016144, 17.852002682338359 ], [ 76.954996976930772, 17.851991658883474 ], [ 76.954988799112371, 17.851960873644352 ], [ 76.95494964805269, 17.851953057255884 ], [ 76.954687122510236, 17.851912662051195 ], [ 76.954321057588885, 17.851850076093573 ], [ 76.954063013710027, 17.851808677470729 ], [ 76.953843113814614, 17.851786020668417 ], [ 76.95367726873765, 17.851776207783661 ], [ 76.95335367068175, 17.85176606085242 ], [ 76.953114097529962, 17.851770372987403 ], [ 76.952764625622436, 17.851768134510472 ], [ 76.952565089684541, 17.851781605500996 ], [ 76.952379569224675, 17.851798759422195 ], [ 76.952028580956451, 17.851840518311139 ], [ 76.951906472455065, 17.851856932483141 ], [ 76.951659706300205, 17.851890104119253 ], [ 76.951287896332786, 17.851926094591331 ], [ 76.951174986249399, 17.851937022718605 ], [ 76.950964351614701, 17.851953935021708 ], [ 76.950875720479843, 17.851961051548979 ], [ 76.950390999846704, 17.852007970044024 ], [ 76.950358231454842, 17.852014309201625 ], [ 76.950255499790103, 17.852034183998768 ], [ 76.950227293822024, 17.852051273748618 ], [ 76.950234166247114, 17.851977606420224 ], [ 76.950244475998801, 17.85194198513399 ], [ 76.95005341628179, 17.852021889855436 ], [ 76.949656909948089, 17.852204414354446 ], [ 76.949607182040467, 17.852228491370887 ], [ 76.949490550824237, 17.852284958897425 ], [ 76.949319068064298, 17.852337370479432 ], [ 76.949296505580392, 17.85234426700454 ], [ 76.949152321317186, 17.852398295692758 ], [ 76.949013365082692, 17.852473786812372 ], [ 76.948720266389159, 17.852605796248358 ], [ 76.948409593343996, 17.85272841869012 ], [ 76.948253088624995, 17.852796911188495 ], [ 76.948151986906609, 17.852866391579884 ], [ 76.948131458074243, 17.852831511992747 ], [ 76.94808666752597, 17.852752491773551 ], [ 76.947957631467773, 17.852841346356357 ], [ 76.947866275769741, 17.852933091501956 ], [ 76.9478417865419, 17.852976363770033 ], [ 76.94784774128523, 17.85306474851733 ], [ 76.947869372516138, 17.853217517436647 ], [ 76.947943900689822, 17.853384896358193 ], [ 76.947974277530051, 17.853453117939175 ], [ 76.947986825031506, 17.853499758854998 ], [ 76.948021100909159, 17.853627148216184 ], [ 76.948095885489209, 17.85384073959176 ], [ 76.948137031391965, 17.853958254255193 ], [ 76.948189775864151, 17.854088100805331 ], [ 76.948255013928573, 17.854248702484561 ], [ 76.948315157115317, 17.854381700402953 ], [ 76.948657985940642, 17.854189265064107 ], [ 76.94882932552089, 17.854798997531773 ], [ 76.948893758088857, 17.855039546028351 ], [ 76.948972115936627, 17.855332082600075 ], [ 76.949003655829756, 17.855449830292418 ], [ 76.949055498934243, 17.855626200526885 ], [ 76.949147649590401, 17.855669868551235 ], [ 76.94913758032267, 17.855728458518325 ], [ 76.949105661516512, 17.856097853014816 ], [ 76.949105636747859, 17.856098523622109 ], [ 76.94910028972015, 17.856252134619357 ], [ 76.949112590544942, 17.856249420601813 ], [ 76.949267902826392, 17.856236454299228 ], [ 76.949829207058841, 17.856189592354383 ], [ 76.950025155342942, 17.856181094236742 ], [ 76.950319473737068, 17.856168329182431 ], [ 76.950379058041648, 17.856161438138123 ], [ 76.950624669160121, 17.856133033105792 ] ] ] ] } },
{ "type": "Feature", "properties": { "KGISWardID": 877, "KGISWardCode": "0502017", "KGISWardName": " ", "SHAPE.STArea()": 225030.78585648499, "SHAPE.STLength()": 2685.2982954216959, "OBJECTID": 15668, "KGISWardNo": "17", "KGISTownCode": "0502", "LGD_WardCode": 27411, "created_user": "SA", "created_date": 1634898537000, "last_edited_user": "SURESHBV1", "last_edited_date": 1692253949000, "_overlap_percent": 33.365884614243917, "_police_station": "Basava Kalyana Town PS", "_police_feature_index": "262", "_admin_layer": "Ward", "_geometry_clipped": true }, "geometry": { "type": "Polygon", "coordinates": [ [ [ 76.950352647116347, 17.863507040765811 ], [ 76.950260911941399, 17.863152268789914 ], [ 76.950158523622775, 17.862736410879943 ], [ 76.950103689977382, 17.862469236676777 ], [ 76.950080264408072, 17.862318558853531 ], [ 76.950067179796193, 17.862234388893317 ], [ 76.949994513970481, 17.861921226714109 ], [ 76.949941453676303, 17.861692552314597 ], [ 76.949828542807381, 17.86122707884369 ], [ 76.949765449265016, 17.860935125902792 ], [ 76.949634339767798, 17.860448800058869 ], [ 76.949479249702506, 17.859960800268283 ], [ 76.949439999636311, 17.859840717662731 ], [ 76.949368337658328, 17.859495306276663 ], [ 76.948992955638516, 17.85952396454033 ], [ 76.948836998723877, 17.859535871240674 ], [ 76.9484814083564, 17.859587448221795 ], [ 76.948495730339829, 17.859632020469171 ], [ 76.948554450188865, 17.859889594534351 ], [ 76.94859062425715, 17.860093849994616 ], [ 76.948594852245193, 17.860128612245383 ], [ 76.948630107160227, 17.860418547392872 ], [ 76.948654926242213, 17.86068028533683 ], [ 76.948650737842897, 17.860814175067382 ], [ 76.948649000886832, 17.860869662427415 ], [ 76.948618866677279, 17.861036333813093 ], [ 76.948564065544289, 17.861321815001695 ], [ 76.948473783378603, 17.861649722573077 ], [ 76.948430615567645, 17.861779448413717 ], [ 76.948406105586173, 17.861853102225059 ], [ 76.948333250015295, 17.862131115179221 ], [ 76.948268090799218, 17.862382278389973 ], [ 76.948146304077412, 17.862863095126411 ], [ 76.94803684152501, 17.863312169757798 ], [ 76.947949177283803, 17.863671818141526 ], [ 76.947934527610883, 17.863727781434577 ], [ 76.947891985918346, 17.863890304787819 ], [ 76.947922429049797, 17.863887920422538 ], [ 76.947956652861336, 17.863885240370962 ], [ 76.948004311300508, 17.863878650570335 ], [ 76.948771778259456, 17.863772538635878 ], [ 76.948984480139686, 17.863741262767345 ], [ 76.949045190721236, 17.863737404374646 ], [ 76.949413139081557, 17.863753350584172 ], [ 76.949445251421366, 17.863754741548355 ], [ 76.949938826883511, 17.863626387577622 ], [ 76.950249622673169, 17.863595377869899 ], [ 76.950386634366694, 17.863629978023983 ], [ 76.950352647116347, 17.863507040765811 ] ] ] } },
{ "type": "Feature", "properties": { "KGISWardID": 876, "KGISWardCode": "0502018", "KGISWardName": " ", "SHAPE.STArea()": 1259277.85231995, "SHAPE.STLength()": 5890.9676074475492, "OBJECTID": 15669, "KGISWardNo": "18", "KGISTownCode": "0502", "LGD_WardCode": 27412, "created_user": "SA", "created_date": 1634898537000, "last_edited_user": "SURESHBV1", "last_edited_date": 1692253949000, "_overlap_percent": 43.995089987053433, "_police_station": "Basava Kalyana Town PS", "_police_feature_index": "262", "_admin_layer": "Ward", "_geometry_clipped": true }, "geometry": { "type": "Polygon", "coordinates": [ [ [ 76.965023209911152, 17.866168502738834 ], [ 76.965150788246163, 17.866056783623428 ], [ 76.965287366630946, 17.865946404761136 ], [ 76.96542854748111, 17.865846022076621 ], [ 76.965607025919837, 17.865732353073408 ], [ 76.965788563276519, 17.865624389936311 ], [ 76.965992784226316, 17.865536277795769 ], [ 76.966241820576656, 17.865437674433906 ], [ 76.966583534901744, 17.865322358234671 ], [ 76.966767119527105, 17.865264572431656 ], [ 76.966844803501445, 17.865246578173704 ], [ 76.966995758074248, 17.865217805613071 ], [ 76.967221512749816, 17.865181106673496 ], [ 76.967472677081346, 17.865139847062281 ], [ 76.967720815525794, 17.865095750155579 ], [ 76.967919691707948, 17.865066493226255 ], [ 76.968061754274913, 17.865046413991802 ], [ 76.968227761989638, 17.865024660062478 ], [ 76.968387639186545, 17.864990059531053 ], [ 76.968557823152196, 17.864939577118754 ], [ 76.968676934937022, 17.864875269071852 ], [ 76.968816662162581, 17.864779199215317 ], [ 76.96911938585815, 17.864523720722236 ], [ 76.969447265516877, 17.864240738155466 ], [ 76.969876377070833, 17.863902229623275 ], [ 76.970226717087144, 17.863619019007903 ], [ 76.970370075491687, 17.863508295640845 ], [ 76.970000648648579, 17.863600607312634 ], [ 76.969357604302473, 17.863348945442819 ], [ 76.968474325879924, 17.863382964375798 ], [ 76.967992325453181, 17.863523179949041 ], [ 76.967746519310438, 17.863594685556244 ], [ 76.967454695023719, 17.863615558413741 ], [ 76.966600052404033, 17.86387816512784 ], [ 76.966334433330744, 17.86389877203397 ], [ 76.966077945178313, 17.863974833719428 ], [ 76.96553963164871, 17.864113462985319 ], [ 76.965495460011681, 17.864124838127378 ], [ 76.965064145893734, 17.864214226757884 ], [ 76.964848545582655, 17.864238949565586 ], [ 76.96468719926709, 17.864263174217605 ], [ 76.964252232247901, 17.864315560393212 ], [ 76.963899298634487, 17.8643580668206 ], [ 76.963853319195039, 17.864363605505414 ], [ 76.963894497561554, 17.864328104622889 ], [ 76.963905071580783, 17.864318987174141 ], [ 76.963844931387612, 17.864006597036003 ], [ 76.963839016209192, 17.86397586909543 ], [ 76.963833403247236, 17.863946715521372 ], [ 76.963790202278673, 17.863722309048644 ], [ 76.963683358233851, 17.863167321516134 ], [ 76.963569743506994, 17.862577155099316 ], [ 76.96355574435988, 17.862504438821098 ], [ 76.963504524280097, 17.86223837930196 ], [ 76.963494283019926, 17.862185175678079 ], [ 76.963479057353155, 17.862106089815569 ], [ 76.962617749845819, 17.862184593590342 ], [ 76.962198427770645, 17.862269366590173 ], [ 76.962079693427768, 17.862293369741309 ], [ 76.961855577136532, 17.860787292859076 ], [ 76.961842790641441, 17.860701368471368 ], [ 76.961706315786913, 17.859784228027522 ], [ 76.960916171417878, 17.859869993948706 ], [ 76.96082219537908, 17.859880193783027 ], [ 76.960780817132189, 17.85989417144037 ], [ 76.960474460745345, 17.859997661275642 ], [ 76.96047073628398, 17.859997162072531 ], [ 76.960473873905656, 17.860071151546773 ], [ 76.960471054466865, 17.860423938837705 ], [ 76.960465128171919, 17.861165410126112 ], [ 76.960464447024449, 17.861250602750655 ], [ 76.960464316634528, 17.861266934723222 ], [ 76.959734034530882, 17.861375551641476 ], [ 76.959543488069244, 17.861406454495995 ], [ 76.959499675445898, 17.861413558580669 ], [ 76.959477148526744, 17.861417212620953 ], [ 76.959433612780572, 17.861424272350444 ], [ 76.958720237678733, 17.86108229946117 ], [ 76.958666551784887, 17.86105656291544 ], [ 76.958645643076608, 17.861046540510774 ], [ 76.958645612741648, 17.861046527263795 ], [ 76.958507927831675, 17.860980521285345 ], [ 76.958504483198183, 17.860978870053017 ], [ 76.958500101082379, 17.860984997866126 ], [ 76.958496494872662, 17.860990042786348 ], [ 76.958496376850718, 17.860990206591865 ], [ 76.958302145680975, 17.8612618303052 ], [ 76.958276392817851, 17.861298277341401 ], [ 76.958206131395031, 17.861477637462368 ], [ 76.958204628043035, 17.861481472326741 ], [ 76.958182863587467, 17.861478770955806 ], [ 76.957462236371029, 17.861491981710873 ], [ 76.957405631021075, 17.86149119476833 ], [ 76.956697793395719, 17.861389977546494 ], [ 76.95593601995219, 17.861349811537529 ], [ 76.955584201039485, 17.861362902262229 ], [ 76.954713782289488, 17.861431389 ], [ 76.954282277419352, 17.861462008021988 ], [ 76.953534300479703, 17.861531372845384 ], [ 76.95335523548269, 17.861539279431582 ], [ 76.952431244588638, 17.86161665869075 ], [ 76.951829576829539, 17.861723078706511 ], [ 76.950916852170465, 17.861803923027061 ], [ 76.949994513970481, 17.861921226714109 ], [ 76.950067179796193, 17.862234388893317 ], [ 76.950080264408072, 17.862318558853531 ], [ 76.950103689977382, 17.862469236676777 ], [ 76.950158523622775, 17.862736410879943 ], [ 76.950260911941399, 17.863152268789914 ], [ 76.950352647116347, 17.863507040765811 ], [ 76.950386634366694, 17.863629978023983 ], [ 76.950402471390731, 17.863633977415986 ], [ 76.950430377785366, 17.863629140358565 ], [ 76.95078535842822, 17.863567643616047 ], [ 76.951314388090381, 17.863473196636789 ], [ 76.951506785933461, 17.863390322077926 ], [ 76.951589358939074, 17.863354754401012 ], [ 76.951816919341994, 17.863315917620724 ], [ 76.952776481129561, 17.863264218000023 ], [ 76.95279169000456, 17.863263399836487 ], [ 76.95423509413547, 17.862887872885238 ], [ 76.954671285565652, 17.862774393136391 ], [ 76.954826385079841, 17.862731516379419 ], [ 76.956215239294465, 17.862347739948685 ], [ 76.957721943156912, 17.862848492686901 ], [ 76.957726616967904, 17.862850043051036 ], [ 76.957689067166683, 17.86293863881329 ], [ 76.957596176728799, 17.863078931539118 ], [ 76.957491193012501, 17.863237487733414 ], [ 76.957248325456334, 17.863783096366909 ], [ 76.957241027182135, 17.863799493086855 ], [ 76.957230666926549, 17.863811794507932 ], [ 76.956981330558023, 17.864216908866347 ], [ 76.956526554858911, 17.865039407837731 ], [ 76.956462901924738, 17.865154508689866 ], [ 76.956498567817235, 17.86553041248062 ], [ 76.956502657362179, 17.865652190268527 ], [ 76.956470160974902, 17.866485719280849 ], [ 76.956337282541369, 17.867002177709335 ], [ 76.95586685550667, 17.868466969702634 ], [ 76.956014246986825, 17.868426546825575 ], [ 76.956542220350997, 17.868281746243227 ], [ 76.956618781389494, 17.868214445335411 ], [ 76.957525665778888, 17.867417239861549 ], [ 76.957562658532325, 17.86737100770058 ], [ 76.957710590912896, 17.867239855155628 ], [ 76.957810317723329, 17.867061504625187 ], [ 76.958005339809731, 17.866817768660216 ], [ 76.958045306006156, 17.866598054144415 ], [ 76.958181078668858, 17.866197458942978 ], [ 76.958183662260311, 17.866189829598596 ], [ 76.958276415352088, 17.866135791612525 ], [ 76.958983732881578, 17.865723634044723 ], [ 76.960178248427539, 17.865240852575393 ], [ 76.960699544454172, 17.865030146666722 ], [ 76.961431887848633, 17.864637170556648 ], [ 76.962376312009638, 17.86457586712633 ], [ 76.963778038772048, 17.864494089109925 ], [ 76.963919762481979, 17.864485819788282 ], [ 76.964689198110122, 17.864309419356807 ], [ 76.964942965844301, 17.866207797280005 ], [ 76.964950336298841, 17.866248554953287 ], [ 76.965023209911152, 17.866168502738834 ] ] ] } },
{ "type": "Feature", "properties": { "KGISWardID": 881, "KGISWardCode": "0502014", "KGISWardName": " ", "SHAPE.STArea()": 1360429.064219455, "SHAPE.STLength()": 6552.8194172334388, "OBJECTID": 15665, "KGISWardNo": "14", "KGISTownCode": "0502", "LGD_WardCode": 27408, "created_user": "SA", "created_date": 1634898537000, "last_edited_user": "SURESHBV1", "last_edited_date": 1692253949000, "_overlap_percent": 39.780309277669637, "_police_station": "Basava Kalyana Town PS", "_police_feature_index": "262", "_admin_layer": "Ward", "_geometry_clipped": true }, "geometry": { "type": "Polygon", "coordinates": [ [ [ 76.966484588003397, 17.872220891097417 ], [ 76.966926398007757, 17.872210668748203 ], [ 76.967292143240641, 17.872209304442389 ], [ 76.967834863335725, 17.872193132232574 ], [ 76.968093203103535, 17.872190523605482 ], [ 76.968546722868027, 17.872210251244979 ], [ 76.968601157086084, 17.872208938912479 ], [ 76.968944813707665, 17.872193588928216 ], [ 76.969327228438289, 17.872176506004259 ], [ 76.96969788888812, 17.872172760256802 ], [ 76.970141018850967, 17.872175723768876 ], [ 76.970338241005166, 17.87217704379858 ], [ 76.97073847034109, 17.872145599440099 ], [ 76.970914391313457, 17.872131777627267 ], [ 76.97103758191696, 17.872126439210657 ], [ 76.971982623114698, 17.872081677753734 ], [ 76.972144506317932, 17.871771340232126 ], [ 76.972173362725101, 17.871716023414898 ], [ 76.972069666367702, 17.870600780474795 ], [ 76.97192698212659, 17.86998287174319 ], [ 76.971922886823563, 17.869807517785738 ], [ 76.971912414947781, 17.869359321185197 ], [ 76.971810950834126, 17.8684087248235 ], [ 76.971789454126977, 17.868207330859001 ], [ 76.971787322390739, 17.868187362933956 ], [ 76.971734818379588, 17.867462746968595 ], [ 76.971730380189967, 17.867401493526685 ], [ 76.971706246331181, 17.867068417433643 ], [ 76.9716230270446, 17.866601501752516 ], [ 76.971565616217447, 17.866279384773463 ], [ 76.971504718002024, 17.865937703807781 ], [ 76.971361210105115, 17.865455415696072 ], [ 76.971331008541213, 17.865223228209977 ], [ 76.971276864952159, 17.864806973933455 ], [ 76.971320456246502, 17.864335380510724 ], [ 76.971321137246889, 17.864328006980344 ], [ 76.971362386743394, 17.863881733529155 ], [ 76.971367062605566, 17.863598703730705 ], [ 76.971373605603503, 17.863202473960552 ], [ 76.971376185884353, 17.863046313657652 ], [ 76.970433449250777, 17.863492459332132 ], [ 76.970370075491687, 17.863508295640845 ], [ 76.970226717087144, 17.863619019007903 ], [ 76.969876377070833, 17.863902229623275 ], [ 76.969447265516877, 17.864240738155466 ], [ 76.96911938585815, 17.864523720722236 ], [ 76.968816662162581, 17.864779199215317 ], [ 76.968676934937022, 17.864875269071852 ], [ 76.968557823152196, 17.864939577118754 ], [ 76.968387639186545, 17.864990059531053 ], [ 76.968227761989638, 17.865024660062478 ], [ 76.968061754274913, 17.865046413991802 ], [ 76.967919691707948, 17.865066493226255 ], [ 76.967720815525794, 17.865095750155579 ], [ 76.967472677081346, 17.865139847062281 ], [ 76.967221512749816, 17.865181106673496 ], [ 76.966995758074248, 17.865217805613071 ], [ 76.966844803501445, 17.865246578173704 ], [ 76.966767119527105, 17.865264572431656 ], [ 76.966583534901744, 17.865322358234671 ], [ 76.966241820576656, 17.865437674433906 ], [ 76.965992784226316, 17.865536277795769 ], [ 76.965788563276519, 17.865624389936311 ], [ 76.965607025919837, 17.865732353073408 ], [ 76.96542854748111, 17.865846022076621 ], [ 76.965287366630946, 17.865946404761136 ], [ 76.965150788246163, 17.866056783623428 ], [ 76.965023209911152, 17.866168502738834 ], [ 76.964950336298841, 17.866248554953287 ], [ 76.964978304760194, 17.866403216976469 ], [ 76.965015833147689, 17.866540066124973 ], [ 76.965216033254947, 17.867244533279024 ], [ 76.965619962397838, 17.868391670385709 ], [ 76.965621428265365, 17.868395848476599 ], [ 76.965677589885004, 17.868550761727175 ], [ 76.965888939051354, 17.869785840931058 ], [ 76.965931181953906, 17.869985920121003 ], [ 76.966099462341887, 17.870375707318729 ], [ 76.966199549074659, 17.871141134690827 ], [ 76.966350898039025, 17.8718001063015 ], [ 76.966428170465733, 17.872221547180132 ], [ 76.966484588003397, 17.872220891097417 ] ] ] } },
{ "type": "Feature", "properties": { "KGISWardID": 885, "KGISWardCode": "0502020", "KGISWardName": " ", "SHAPE.STArea()": 1321133.39650613, "SHAPE.STLength()": 5966.7412974995268, "OBJECTID": 15671, "KGISWardNo": "20", "KGISTownCode": "0502", "LGD_WardCode": 27414, "created_user": "SA", "created_date": 1634898537000, "last_edited_user": "SURESHBV1", "last_edited_date": 1692253949000, "_overlap_percent": 1.656256830039277, "_police_station": "Basava Kalyana Town PS", "_police_feature_index": "262", "_admin_layer": "Ward", "_geometry_clipped": true }, "geometry": { "type": "MultiPolygon", "coordinates": [ [ [ [ 76.935008979698566, 17.876478266050331 ], [ 76.935098228649167, 17.876692286224237 ], [ 76.935155500274959, 17.876700258704638 ], [ 76.935165036724655, 17.876701586031551 ], [ 76.93517083374573, 17.876700540079938 ], [ 76.935606206726817, 17.876642538229287 ], [ 76.935008979473537, 17.876478265510716 ], [ 76.935008979698566, 17.876478266050331 ] ] ], [ [ [ 76.935363218309845, 17.874173635442599 ], [ 76.935006179236993, 17.874230229987774 ], [ 76.934710291119472, 17.874264186967086 ], [ 76.934704823570513, 17.874290600441359 ], [ 76.934704823372556, 17.874290601397544 ], [ 76.935372078639887, 17.874273791131916 ], [ 76.935363218438752, 17.874173635422164 ], [ 76.935363218309845, 17.874173635442599 ] ] ], [ [ [ 76.935187101011195, 17.869438824654591 ], [ 76.935005531597369, 17.869394485945886 ], [ 76.934980904624297, 17.869781069425752 ], [ 76.934976873474852, 17.869840451975485 ], [ 76.934900584661676, 17.870994628464349 ], [ 76.934875981710022, 17.871329060648655 ], [ 76.934873975530152, 17.871769455155562 ], [ 76.934889505791134, 17.872076735794654 ], [ 76.934898336169624, 17.872251463008254 ], [ 76.935399839466641, 17.872324570871779 ], [ 76.935508867353647, 17.872358406654364 ], [ 76.935469125887906, 17.872578873801295 ], [ 76.935467387215738, 17.872687869358906 ], [ 76.935467387166952, 17.872687872419121 ], [ 76.935528383277813, 17.872364462937078 ], [ 76.934938098670671, 17.872181270947973 ], [ 76.934977735043162, 17.871406601358096 ], [ 76.93499753285576, 17.871019650269634 ], [ 76.935036682880025, 17.870711927050401 ], [ 76.935179441747493, 17.869503654014952 ], [ 76.935187101151371, 17.869438824688817 ], [ 76.935187101011195, 17.869438824654591 ] ] ], [ [ [ 76.940017291877965, 17.869125934473253 ], [ 76.940099882121658, 17.869940133401016 ], [ 76.940000437392612, 17.869907879752031 ], [ 76.939895597746244, 17.869873880063665 ], [ 76.939808580759546, 17.869845629596259 ], [ 76.939350064824922, 17.869694218251112 ], [ 76.939239595097206, 17.869660780137288 ], [ 76.939193372788239, 17.869645919237403 ], [ 76.939142270731935, 17.869629489690645 ], [ 76.939081731085068, 17.869610026261253 ], [ 76.939073330657308, 17.869613192411503 ], [ 76.938957985653062, 17.869657557423288 ], [ 76.938740097541896, 17.869746886299875 ], [ 76.938310358418974, 17.869985001046508 ], [ 76.938102700287061, 17.870100063611858 ], [ 76.938129453750918, 17.870109510607218 ], [ 76.939197083198977, 17.869811281995077 ], [ 76.939206141548397, 17.869808752551954 ], [ 76.939371927551761, 17.86986092089435 ], [ 76.939958048918825, 17.87004535722313 ], [ 76.94013270232314, 17.870100315925889 ], [ 76.940090941572436, 17.8693107579894 ], [ 76.940068069626719, 17.869124025143762 ], [ 76.940017291877965, 17.869125934473253 ] ] ], [ [ [ 76.940015385836872, 17.8655358032231 ], [ 76.939990521990694, 17.865563125321604 ], [ 76.939840548041346, 17.865774348849893 ], [ 76.939836237601071, 17.86605373221251 ], [ 76.939835980617758, 17.866124646802849 ], [ 76.939836357299029, 17.866274475327984 ], [ 76.939836473129631, 17.866321144754412 ], [ 76.939836902906777, 17.866375183233778 ], [ 76.939851210796604, 17.866377198309632 ], [ 76.939882309294546, 17.866381767400785 ], [ 76.939864101110231, 17.866108338832515 ], [ 76.940078407548242, 17.865585540884165 ], [ 76.940104354015389, 17.865438037092289 ], [ 76.940015385836872, 17.8655358032231 ] ] ], [ [ [ 76.94155807619228, 17.864893144569479 ], [ 76.941412996793062, 17.864865904677874 ], [ 76.941097750821612, 17.864799721653078 ], [ 76.940962554131389, 17.864762820875704 ], [ 76.940731893723893, 17.864682754688811 ], [ 76.940732279308534, 17.864685943652891 ], [ 76.940739324918994, 17.864744334143829 ], [ 76.940620275476363, 17.864866554954116 ], [ 76.941079415077425, 17.864977114635469 ], [ 76.941523720199697, 17.864892550725315 ], [ 76.941548258732936, 17.864896898608858 ], [ 76.94160697958057, 17.864900847184256 ], [ 76.94155807619228, 17.864893144569479 ] ] ], [ [ [ 76.944748776817846, 17.864155182886449 ], [ 76.944630057416916, 17.864141427556238 ], [ 76.944499502575979, 17.864094987683647 ], [ 76.944442981057591, 17.864307432376389 ], [ 76.944303088138, 17.864871764356682 ], [ 76.944254198769627, 17.865055401351075 ], [ 76.944012419739948, 17.865028665185413 ], [ 76.943063432576523, 17.86492579203642 ], [ 76.943016700424906, 17.864892571672964 ], [ 76.942972238819593, 17.864860965723611 ], [ 76.942930933275946, 17.864792653586516 ], [ 76.942900742838958, 17.864598735786217 ], [ 76.942892880069778, 17.864449413916244 ], [ 76.942866947170785, 17.864140769482052 ], [ 76.942644185930675, 17.864173787827337 ], [ 76.94253997532212, 17.864189234383637 ], [ 76.942526948291771, 17.864191165658106 ], [ 76.942350161125717, 17.864217368934227 ], [ 76.942312548616272, 17.864481313154656 ], [ 76.94228154938618, 17.864698855235268 ], [ 76.94225228138086, 17.864904241283668 ], [ 76.94225227701736, 17.864904273851412 ], [ 76.942252271769405, 17.864904311848683 ], [ 76.942246636432714, 17.864943859732779 ], [ 76.942416488690569, 17.864955281135455 ], [ 76.943467041046517, 17.865025919041752 ], [ 76.943889638151973, 17.865072610030559 ], [ 76.943895070185448, 17.865054697345975 ], [ 76.944249322417164, 17.865078514187168 ], [ 76.944843281260447, 17.864152624351835 ], [ 76.944748776817846, 17.864155182886449 ] ] ], [ [ [ 76.947934527610883, 17.863727781434577 ], [ 76.947724390066114, 17.86376393538265 ], [ 76.947216557179956, 17.863834742819328 ], [ 76.946542225353269, 17.863934706911248 ], [ 76.946524971004266, 17.863937264281009 ], [ 76.946070206502284, 17.864010527602407 ], [ 76.94603447346681, 17.864015340497325 ], [ 76.947714041396324, 17.863904239720792 ], [ 76.947847660970311, 17.863893776403984 ], [ 76.947891985918346, 17.863890304787819 ], [ 76.947934527610883, 17.863727781434577 ] ] ] ] } },
{ "type": "Feature", "properties": { "KGISWardID": 887, "KGISWardCode": "0502011", "KGISWardName": " ", "SHAPE.STArea()": 622443.567376405, "SHAPE.STLength()": 5223.1668264047858, "OBJECTID": 15662, "KGISWardNo": "11", "KGISTownCode": "0502", "LGD_WardCode": 27405, "created_user": "SA", "created_date": 1634898537000, "last_edited_user": "SURESHBV1", "last_edited_date": 1692253949000, "_overlap_percent": 29.302484409119661, "_police_station": "Basava Kalyana Town PS", "_police_feature_index": "262", "_admin_layer": "Ward", "_geometry_clipped": true }, "geometry": { "type": "Polygon", "coordinates": [ [ [ 76.96656643201166, 17.875452256331194 ], [ 76.96673362144216, 17.875400849025866 ], [ 76.966869072056454, 17.875368884166615 ], [ 76.967173876453302, 17.875300790371295 ], [ 76.967399206758486, 17.875269831276839 ], [ 76.967700060338018, 17.875205599935704 ], [ 76.967835529749294, 17.875175547727206 ], [ 76.968020944831167, 17.87514690449941 ], [ 76.968290015378003, 17.875098290312177 ], [ 76.968515260840675, 17.875059682299639 ], [ 76.968790258436215, 17.875005272534189 ], [ 76.969117153663049, 17.874948426301323 ], [ 76.969370249887788, 17.874899973896525 ], [ 76.969633350030335, 17.874853331737064 ], [ 76.969958248320012, 17.874796502514982 ], [ 76.970209514559315, 17.874763366392472 ], [ 76.970430933301529, 17.874740091951619 ], [ 76.97085811336504, 17.874722386671642 ], [ 76.971175507332973, 17.874709614372424 ], [ 76.971313268994621, 17.874706309135618 ], [ 76.971381832220032, 17.874707767522306 ], [ 76.971467829228814, 17.874717245503774 ], [ 76.971507217999147, 17.874727294370267 ], [ 76.971593447896907, 17.874766084708273 ], [ 76.971663641780566, 17.874812882715599 ], [ 76.971672415562509, 17.874820165999914 ], [ 76.971719588857169, 17.874876439078722 ], [ 76.971734227615087, 17.874898443267529 ], [ 76.971748398787952, 17.874929716042779 ], [ 76.971750565815256, 17.874916617749442 ], [ 76.971761894664482, 17.874848158009218 ], [ 76.971858807335863, 17.874409595226755 ], [ 76.971905420476162, 17.874198654951453 ], [ 76.971966022757073, 17.873302329587911 ], [ 76.971977278286346, 17.872474711296242 ], [ 76.971982623114698, 17.872081677753734 ], [ 76.97103758191696, 17.872126439210657 ], [ 76.970914391313457, 17.872131777627267 ], [ 76.97073847034109, 17.872145599440099 ], [ 76.970338241005166, 17.87217704379858 ], [ 76.970141018850967, 17.872175723768876 ], [ 76.96969788888812, 17.872172760256802 ], [ 76.969327228438289, 17.872176506004259 ], [ 76.968944813707665, 17.872193588928216 ], [ 76.968601157086084, 17.872208938912479 ], [ 76.968546722868027, 17.872210251244979 ], [ 76.968093203103535, 17.872190523605482 ], [ 76.967834863335725, 17.872193132232574 ], [ 76.967292143240641, 17.872209304442389 ], [ 76.966926398007757, 17.872210668748203 ], [ 76.966484588003397, 17.872220891097417 ], [ 76.966428170465733, 17.872221547180132 ], [ 76.966442609491239, 17.872300297076482 ], [ 76.966463887424396, 17.872679286330246 ], [ 76.966420499183101, 17.87331657132027 ], [ 76.966421898332868, 17.874002859615523 ], [ 76.966370816259357, 17.8746575836179 ], [ 76.966348621531395, 17.875519041959688 ], [ 76.96656643201166, 17.875452256331194 ] ] ] } },
{ "type": "Feature", "properties": { "KGISWardID": 892, "KGISWardCode": "0502025", "KGISWardName": " ", "SHAPE.STArea()": 229877.75158087499, "SHAPE.STLength()": 2938.4678462963279, "OBJECTID": 15676, "KGISWardNo": "25", "KGISTownCode": "0502", "LGD_WardCode": 27419, "created_user": "SA", "created_date": 1634898537000, "last_edited_user": "SURESHBV1", "last_edited_date": 1692253949000, "_overlap_percent": 1.8872792977888602, "_police_station": "Basava Kalyana Town PS", "_police_feature_index": "262", "_admin_layer": "Ward", "_geometry_clipped": true }, "geometry": { "type": "Polygon", "coordinates": [ [ [ 76.93517083374573, 17.876700540079938 ], [ 76.935165036724655, 17.876701586031551 ], [ 76.935770503326594, 17.876785868569819 ], [ 76.936278668348848, 17.876905862031919 ], [ 76.936355978820302, 17.876924117790271 ], [ 76.937019054961567, 17.876970943941981 ], [ 76.937595579835829, 17.876947500526594 ], [ 76.93775108894522, 17.876940003938735 ], [ 76.937869417119344, 17.877105314578106 ], [ 76.938061551117968, 17.877389513615157 ], [ 76.93811854057607, 17.877580177921516 ], [ 76.938155116978876, 17.877671796437426 ], [ 76.938253170492459, 17.877742664524597 ], [ 76.938331131086031, 17.877894705303973 ], [ 76.938548985450367, 17.878319571081104 ], [ 76.938650695772083, 17.878586150899022 ], [ 76.938771135604071, 17.878932011034575 ], [ 76.938774672664081, 17.878931898588867 ], [ 76.938774474806493, 17.878929926968958 ], [ 76.93864891625681, 17.878555460252102 ], [ 76.9385560745812, 17.878278566011055 ], [ 76.938311579308234, 17.877645835940655 ], [ 76.938228856470701, 17.87755724231603 ], [ 76.938216286134875, 17.877447956507471 ], [ 76.937948895673429, 17.877175639412531 ], [ 76.937777002880082, 17.876958703384499 ], [ 76.937666359072935, 17.876819064670613 ], [ 76.937515972756202, 17.876825892281406 ], [ 76.93695626150776, 17.876851302247225 ], [ 76.936306320629996, 17.876813266918283 ], [ 76.935721235546509, 17.876674177938998 ], [ 76.935606206726817, 17.876642538229287 ], [ 76.93517083374573, 17.876700540079938 ] ] ] } },
{ "type": "Feature", "properties": { "KGISWardID": 6331, "KGISWardCode": "0502029", "KGISWardName": " ", "SHAPE.STArea()": 223057.63897321001, "SHAPE.STLength()": 3139.5707632949511, "OBJECTID": 15680, "KGISWardNo": "29", "KGISTownCode": "0502", "LGD_WardCode": 1885269, "created_user": "SA", "created_date": 1634898537000, "last_edited_user": "SURESHBV1", "last_edited_date": 1692253949000, "_overlap_percent": 0.023720713658887626, "_police_station": "Basava Kalyana Town PS", "_police_feature_index": "262", "_admin_layer": "Ward", "_geometry_clipped": true }, "geometry": { "type": "MultiPolygon", "coordinates": [ [ [ [ 76.93879253798616, 17.880424848069239 ], [ 76.938783588943465, 17.880519553888561 ], [ 76.938773617752062, 17.880625096590332 ], [ 76.938789157604518, 17.880566393068595 ], [ 76.938806357619129, 17.880364405695474 ], [ 76.93879253798616, 17.880424848069239 ] ] ], [ [ [ 76.938806357775746, 17.880364403856163 ], [ 76.938814080237023, 17.88027370293025 ], [ 76.938818572713316, 17.879545576312807 ], [ 76.938806357775746, 17.880364403856163 ] ] ], [ [ [ 76.938771135604071, 17.878932011034575 ], [ 76.938776120592891, 17.878946326973463 ], [ 76.938774672664081, 17.878931898588867 ], [ 76.938771135604071, 17.878932011034575 ] ] ] ] } },
{ "type": "Feature", "properties": { "KGISWardID": 6333, "KGISWardCode": "0502005", "KGISWardName": " ", "SHAPE.STArea()": 3451271.8682898898, "SHAPE.STLength()": 9141.7143312742719, "OBJECTID": 15656, "KGISWardNo": "5", "KGISTownCode": "0502", "LGD_WardCode": 27399, "created_user": "SA", "created_date": 1634898537000, "last_edited_user": "SURESHBV1", "last_edited_date": 1692253949000, "_overlap_percent": 10.234448679246647, "_police_station": "Basava Kalyana Town PS", "_police_feature_index": "262", "_admin_layer": "Ward", "_geometry_clipped": true }, "geometry": { "type": "Polygon", "coordinates": [ [ [ 76.973677964663963, 17.880974360160451 ], [ 76.973555205585242, 17.880982733756984 ], [ 76.971775346709393, 17.881104737084353 ], [ 76.971753110700718, 17.881035274566678 ], [ 76.971690644175851, 17.880857931355685 ], [ 76.971624999272578, 17.880420339811096 ], [ 76.971710988146867, 17.877798859687456 ], [ 76.971716404065816, 17.877633717825923 ], [ 76.97165654197893, 17.877635955206099 ], [ 76.971538615397563, 17.877640876089544 ], [ 76.971542877613146, 17.877387082464008 ], [ 76.971546662275472, 17.877161658012739 ], [ 76.971559504526866, 17.876397087394349 ], [ 76.971588827127249, 17.875985872631436 ], [ 76.971595185442368, 17.875896530522571 ], [ 76.971600292857872, 17.875824818117405 ], [ 76.971650471213721, 17.875521555573407 ], [ 76.971748398787952, 17.874929716042779 ], [ 76.971734227615087, 17.874898443267529 ], [ 76.971719588857169, 17.874876439078722 ], [ 76.971672415562509, 17.874820165999914 ], [ 76.971663641780566, 17.874812882715599 ], [ 76.971593447896907, 17.874766084708273 ], [ 76.971507217999147, 17.874727294370267 ], [ 76.971467829228814, 17.874717245503774 ], [ 76.971381832220032, 17.874707767522306 ], [ 76.971313268994621, 17.874706309135618 ], [ 76.971175507332973, 17.874709614372424 ], [ 76.97085811336504, 17.874722386671642 ], [ 76.970430933301529, 17.874740091951619 ], [ 76.970209514559315, 17.874763366392472 ], [ 76.969958248320012, 17.874796502514982 ], [ 76.969633350030335, 17.874853331737064 ], [ 76.969370249887788, 17.874899973896525 ], [ 76.969117153663049, 17.874948426301323 ], [ 76.968790258436215, 17.875005272534189 ], [ 76.968515260840675, 17.875059682299639 ], [ 76.968290015378003, 17.875098290312177 ], [ 76.968020944831167, 17.87514690449941 ], [ 76.967835529749294, 17.875175547727206 ], [ 76.967700060338018, 17.875205599935704 ], [ 76.967399206758486, 17.875269831276839 ], [ 76.967173876453302, 17.875300790371295 ], [ 76.966869072056454, 17.875368884166615 ], [ 76.96673362144216, 17.875400849025866 ], [ 76.96656643201166, 17.875452256331194 ], [ 76.966348621531395, 17.875519041959688 ], [ 76.966345758531446, 17.875630165429907 ], [ 76.966322785522991, 17.875821378283277 ], [ 76.965823719463785, 17.877077099264035 ], [ 76.965810954362382, 17.877114542866128 ], [ 76.96498029570337, 17.879551800293392 ], [ 76.964927953255284, 17.879737988037515 ], [ 76.96517709833978, 17.879805444748943 ], [ 76.967044483317707, 17.879875999271583 ], [ 76.968214636969009, 17.87999105740683 ], [ 76.968527872003122, 17.879942723359349 ], [ 76.969006350915677, 17.879988645976205 ], [ 76.969765299970078, 17.880049497957291 ], [ 76.97048410322455, 17.880361296349218 ], [ 76.971430125488752, 17.880506167242157 ], [ 76.97152183301769, 17.880520542519232 ], [ 76.971603353477192, 17.880532886025769 ], [ 76.971663551541795, 17.880977585841034 ], [ 76.971727259893285, 17.88115767378078 ], [ 76.971752084277426, 17.881227842789929 ], [ 76.97349391525124, 17.880995506792168 ], [ 76.973606577664128, 17.88098047781352 ], [ 76.973958467631377, 17.881043105993719 ], [ 76.973677964663963, 17.880974360160451 ] ] ] } }
]
}
