{
"type": "FeatureCollection",
"name": "police_station_boundary.writing_20260805_172659",
"crs": { "type": "name", "properties": { "name": "urn:ogc:def:crs:OGC:1.3:CRS84" } },
"features": [
{ "type": "Feature", "properties": { "Shape.STArea()": 318635148.00436038, "Shape.STLength()": 110054.09518474696, "OBJECTID": 219, "KGISPS_BOUNDID": 311, "PS_BOUNDName": "Rattihalli PS", "PS_BOUNDCode": "PSB - 311", "KGISPS_SUB_DIVID": 144, "_source_layer": "Police Station Boundary", "_source_layer_url": "https://kgis.ksrsac.in/kgismaps/rest/services/Home/Home_Department/MapServer/82", "_police_station": "Rattihalli PS" }, "geometry": { "type": "Polygon", "coordinates": [ [ [ 75.542047272956836, 14.510036356020445 ], [ 75.541841516852642, 14.510358569569892 ], [ 75.541108522416806, 14.51156613435302 ], [ 75.540779730764058, 14.51210778977423 ], [ 75.54064501566026, 14.512319368058607 ], [ 75.540629137650711, 14.512344302443719 ], [ 75.539830116635827, 14.513599205482153 ], [ 75.539413539027009, 14.514278646325113 ], [ 75.539365904662901, 14.51435633521133 ], [ 75.538717257507201, 14.516145545419723 ], [ 75.5385987426003, 14.516440104915539 ], [ 75.538613680372464, 14.51645904641035 ], [ 75.53657369296954, 14.517475561920264 ], [ 75.535782453637424, 14.517894517519158 ], [ 75.534984613527797, 14.518316963753902 ], [ 75.534048066134972, 14.518661114837 ], [ 75.533023929998294, 14.519037444748788 ], [ 75.531452707731503, 14.51952887237162 ], [ 75.531413117000099, 14.519541252752083 ], [ 75.531149841879625, 14.519626352260277 ], [ 75.529418439568346, 14.520137411437414 ], [ 75.529024256192429, 14.520266768066476 ], [ 75.526360483071215, 14.52114089747033 ], [ 75.526316489493738, 14.520263269963376 ], [ 75.526322745841227, 14.520125504980449 ], [ 75.526302263300991, 14.51973433708433 ], [ 75.526277892638134, 14.51936889578171 ], [ 75.526260515070078, 14.519146689538667 ], [ 75.52624649793826, 14.518867062790394 ], [ 75.526227808572358, 14.518494256345843 ], [ 75.526216501292822, 14.518268702947436 ], [ 75.526213419450585, 14.518207194872144 ], [ 75.526140423762953, 14.517899799915581 ], [ 75.525923744014648, 14.51698732540118 ], [ 75.525597655115135, 14.515614097489594 ], [ 75.525587787163474, 14.515572540591425 ], [ 75.525310559408112, 14.513794925610277 ], [ 75.525218988035647, 14.51295561300112 ], [ 75.525002568790356, 14.510971967618952 ], [ 75.524962284793972, 14.510937798518077 ], [ 75.524149944693093, 14.510248787157636 ], [ 75.522178180883884, 14.510170003074462 ], [ 75.522091558131294, 14.510156560608618 ], [ 75.520946914860829, 14.509978923730252 ], [ 75.52092082892085, 14.509974875072997 ], [ 75.519299554586453, 14.509730319519781 ], [ 75.518434628712271, 14.509738171549392 ], [ 75.518403669358506, 14.509734805141093 ], [ 75.5169992289145, 14.509582083304396 ], [ 75.51697880287692, 14.509579862545319 ], [ 75.514635252682837, 14.509592716407973 ], [ 75.514067620479096, 14.50959582634119 ], [ 75.514071727728904, 14.50959448285162 ], [ 75.514002963197029, 14.509495359155711 ], [ 75.513933221018803, 14.509394825327703 ], [ 75.513747778120461, 14.508404626617372 ], [ 75.513718083225299, 14.508254843027578 ], [ 75.513550587956303, 14.507409991446485 ], [ 75.513546099507892, 14.507386049974372 ], [ 75.51354602807875, 14.507385660450876 ], [ 75.513530067142497, 14.507300510105027 ], [ 75.513865892202602, 14.506368970491256 ], [ 75.514430766814101, 14.504772408926323 ], [ 75.514057547514511, 14.50402548679534 ], [ 75.514023338315781, 14.503957021430914 ], [ 75.514008305808304, 14.503803588289831 ], [ 75.513859688004771, 14.50352206924336 ], [ 75.5138603844172, 14.503341906331945 ], [ 75.513675657237215, 14.503289751628415 ], [ 75.513468668187031, 14.503301863073753 ], [ 75.513352327578843, 14.503213496451373 ], [ 75.513343903011645, 14.503114803795901 ], [ 75.513460947426836, 14.503020861079859 ], [ 75.513682227832305, 14.502843251807596 ], [ 75.51364275441415, 14.502689077350581 ], [ 75.513510980867849, 14.502607090636163 ], [ 75.513308791777931, 14.502516266199613 ], [ 75.513256288474125, 14.502430278870559 ], [ 75.513364500475149, 14.502342738666799 ], [ 75.513710680743884, 14.502202450025591 ], [ 75.513851907431871, 14.502117172750587 ], [ 75.513758054757162, 14.501906634488147 ], [ 75.513585208394119, 14.501629316322987 ], [ 75.513499573879216, 14.501571093177155 ], [ 75.513412119666626, 14.501414197247984 ], [ 75.513331362653062, 14.501233735867959 ], [ 75.513404872978256, 14.501010943153387 ], [ 75.513477720440079, 14.500959733108829 ], [ 75.513462466294143, 14.500858868279234 ], [ 75.513424338662219, 14.500860060999557 ], [ 75.513308715088712, 14.500863676191994 ], [ 75.513006012005363, 14.500873140188753 ], [ 75.512360277263369, 14.500884572058011 ], [ 75.512303257107675, 14.500887009207849 ], [ 75.511713021502288, 14.500912230081809 ], [ 75.511337496112006, 14.500929550157725 ], [ 75.511151485302364, 14.500938130211408 ], [ 75.510870994397933, 14.500942076747018 ], [ 75.510453005319832, 14.500923644437188 ], [ 75.510164009861569, 14.500913321545687 ], [ 75.509823208432351, 14.500895154414378 ], [ 75.509195501976919, 14.500877415508709 ], [ 75.509135611817413, 14.500875970352062 ], [ 75.509093598128501, 14.500874957483045 ], [ 75.50890123909484, 14.50087031756739 ], [ 75.508590233851706, 14.500862815201298 ], [ 75.507987246349188, 14.500867961842582 ], [ 75.507807152212791, 14.500869524865173 ], [ 75.507376805268663, 14.500873258658284 ], [ 75.506766287257832, 14.500874958326296 ], [ 75.506646125066723, 14.500876769965204 ], [ 75.506186484972744, 14.500872673514586 ], [ 75.506103385875704, 14.500860137808903 ], [ 75.504742114445619, 14.500654709391249 ], [ 75.503820617863482, 14.50051958913315 ], [ 75.50377866964736, 14.500513436993087 ], [ 75.502248325279481, 14.500510028479699 ], [ 75.502248623431058, 14.500521676669354 ], [ 75.502249284502184, 14.500532941635406 ], [ 75.502260389465974, 14.500722141710208 ], [ 75.502262204748291, 14.500753069062307 ], [ 75.502111601097795, 14.500973828230634 ], [ 75.501819635839439, 14.501361680820716 ], [ 75.501250034588068, 14.502140630952862 ], [ 75.501076451728963, 14.502388082380548 ], [ 75.500997351855105, 14.502441508091412 ], [ 75.500731293413835, 14.502621208364177 ], [ 75.500536552838369, 14.502738245611177 ], [ 75.499765413528479, 14.503267617722361 ], [ 75.499405191094908, 14.503496029903717 ], [ 75.49922229329438, 14.503632036709423 ], [ 75.498529623457415, 14.503908481789233 ], [ 75.498164684282955, 14.504062162108207 ], [ 75.498130828106397, 14.50407641885157 ], [ 75.49802395484889, 14.50411625283537 ], [ 75.497554976646626, 14.5042910509601 ], [ 75.497062586273984, 14.504468397653298 ], [ 75.49661440858759, 14.504779033655552 ], [ 75.49631345583586, 14.505007394526727 ], [ 75.495865459748316, 14.50531594293264 ], [ 75.495656586934729, 14.505482761368194 ], [ 75.495175529603799, 14.505823148577285 ], [ 75.495091187315765, 14.505882827351339 ], [ 75.495037106303329, 14.505921093935202 ], [ 75.495024918011978, 14.505929717926069 ], [ 75.495001643795973, 14.505958599757147 ], [ 75.494824561877266, 14.506088324449619 ], [ 75.494497205205221, 14.50629063643742 ], [ 75.493427238800692, 14.507031079586305 ], [ 75.493258675358788, 14.507123014222097 ], [ 75.492555617047316, 14.507608614082525 ], [ 75.492470262533288, 14.507647631943987 ], [ 75.492455364777143, 14.507654442376257 ], [ 75.492211832820217, 14.507765768937135 ], [ 75.491189255334788, 14.508242589969424 ], [ 75.490682805191284, 14.508471951490288 ], [ 75.490631223533924, 14.508495311770979 ], [ 75.490222863409102, 14.508680248906122 ], [ 75.489586719213875, 14.508976673491821 ], [ 75.488988948851912, 14.50958451802507 ], [ 75.488971366618841, 14.509603033304499 ], [ 75.488415892787799, 14.510187955374922 ], [ 75.488399447891908, 14.51020503248483 ], [ 75.488331214501216, 14.510275884821713 ], [ 75.488028299032464, 14.510590431343713 ], [ 75.487409369357906, 14.511237639439988 ], [ 75.4866538061884, 14.51201826008913 ], [ 75.485921735138803, 14.512775717434678 ], [ 75.485241820373361, 14.513477277077595 ], [ 75.484859852774306, 14.513876976989014 ], [ 75.484795571286185, 14.513944242524442 ], [ 75.484767862829358, 14.513963505343945 ], [ 75.484124682571903, 14.514410633674117 ], [ 75.484033922864171, 14.514473728623374 ], [ 75.483981025313867, 14.514510501201228 ], [ 75.483978426908948, 14.514512307592067 ], [ 75.483799925316433, 14.514509445212074 ], [ 75.483784346985175, 14.51450919524012 ], [ 75.48329363289497, 14.514507779709254 ], [ 75.483185448365361, 14.514508481685354 ], [ 75.482788666249292, 14.514511056895117 ], [ 75.482283699555325, 14.514514333898893 ], [ 75.481952033292359, 14.514435470634627 ], [ 75.481449773556506, 14.514323959730488 ], [ 75.480893949592328, 14.514204372395996 ], [ 75.480443752539713, 14.514101180032153 ], [ 75.480391852035879, 14.514089283921363 ], [ 75.480377411706655, 14.514043495646355 ], [ 75.480326702649705, 14.513924776497749 ], [ 75.480318235733648, 14.513900640822751 ], [ 75.479833394802455, 14.512518574159333 ], [ 75.479821340575427, 14.512470111958651 ], [ 75.479400756114075, 14.510779332934012 ], [ 75.478903466335737, 14.508973745960009 ], [ 75.478877011865606, 14.508881661501912 ], [ 75.478577065874489, 14.50783758945477 ], [ 75.478326843216223, 14.50696658426461 ], [ 75.47829721777461, 14.506758469661937 ], [ 75.47816616041024, 14.506644483965198 ], [ 75.478076745175329, 14.506453779931693 ], [ 75.478043487885259, 14.506314543251321 ], [ 75.478066667014488, 14.506157216571957 ], [ 75.477999560910632, 14.506025172469968 ], [ 75.477951556662887, 14.505930713178074 ], [ 75.477996420973682, 14.50587140741348 ], [ 75.477993120554657, 14.505757909182291 ], [ 75.477933559734524, 14.505618571414518 ], [ 75.477786956569332, 14.505632654212491 ], [ 75.477644858098856, 14.505646304620759 ], [ 75.477550584390428, 14.505543892568854 ], [ 75.477425600018677, 14.505408115287732 ], [ 75.477288443134086, 14.505323241003497 ], [ 75.477343871990172, 14.505238219303216 ], [ 75.477593760280399, 14.505086456787939 ], [ 75.477807429485409, 14.504956690253922 ], [ 75.477821144863626, 14.504607760709687 ], [ 75.478013427185402, 14.504447419931303 ], [ 75.477980168414518, 14.504308181403426 ], [ 75.477804228438984, 14.50414277376456 ], [ 75.477899138242705, 14.503901523154513 ], [ 75.477798319814099, 14.503743724586819 ], [ 75.477717907833139, 14.503617864577777 ], [ 75.477709171381051, 14.503487126498982 ], [ 75.477521541230118, 14.503499027697632 ], [ 75.477472889973939, 14.503376400383504 ], [ 75.477462074639007, 14.503262874897922 ], [ 75.477271312083971, 14.503046157504796 ], [ 75.477294477065527, 14.502892493528188 ], [ 75.477167207171561, 14.502771199480566 ], [ 75.477092602796233, 14.50263546422739 ], [ 75.477045373372306, 14.502549533622521 ], [ 75.476706598742425, 14.502381392591225 ], [ 75.476669379444445, 14.502293391911062 ], [ 75.476733594817986, 14.502209438378452 ], [ 75.476651462160177, 14.502077334784831 ], [ 75.476514958510052, 14.501450815323253 ], [ 75.476516496663336, 14.50130210110423 ], [ 75.476579580664321, 14.501033274342129 ], [ 75.47660315426198, 14.50077802375475 ], [ 75.476505637226481, 14.500500344080077 ], [ 75.476366655370072, 14.500245134820872 ], [ 75.476252635230779, 14.500035765096719 ], [ 75.476025959515511, 14.499949388834015 ], [ 75.475964182391422, 14.499894240676344 ], [ 75.475984982502922, 14.499627996030343 ], [ 75.475915103094607, 14.499625511119985 ], [ 75.475850171348412, 14.499358856099592 ], [ 75.47585919969589, 14.499247398712511 ], [ 75.475780396194068, 14.498790704600518 ], [ 75.475720223662591, 14.498429633759066 ], [ 75.475678506140056, 14.498211420371817 ], [ 75.475664983865357, 14.498140842979382 ], [ 75.475587244022435, 14.498022755852645 ], [ 75.475561056748461, 14.497961086311655 ], [ 75.475466731591865, 14.497804679324005 ], [ 75.475309556290284, 14.497500706357206 ], [ 75.475166896065375, 14.497233165851263 ], [ 75.475131383869225, 14.497166459192252 ], [ 75.474976694282077, 14.496742480548404 ], [ 75.474920462184485, 14.496584915837495 ], [ 75.474898444742024, 14.496523220596886 ], [ 75.474736796563164, 14.496070271057492 ], [ 75.47471258464526, 14.496001668117215 ], [ 75.47468526000965, 14.49592424439402 ], [ 75.474656975360915, 14.495828283320236 ], [ 75.474560716561044, 14.495556589039222 ], [ 75.474501183848361, 14.495330824730155 ], [ 75.474411014972659, 14.494988883956028 ], [ 75.474371444863863, 14.494776276040268 ], [ 75.474319230117672, 14.494430217087942 ], [ 75.474304469217415, 14.494332374267529 ], [ 75.474213702779494, 14.493742197052084 ], [ 75.474165692314244, 14.493476432106666 ], [ 75.474143512147819, 14.493353649202223 ], [ 75.474041318342884, 14.49273242520383 ], [ 75.473966915644866, 14.492300791045468 ], [ 75.473962851995097, 14.492277208544964 ], [ 75.473880332213355, 14.49188036465241 ], [ 75.473806972517863, 14.491484665863089 ], [ 75.473775457246688, 14.491314679628596 ], [ 75.473707397187567, 14.490976011091332 ], [ 75.473674826463352, 14.490845998784794 ], [ 75.473582946141278, 14.490479219804769 ], [ 75.473507344513337, 14.490120212469375 ], [ 75.473479483323331, 14.489987916730323 ], [ 75.473389033420702, 14.489511216280016 ], [ 75.473254941899043, 14.488820833442588 ], [ 75.473233993802978, 14.488695678156578 ], [ 75.473194158797924, 14.488457660572008 ], [ 75.473151940257736, 14.488293753441292 ], [ 75.473131108429769, 14.488212872522132 ], [ 75.473023508478292, 14.487636802042417 ], [ 75.472984614894585, 14.487304665581783 ], [ 75.472912217876186, 14.486686438437019 ], [ 75.472908581264932, 14.486655385072039 ], [ 75.472876253127254, 14.486288523765825 ], [ 75.472869992879509, 14.486217475803244 ], [ 75.472869315914295, 14.486209803764178 ], [ 75.472869133330533, 14.486207720098365 ], [ 75.47286456899586, 14.486133853244647 ], [ 75.472794216941651, 14.484995175017319 ], [ 75.47277972224191, 14.484918505410874 ], [ 75.472692593843888, 14.48445766348712 ], [ 75.472272254834181, 14.483401232298499 ], [ 75.472078714231358, 14.48299759236224 ], [ 75.472022971481152, 14.482845333820157 ], [ 75.472015486020979, 14.482817826037484 ], [ 75.472004111010676, 14.482776027148565 ], [ 75.471936878896116, 14.482669585238638 ], [ 75.471849297665472, 14.482519128296859 ], [ 75.471739897434475, 14.48233118891717 ], [ 75.471551387519639, 14.482018585794547 ], [ 75.471328618031805, 14.4816253362056 ], [ 75.471142634696449, 14.481298879886179 ], [ 75.471058029267297, 14.48116324718954 ], [ 75.470924390009031, 14.480949003963845 ], [ 75.471031718036912, 14.480887743520015 ], [ 75.471059155475061, 14.480836787486263 ], [ 75.471094986343786, 14.480772749863345 ], [ 75.471231466028698, 14.480455029586977 ], [ 75.471261852355795, 14.480384291444636 ], [ 75.471313667333064, 14.48027302764271 ], [ 75.47133782429934, 14.480221155029 ], [ 75.471353998321547, 14.480183396613363 ], [ 75.471459706435724, 14.479936612236466 ], [ 75.471633754326476, 14.479536275989636 ], [ 75.471810304349873, 14.479138184994254 ], [ 75.472032913307459, 14.478767680668208 ], [ 75.472066797081609, 14.478662966997726 ], [ 75.472186513528683, 14.47825510577624 ], [ 75.472257136885929, 14.478008367978301 ], [ 75.472264592861535, 14.477989978240734 ], [ 75.472302162565484, 14.477897308370665 ], [ 75.473038397148272, 14.475907550318945 ], [ 75.473050270558161, 14.475875459429128 ], [ 75.47309493778441, 14.475844366755492 ], [ 75.473239351911801, 14.475725420999495 ], [ 75.47328020670669, 14.475677020841816 ], [ 75.473412890544054, 14.475581142312759 ], [ 75.473460554211016, 14.475531810723449 ], [ 75.473656750582009, 14.475367049156 ], [ 75.474353076923677, 14.474773925789783 ], [ 75.474373887584065, 14.474756610297961 ], [ 75.474397653068479, 14.474736838635735 ], [ 75.474804897398641, 14.47439801827178 ], [ 75.475575921064646, 14.47373656694659 ], [ 75.47656496548133, 14.47285929823887 ], [ 75.477926438967529, 14.471309458953042 ], [ 75.477969249099175, 14.471260725841923 ], [ 75.480559667548036, 14.47008453909319 ], [ 75.480284159223871, 14.469543229221046 ], [ 75.478989506697133, 14.467139955342383 ], [ 75.478964627710042, 14.467093772044532 ], [ 75.47830738901358, 14.465839143380045 ], [ 75.477777529993162, 14.464741007866971 ], [ 75.477772463635517, 14.464730506654302 ], [ 75.476595615745993, 14.463070579269592 ], [ 75.476559779623315, 14.463020033695049 ], [ 75.475847268955448, 14.461885554803324 ], [ 75.474961733825936, 14.460520572706393 ], [ 75.474586034562023, 14.459941458883197 ], [ 75.474267153458641, 14.459557114118905 ], [ 75.473974767293043, 14.459050662377392 ], [ 75.473445293632025, 14.457773812686053 ], [ 75.473409743598722, 14.457632818742352 ], [ 75.472997834424646, 14.455999183599982 ], [ 75.472803450476732, 14.455228247289309 ], [ 75.472266820964592, 14.452917279365339 ], [ 75.472256513336745, 14.452846312503837 ], [ 75.471994501497363, 14.451042292813103 ], [ 75.471736700597276, 14.449210346009606 ], [ 75.471713943706774, 14.449026560261641 ], [ 75.471434586869591, 14.446770500727974 ], [ 75.471411193716492, 14.446545142955543 ], [ 75.471407477652946, 14.446509351908404 ], [ 75.471395343403273, 14.446419243464634 ], [ 75.471263484858909, 14.445440109362977 ], [ 75.471237580402246, 14.445247742268906 ], [ 75.471932527431093, 14.444999402441857 ], [ 75.471958454481893, 14.444990137348562 ], [ 75.473326280139489, 14.444303587770332 ], [ 75.473704104731269, 14.444105814148152 ], [ 75.474007649882367, 14.443946920826974 ], [ 75.474325421776811, 14.443792653907595 ], [ 75.474537898773278, 14.443689502498483 ], [ 75.474696763366978, 14.443721888933945 ], [ 75.475962737948734, 14.443028645415874 ], [ 75.476006426029912, 14.443016317871098 ], [ 75.47599791356113, 14.442989231693101 ], [ 75.476250227462572, 14.441918993878318 ], [ 75.476407805772752, 14.440986386280704 ], [ 75.476679446491431, 14.439378679666481 ], [ 75.476662815638065, 14.439339591196577 ], [ 75.476695262305952, 14.439164347768491 ], [ 75.476837310797919, 14.438397168939995 ], [ 75.47697180610362, 14.437670779241889 ], [ 75.477114514169585, 14.436900031137391 ], [ 75.477159859170087, 14.436773308377608 ], [ 75.477717521100615, 14.435214842211229 ], [ 75.478053973569118, 14.434216581220102 ], [ 75.478497847352898, 14.432899579026893 ], [ 75.478497993969498, 14.432896554383703 ], [ 75.478556086764058, 14.431702872318846 ], [ 75.478581922887003, 14.431171970762712 ], [ 75.478587590264226, 14.431058547639326 ], [ 75.47859883157804, 14.430820536361681 ], [ 75.478636267092625, 14.430027812236105 ], [ 75.478672448348391, 14.429261673209577 ], [ 75.478671391925474, 14.429164509289103 ], [ 75.47867098897774, 14.429127445811758 ], [ 75.478703003760884, 14.427421497333109 ], [ 75.4787174710318, 14.426538293507075 ], [ 75.478755752784295, 14.426097748809257 ], [ 75.478780786086858, 14.425981329810899 ], [ 75.47873875851981, 14.4258443212739 ], [ 75.478844684184409, 14.424970895396543 ], [ 75.478864328360444, 14.424808913246848 ], [ 75.478883076609222, 14.424528504156875 ], [ 75.478888536111455, 14.424446847443077 ], [ 75.478895966153985, 14.424335709058713 ], [ 75.47889834216339, 14.424300176061998 ], [ 75.478899521548897, 14.424274684158146 ], [ 75.478934252575726, 14.423523757157984 ], [ 75.47891365763347, 14.423119037207336 ], [ 75.47890911318737, 14.423029742718571 ], [ 75.478871441572238, 14.422289412601083 ], [ 75.478857924305188, 14.42219828824628 ], [ 75.478855062902568, 14.422178994278758 ], [ 75.478755071284766, 14.421755849818609 ], [ 75.478730139671725, 14.42165034203359 ], [ 75.478697748845178, 14.421513273183775 ], [ 75.478671793133756, 14.421403427593313 ], [ 75.478585145150689, 14.421036751150694 ], [ 75.478503726359889, 14.420639849500585 ], [ 75.478250346952066, 14.4194007695297 ], [ 75.478118470962642, 14.418755858386895 ], [ 75.477679672709314, 14.417258699809528 ], [ 75.477870739472721, 14.417146402276915 ], [ 75.480094906794207, 14.415839149671942 ], [ 75.482303972467477, 14.414530227672557 ], [ 75.483206694536221, 14.414003641008604 ], [ 75.48334130610786, 14.413925118536209 ], [ 75.48369929268209, 14.413716292303528 ], [ 75.483856212018111, 14.41369314492824 ], [ 75.484517362313625, 14.414457687263981 ], [ 75.485934723305974, 14.415451391871336 ], [ 75.48597646314208, 14.415489690317692 ], [ 75.486967554661788, 14.413914368686067 ], [ 75.487343069375484, 14.412888995835917 ], [ 75.487607017600126, 14.411028631917322 ], [ 75.487558566192007, 14.40919690560434 ], [ 75.487536821541624, 14.408388254204775 ], [ 75.487315870700911, 14.407645870396369 ], [ 75.487111120415506, 14.407074362512551 ], [ 75.487050209596703, 14.406904346081769 ], [ 75.486811692688562, 14.406343302369054 ], [ 75.486605679229299, 14.406131869499404 ], [ 75.486238733996473, 14.405927279296893 ], [ 75.485678621780067, 14.405831297694419 ], [ 75.485178379172055, 14.405740971989168 ], [ 75.48478164962539, 14.405286764905103 ], [ 75.484682531036341, 14.40488719523297 ], [ 75.484622847337207, 14.404850897056061 ], [ 75.484060987584115, 14.404587394995945 ], [ 75.483959930461268, 14.404358844437036 ], [ 75.483563148998627, 14.403487640025007 ], [ 75.483517148843731, 14.403397370693519 ], [ 75.483422399681515, 14.403260999480604 ], [ 75.48323229001366, 14.402994107063986 ], [ 75.483186500777194, 14.402900441272799 ], [ 75.483151223323475, 14.402803765794145 ], [ 75.483053009955285, 14.402390147557018 ], [ 75.483019474083036, 14.40232077987902 ], [ 75.48295139477338, 14.40225351801058 ], [ 75.482438121526343, 14.401756457828624 ], [ 75.482203721688037, 14.401652290896639 ], [ 75.48174278045758, 14.401450458249744 ], [ 75.481166611024904, 14.401142732088006 ], [ 75.480801109411615, 14.400927426807874 ], [ 75.479982858980449, 14.400408885793857 ], [ 75.479556075044812, 14.400136833344309 ], [ 75.479510883280355, 14.400110413789779 ], [ 75.479427735883306, 14.400091835081168 ], [ 75.479164489693773, 14.400057208632711 ], [ 75.479095721287109, 14.400008272127607 ], [ 75.478459478700614, 14.399238823440506 ], [ 75.47809811171706, 14.398795322608045 ], [ 75.478013385343402, 14.398751964950929 ], [ 75.477323497088605, 14.398398472463185 ], [ 75.47696920840599, 14.398221373593451 ], [ 75.476190434579081, 14.397740938241322 ], [ 75.475783916270089, 14.397500074124446 ], [ 75.475735461586439, 14.397463732899164 ], [ 75.475723245674558, 14.39743243347384 ], [ 75.475659376129741, 14.397320687949778 ], [ 75.47534914638635, 14.39661280522124 ], [ 75.475147879540131, 14.396158395447065 ], [ 75.47511461928103, 14.396101070945154 ], [ 75.475082792407463, 14.39606622957978 ], [ 75.474890942021204, 14.396053398264403 ], [ 75.474198658667845, 14.396046954316985 ], [ 75.473592747048883, 14.396029681828148 ], [ 75.473489040219889, 14.396011757870561 ], [ 75.473136178491799, 14.395900343366142 ], [ 75.472587538877917, 14.395725480934189 ], [ 75.472544406122452, 14.395690213357083 ], [ 75.472506150998655, 14.395576628218938 ], [ 75.472197870601406, 14.394770852688344 ], [ 75.47208283399975, 14.39447968799721 ], [ 75.472173145580328, 14.394454282983618 ], [ 75.472796284468458, 14.394529659365453 ], [ 75.472942041514429, 14.394537434626843 ], [ 75.4749862533249, 14.394646471376968 ], [ 75.475086858792537, 14.394644256630281 ], [ 75.475092125842949, 14.394644370818806 ], [ 75.47525236176044, 14.394647826306025 ], [ 75.475348906089209, 14.394649909766954 ], [ 75.475399743593471, 14.394651004641888 ], [ 75.475413495610539, 14.394650858548651 ], [ 75.475474215610177, 14.394650219282576 ], [ 75.475973365850166, 14.394644965524508 ], [ 75.476779363333804, 14.394636476483372 ], [ 75.478745405359462, 14.394736995569291 ], [ 75.478871634181843, 14.394746910643416 ], [ 75.479079704269282, 14.394763253744937 ], [ 75.479473779451013, 14.394799967791766 ], [ 75.479626245790882, 14.394814171847059 ], [ 75.479856255647192, 14.39483205381199 ], [ 75.480147677955728, 14.394854711297004 ], [ 75.480465019402274, 14.394879380812808 ], [ 75.480881046875183, 14.394909055258111 ], [ 75.480961231836474, 14.394895250468853 ], [ 75.481542915134483, 14.394880692439539 ], [ 75.481764184729712, 14.394877897250218 ], [ 75.481830869569066, 14.394877056134947 ], [ 75.482324032910682, 14.394870830110609 ], [ 75.48274558105021, 14.394871816058576 ], [ 75.48311858950494, 14.39487268887188 ], [ 75.483269569899122, 14.394871292642792 ], [ 75.483352894752812, 14.394870520158774 ], [ 75.483417647009389, 14.394869920336147 ], [ 75.483605080469005, 14.394854757040033 ], [ 75.484032682236389, 14.394820163002443 ], [ 75.484158361557149, 14.394806574117194 ], [ 75.484898338391332, 14.394726561968236 ], [ 75.484990332675437, 14.394108957728005 ], [ 75.485003080211754, 14.394023376294328 ], [ 75.485018556911371, 14.393859279948085 ], [ 75.485033993454735, 14.393661555044453 ], [ 75.485044758431826, 14.39358142331724 ], [ 75.485057563429734, 14.393402611213089 ], [ 75.485109954715981, 14.392671004445811 ], [ 75.48511682744244, 14.392566341390321 ], [ 75.485218702522715, 14.391015235731773 ], [ 75.48522484087465, 14.390785726673466 ], [ 75.485233691244048, 14.390454761926646 ], [ 75.485237895828291, 14.390297516733309 ], [ 75.485230034227641, 14.388812628331264 ], [ 75.485212998102924, 14.387720624488907 ], [ 75.485211343643243, 14.387614634425033 ], [ 75.485209010795145, 14.387465085099045 ], [ 75.485194995277496, 14.38571264439817 ], [ 75.485191953740298, 14.38536020250258 ], [ 75.485187825821342, 14.38488172089531 ], [ 75.48518649083222, 14.384726885680717 ], [ 75.485185670283471, 14.384631626950069 ], [ 75.485185603487352, 14.384623884918071 ], [ 75.489477006657538, 14.383427564005606 ], [ 75.490491820158582, 14.382996829756461 ], [ 75.491512539533531, 14.382993621286232 ], [ 75.49174558395903, 14.382992887539697 ], [ 75.491998026640815, 14.382992094242899 ], [ 75.494302533152862, 14.382357957485121 ], [ 75.495952273400874, 14.38169518417628 ], [ 75.496729682077799, 14.381475282198767 ], [ 75.4974446285336, 14.381238076276381 ], [ 75.497550044201262, 14.381183501326781 ], [ 75.496911447698238, 14.378587543263519 ], [ 75.496819811104714, 14.378215023314047 ], [ 75.496132324623616, 14.375450471683155 ], [ 75.496065389789919, 14.375181306165787 ], [ 75.494632229154362, 14.37537474429632 ], [ 75.494402636241787, 14.375405733257255 ], [ 75.493263273680171, 14.375816384302256 ], [ 75.492981468001091, 14.37591795222081 ], [ 75.491592156622673, 14.373222615491716 ], [ 75.491538354837388, 14.373118237283791 ], [ 75.49145877576197, 14.373076462033564 ], [ 75.49064447472459, 14.371682051037698 ], [ 75.490237588653642, 14.370988022281761 ], [ 75.490178963552225, 14.370888019800788 ], [ 75.489913817845974, 14.370668207253109 ], [ 75.489787557907206, 14.370334068564125 ], [ 75.489462458621517, 14.369983519269745 ], [ 75.488824634542837, 14.369262280117622 ], [ 75.487962743162385, 14.368412872034085 ], [ 75.487838386965791, 14.368198140178869 ], [ 75.487661963825644, 14.367785238686558 ], [ 75.487387990721018, 14.367415365237481 ], [ 75.487287637396506, 14.367410053734195 ], [ 75.487076855454688, 14.367398900695962 ], [ 75.486699216389724, 14.367349952729169 ], [ 75.485219851687958, 14.367158175813719 ], [ 75.484064989860727, 14.367036938780288 ], [ 75.482131079651026, 14.366833903877813 ], [ 75.481965688242042, 14.3668165400495 ], [ 75.481326520411116, 14.366659566655803 ], [ 75.48116584169405, 14.366620105353896 ], [ 75.480333736379862, 14.36640146516719 ], [ 75.480174693719519, 14.366359675309432 ], [ 75.479628312505398, 14.366387171544849 ], [ 75.479079547757863, 14.365414601003293 ], [ 75.479031342978914, 14.365329166438432 ], [ 75.478846618857517, 14.365403731288851 ], [ 75.478707592181422, 14.365459843195302 ], [ 75.478501979849597, 14.365542835932699 ], [ 75.478481323531014, 14.365551173182117 ], [ 75.478370770155479, 14.365414129267563 ], [ 75.478247287455247, 14.36525625278799 ], [ 75.477942388361555, 14.364866432357744 ], [ 75.477939881124286, 14.364863224990948 ], [ 75.477922734251194, 14.364872827241697 ], [ 75.477559490696464, 14.365076247295955 ], [ 75.477011371866197, 14.365408684461809 ], [ 75.476797796918504, 14.365538219049586 ], [ 75.476654353514519, 14.365625217002378 ], [ 75.476743981555444, 14.365804330304654 ], [ 75.476750521882423, 14.365817402825176 ], [ 75.476140306622383, 14.365968889074242 ], [ 75.47471387456612, 14.366322995091888 ], [ 75.474223788465252, 14.3664913104643 ], [ 75.473241329612534, 14.366759111147243 ], [ 75.473233584745998, 14.366761511755158 ], [ 75.471857236914445, 14.367188119865551 ], [ 75.471737195621287, 14.367225327657964 ], [ 75.471611154274953, 14.367281025349163 ], [ 75.471581524951375, 14.367294119402027 ], [ 75.471466352647042, 14.367326841847561 ], [ 75.470656814069415, 14.367793202348617 ], [ 75.469768872552621, 14.368300349774751 ], [ 75.469217284472123, 14.368613995344965 ], [ 75.469194013893699, 14.368627232021575 ], [ 75.469113294945629, 14.368673129913116 ], [ 75.46912592192416, 14.368428108676737 ], [ 75.469521564091295, 14.36818100839327 ], [ 75.469603876564037, 14.367849903650331 ], [ 75.469810490983775, 14.367398728696648 ], [ 75.469811617593237, 14.367374605676041 ], [ 75.469851420492176, 14.366520850869929 ], [ 75.470157069284198, 14.366465544501716 ], [ 75.470349569927237, 14.365961940406901 ], [ 75.47041407550401, 14.365761102915775 ], [ 75.470437701639156, 14.365700271213733 ], [ 75.470448067866073, 14.365704253277439 ], [ 75.470700578738743, 14.365257048741737 ], [ 75.470787985266639, 14.364922116162683 ], [ 75.470749407082394, 14.36404229577893 ], [ 75.470680138264299, 14.362462453750204 ], [ 75.47050070532859, 14.361419255302243 ], [ 75.470253128138978, 14.36087548637996 ], [ 75.469915257973796, 14.359910591422979 ], [ 75.469901393622933, 14.359871000152831 ], [ 75.469868310449172, 14.35977651923006 ], [ 75.469676984601335, 14.359360744611887 ], [ 75.469415661648839, 14.358938011825229 ], [ 75.46908453637279, 14.35824494794268 ], [ 75.468870016834614, 14.357448415636389 ], [ 75.468621232944926, 14.35637084903242 ], [ 75.468512353303112, 14.355774640610573 ], [ 75.468434772152165, 14.355349819885877 ], [ 75.468428851796091, 14.355317401666982 ], [ 75.468417516726817, 14.355255334533341 ], [ 75.468359043607819, 14.355250326280116 ], [ 75.468250263500678, 14.355145804884298 ], [ 75.468250376070074, 14.355125002063492 ], [ 75.468250794859571, 14.355047612640318 ], [ 75.468182829444729, 14.354876036842843 ], [ 75.468099243865794, 14.35483133908019 ], [ 75.467934025330266, 14.354742985705951 ], [ 75.467944117157401, 14.354687902365303 ], [ 75.46808460351366, 14.353921081540824 ], [ 75.468260056158812, 14.353237286224179 ], [ 75.468257204776066, 14.353154477465287 ], [ 75.468230162786156, 14.352369174763231 ], [ 75.468227473455997, 14.352217499548084 ], [ 75.46822019082029, 14.351807012407782 ], [ 75.468186450734905, 14.350251249731551 ], [ 75.468171789959385, 14.350123354579514 ], [ 75.46794624108631, 14.348155766065464 ], [ 75.467805882986866, 14.347672585687249 ], [ 75.467745128081333, 14.34729323957011 ], [ 75.467744183346056, 14.347270577181394 ], [ 75.46774150131597, 14.347206205398532 ], [ 75.467743377112171, 14.34717119584054 ], [ 75.467730563582577, 14.347080548732141 ], [ 75.467551806547434, 14.345815782491107 ], [ 75.467360243132831, 14.344501506548379 ], [ 75.467365484245235, 14.344485199872096 ], [ 75.467416641240604, 14.344326025215588 ], [ 75.467487833925333, 14.34412517236945 ], [ 75.467610865683298, 14.34377806734012 ], [ 75.467633293976249, 14.343701497911574 ], [ 75.467675178921866, 14.343558499493254 ], [ 75.467726776773489, 14.343397905293463 ], [ 75.467795665947477, 14.343183495592438 ], [ 75.467899945632936, 14.342824456481294 ], [ 75.467883573142544, 14.342723548865903 ], [ 75.467846331410783, 14.342494024051891 ], [ 75.467805135341564, 14.342310481106976 ], [ 75.467662606365025, 14.341682597594561 ], [ 75.467545641693448, 14.341110981100293 ], [ 75.467401192505491, 14.3411111861551 ], [ 75.463494065846831, 14.341021699720267 ], [ 75.463339433799334, 14.341023062323847 ], [ 75.46335346514438, 14.339094882328014 ], [ 75.463353768859164, 14.339081116984516 ], [ 75.463404762754749, 14.336772424243874 ], [ 75.463407050210506, 14.336711783074469 ], [ 75.463427741708827, 14.336163128099596 ], [ 75.46344380164355, 14.335694198190804 ], [ 75.463444491872423, 14.335674023485428 ], [ 75.463453470144117, 14.335182743276912 ], [ 75.463478097436436, 14.334698346513857 ], [ 75.463476163023188, 14.33445908640155 ], [ 75.463475997939256, 14.334438762371571 ], [ 75.463474088439256, 14.334202595297096 ], [ 75.463501481835081, 14.333723143307983 ], [ 75.463506478118461, 14.333474309177156 ], [ 75.46351010343308, 14.333386912529468 ], [ 75.463536725691469, 14.33274519628486 ], [ 75.463544082381517, 14.332567877484589 ], [ 75.463563387514199, 14.331477672564418 ], [ 75.46359270544329, 14.330756577553538 ], [ 75.463595162960956, 14.330696142168797 ], [ 75.463603671427123, 14.330486823267782 ], [ 75.463632632050931, 14.329424372050125 ], [ 75.463645680082038, 14.328900141891314 ], [ 75.463661498341565, 14.328264584780682 ], [ 75.463654400159768, 14.328174021911561 ], [ 75.463649781657267, 14.328115085848044 ], [ 75.463646523006659, 14.328073507691528 ], [ 75.463642032118031, 14.328016202462669 ], [ 75.463341981089229, 14.325878276849771 ], [ 75.463617067003824, 14.32580720098216 ], [ 75.463742500832609, 14.325766961041861 ], [ 75.464096438423638, 14.325612431387631 ], [ 75.470042310070411, 14.323063771080633 ], [ 75.470301029740696, 14.322948881453172 ], [ 75.472451920640708, 14.321500723336177 ], [ 75.47273923742442, 14.321311446923072 ], [ 75.474371207139413, 14.319989482571218 ], [ 75.47505170995899, 14.319465841580593 ], [ 75.477330219471028, 14.317819842717068 ], [ 75.478516386245104, 14.321988437067873 ], [ 75.479021229659892, 14.323762571228293 ], [ 75.479713091234018, 14.326100152325008 ], [ 75.479658738086428, 14.326673441693297 ], [ 75.479680379238147, 14.32687322806003 ], [ 75.479747650357794, 14.327494152615431 ], [ 75.479628799268625, 14.327554233683097 ], [ 75.47968139110084, 14.327827294690838 ], [ 75.479701801920385, 14.327935025978121 ], [ 75.479714489363545, 14.328038460084354 ], [ 75.479730400826355, 14.328153562021447 ], [ 75.479748269442666, 14.328332172712907 ], [ 75.479789180718555, 14.32851075130546 ], [ 75.479815596639099, 14.328645399552835 ], [ 75.479824291287457, 14.328799482984968 ], [ 75.480052718143071, 14.329296024493834 ], [ 75.480081120340117, 14.329414404885199 ], [ 75.480124278090486, 14.329590384850599 ], [ 75.480122783661088, 14.329606702298889 ], [ 75.48010697632715, 14.32977917225115 ], [ 75.480095041678993, 14.329950883023473 ], [ 75.480084849016549, 14.330098851895436 ], [ 75.48008069949887, 14.330216663386086 ], [ 75.480077830126845, 14.330315505094914 ], [ 75.480088218548389, 14.33039601373312 ], [ 75.48011777806866, 14.330485120011398 ], [ 75.480172848217222, 14.330620914558036 ], [ 75.480118980304255, 14.330975283583907 ], [ 75.480134719889932, 14.331153219480251 ], [ 75.480003687946592, 14.331382631407305 ], [ 75.480004939445593, 14.331676742387677 ], [ 75.479834260074568, 14.332059116558717 ], [ 75.479716152826811, 14.332891160285252 ], [ 75.479690891301317, 14.332977431666572 ], [ 75.479321669040615, 14.334238392509064 ], [ 75.479060859184187, 14.334899881882304 ], [ 75.479058661107587, 14.334910662842256 ], [ 75.478967998766208, 14.335355553033171 ], [ 75.478773428567138, 14.33581217526611 ], [ 75.478373680676839, 14.336750292928183 ], [ 75.478032751360061, 14.337564659370047 ], [ 75.478027711017347, 14.337583374506591 ], [ 75.477829850739028, 14.338317612663621 ], [ 75.477830038062791, 14.33831761228641 ], [ 75.477607144281336, 14.339145445460574 ], [ 75.477464708060012, 14.33967444260267 ], [ 75.477416059817955, 14.339798802761157 ], [ 75.47697684885317, 14.340921499453412 ], [ 75.476962320557689, 14.340958642061747 ], [ 75.47689323135576, 14.341409932808853 ], [ 75.476898304699262, 14.341468575489072 ], [ 75.476933508722226, 14.341875255745204 ], [ 75.476951778144851, 14.342086323617618 ], [ 75.476954548166646, 14.342118323019321 ], [ 75.476901773585695, 14.342569057433598 ], [ 75.47680614018546, 14.343385853765758 ], [ 75.476801984725938, 14.34343413629316 ], [ 75.47669362985927, 14.344693483405406 ], [ 75.476665694117202, 14.345093770677307 ], [ 75.476661419479399, 14.3451550116586 ], [ 75.476777699886924, 14.345171793075151 ], [ 75.476783022814686, 14.34517256627003 ], [ 75.477465010512446, 14.345271001266914 ], [ 75.478942907541366, 14.345187133109199 ], [ 75.479870287519802, 14.34520536236432 ], [ 75.480384852768324, 14.345186086851347 ], [ 75.480398926452096, 14.345185561066952 ], [ 75.480437308461021, 14.345184124394423 ], [ 75.48044894707833, 14.345154547914435 ], [ 75.480728098849667, 14.344445234275032 ], [ 75.480944258588536, 14.344441302470837 ], [ 75.480918989014754, 14.344294120817153 ], [ 75.480862809280737, 14.34396694934313 ], [ 75.480816838887492, 14.343699234567177 ], [ 75.481024230037065, 14.343246012500483 ], [ 75.481367879547534, 14.342565233268006 ], [ 75.481520608474966, 14.339931934012478 ], [ 75.481958901173243, 14.339924744031107 ], [ 75.482331070130627, 14.339918634310537 ], [ 75.482588625238023, 14.339890798162557 ], [ 75.483505460404871, 14.339791716957922 ], [ 75.484199361280673, 14.339716723454417 ], [ 75.484354122858775, 14.339664932763558 ], [ 75.484475416110925, 14.339624342154041 ], [ 75.484548976571318, 14.339599723954796 ], [ 75.487239687699528, 14.33924912598984 ], [ 75.487410261180329, 14.339234996489486 ], [ 75.487811257904426, 14.339201782335504 ], [ 75.487906764892642, 14.339200907858658 ], [ 75.488296664025569, 14.339197335503716 ], [ 75.488823460690085, 14.339192512182846 ], [ 75.48882552130722, 14.339223767851239 ], [ 75.488942619486906, 14.341001390379571 ], [ 75.489221031382982, 14.345227093856902 ], [ 75.489225013149706, 14.345279481728994 ], [ 75.489225373959485, 14.345284210565275 ], [ 75.489228469876167, 14.345324963922991 ], [ 75.489386373423855, 14.347402432796622 ], [ 75.48940810040223, 14.347688281140091 ], [ 75.489502626228131, 14.347661427350264 ], [ 75.492171652518806, 14.346903110096072 ], [ 75.499685770106311, 14.343682062685323 ], [ 75.500826603984208, 14.343758819943289 ], [ 75.500826914697512, 14.343758840082568 ], [ 75.500857744115962, 14.343760913288554 ], [ 75.50096901162803, 14.343768400613962 ], [ 75.501004289377804, 14.343770774527393 ], [ 75.500559152790174, 14.342742499804046 ], [ 75.500543572933069, 14.342706512507144 ], [ 75.500527001270441, 14.342668229873061 ], [ 75.50051714295688, 14.342467073327541 ], [ 75.500459321497644, 14.341287272647126 ], [ 75.500627226095844, 14.340702329911348 ], [ 75.500665508071407, 14.340568973844364 ], [ 75.500666640881462, 14.340196579112611 ], [ 75.500667026088593, 14.340069744127291 ], [ 75.500668102943337, 14.339716414271486 ], [ 75.500669141457792, 14.339375466734028 ], [ 75.500670409102199, 14.338958093243567 ], [ 75.50066557523067, 14.338931535179899 ], [ 75.500582680969188, 14.338476313661815 ], [ 75.500575080508298, 14.338434560965917 ], [ 75.500619560340269, 14.337910004061683 ], [ 75.500820887941529, 14.336931395089954 ], [ 75.500825562316265, 14.336908681268909 ], [ 75.500828757125092, 14.33688409085517 ], [ 75.500831833318628, 14.336860374094671 ], [ 75.5008638175416, 14.336614055778526 ], [ 75.500914911054096, 14.336220583869705 ], [ 75.500914958653169, 14.336178120651152 ], [ 75.500915438683322, 14.335726482573882 ], [ 75.500920058264768, 14.335659473949894 ], [ 75.500979126847767, 14.334802128572662 ], [ 75.500980549855726, 14.334781463166326 ], [ 75.501100232593615, 14.333552756353656 ], [ 75.501104419558274, 14.333509784396385 ], [ 75.501208821026495, 14.332124619521441 ], [ 75.501235500204061, 14.331770643185068 ], [ 75.501264497579953, 14.331478024402294 ], [ 75.50127196934838, 14.331402622889328 ], [ 75.501269056787805, 14.330990615938378 ], [ 75.501268850420246, 14.330961163875266 ], [ 75.501286438565671, 14.330704704193774 ], [ 75.501499951864417, 14.329189713014861 ], [ 75.501526579691884, 14.328976518299717 ], [ 75.501574598089704, 14.328591995473374 ], [ 75.501576290502769, 14.328511070975139 ], [ 75.501586588128575, 14.328019002982693 ], [ 75.501605679836246, 14.327106901500093 ], [ 75.501604678358561, 14.327086872294197 ], [ 75.501601883490011, 14.327030955052209 ], [ 75.501576571097814, 14.326524737312489 ], [ 75.501548850372487, 14.325970382548817 ], [ 75.501602666354984, 14.325785657025687 ], [ 75.501810021498727, 14.325073870543273 ], [ 75.502248488296502, 14.323568750808477 ], [ 75.50233062970608, 14.323385190336538 ], [ 75.503656423864797, 14.320422447316769 ], [ 75.5038965521573, 14.319885829996121 ], [ 75.505372801984123, 14.316586743205834 ], [ 75.505330827443373, 14.316356476258743 ], [ 75.504970070155025, 14.314377407993423 ], [ 75.504914720236016, 14.314073774444077 ], [ 75.504709581807305, 14.312827470872856 ], [ 75.504495539446467, 14.31152702209444 ], [ 75.504466267263268, 14.311349103212585 ], [ 75.504358910411483, 14.310696878932401 ], [ 75.503909219524914, 14.307964714538651 ], [ 75.50387177971291, 14.307744854124694 ], [ 75.508190378429873, 14.306211550407227 ], [ 75.509980506797291, 14.304834701075043 ], [ 75.510945794524943, 14.304366301704862 ], [ 75.51146823747959, 14.304112790160351 ], [ 75.512271320702922, 14.304071761114686 ], [ 75.512366400998076, 14.304066903552494 ], [ 75.514148394267593, 14.303356650195576 ], [ 75.514882280226487, 14.303064134036802 ], [ 75.514693775231052, 14.302977906017427 ], [ 75.514548889508319, 14.302911632885307 ], [ 75.516726469906217, 14.30149258463771 ], [ 75.517562607371985, 14.301433110282447 ], [ 75.517758660050887, 14.301419163016254 ], [ 75.518516497655398, 14.299936965751039 ], [ 75.518227862413838, 14.299479568700942 ], [ 75.518183908200228, 14.299409912414353 ], [ 75.519427687514579, 14.299027665310497 ], [ 75.520876685948267, 14.298582342450635 ], [ 75.520368877042401, 14.297588193369526 ], [ 75.520271070681957, 14.296026461557783 ], [ 75.521766258805343, 14.293876034340581 ], [ 75.524000947888183, 14.292620142827403 ], [ 75.525275374611951, 14.29230535479763 ], [ 75.525695839904913, 14.292201494116632 ], [ 75.526535152087092, 14.291401845500554 ], [ 75.527870471012889, 14.290816102679353 ], [ 75.531015051082846, 14.290415204975227 ], [ 75.533631619132024, 14.290369322133618 ], [ 75.533740898599547, 14.28993703136001 ], [ 75.533907311853156, 14.288104852977233 ], [ 75.533839102874552, 14.287103168032838 ], [ 75.533900795584799, 14.28583179309353 ], [ 75.535139819172187, 14.277537342948595 ], [ 75.535257430439003, 14.277559047601049 ], [ 75.535902949614339, 14.277697516156621 ], [ 75.536116576883359, 14.277743335769177 ], [ 75.538185149639062, 14.277597577863402 ], [ 75.539450593225936, 14.277464572234956 ], [ 75.540041228980158, 14.277413400310971 ], [ 75.540716624342892, 14.27722962638726 ], [ 75.541737980694023, 14.276942725025652 ], [ 75.542752479543893, 14.276656258125611 ], [ 75.543764259042206, 14.276380103131881 ], [ 75.544778278345802, 14.276086893893437 ], [ 75.545782725468229, 14.275804438138174 ], [ 75.546599421450864, 14.275569513073625 ], [ 75.546716027222217, 14.275484993892674 ], [ 75.546990900064884, 14.275285759909146 ], [ 75.548114166541936, 14.274539211062166 ], [ 75.548984871618799, 14.273938475180692 ], [ 75.549043426141949, 14.27389807608586 ], [ 75.549253615893107, 14.273778094768783 ], [ 75.549292328723766, 14.273780013626808 ], [ 75.550547567441825, 14.273842233823409 ], [ 75.551649274478891, 14.273889950551345 ], [ 75.552157056823631, 14.273920734894761 ], [ 75.557050326993959, 14.274042580338339 ], [ 75.560967699173148, 14.277465513095446 ], [ 75.561315403949337, 14.277479773294605 ], [ 75.56157340656253, 14.277490354855404 ], [ 75.565640572060488, 14.277115266081806 ], [ 75.565566721575763, 14.276975004077194 ], [ 75.56535358867815, 14.27657022108834 ], [ 75.566478584288291, 14.276520848010817 ], [ 75.574485822770114, 14.276355254330021 ], [ 75.57514390086024, 14.276525371468303 ], [ 75.578300545899751, 14.277341350702518 ], [ 75.58059110645938, 14.277302127961326 ], [ 75.581863869334299, 14.277717219651954 ], [ 75.582164712684801, 14.277815333066595 ], [ 75.583186582802924, 14.278148592168282 ], [ 75.583190142301632, 14.278789807631535 ], [ 75.583164281963377, 14.279600106383681 ], [ 75.583923290049782, 14.280505204888701 ], [ 75.585084398854747, 14.282795782605545 ], [ 75.585143287838221, 14.282883360876916 ], [ 75.586368000764921, 14.284944423299702 ], [ 75.587160018866513, 14.287034063224818 ], [ 75.58760821496881, 14.287821417401844 ], [ 75.587691001137543, 14.287966847657575 ], [ 75.587511077189404, 14.288465968003704 ], [ 75.587456474740321, 14.288617437046048 ], [ 75.587387178174993, 14.288809662813577 ], [ 75.587434006388833, 14.288779545311378 ], [ 75.589927810519242, 14.286197452866164 ], [ 75.592272151258911, 14.287418876048607 ], [ 75.592490722187776, 14.287528798524912 ], [ 75.598375646963291, 14.289835036652502 ], [ 75.600473689845174, 14.292302299965483 ], [ 75.600438913719969, 14.292393903232409 ], [ 75.600377649663059, 14.292555289271736 ], [ 75.601338364366342, 14.292680813059865 ], [ 75.60267084731889, 14.292854902991388 ], [ 75.60357751219837, 14.292973353997674 ], [ 75.604381838919309, 14.294775261732408 ], [ 75.605469084654601, 14.297210921374456 ], [ 75.606071554106748, 14.298560543948829 ], [ 75.606108033134802, 14.298689114496533 ], [ 75.606111075178646, 14.298699842415724 ], [ 75.606160143506727, 14.298872754796276 ], [ 75.606412224818285, 14.299761095148398 ], [ 75.606575385123776, 14.300336073513479 ], [ 75.606698970161858, 14.300771574520056 ], [ 75.606755032531296, 14.300928700808125 ], [ 75.606756443194115, 14.300932660925556 ], [ 75.607249836908096, 14.302315495225676 ], [ 75.607317623563532, 14.302505481010046 ], [ 75.607639763124567, 14.303408325468869 ], [ 75.607685732500869, 14.303534376008036 ], [ 75.607914637737338, 14.30416205596199 ], [ 75.608169651926517, 14.304861323999523 ], [ 75.608259970402301, 14.30510897879485 ], [ 75.608426997366735, 14.30556697067753 ], [ 75.6084386795103, 14.305600192036936 ], [ 75.608736968282116, 14.306448451575319 ], [ 75.608785494051276, 14.30658645513193 ], [ 75.60911971767537, 14.307268212094531 ], [ 75.609163306852125, 14.307357136571607 ], [ 75.609454594861916, 14.308278629392314 ], [ 75.609538127479013, 14.308542884501001 ], [ 75.609599400955346, 14.308736725036738 ], [ 75.609733329494546, 14.309160399244927 ], [ 75.609733447248701, 14.309161086082636 ], [ 75.60974580570776, 14.309232454531967 ], [ 75.609754117768134, 14.309280429922209 ], [ 75.609757769680797, 14.30931431914688 ], [ 75.609757782934821, 14.309314420375577 ], [ 75.60975781046524, 14.309314658091472 ], [ 75.609761433023635, 14.309348320454321 ], [ 75.609799294624054, 14.309699848998749 ], [ 75.609866096552523, 14.310320084283889 ], [ 75.609926875639502, 14.3108698597505 ], [ 75.609948765815133, 14.31112871959202 ], [ 75.60997455328571, 14.311433661118286 ], [ 75.609974910424981, 14.311437842711896 ], [ 75.6099798758231, 14.311496637363359 ], [ 75.609980860459089, 14.311508290893572 ], [ 75.609987510431651, 14.311801650775969 ], [ 75.609990216069221, 14.31192120068914 ], [ 75.609998761965812, 14.312298269179621 ], [ 75.610000601711448, 14.31237938760731 ], [ 75.610004051129835, 14.312458447717704 ], [ 75.610022983856993, 14.312892519395481 ], [ 75.610043112501003, 14.3133539515044 ], [ 75.610046002290701, 14.313420098437943 ], [ 75.610047993027635, 14.313465770019002 ], [ 75.610189692231074, 14.313841779644878 ], [ 75.610343692684651, 14.314250434658966 ], [ 75.610511975152363, 14.314686949801532 ], [ 75.610609237631294, 14.314939230845246 ], [ 75.610828197880309, 14.315494572844532 ], [ 75.610909156642222, 14.315699914294292 ], [ 75.610943392312109, 14.315786734923122 ], [ 75.610971913856147, 14.315784217728153 ], [ 75.616239147666974, 14.315319352024632 ], [ 75.616571338328114, 14.315297628468427 ], [ 75.620580135829087, 14.315129428371366 ], [ 75.621240990722811, 14.315071122184312 ], [ 75.621941303136666, 14.315153776724769 ], [ 75.623026158365917, 14.315205376217147 ], [ 75.624676809048282, 14.315151155814272 ], [ 75.624928194717342, 14.315143293487008 ], [ 75.626296734527699, 14.315166821737634 ], [ 75.627419389108923, 14.315143436987093 ], [ 75.629054907328367, 14.315029241814033 ], [ 75.629196873802741, 14.31506177532493 ], [ 75.630830518932711, 14.314904089831586 ], [ 75.631771932040621, 14.31482854088399 ], [ 75.631874602465075, 14.314822219302087 ], [ 75.632045912342889, 14.314811670968497 ], [ 75.63206853760299, 14.314812625223611 ], [ 75.633078532301923, 14.314855201902658 ], [ 75.633131681318133, 14.315147428841229 ], [ 75.633667354568189, 14.318012581982508 ], [ 75.633867650265927, 14.321306725498204 ], [ 75.633183306541099, 14.3239805713068 ], [ 75.631444602178831, 14.326280595464208 ], [ 75.628693729987859, 14.328206911939622 ], [ 75.628012618765439, 14.32902898724662 ], [ 75.627912323103629, 14.329404672255656 ], [ 75.627835402632641, 14.32969278677059 ], [ 75.627633888408909, 14.330447574832517 ], [ 75.627486500145878, 14.330782068274152 ], [ 75.627251165651671, 14.331316132309073 ], [ 75.626709015782453, 14.332546487899775 ], [ 75.626588834912781, 14.332819226744915 ], [ 75.625816056175054, 14.334572948998529 ], [ 75.625283088088693, 14.335782438161129 ], [ 75.624711127201664, 14.336819864126154 ], [ 75.623773190104146, 14.338521090103928 ], [ 75.623537348024087, 14.339278603433923 ], [ 75.623214719412175, 14.340314893350795 ], [ 75.622911561482013, 14.342377202623547 ], [ 75.622775008429031, 14.343306114677677 ], [ 75.622623580947064, 14.344370491183129 ], [ 75.62262342447184, 14.344371588299479 ], [ 75.622462146417803, 14.345505200506416 ], [ 75.622398242304385, 14.345954372839433 ], [ 75.622471892134044, 14.346681399257291 ], [ 75.622482582263828, 14.346786998488737 ], [ 75.622552798946373, 14.347480196890642 ], [ 75.622605859274898, 14.348003991607765 ], [ 75.622660846685932, 14.348546814888286 ], [ 75.62273958886766, 14.349324167572052 ], [ 75.622812413022103, 14.350043072191861 ], [ 75.622934406278333, 14.351247344281781 ], [ 75.623125684760865, 14.353135531890326 ], [ 75.623158489144743, 14.354695972301412 ], [ 75.623167636007153, 14.35513114377077 ], [ 75.62318362837226, 14.355891947934973 ], [ 75.623189784557937, 14.356184646055812 ], [ 75.62319210618007, 14.356295393537776 ], [ 75.62321644057792, 14.356440637916684 ], [ 75.623268846595693, 14.356753465911591 ], [ 75.623292922772038, 14.356897183884302 ], [ 75.623324370208863, 14.357084878120563 ], [ 75.623365837040396, 14.357332423518448 ], [ 75.623393221345808, 14.357495885198913 ], [ 75.623409066367543, 14.35759047110723 ], [ 75.623435590718472, 14.357748792373055 ], [ 75.623456604294645, 14.357874225194321 ], [ 75.623482137664453, 14.358026640595588 ], [ 75.623488036106949, 14.358061859752114 ], [ 75.623493075400944, 14.358091920420401 ], [ 75.623501386349531, 14.358123230119514 ], [ 75.623635918706043, 14.358630111303714 ], [ 75.623773385155445, 14.359148052946685 ], [ 75.623911451091203, 14.359668227883054 ], [ 75.623769382042937, 14.359675972326015 ], [ 75.62286691951816, 14.359725166312799 ], [ 75.622821990708388, 14.359725811509849 ], [ 75.622883097483395, 14.359990436687166 ], [ 75.622939875780943, 14.360165074765325 ], [ 75.622941386746874, 14.360169840958811 ], [ 75.622981503718549, 14.36029642154274 ], [ 75.623002619462596, 14.360353503134629 ], [ 75.623047216895699, 14.36047405768084 ], [ 75.623049785609339, 14.360481009979621 ], [ 75.623102026628985, 14.360622247980363 ], [ 75.623108347133481, 14.360641735151567 ], [ 75.623150172704484, 14.360770698093008 ], [ 75.623204616821141, 14.360938530539714 ], [ 75.623217157754667, 14.360977186885153 ], [ 75.623239329992487, 14.36104500215718 ], [ 75.623288628015487, 14.36119576014384 ], [ 75.623310050138898, 14.361261275476647 ], [ 75.623337490280221, 14.361338164240681 ], [ 75.62338828868522, 14.36146233787273 ], [ 75.623405468641863, 14.361504337207617 ], [ 75.62341892291829, 14.361538551880072 ], [ 75.62345226115265, 14.361623333490778 ], [ 75.623481956351796, 14.361694668586175 ], [ 75.623527558575262, 14.361795739179046 ], [ 75.623563317912883, 14.361874985672246 ], [ 75.623567328560725, 14.361883858146889 ], [ 75.623567753102321, 14.361897844750327 ], [ 75.623569266478867, 14.361947678859874 ], [ 75.62357212324946, 14.362041557508013 ], [ 75.62357346876351, 14.362085697878317 ], [ 75.623577036640839, 14.362202933631311 ], [ 75.623578801817132, 14.362260971108338 ], [ 75.623576818954064, 14.362314210312146 ], [ 75.623573511982016, 14.362403041174801 ], [ 75.623571488561183, 14.362457375380318 ], [ 75.623565721424612, 14.362612289798401 ], [ 75.623563403707266, 14.362674553050876 ], [ 75.623558641122642, 14.36277928859071 ], [ 75.623482585774838, 14.363006847288954 ], [ 75.623447772806259, 14.363111015457056 ], [ 75.623429791513729, 14.363158151418975 ], [ 75.623429779542306, 14.36315818219073 ], [ 75.6233446571608, 14.363381310082616 ], [ 75.623301954005044, 14.363728883138307 ], [ 75.623295319377789, 14.363782903985546 ], [ 75.623268137507253, 14.364004122686257 ], [ 75.623259910720222, 14.364121555819997 ], [ 75.623251091496073, 14.364247436847563 ], [ 75.623255092683451, 14.364410001566771 ], [ 75.62326248532608, 14.364710517798283 ], [ 75.623264298685882, 14.364784296861727 ], [ 75.6232665927798, 14.364830051305129 ], [ 75.623280862575029, 14.365114871902549 ], [ 75.623290244475598, 14.365302095116636 ], [ 75.623295966243958, 14.365461010764088 ], [ 75.623295975254237, 14.365461250333492 ], [ 75.623313556661529, 14.365949577101695 ], [ 75.62329267673509, 14.366039535514739 ], [ 75.623251717186591, 14.366195991804508 ], [ 75.623262589782698, 14.366247303024725 ], [ 75.623273208676636, 14.366297423274998 ], [ 75.623283279196997, 14.366377260840247 ], [ 75.623288685145923, 14.366420088572914 ], [ 75.623293109681327, 14.366455147934397 ], [ 75.623300803204373, 14.366500162149553 ], [ 75.623322616939262, 14.36662784945336 ], [ 75.623336817170852, 14.366710948172955 ], [ 75.62334185513015, 14.366740446454108 ], [ 75.623364229876486, 14.366859708542179 ], [ 75.62337926976457, 14.366939895572942 ], [ 75.623407108085985, 14.367088268750773 ], [ 75.623468816908684, 14.367287219016182 ], [ 75.623488961953214, 14.367352150860432 ], [ 75.623525931114216, 14.367460336043191 ], [ 75.623526102253777, 14.367460847327276 ], [ 75.6235763666145, 14.367607927302087 ], [ 75.62362858249638, 14.367760732466044 ], [ 75.623638013218397, 14.367788326836372 ], [ 75.623670269596587, 14.367867526404474 ], [ 75.62382076095399, 14.368016913697454 ], [ 75.623903272972584, 14.36818099207848 ], [ 75.623965882627502, 14.368305494172398 ], [ 75.624005018979261, 14.368383331124891 ], [ 75.624011012759112, 14.368395247969429 ], [ 75.62402529138356, 14.368433222459355 ], [ 75.624050413064168, 14.368500033459652 ], [ 75.624101229535583, 14.368738304552691 ], [ 75.6241181680831, 14.368817730657716 ], [ 75.624127641756658, 14.368916960487338 ], [ 75.624024329307829, 14.369096092081753 ], [ 75.624031712817242, 14.369234916323894 ], [ 75.624045442365045, 14.369432405141151 ], [ 75.625139105781358, 14.36921415915806 ], [ 75.625578736674896, 14.369109380182827 ], [ 75.629214458280074, 14.36824282886292 ], [ 75.629235221575968, 14.36846226513074 ], [ 75.629224799938427, 14.368487861441343 ], [ 75.629140420277594, 14.368730386275201 ], [ 75.628950770359538, 14.369275479051771 ], [ 75.628577039944034, 14.369694869995479 ], [ 75.628633165420169, 14.370179091784184 ], [ 75.62885929953417, 14.370735664861716 ], [ 75.629059396071227, 14.371232783847782 ], [ 75.629094094935169, 14.371651653511355 ], [ 75.629252728262642, 14.372455755495452 ], [ 75.629664998807669, 14.373237704509181 ], [ 75.629903464575804, 14.374075046958959 ], [ 75.630289200710038, 14.374733505897977 ], [ 75.63053800223139, 14.375117668007817 ], [ 75.630575979396468, 14.375193647004863 ], [ 75.630933625870711, 14.37550085357382 ], [ 75.631281901945428, 14.375828518629039 ], [ 75.631340471822284, 14.375866623104852 ], [ 75.631681775513371, 14.376088673821137 ], [ 75.632087843176933, 14.376333778003019 ], [ 75.632134282067597, 14.376396723792402 ], [ 75.632151053661346, 14.376419455665108 ], [ 75.632206691731625, 14.376745859942421 ], [ 75.632245215333569, 14.376893851449816 ], [ 75.632383131539157, 14.377128353316877 ], [ 75.632491651312975, 14.377333179868405 ], [ 75.63273477224763, 14.377426236073896 ], [ 75.632875964239673, 14.377483719734956 ], [ 75.633022267146856, 14.377817496725445 ], [ 75.633196948647182, 14.378212763902383 ], [ 75.633369044511923, 14.378599647577017 ], [ 75.633540894023113, 14.3789801848117 ], [ 75.633563587556296, 14.379029421335856 ], [ 75.63360382616888, 14.379116716932533 ], [ 75.633881181829565, 14.379321112370652 ], [ 75.633875942300193, 14.379546483405182 ], [ 75.631065630354357, 14.381093070876188 ], [ 75.630996390554216, 14.381131169892116 ], [ 75.628982892035566, 14.381871859699318 ], [ 75.62899991362886, 14.381988888417855 ], [ 75.629086395435877, 14.382322717435418 ], [ 75.629165055776397, 14.382594880710997 ], [ 75.629314057573026, 14.383110484495768 ], [ 75.629314095972788, 14.383110617299685 ], [ 75.629314146584505, 14.3831108052226 ], [ 75.629428658405999, 14.383421620999281 ], [ 75.629437741980553, 14.383445958420168 ], [ 75.629524226018276, 14.38367776779533 ], [ 75.629667696345251, 14.383884234812481 ], [ 75.62974806932732, 14.384158402213625 ], [ 75.629786803825084, 14.384247628228216 ], [ 75.629876024396509, 14.384453162677708 ], [ 75.630040621948837, 14.384818252999866 ], [ 75.6302553158134, 14.385242017462433 ], [ 75.630255363365052, 14.385242105939737 ], [ 75.630436615106603, 14.385628434588378 ], [ 75.630487865523364, 14.385741576400179 ], [ 75.630624330447517, 14.386042851377537 ], [ 75.630723233842588, 14.386261197240195 ], [ 75.630741306598594, 14.386310419196789 ], [ 75.630831704741496, 14.386339697746255 ], [ 75.630892987548975, 14.386361593997316 ], [ 75.631139428977917, 14.386449658143535 ], [ 75.631173149570174, 14.386412134805395 ], [ 75.63113600827208, 14.38634758916262 ], [ 75.631084744279278, 14.386258521612852 ], [ 75.631029926905086, 14.386156872722204 ], [ 75.630896091530602, 14.385908697325974 ], [ 75.630958949286068, 14.385878759652687 ], [ 75.631016817107096, 14.385851192319864 ], [ 75.631104143556428, 14.385809593069808 ], [ 75.631186374489587, 14.385770424102425 ], [ 75.631251465431717, 14.385739420764526 ], [ 75.631265151282605, 14.3857329016897 ], [ 75.6317170293554, 14.385517650888762 ], [ 75.631789378485024, 14.385483186937645 ], [ 75.631861736859307, 14.385448720228093 ], [ 75.631934085940571, 14.385414255330216 ], [ 75.632006444266466, 14.385379787673905 ], [ 75.632078792376944, 14.385345323639973 ], [ 75.632151148804525, 14.385310856850083 ], [ 75.632645954596967, 14.38574027690683 ], [ 75.633063354807746, 14.386109447074674 ], [ 75.63323529989043, 14.386340446602055 ], [ 75.633406115941938, 14.386569920139543 ], [ 75.633792811478529, 14.387091457749371 ], [ 75.634101546405574, 14.387496038512172 ], [ 75.634266152392954, 14.387712959791696 ], [ 75.634272805282805, 14.387721730918711 ], [ 75.63469241168157, 14.388301327175604 ], [ 75.634714177863955, 14.388427684844142 ], [ 75.634862689100316, 14.388906104476105 ], [ 75.634987875354312, 14.389313314706209 ], [ 75.634989252379384, 14.389317780081216 ], [ 75.635011482050786, 14.389390103452179 ], [ 75.635061288492352, 14.389544523845293 ], [ 75.63514520878762, 14.389808489982068 ], [ 75.635165567558971, 14.389872553783212 ], [ 75.63527870894896, 14.390228567718003 ], [ 75.635352709117683, 14.390461155742296 ], [ 75.635352836384712, 14.390461552309622 ], [ 75.635353639079199, 14.390464307722967 ], [ 75.635353719598783, 14.390464573318299 ], [ 75.635353748625903, 14.390464669981277 ], [ 75.635353836652698, 14.390464966296564 ], [ 75.635465684022023, 14.390843680636076 ], [ 75.635608507640114, 14.391324209712302 ], [ 75.635741872314128, 14.391771137113503 ], [ 75.635750494925603, 14.391800030437139 ], [ 75.635751002492725, 14.391801739669665 ], [ 75.635753541217596, 14.391810272268115 ], [ 75.635755160808031, 14.391815549789294 ], [ 75.635755381736303, 14.391816266163371 ], [ 75.635986595469106, 14.392567058518834 ], [ 75.636086200695772, 14.39289048399135 ], [ 75.636342477832699, 14.393752743480661 ], [ 75.636343419927783, 14.393755911697035 ], [ 75.636343472418545, 14.393756105037641 ], [ 75.636534011815343, 14.394438643671085 ], [ 75.636534389115283, 14.394440204071882 ], [ 75.636604669243312, 14.394731167047347 ], [ 75.636720804529588, 14.395218496335886 ], [ 75.636802493002563, 14.395561384686673 ], [ 75.636804783270179, 14.39557124066565 ], [ 75.636920335488256, 14.39606818125667 ], [ 75.636990276160375, 14.396369235842977 ], [ 75.63702683358197, 14.396526610723633 ], [ 75.637076468367056, 14.396740068208876 ], [ 75.637076564139946, 14.396740477517366 ], [ 75.637078416533981, 14.396748667473622 ], [ 75.637078604410561, 14.396749500566417 ], [ 75.637085775473167, 14.396779598399087 ], [ 75.637281521344079, 14.397601860177769 ], [ 75.637281561721906, 14.397602033660023 ], [ 75.63729580892992, 14.397659137468375 ], [ 75.637411936359513, 14.39814646620364 ], [ 75.637470323772078, 14.398394950883763 ], [ 75.637470634515552, 14.398396260116083 ], [ 75.637526026939085, 14.398632005657388 ], [ 75.637617466979137, 14.399011826763854 ], [ 75.637797592394165, 14.400454075172902 ], [ 75.637797610395594, 14.40045420802999 ], [ 75.637835655042366, 14.400758814625622 ], [ 75.637835674025382, 14.400758966466578 ], [ 75.637948517849679, 14.401662466386931 ], [ 75.637948539623324, 14.401662620932663 ], [ 75.637968104149451, 14.401793472035306 ], [ 75.638012933100967, 14.402093289195411 ], [ 75.638145476115724, 14.402561169605871 ], [ 75.638150448669265, 14.402582940946882 ], [ 75.638150527547509, 14.402583278874715 ], [ 75.638150638338828, 14.402583748717872 ], [ 75.638310215862248, 14.40325817810592 ], [ 75.638310252470006, 14.403258329899172 ], [ 75.638310290976662, 14.403258497057314 ], [ 75.638310351056901, 14.403258748240344 ], [ 75.638310518933054, 14.403259394232546 ], [ 75.638311118355375, 14.403261746941398 ], [ 75.638311972156401, 14.40326515497506 ], [ 75.638315489128928, 14.403279345580788 ], [ 75.638336186900048, 14.403362331266807 ], [ 75.6384775241456, 14.403929036849025 ], [ 75.638504155814644, 14.40403580381297 ], [ 75.638528109914574, 14.404534688389468 ], [ 75.638551892171151, 14.40502984843017 ], [ 75.638557138207716, 14.405117721009987 ], [ 75.638557185219369, 14.405118595166616 ], [ 75.638596353361848, 14.405733249049558 ], [ 75.63749296639439, 14.406064426873096 ], [ 75.637414484182486, 14.406076761960431 ], [ 75.637327647036386, 14.406090413354814 ], [ 75.635034092721142, 14.406450915512888 ], [ 75.633576724613775, 14.406750727765719 ], [ 75.633571211381906, 14.406751555354706 ], [ 75.633450155798769, 14.406769732716972 ], [ 75.633439041246319, 14.406771400782841 ], [ 75.633190686126582, 14.406808692441103 ], [ 75.632638732552536, 14.406896718913409 ], [ 75.632081315542905, 14.406984985663167 ], [ 75.631505352494585, 14.407058153955985 ], [ 75.630984609551248, 14.407140821253806 ], [ 75.630501289071077, 14.40720937186903 ], [ 75.630489814816784, 14.407211462982076 ], [ 75.630433547494448, 14.407218979913175 ], [ 75.628877305140449, 14.407426858604719 ], [ 75.62847492019624, 14.407466548914503 ], [ 75.627343870790384, 14.407578105667397 ], [ 75.62733225154949, 14.407580780171987 ], [ 75.6273491525168, 14.407213360116044 ], [ 75.627350964345354, 14.407173941045404 ], [ 75.627386733296419, 14.407121586047339 ], [ 75.627338042559856, 14.406606059749912 ], [ 75.627328556257879, 14.406505630739044 ], [ 75.627328334516704, 14.406503292366134 ], [ 75.627345807118516, 14.406188722979811 ], [ 75.627352791127549, 14.406062956535896 ], [ 75.627354136669837, 14.405997426773101 ], [ 75.627365307763441, 14.405740853597676 ], [ 75.627396503424634, 14.405134612568199 ], [ 75.627397182223447, 14.4051123024757 ], [ 75.627415211158478, 14.404519579540446 ], [ 75.627419789037347, 14.40444231021211 ], [ 75.626788571108037, 14.404397762208857 ], [ 75.626536833028936, 14.404361830992073 ], [ 75.62642639348104, 14.40436870670737 ], [ 75.62636481239042, 14.404372539783209 ], [ 75.626280887410715, 14.404377763836223 ], [ 75.62557662188641, 14.40423427465706 ], [ 75.625293005632656, 14.404176488883238 ], [ 75.625205255968993, 14.404147994411378 ], [ 75.624780837499245, 14.404010176957994 ], [ 75.624740691804007, 14.403997141689908 ], [ 75.624583837670698, 14.403946209448208 ], [ 75.624555483316499, 14.40393839140825 ], [ 75.62424052222913, 14.403851588929468 ], [ 75.624219281061713, 14.403848227460648 ], [ 75.623829202406938, 14.403786491621721 ], [ 75.623674245631207, 14.403761967677655 ], [ 75.623170500527991, 14.403715384532566 ], [ 75.62290108820271, 14.403690468424342 ], [ 75.622888889936348, 14.40368934239838 ], [ 75.622740153119665, 14.40366691979767 ], [ 75.622673291678524, 14.403656843244713 ], [ 75.622510146992781, 14.403632253308368 ], [ 75.622300719017218, 14.403600685979924 ], [ 75.622229637123809, 14.403589971254434 ], [ 75.6222123715132, 14.40359123095304 ], [ 75.622094686807714, 14.403599834310921 ], [ 75.622009185099188, 14.403606084456984 ], [ 75.621899898075782, 14.403614072509439 ], [ 75.621745144712122, 14.403625381640122 ], [ 75.621658382624105, 14.403631722675998 ], [ 75.621572647171519, 14.403637987745851 ], [ 75.621440217491852, 14.40364766840065 ], [ 75.621424045293381, 14.403648850124327 ], [ 75.621365467892147, 14.403646338808626 ], [ 75.620999293769984, 14.403630648351839 ], [ 75.620645176164928, 14.403615469037625 ], [ 75.620309400980489, 14.403615415834734 ], [ 75.620157483392461, 14.403615390541217 ], [ 75.619945712457223, 14.403615358536358 ], [ 75.619853510925481, 14.403615341829523 ], [ 75.619735368401749, 14.403611045195406 ], [ 75.61935397376611, 14.403597175933028 ], [ 75.61933003095973, 14.403596304726879 ], [ 75.619083969917426, 14.403587356754587 ], [ 75.618856666811908, 14.403579089028334 ], [ 75.618761514722522, 14.403596622316018 ], [ 75.618424756630688, 14.403658681340698 ], [ 75.618325821826062, 14.403653016426006 ], [ 75.618035032099641, 14.403596977429258 ], [ 75.618006030487834, 14.40359992929333 ], [ 75.617621243980892, 14.403639120033827 ], [ 75.617553606614877, 14.403646010822285 ], [ 75.617246243160523, 14.403601606824843 ], [ 75.616871001591932, 14.403577715162269 ], [ 75.616696577475395, 14.403552318836571 ], [ 75.61659144401186, 14.403537014238397 ], [ 75.616463440876686, 14.403515390666447 ], [ 75.616317627533434, 14.403495336923521 ], [ 75.616269024178621, 14.403481164070156 ], [ 75.616157518241408, 14.403448650540597 ], [ 75.615932516282356, 14.403378040121304 ], [ 75.615802227717211, 14.403337152563571 ], [ 75.615698182201342, 14.40330449912199 ], [ 75.615516591466289, 14.403287787509756 ], [ 75.615138139173439, 14.40324359030021 ], [ 75.614970117788374, 14.403223966021413 ], [ 75.614937318557196, 14.403220135616642 ], [ 75.614703768823944, 14.403193372724221 ], [ 75.614365528208523, 14.403154612842489 ], [ 75.614350051021731, 14.403152839407944 ], [ 75.614054257429203, 14.403117147619566 ], [ 75.613791644822683, 14.403085456819161 ], [ 75.613772679392383, 14.403083167110875 ], [ 75.613755412576694, 14.403082301504607 ], [ 75.613195338692506, 14.403054253915185 ], [ 75.61318234612564, 14.403053342819174 ], [ 75.612834499014568, 14.403028944151847 ], [ 75.612676052628046, 14.403017831037184 ], [ 75.612617416301646, 14.403013716492328 ], [ 75.612559737331765, 14.403012348891536 ], [ 75.612153037335077, 14.403002689800742 ], [ 75.61204484461642, 14.403000121145791 ], [ 75.611945385496881, 14.402998330879109 ], [ 75.611763154655236, 14.402995059629156 ], [ 75.611576518803744, 14.403011934477519 ], [ 75.611511890422491, 14.403017775102818 ], [ 75.611231481906785, 14.403009478297751 ], [ 75.6109534677326, 14.403001256340106 ], [ 75.610852892257697, 14.402998279576352 ], [ 75.610492020370046, 14.402982877313448 ], [ 75.610377971969697, 14.402978010272166 ], [ 75.61033221451541, 14.4029623216534 ], [ 75.610090051736137, 14.40289527417786 ], [ 75.610011261400786, 14.403670138335347 ], [ 75.609980505769244, 14.403978032189343 ], [ 75.609886530337903, 14.405099581122347 ], [ 75.609862499715192, 14.405623299089877 ], [ 75.609846391968333, 14.405974341467182 ], [ 75.609840258270694, 14.405999140239782 ], [ 75.609832286765425, 14.406031372941991 ], [ 75.609827594492074, 14.406050338202789 ], [ 75.609822593017498, 14.406070556473185 ], [ 75.609815806057924, 14.406098006014313 ], [ 75.609792946274922, 14.406189264898366 ], [ 75.609643756897114, 14.406704337809204 ], [ 75.609572143760843, 14.406943592837688 ], [ 75.609564422882443, 14.407044905373716 ], [ 75.609536150491138, 14.408276662606022 ], [ 75.609532466473027, 14.408286746762911 ], [ 75.609512461677497, 14.408341487922268 ], [ 75.609499877408794, 14.408375920492743 ], [ 75.609496830410322, 14.408443975422768 ], [ 75.609496032007073, 14.408461838448057 ], [ 75.609492937033352, 14.408531014614887 ], [ 75.609367411684232, 14.411336255619027 ], [ 75.609366997173026, 14.411345529379943 ], [ 75.60925838675837, 14.411367925335918 ], [ 75.608745434057838, 14.411473707693309 ], [ 75.60768998081349, 14.41169136660713 ], [ 75.607007905210594, 14.411778452682514 ], [ 75.606972490139356, 14.411782972097953 ], [ 75.606401087937584, 14.411989742009871 ], [ 75.606053926608439, 14.412115370573908 ], [ 75.605995935182676, 14.412127643680874 ], [ 75.604348042096674, 14.412431788590835 ], [ 75.604266962329177, 14.412446753169046 ], [ 75.60269441790355, 14.412425193720393 ], [ 75.602635974718964, 14.412442066445642 ], [ 75.602633709323356, 14.412442718675171 ], [ 75.602629172053227, 14.41244402857545 ], [ 75.602206424274073, 14.412566067911118 ], [ 75.601583788110617, 14.412745810679304 ], [ 75.600577901632704, 14.413039831680436 ], [ 75.600455376347185, 14.413075645503278 ], [ 75.599389033337516, 14.413461371453968 ], [ 75.598561683295983, 14.413760642210246 ], [ 75.598431025452925, 14.413807902855114 ], [ 75.598014143992387, 14.414078317641527 ], [ 75.597974679688576, 14.414103917518755 ], [ 75.597328850584461, 14.414332691740176 ], [ 75.597137230988025, 14.41438556860737 ], [ 75.596902371079537, 14.414450375157372 ], [ 75.596754189872783, 14.414491265327941 ], [ 75.596559184746553, 14.414716708012092 ], [ 75.59643587040955, 14.414811189574946 ], [ 75.595875780374513, 14.415140232364099 ], [ 75.595635820895396, 14.41522948906713 ], [ 75.595314584598128, 14.415348978265985 ], [ 75.595172353597079, 14.415397648743996 ], [ 75.595188347442189, 14.415495263913529 ], [ 75.595428703777927, 14.415411002846488 ], [ 75.595452710576112, 14.415501198426565 ], [ 75.595496591285197, 14.415703156153317 ], [ 75.595641875611832, 14.41695543168859 ], [ 75.595809915995162, 14.417869874722422 ], [ 75.596134488449962, 14.419636116102518 ], [ 75.596171419141243, 14.419840655231924 ], [ 75.596618610923869, 14.422317388620371 ], [ 75.59662412365725, 14.42239181126526 ], [ 75.596781938789576, 14.423411147248583 ], [ 75.596824698958997, 14.423727342554875 ], [ 75.596992070359164, 14.424965034442485 ], [ 75.597031829261837, 14.425854169971357 ], [ 75.596944998640652, 14.427486557226151 ], [ 75.597041113000941, 14.43029085896714 ], [ 75.597041835515356, 14.4304579094087 ], [ 75.59705995394539, 14.430948159107169 ], [ 75.59706586200133, 14.430983108433267 ], [ 75.597235474237579, 14.431986732106207 ], [ 75.597341487480122, 14.432614032241997 ], [ 75.597433870378893, 14.433160649351652 ], [ 75.597489727989341, 14.433491173911483 ], [ 75.597674288544596, 14.435497929291154 ], [ 75.597708161464723, 14.435866239393221 ], [ 75.597797756436734, 14.437137243214728 ], [ 75.597838419292557, 14.437714125397031 ], [ 75.598588568070411, 14.437766381060552 ], [ 75.598834181969266, 14.437783489985929 ], [ 75.599157782648092, 14.43780603318835 ], [ 75.599182638326383, 14.4378082999536 ], [ 75.599202965512276, 14.437810154190359 ], [ 75.599983478569655, 14.437881334700657 ], [ 75.600656350230679, 14.437923350406185 ], [ 75.600659149697492, 14.437923523195298 ], [ 75.600781137846894, 14.437931143376646 ], [ 75.601497849728545, 14.437934275277001 ], [ 75.601796719084803, 14.437937532413587 ], [ 75.603189754228723, 14.438011993301988 ], [ 75.603191441413173, 14.438012196029964 ], [ 75.60317539596744, 14.438134083853836 ], [ 75.603191154989219, 14.440602856369891 ], [ 75.603191287927075, 14.440623618293813 ], [ 75.603274128622957, 14.442700274445748 ], [ 75.603274202106036, 14.442702066227708 ], [ 75.603541522101835, 14.443908443604947 ], [ 75.603563894710575, 14.444009408385286 ], [ 75.603560253975431, 14.44414181461614 ], [ 75.603557060023348, 14.444258244770813 ], [ 75.603560652636602, 14.444277619945712 ], [ 75.603561556524369, 14.444439077535804 ], [ 75.603561643817216, 14.444454591140561 ], [ 75.603590399977463, 14.444584265326188 ], [ 75.603598148456882, 14.444761348499727 ], [ 75.603599262725965, 14.444786812951941 ], [ 75.603638410311689, 14.445019802548634 ], [ 75.603642967939081, 14.445219132570296 ], [ 75.603657884824898, 14.445440715425525 ], [ 75.603657976632803, 14.445442075893766 ], [ 75.603701426325401, 14.445974923618332 ], [ 75.603702477010827, 14.445987813703725 ], [ 75.603746808134304, 14.446513700104811 ], [ 75.603994102546267, 14.447686096494222 ], [ 75.603997813865973, 14.44770369565439 ], [ 75.604115457251666, 14.448204221392684 ], [ 75.604192145766874, 14.448530502158176 ], [ 75.604281217304049, 14.449077533072019 ], [ 75.604460417582644, 14.450133097188109 ], [ 75.604461614929704, 14.450140148071252 ], [ 75.604603143523235, 14.45028645511729 ], [ 75.604716662478424, 14.451711161976561 ], [ 75.604713966668129, 14.45186953567161 ], [ 75.604719332888152, 14.451951844844881 ], [ 75.604821115482309, 14.453513210493579 ], [ 75.604822138594869, 14.453528898887713 ], [ 75.604848523563248, 14.453843184083217 ], [ 75.604850060897888, 14.454117314150935 ], [ 75.604850150730471, 14.454133379246562 ], [ 75.604845769687884, 14.454635028468157 ], [ 75.604831961506775, 14.454706219150156 ], [ 75.604803564583193, 14.454852626758122 ], [ 75.600188186060279, 14.454947620787868 ], [ 75.599626437309496, 14.454961925322936 ], [ 75.59902812226936, 14.454998726561936 ], [ 75.598817465383448, 14.455001766633099 ], [ 75.598661047386386, 14.455004024930279 ], [ 75.598425221681921, 14.455007427884716 ], [ 75.597972261320862, 14.4550285593656 ], [ 75.5974969896657, 14.455043092239064 ], [ 75.594944125975005, 14.455159728879131 ], [ 75.593993874710961, 14.45516168238381 ], [ 75.593849444109807, 14.455163700215751 ], [ 75.593582425651419, 14.455167426510174 ], [ 75.593208764945189, 14.455160336566109 ], [ 75.592993713121913, 14.455158337500421 ], [ 75.592877041033319, 14.455157253325613 ], [ 75.592606352891522, 14.455156032254079 ], [ 75.592329794081778, 14.455158177218031 ], [ 75.592067544678329, 14.455160211750259 ], [ 75.591898567076001, 14.455163396735079 ], [ 75.591730472701371, 14.455166564913958 ], [ 75.591334776438075, 14.455167248562002 ], [ 75.590904286031829, 14.455164047929907 ], [ 75.590568644857527, 14.455167318207788 ], [ 75.590174204478103, 14.455163667815789 ], [ 75.58976913175033, 14.455169686762874 ], [ 75.589435450900794, 14.455189126185614 ], [ 75.589082533910428, 14.455173831628354 ], [ 75.588749486709787, 14.455176372241096 ], [ 75.588416314766832, 14.455182291403554 ], [ 75.588127509670443, 14.455191933703816 ], [ 75.587812883657236, 14.455182619143795 ], [ 75.587608634771883, 14.455179051189344 ], [ 75.587509568908814, 14.455180457401074 ], [ 75.587462370742159, 14.455181127544401 ], [ 75.586841061213605, 14.455314332118734 ], [ 75.585978886192365, 14.455499173132013 ], [ 75.585665257186719, 14.455566410811247 ], [ 75.585371518545529, 14.455629383620806 ], [ 75.585041346116355, 14.455700167788745 ], [ 75.584707904723814, 14.455771651270764 ], [ 75.584371661724489, 14.455843735248225 ], [ 75.583707006089199, 14.455986222406732 ], [ 75.583647897046546, 14.455998894623825 ], [ 75.583563446374086, 14.456016175552374 ], [ 75.583380293834765, 14.456053654967043 ], [ 75.583236469162586, 14.456083085988867 ], [ 75.583081779888246, 14.456114741747209 ], [ 75.582419111447479, 14.456250343636874 ], [ 75.582198878320554, 14.456295409028161 ], [ 75.582037717822317, 14.456328387470492 ], [ 75.581881822644718, 14.456360286833098 ], [ 75.581690619343064, 14.456399412266151 ], [ 75.581112698768635, 14.456517669858982 ], [ 75.58042332917347, 14.45667384396125 ], [ 75.580320067840461, 14.456704586402456 ], [ 75.579454287815935, 14.456843254499345 ], [ 75.579258682873771, 14.456888089319976 ], [ 75.578791810288593, 14.457055518328431 ], [ 75.578706461333255, 14.457066252982397 ], [ 75.577658580935548, 14.457206508388211 ], [ 75.577483798793295, 14.457229900898419 ], [ 75.577044101136394, 14.457213620377392 ], [ 75.576947962561448, 14.457389521937975 ], [ 75.576559836532255, 14.457850961312339 ], [ 75.576562729608156, 14.45786395554371 ], [ 75.576645198661737, 14.458234111151372 ], [ 75.576500121307262, 14.458137042391552 ], [ 75.57629399395482, 14.458021338847686 ], [ 75.575972817643589, 14.457899489104211 ], [ 75.575799496995657, 14.45768614075015 ], [ 75.575714889388976, 14.457418461714454 ], [ 75.57578928080062, 14.457243326244903 ], [ 75.575834534145955, 14.456964590512046 ], [ 75.575758425065359, 14.456794695312835 ], [ 75.575500003876584, 14.456451673531157 ], [ 75.575400168749638, 14.456313804222152 ], [ 75.575294300914123, 14.456218086350562 ], [ 75.575105954319795, 14.456082312765615 ], [ 75.574879320323831, 14.455926283331904 ], [ 75.574380707736054, 14.455440036182898 ], [ 75.57433179673933, 14.455325131731334 ], [ 75.574119074908424, 14.454825384228247 ], [ 75.573968600615018, 14.454480148116827 ], [ 75.573579758913581, 14.453825862004326 ], [ 75.573359094486761, 14.453652602780387 ], [ 75.572858112495751, 14.453484136259361 ], [ 75.572215168828109, 14.453410065208841 ], [ 75.571710576985637, 14.453425598181834 ], [ 75.571265122479431, 14.453406825177641 ], [ 75.570941262165888, 14.453213085850965 ], [ 75.570623336990081, 14.453010737962439 ], [ 75.570296416814116, 14.452848610649752 ], [ 75.569904046550548, 14.452835768674733 ], [ 75.569590834646789, 14.452964082123437 ], [ 75.569409653912302, 14.453296982687334 ], [ 75.569293394295059, 14.453627229938567 ], [ 75.569210272511469, 14.454587253782671 ], [ 75.569070131471477, 14.454995047658882 ], [ 75.569045823431878, 14.4551904744621 ], [ 75.5690977810996, 14.455509795636612 ], [ 75.56926234724618, 14.455694371275149 ], [ 75.5695801496408, 14.455931223512518 ], [ 75.569880239351761, 14.456170885681562 ], [ 75.570127169046657, 14.456424744330771 ], [ 75.570185998907775, 14.456606045489174 ], [ 75.57015737164447, 14.456717721887445 ], [ 75.570152911401408, 14.456735119023666 ], [ 75.570053907784654, 14.457121346241983 ], [ 75.569803701571459, 14.45727510431805 ], [ 75.569313686155553, 14.457543937764422 ], [ 75.569253127466553, 14.457503415670365 ], [ 75.568936621502402, 14.457720014342231 ], [ 75.568614347520565, 14.457919100052544 ], [ 75.568255939437691, 14.458028727902528 ], [ 75.567711456876623, 14.458342247585037 ], [ 75.567362396997851, 14.458591033635093 ], [ 75.566865744940657, 14.458932911640131 ], [ 75.566256136322281, 14.459190486531652 ], [ 75.56583588865378, 14.459310896538685 ], [ 75.565571842547016, 14.459462307484712 ], [ 75.565459623267401, 14.459618591200297 ], [ 75.56542309479299, 14.459840414056222 ], [ 75.565488649613656, 14.460236668936485 ], [ 75.565661471399039, 14.460611529443085 ], [ 75.565727783392347, 14.460798892201662 ], [ 75.565718314224981, 14.460946824551961 ], [ 75.565578688134025, 14.461272741209523 ], [ 75.565537484340368, 14.46155112294729 ], [ 75.565504187857755, 14.462112410216998 ], [ 75.565503021565419, 14.462434451844331 ], [ 75.565520665835777, 14.462495438868864 ], [ 75.565670667920855, 14.462483394482502 ], [ 75.565801132366701, 14.462469203546824 ], [ 75.566255047736774, 14.46247089964324 ], [ 75.566633186462283, 14.46256740758464 ], [ 75.566814202512319, 14.462806617609143 ], [ 75.566889159321832, 14.463428335490839 ], [ 75.566870913409346, 14.463592381500634 ], [ 75.566596148887854, 14.463822022757274 ], [ 75.566521480019517, 14.463874883156771 ], [ 75.566198953198665, 14.464040008382433 ], [ 75.566074352185296, 14.464058696150859 ], [ 75.566110457889707, 14.464154675399845 ], [ 75.566152268111267, 14.464253224009189 ], [ 75.566168024352734, 14.464292530049965 ], [ 75.566222463943078, 14.464305829897866 ], [ 75.566268938766157, 14.464418364936824 ], [ 75.566308582979929, 14.464625110020277 ], [ 75.566370926732205, 14.464950233704855 ], [ 75.566314559855627, 14.465761227166986 ], [ 75.566236413832115, 14.466721288231469 ], [ 75.566228916105175, 14.466787719715148 ], [ 75.566103555584135, 14.46789791942342 ], [ 75.566050181522044, 14.468283613916411 ], [ 75.565894278105674, 14.46941018285391 ], [ 75.565578153059533, 14.471688091917462 ], [ 75.565530373571832, 14.4720323819296 ], [ 75.565389402225208, 14.47268651809101 ], [ 75.565243187767933, 14.473433524933059 ], [ 75.565108557776156, 14.47412132704517 ], [ 75.56504562037847, 14.474474231680931 ], [ 75.564926361773871, 14.47514292874995 ], [ 75.564898063344202, 14.475299147245508 ], [ 75.56446038438267, 14.477851815043524 ], [ 75.56443780892927, 14.477854667488263 ], [ 75.564435067014571, 14.477855063746185 ], [ 75.564104627242699, 14.477902813140748 ], [ 75.56391396572549, 14.477930365165925 ], [ 75.563194364547442, 14.478019733461421 ], [ 75.562727457324641, 14.477999680942158 ], [ 75.562266772728933, 14.477994357995687 ], [ 75.561065887770638, 14.47794877098152 ], [ 75.560311767438563, 14.477920140378252 ], [ 75.560285852924565, 14.477919156943456 ], [ 75.560257046747708, 14.477918062857579 ], [ 75.559223152090354, 14.477815899761465 ], [ 75.559050608993587, 14.477798849468124 ], [ 75.558667955317418, 14.477796285940405 ], [ 75.558197280872378, 14.477793131456361 ], [ 75.557737591312815, 14.477774842038256 ], [ 75.556783865872276, 14.477727978715548 ], [ 75.555556825981881, 14.477649402188076 ], [ 75.555446454222263, 14.477642334016188 ], [ 75.553476323412355, 14.47767812006793 ], [ 75.552951048991673, 14.477696519486051 ], [ 75.55274811562218, 14.477703627349262 ], [ 75.552646300526604, 14.477707192883521 ], [ 75.552605026288759, 14.477726472713485 ], [ 75.551733375538646, 14.478133627445585 ], [ 75.55154289970811, 14.478217659800503 ], [ 75.551210592823182, 14.478274461242506 ], [ 75.551089059281509, 14.478300261401817 ], [ 75.549263481697622, 14.478647830683352 ], [ 75.549269503474335, 14.478667649548385 ], [ 75.549284468117335, 14.478760091413465 ], [ 75.549283947943223, 14.478877933818771 ], [ 75.549310131909479, 14.47917396518263 ], [ 75.549339779878821, 14.479469988442526 ], [ 75.549363269063491, 14.479787409579561 ], [ 75.549376267864758, 14.479824539730894 ], [ 75.549419086246289, 14.48043660135535 ], [ 75.549406874414515, 14.480590697609124 ], [ 75.54940311886287, 14.480638116078547 ], [ 75.54934528769698, 14.481048826896968 ], [ 75.54932460599683, 14.481486269119088 ], [ 75.549119268589962, 14.484891972521023 ], [ 75.549121539180632, 14.485360346314859 ], [ 75.549104095465125, 14.485606186488996 ], [ 75.549098944132353, 14.485641898857324 ], [ 75.54907652300173, 14.485797281049875 ], [ 75.549022961400894, 14.486215450690011 ], [ 75.549001458028684, 14.486352017666269 ], [ 75.548971772692568, 14.486540566602802 ], [ 75.548920603871963, 14.486868162472627 ], [ 75.548864361147864, 14.487197008827788 ], [ 75.548814493845882, 14.487528323915518 ], [ 75.548762045631662, 14.48785468136041 ], [ 75.548684757270465, 14.488321264378405 ], [ 75.548682654956735, 14.488354653244624 ], [ 75.548674610855571, 14.488482361775699 ], [ 75.548627331315416, 14.488745439974085 ], [ 75.548549511831766, 14.48926041391152 ], [ 75.548405297332906, 14.490354267588266 ], [ 75.548240274287934, 14.491420811716646 ], [ 75.54821630946951, 14.491577179272559 ], [ 75.548189664021336, 14.491751047013958 ], [ 75.548051870042116, 14.492024919901178 ], [ 75.547969087983162, 14.492311974979758 ], [ 75.547950999977886, 14.492530751473051 ], [ 75.548003198144059, 14.49273485192953 ], [ 75.548057018363664, 14.49276175706375 ], [ 75.548151698513891, 14.492809079683049 ], [ 75.548511963955875, 14.492898793535344 ], [ 75.548773920423187, 14.492978332663462 ], [ 75.549031441608918, 14.493121324368294 ], [ 75.549377171744226, 14.493276500602281 ], [ 75.54970499919699, 14.493271812703179 ], [ 75.550117964099471, 14.492977729577195 ], [ 75.550289687417148, 14.492909542465886 ], [ 75.550582392836162, 14.492858157955361 ], [ 75.550935358881702, 14.492875773003869 ], [ 75.551270983558496, 14.493037465354751 ], [ 75.551576092095019, 14.493267839312455 ], [ 75.551642983548845, 14.493363069330206 ], [ 75.551631948344081, 14.493497161678201 ], [ 75.551406047204438, 14.493875997011354 ], [ 75.551313684322309, 14.493992468012948 ], [ 75.55116534249288, 14.494179138219714 ], [ 75.551053799467908, 14.494505064952317 ], [ 75.551115556950933, 14.494687583282429 ], [ 75.551278871865989, 14.494855179418735 ], [ 75.551530713494444, 14.49511363204639 ], [ 75.551578208932895, 14.495228095834173 ], [ 75.551554751916626, 14.495316550856668 ], [ 75.551428712783078, 14.49544167749694 ], [ 75.55129254408142, 14.495626324717065 ], [ 75.551149056206896, 14.49600251533565 ], [ 75.551098731176111, 14.49620678761182 ], [ 75.551184742757911, 14.496295990263548 ], [ 75.551195610509282, 14.496307261811568 ], [ 75.551718345475862, 14.49730457236943 ], [ 75.551728883622388, 14.497319121213087 ], [ 75.551785746031769, 14.497397613997707 ], [ 75.552555391337521, 14.498405733364052 ], [ 75.55297180363938, 14.49896108230897 ], [ 75.553171634159611, 14.499225755440577 ], [ 75.553320342166131, 14.499452269077855 ], [ 75.553347481188055, 14.499572454646431 ], [ 75.553336495428567, 14.499590395760222 ], [ 75.551992592014557, 14.50178515034851 ], [ 75.551838526661768, 14.502036753337217 ], [ 75.551834850407459, 14.502039974331188 ], [ 75.550129406964814, 14.503533464549919 ], [ 75.550124604614126, 14.503537670036181 ], [ 75.549271975830393, 14.504272907747525 ], [ 75.547446959287953, 14.504811487877598 ], [ 75.545486150756346, 14.505470797298418 ], [ 75.544826916468992, 14.505618476220068 ], [ 75.544716153526167, 14.505758055337868 ], [ 75.544221602463551, 14.50659403552247 ], [ 75.544154351432155, 14.506707712495432 ], [ 75.54392195616623, 14.507100542031669 ], [ 75.543648333557826, 14.507529055014068 ], [ 75.543393435890749, 14.507928235208944 ], [ 75.54254667598822, 14.509254284648113 ], [ 75.542533696607279, 14.509274608647905 ], [ 75.542047272956836, 14.510036356020445 ] ] ] } }
]
}
