{
"type": "FeatureCollection",
"name": "police_station_boundary.writing_20260805_172659",
"crs": { "type": "name", "properties": { "name": "urn:ogc:def:crs:OGC:1.3:CRS84" } },
"features": [
{ "type": "Feature", "properties": { "Shape.STArea()": 154227333.20812842, "Shape.STLength()": 93660.202727027252, "OBJECTID": 680, "KGISPS_BOUNDID": 793, "PS_BOUNDName": "Thyamagondlu PS", "PS_BOUNDCode": "PSB - 793", "KGISPS_SUB_DIVID": 134, "_source_layer": "Police Station Boundary", "_source_layer_url": "https://kgis.ksrsac.in/kgismaps/rest/services/Home/Home_Department/MapServer/82", "_police_station": "Thyamagondlu PS" }, "geometry": { "type": "Polygon", "coordinates": [ [ [ 77.345222020725885, 13.31562446230838 ], [ 77.344783845951056, 13.315877880866363 ], [ 77.344571867963936, 13.316434689160552 ], [ 77.344358249773862, 13.316795273775716 ], [ 77.344316430583604, 13.31686568019348 ], [ 77.344034363738572, 13.317222012972767 ], [ 77.343939573305718, 13.317200520402922 ], [ 77.342667952093564, 13.316911500312937 ], [ 77.342508095965201, 13.316847934734842 ], [ 77.342702095778606, 13.316010538031518 ], [ 77.341941325917603, 13.315679223611902 ], [ 77.340324590206862, 13.314935158181731 ], [ 77.340265707567099, 13.31491119971815 ], [ 77.340113003428641, 13.314836180495115 ], [ 77.339592536291462, 13.314898408058786 ], [ 77.338741340039817, 13.314548925666081 ], [ 77.337639566532076, 13.314232683665542 ], [ 77.33741046256489, 13.31416692373433 ], [ 77.336709149408037, 13.314322254334803 ], [ 77.33659847740482, 13.314347240118805 ], [ 77.335382530332751, 13.314622783120976 ], [ 77.335041910550217, 13.314699968358704 ], [ 77.333705644258202, 13.315661175697777 ], [ 77.332540893333132, 13.316477399802501 ], [ 77.332491049479216, 13.316512329164626 ], [ 77.332062631808896, 13.316199423622129 ], [ 77.33007027634423, 13.314568072159322 ], [ 77.328941624952549, 13.312338358607336 ], [ 77.328884465302039, 13.312225434145649 ], [ 77.328799114793242, 13.312025695834393 ], [ 77.328537859120985, 13.311466379695672 ], [ 77.328496040013448, 13.311376848105262 ], [ 77.328060746380046, 13.310368796150696 ], [ 77.327446314461184, 13.30895482438901 ], [ 77.32701231661639, 13.30801356877981 ], [ 77.326805018907223, 13.307563978199985 ], [ 77.326246638492165, 13.30632614738135 ], [ 77.325742756856243, 13.304938848590796 ], [ 77.32553308299353, 13.304361563154814 ], [ 77.324688807051302, 13.30412363550013 ], [ 77.324456643724389, 13.304058207836318 ], [ 77.320366070697617, 13.303404311574486 ], [ 77.31961013476942, 13.301882316804981 ], [ 77.318471680134607, 13.299808502983648 ], [ 77.318070802470871, 13.298957172413129 ], [ 77.318023987607717, 13.298905974856833 ], [ 77.317933938796315, 13.298828935975621 ], [ 77.317890123443007, 13.298749120708701 ], [ 77.317375493187228, 13.298351165722085 ], [ 77.317226618936203, 13.298223798200164 ], [ 77.31719895293034, 13.298214649506033 ], [ 77.317071424082087, 13.298116033632741 ], [ 77.316466613369712, 13.298033230491354 ], [ 77.316376952597111, 13.298021428983208 ], [ 77.316312663475713, 13.298012967217074 ], [ 77.316214647669312, 13.297999218655047 ], [ 77.316283583762456, 13.297603940413323 ], [ 77.316399023608952, 13.297296537722225 ], [ 77.316412618631475, 13.297041864725662 ], [ 77.316433984347427, 13.296947799233889 ], [ 77.31652535427456, 13.296872002463264 ], [ 77.316537573903148, 13.296825381753324 ], [ 77.316566399939916, 13.296813025483868 ], [ 77.3166788179592, 13.296764837483709 ], [ 77.31666425312936, 13.296139043851802 ], [ 77.316661823122047, 13.296139052441699 ], [ 77.316747158338444, 13.295595773791765 ], [ 77.316615022211735, 13.295539917329725 ], [ 77.316423991845724, 13.295411472008084 ], [ 77.316397265559118, 13.295393502840323 ], [ 77.316305547153135, 13.295331833831531 ], [ 77.315708746252298, 13.294987108157949 ], [ 77.315183819089469, 13.294931949299334 ], [ 77.314722985647705, 13.295119229980909 ], [ 77.314404878817371, 13.295217860959657 ], [ 77.314260186957739, 13.295036785413533 ], [ 77.314031380045108, 13.294399102093649 ], [ 77.31395565509321, 13.293910786114122 ], [ 77.31412904658886, 13.29376710094907 ], [ 77.314316269976388, 13.293595791839937 ], [ 77.314321161594492, 13.293346983471347 ], [ 77.313975341507145, 13.292568688576033 ], [ 77.314062078293659, 13.292517843253965 ], [ 77.314005004078425, 13.292427768058557 ], [ 77.313681978554982, 13.291865292845237 ], [ 77.313505472917143, 13.291741126487477 ], [ 77.313377084021283, 13.291650809814543 ], [ 77.313249826349832, 13.291433338027881 ], [ 77.313173400802114, 13.290660303549135 ], [ 77.313211651284092, 13.290434657751623 ], [ 77.313300430299279, 13.2902074246963 ], [ 77.313225670221172, 13.289564228707665 ], [ 77.313048671525905, 13.288495413670519 ], [ 77.312999329842867, 13.288404945124842 ], [ 77.312958151364299, 13.287830884170411 ], [ 77.312947770028856, 13.287754400368836 ], [ 77.312789934661481, 13.288039896509821 ], [ 77.312652618403163, 13.288053215114248 ], [ 77.312419339188097, 13.287630246312601 ], [ 77.312220597179575, 13.287235177793509 ], [ 77.3119531404583, 13.286631025901723 ], [ 77.311466882331473, 13.285532619429498 ], [ 77.311413947704565, 13.284825211384737 ], [ 77.311373121954318, 13.284738177179012 ], [ 77.311216251063883, 13.28440375703336 ], [ 77.311115612683125, 13.28418921298886 ], [ 77.310302291479957, 13.282455332550875 ], [ 77.309769920020145, 13.28216161727565 ], [ 77.309768223578359, 13.282152754898346 ], [ 77.30841823290163, 13.282120192836254 ], [ 77.30776061463844, 13.282115916106216 ], [ 77.307566615290924, 13.282114653737809 ], [ 77.307130873209559, 13.2821118186578 ], [ 77.306389131995786, 13.282099932860071 ], [ 77.306377349405423, 13.282099744173838 ], [ 77.305898446882807, 13.281756406996147 ], [ 77.305818059021661, 13.281698793121237 ], [ 77.305370618264803, 13.281378117278559 ], [ 77.303638919532972, 13.281148387817543 ], [ 77.303391638854819, 13.280863877694461 ], [ 77.30319574965479, 13.28078495868685 ], [ 77.303162155565715, 13.280888136004004 ], [ 77.302873749617632, 13.280840380411098 ], [ 77.302890103110087, 13.280725130775878 ], [ 77.301849748899329, 13.280579960825357 ], [ 77.301769378259905, 13.280672694476106 ], [ 77.301237312597479, 13.28058049964333 ], [ 77.300016351244551, 13.280390258872723 ], [ 77.299911077847881, 13.280412376957223 ], [ 77.299823785948021, 13.280430716322117 ], [ 77.299761863376503, 13.280443726522378 ], [ 77.299599527341002, 13.27980425534966 ], [ 77.299094645656965, 13.280000061822697 ], [ 77.299030595700373, 13.280076066313732 ], [ 77.298994509862226, 13.280118885714797 ], [ 77.298895321642675, 13.27986431318336 ], [ 77.298648477956377, 13.280097990845432 ], [ 77.297933580241249, 13.280139698515702 ], [ 77.297662589488226, 13.28002787254281 ], [ 77.296534293740308, 13.280136165841638 ], [ 77.296433255602125, 13.280145862295498 ], [ 77.295392034582136, 13.280278714556671 ], [ 77.295236226842718, 13.280298593793182 ], [ 77.295194609427682, 13.280303903659217 ], [ 77.29499003448538, 13.280342631553172 ], [ 77.294308038152082, 13.280471738591224 ], [ 77.294085170941301, 13.280513927028791 ], [ 77.293220354511291, 13.280566227709766 ], [ 77.290754158252355, 13.281015641121785 ], [ 77.29067031973608, 13.281030917521548 ], [ 77.290086278632529, 13.281093832483789 ], [ 77.28918742357321, 13.277874155331945 ], [ 77.289045112551676, 13.276460586093316 ], [ 77.28896773742423, 13.276459398691898 ], [ 77.288937474091256, 13.276163013549274 ], [ 77.288831494530768, 13.274799792882678 ], [ 77.288811450487515, 13.274457114560951 ], [ 77.288809176611309, 13.274418237613448 ], [ 77.288772289496762, 13.273828032239171 ], [ 77.288695446875479, 13.272598531756879 ], [ 77.288554597709378, 13.272018748347659 ], [ 77.288521975411982, 13.271884454355289 ], [ 77.28818578001929, 13.270459057456447 ], [ 77.287870141351362, 13.269195166466787 ], [ 77.287205112117789, 13.267503470433498 ], [ 77.287169405755378, 13.267412643575733 ], [ 77.287157962281597, 13.26715732183151 ], [ 77.287106822364962, 13.267162282728746 ], [ 77.2871055281189, 13.267157058866019 ], [ 77.287077912313478, 13.267067830107079 ], [ 77.286957589011791, 13.267078194859179 ], [ 77.286878472677827, 13.26666894886802 ], [ 77.286672335999654, 13.26598650500644 ], [ 77.286638678062417, 13.265794893255041 ], [ 77.286468242978302, 13.264824610586949 ], [ 77.286453185172931, 13.26473888971829 ], [ 77.286239771105045, 13.263935513988502 ], [ 77.286229505121099, 13.263861462612066 ], [ 77.286090275862847, 13.262857113342466 ], [ 77.285967659705705, 13.261972584576196 ], [ 77.285995076412888, 13.261970005529948 ], [ 77.285958841694253, 13.261632347008675 ], [ 77.286020883094935, 13.261638324454299 ], [ 77.286017658063969, 13.261578422678603 ], [ 77.285965388331221, 13.260607650627412 ], [ 77.285959316917868, 13.260191034648646 ], [ 77.285927924091496, 13.258931688645378 ], [ 77.285522888448114, 13.258889927255996 ], [ 77.285092035000687, 13.258845503309999 ], [ 77.284897848871609, 13.258842196555106 ], [ 77.284604323854836, 13.258789927193465 ], [ 77.284449832075111, 13.258630662420643 ], [ 77.284296621901348, 13.258606130899066 ], [ 77.284210772488834, 13.258579901383037 ], [ 77.28412921925829, 13.258554984228821 ], [ 77.283953844551689, 13.258368380549603 ], [ 77.283264883154516, 13.258324603231671 ], [ 77.283160488793087, 13.258318341084291 ], [ 77.282928581718267, 13.258292119907516 ], [ 77.282918773874641, 13.258245940354611 ], [ 77.282912876591624, 13.258245447391953 ], [ 77.282774596773905, 13.257828430429356 ], [ 77.282751531169467, 13.257474920852248 ], [ 77.282781369042638, 13.257110681580443 ], [ 77.282784548561395, 13.257061336937959 ], [ 77.282788439444303, 13.257000937520047 ], [ 77.282631754929312, 13.256875125278405 ], [ 77.28246200315904, 13.25666934318436 ], [ 77.28199450035055, 13.256244284938196 ], [ 77.281868770288369, 13.256213477736674 ], [ 77.281853191700804, 13.255924094007 ], [ 77.281826147942354, 13.255421768354548 ], [ 77.281775382332228, 13.25465323791623 ], [ 77.281765781024376, 13.254507890854383 ], [ 77.281747088757967, 13.254216818059412 ], [ 77.281730973603842, 13.25396587220299 ], [ 77.281723268126783, 13.253845955568396 ], [ 77.281726216430101, 13.253617772681395 ], [ 77.281755591461589, 13.253453152559898 ], [ 77.281812973562438, 13.253131834745075 ], [ 77.281426620781019, 13.25117520272476 ], [ 77.281296836263692, 13.251150890986448 ], [ 77.281173558576867, 13.251127663137531 ], [ 77.280967366264093, 13.249760994818022 ], [ 77.280983072815118, 13.249343830816526 ], [ 77.280987270179878, 13.249233401213701 ], [ 77.280987366619655, 13.249161693579625 ], [ 77.279759899625034, 13.249129906933371 ], [ 77.279744384679688, 13.249123105883655 ], [ 77.279618053846477, 13.249067681673299 ], [ 77.279351049993366, 13.246919564408699 ], [ 77.279363226608751, 13.246621631256675 ], [ 77.279401425420602, 13.246155949002135 ], [ 77.279400962924186, 13.245895839119042 ], [ 77.27959167659202, 13.244481224754836 ], [ 77.279637289404093, 13.243516347537378 ], [ 77.279721914390521, 13.242416190253197 ], [ 77.279745424982977, 13.241262324373448 ], [ 77.279757241478706, 13.240695654518991 ], [ 77.2798169836732, 13.239778636334206 ], [ 77.279825717986924, 13.23929443393704 ], [ 77.279689751757829, 13.238535989715583 ], [ 77.279563832851593, 13.237660813915028 ], [ 77.27951284786856, 13.2371459023373 ], [ 77.279468531623593, 13.236430971229437 ], [ 77.279487710690404, 13.236305358992482 ], [ 77.279507842269823, 13.236283318196712 ], [ 77.279557008200456, 13.236229319503854 ], [ 77.279708369571921, 13.236065127451646 ], [ 77.279546443768638, 13.23447923628002 ], [ 77.279519673294075, 13.234129368718088 ], [ 77.27951609048236, 13.234082532238352 ], [ 77.278743020066102, 13.233200800041754 ], [ 77.278017370314998, 13.232210975380783 ], [ 77.277955073482403, 13.232125998848234 ], [ 77.276853646343611, 13.23079429992865 ], [ 77.275580778389411, 13.229131905750702 ], [ 77.275444537401128, 13.228957919764062 ], [ 77.275351854032053, 13.228855204899075 ], [ 77.275297314497905, 13.228890309050346 ], [ 77.275291583641007, 13.228840788786956 ], [ 77.275223828223147, 13.228848024843106 ], [ 77.275153366540252, 13.228855551552915 ], [ 77.275087422664157, 13.228862594330128 ], [ 77.275026203932811, 13.228869132355598 ], [ 77.274965249663339, 13.228875643613875 ], [ 77.274924548661119, 13.228879990142705 ], [ 77.274869049308734, 13.228885917856598 ], [ 77.274793269015291, 13.22889401141571 ], [ 77.274706219487271, 13.228903309526396 ], [ 77.274634171017937, 13.228911004746397 ], [ 77.274509153430657, 13.22892435655967 ], [ 77.274380551422553, 13.228938092639368 ], [ 77.274206715891538, 13.228956672659036 ], [ 77.274089532794335, 13.228880643138178 ], [ 77.274084915497795, 13.228877562260271 ], [ 77.273970900583379, 13.228803601754525 ], [ 77.27314495406587, 13.228129903779987 ], [ 77.273107874911489, 13.228103182234339 ], [ 77.271594328078947, 13.226441430287265 ], [ 77.271437271972147, 13.225897417999498 ], [ 77.270991393473608, 13.224353572929029 ], [ 77.271724669922463, 13.22292821106271 ], [ 77.271873289380181, 13.22262471085385 ], [ 77.272354594935635, 13.221641760125754 ], [ 77.272317169124534, 13.221248225993275 ], [ 77.272287573087894, 13.220935734335905 ], [ 77.272251234429945, 13.218432258465214 ], [ 77.272241465399787, 13.217180053496019 ], [ 77.272232153201713, 13.216299094820453 ], [ 77.272230822113016, 13.216173168841037 ], [ 77.27223056829223, 13.21614914305435 ], [ 77.272305403366587, 13.215882683922919 ], [ 77.272337665361704, 13.215767803364004 ], [ 77.272492765593242, 13.215283293212446 ], [ 77.272603231954932, 13.215130114479466 ], [ 77.273114459832712, 13.214235598355446 ], [ 77.273398776378173, 13.213735523882976 ], [ 77.27341499426592, 13.213731461616641 ], [ 77.27364971599718, 13.213672665551437 ], [ 77.274911499575069, 13.212814941591938 ], [ 77.275304062684228, 13.212548443057649 ], [ 77.275732060832766, 13.212055976446646 ], [ 77.276299145837697, 13.211403469456583 ], [ 77.276304716047363, 13.211397059341433 ], [ 77.27686002184123, 13.210916636585544 ], [ 77.278420109616675, 13.210622596869776 ], [ 77.278724225277543, 13.210537529522309 ], [ 77.279470969659769, 13.21032864683043 ], [ 77.279481944908326, 13.210083199416825 ], [ 77.280476317041661, 13.209646403011059 ], [ 77.280541770152112, 13.209617595123849 ], [ 77.280557600950104, 13.209576177008463 ], [ 77.280587649923035, 13.20949706357626 ], [ 77.280653877658253, 13.209323288734229 ], [ 77.280645476335224, 13.208697809823876 ], [ 77.280692661950269, 13.20815994370871 ], [ 77.280692081436712, 13.208147488084716 ], [ 77.280607994617981, 13.206308065691569 ], [ 77.280565934738362, 13.205387974958658 ], [ 77.280561627153062, 13.205293749502859 ], [ 77.280549384705182, 13.2050259314749 ], [ 77.280547943750904, 13.204994403756928 ], [ 77.280636202365713, 13.202071105805691 ], [ 77.280646795189639, 13.202042280166292 ], [ 77.2806679512302, 13.201984718608539 ], [ 77.280946294332182, 13.201227358985697 ], [ 77.280978606079387, 13.201124037599556 ], [ 77.281174415053371, 13.200497890506647 ], [ 77.281117655039907, 13.199701243860147 ], [ 77.281330822195414, 13.1996570730222 ], [ 77.281344588740708, 13.199654219605623 ], [ 77.281463696646085, 13.199629538454808 ], [ 77.281564910596487, 13.199608566144157 ], [ 77.281587250045831, 13.199601118240057 ], [ 77.281774278835897, 13.199538773494677 ], [ 77.281805852687484, 13.199528249587027 ], [ 77.282249463786684, 13.199380371837696 ], [ 77.282636131513655, 13.199295335000352 ], [ 77.283147670583134, 13.199085797608346 ], [ 77.283774234780068, 13.19882914173264 ], [ 77.284111282073781, 13.198748708516423 ], [ 77.284376090136064, 13.198685512575693 ], [ 77.2844030969231, 13.198679068274171 ], [ 77.284837651937252, 13.198537274513134 ], [ 77.284878570929848, 13.198523922587063 ], [ 77.285294158986787, 13.198388317278706 ], [ 77.285327811883008, 13.198379850913543 ], [ 77.285387669600283, 13.198364790983419 ], [ 77.2860395556322, 13.198200776122071 ], [ 77.286195251440958, 13.198161603025495 ], [ 77.287872381833807, 13.197787703045035 ], [ 77.287963761614733, 13.197672067590554 ], [ 77.288566682669014, 13.197776603755461 ], [ 77.288723494526238, 13.197803791913504 ], [ 77.289082493348218, 13.197866034695124 ], [ 77.289211758961642, 13.197888446612621 ], [ 77.289246402222204, 13.197894453015786 ], [ 77.289257525664013, 13.1978642046901 ], [ 77.28950395460032, 13.19771204990961 ], [ 77.29004732453059, 13.197376550824981 ], [ 77.290576576080738, 13.197054974297568 ], [ 77.290721525466296, 13.197005443706395 ], [ 77.291339915220902, 13.196794128627689 ], [ 77.291792666902651, 13.196618424257599 ], [ 77.291833615756943, 13.196602531923842 ], [ 77.29179270908115, 13.195949321930899 ], [ 77.291791151036378, 13.195924452383647 ], [ 77.29142676263875, 13.194967907368646 ], [ 77.291065169724149, 13.194350916968187 ], [ 77.290973852119876, 13.194141452212367 ], [ 77.29080687163443, 13.193777603663699 ], [ 77.290711135059709, 13.193531297574189 ], [ 77.290513569149638, 13.19302300337611 ], [ 77.29037780686275, 13.192686248922886 ], [ 77.290346423938317, 13.192520521693053 ], [ 77.290322157536366, 13.191698713178242 ], [ 77.290423925537411, 13.1900327891204 ], [ 77.290411055903405, 13.18991612025034 ], [ 77.290343526709876, 13.189303887967286 ], [ 77.290234367093873, 13.188277778196413 ], [ 77.290160129117822, 13.187579923804112 ], [ 77.290146636839381, 13.187453086716179 ], [ 77.290096132925115, 13.186260756797273 ], [ 77.28919360942497, 13.184576482839706 ], [ 77.289171864580084, 13.18457422020529 ], [ 77.288387717153242, 13.182998527617892 ], [ 77.288172266258158, 13.183120435404799 ], [ 77.288166252441954, 13.18317721855256 ], [ 77.287895053159943, 13.183253231773843 ], [ 77.287927467834436, 13.184032976197001 ], [ 77.285622642531706, 13.184441846854025 ], [ 77.285049243408153, 13.184625965402649 ], [ 77.284931414842916, 13.184670900028136 ], [ 77.284882550863472, 13.184689535396528 ], [ 77.284853272904982, 13.184700701253167 ], [ 77.283509570259042, 13.18517322995972 ], [ 77.282401377535365, 13.185528716856492 ], [ 77.282288416247567, 13.185585295260058 ], [ 77.281899148111293, 13.184673681949226 ], [ 77.281609105278619, 13.183740772344713 ], [ 77.281339115625812, 13.182872357743294 ], [ 77.281329029150314, 13.182843250013976 ], [ 77.281264424607002, 13.182656812608638 ], [ 77.281203638765632, 13.182481399586331 ], [ 77.281062061058549, 13.182110506990448 ], [ 77.280956483463726, 13.181847129161961 ], [ 77.280644809442492, 13.181097588346036 ], [ 77.280397970305401, 13.180539666670596 ], [ 77.280302914544748, 13.180330041024039 ], [ 77.28010025006688, 13.179883114198795 ], [ 77.280060248021996, 13.179794897870728 ], [ 77.279924956164891, 13.17945040505775 ], [ 77.279743303764391, 13.179016005556486 ], [ 77.279538144684523, 13.178525387796745 ], [ 77.279493780834201, 13.178419297760568 ], [ 77.279480926912001, 13.178388541005123 ], [ 77.279251399293003, 13.177822157340682 ], [ 77.279201623580832, 13.177681709323698 ], [ 77.278383285310355, 13.175372651285716 ], [ 77.278268083723617, 13.175156321330237 ], [ 77.277813408696517, 13.174302513354075 ], [ 77.277653129222159, 13.173072883610534 ], [ 77.277644991715988, 13.172989187153764 ], [ 77.277580343535107, 13.172324263240894 ], [ 77.277568506449143, 13.172139465206836 ], [ 77.277566519171472, 13.172108450902897 ], [ 77.277259278078802, 13.170717078791522 ], [ 77.276988652672514, 13.169236889523944 ], [ 77.276942796331056, 13.16903571618584 ], [ 77.276883408661135, 13.16877517429389 ], [ 77.277430702860229, 13.167969665394041 ], [ 77.277336416876608, 13.167796145304511 ], [ 77.277560992999696, 13.16782789252377 ], [ 77.278742275576391, 13.167502048428689 ], [ 77.2788934991014, 13.167474257189888 ], [ 77.279884044414899, 13.167292209521671 ], [ 77.280971681734627, 13.166784152231163 ], [ 77.281092113173216, 13.16672789595067 ], [ 77.281345836321009, 13.166609375519069 ], [ 77.281482889201541, 13.166548292365523 ], [ 77.281931285810984, 13.166506177360061 ], [ 77.282009324509971, 13.166497119378135 ], [ 77.283482479101664, 13.166326117012492 ], [ 77.283759647547143, 13.16629639424654 ], [ 77.285123652412395, 13.166104235786664 ], [ 77.285645217288973, 13.166081421744813 ], [ 77.285671105222406, 13.166077207090041 ], [ 77.285723516468636, 13.165564470454978 ], [ 77.285820925187807, 13.16508617347751 ], [ 77.285837284133876, 13.16500465214987 ], [ 77.285874528458251, 13.164819028594732 ], [ 77.286001328831887, 13.164187061042725 ], [ 77.286148567508462, 13.163428997759617 ], [ 77.286151726467821, 13.163171754978334 ], [ 77.286059867359612, 13.162501673844602 ], [ 77.286001268085712, 13.162150386659741 ], [ 77.285967589720926, 13.161852889893574 ], [ 77.285949627095377, 13.16169420862445 ], [ 77.285936741696304, 13.161303507086247 ], [ 77.285935557191934, 13.161267560240212 ], [ 77.285852308099521, 13.160586952701959 ], [ 77.28584385021918, 13.159974629930007 ], [ 77.285894558210273, 13.159497915580735 ], [ 77.285854316287896, 13.159431276608521 ], [ 77.285610942768116, 13.159028267220414 ], [ 77.285044717674509, 13.159114149169461 ], [ 77.284755761529851, 13.158200363974807 ], [ 77.284381967515912, 13.156917086028889 ], [ 77.284283967413018, 13.156580633237271 ], [ 77.28426468095455, 13.156514419153236 ], [ 77.284250051204921, 13.156412099561125 ], [ 77.284164352318584, 13.155812706173855 ], [ 77.284099313476517, 13.155766090922697 ], [ 77.284283187395943, 13.155451703055126 ], [ 77.284277714562364, 13.155348851078562 ], [ 77.284267460035807, 13.155156137629289 ], [ 77.284250212224819, 13.154716634834333 ], [ 77.284302517094432, 13.154208140529096 ], [ 77.284268354102863, 13.153963826612264 ], [ 77.284260784155947, 13.153888297733355 ], [ 77.284242340496604, 13.153704287504363 ], [ 77.284226056233237, 13.153464714803803 ], [ 77.284214483722565, 13.152143370196764 ], [ 77.283956380672663, 13.15083249409264 ], [ 77.283895894399919, 13.150814835017606 ], [ 77.283725481260674, 13.150765080260717 ], [ 77.283600045962743, 13.150650576477444 ], [ 77.283593742989055, 13.15064482138297 ], [ 77.282947838962556, 13.150055206874569 ], [ 77.282777402743591, 13.149237150518472 ], [ 77.282680915564057, 13.149223589935392 ], [ 77.282017131982585, 13.149130004569409 ], [ 77.281802090337322, 13.148953559567611 ], [ 77.281710403019019, 13.148936362281631 ], [ 77.281647207485449, 13.148891295624191 ], [ 77.281512100164193, 13.148890076705607 ], [ 77.281388516663583, 13.1488889622947 ], [ 77.281202318852181, 13.148887282509783 ], [ 77.280314879972067, 13.148844983478142 ], [ 77.279544666766313, 13.14880826817679 ], [ 77.27931752298025, 13.148781706064339 ], [ 77.279060085689693, 13.148751601971597 ], [ 77.279038515870624, 13.148749077076564 ], [ 77.278445772083401, 13.148679762643427 ], [ 77.277410917371952, 13.148557984781432 ], [ 77.277333133561058, 13.148546347245565 ], [ 77.275438882227363, 13.148137103222528 ], [ 77.274952082219031, 13.147566383818885 ], [ 77.274386236989642, 13.146957106121915 ], [ 77.274388353458392, 13.146880223788836 ], [ 77.274418548461256, 13.145783048543985 ], [ 77.2744968266678, 13.142938758274354 ], [ 77.274489430800216, 13.142934629136676 ], [ 77.274088046138431, 13.142710558931824 ], [ 77.273648956295517, 13.142465434717513 ], [ 77.273205291700322, 13.142213956067168 ], [ 77.272711259009483, 13.141930200055821 ], [ 77.272694560354807, 13.141920610320822 ], [ 77.272547120853673, 13.141835925662944 ], [ 77.272388693993847, 13.14212726201089 ], [ 77.271502933736201, 13.143756135066512 ], [ 77.27141573270346, 13.143916495182923 ], [ 77.271236635334802, 13.143909897781883 ], [ 77.270121352513954, 13.14381381804623 ], [ 77.270118037625323, 13.143813900644988 ], [ 77.269754719804482, 13.143822945674669 ], [ 77.269346421780568, 13.143786433764056 ], [ 77.26878072625955, 13.14372002934012 ], [ 77.267445052556155, 13.14348075712725 ], [ 77.267362401208203, 13.143430792277549 ], [ 77.267362725693062, 13.143394853244819 ], [ 77.267385924671999, 13.140828619346957 ], [ 77.267396227021308, 13.139689066397208 ], [ 77.267399105404039, 13.139370698283203 ], [ 77.267392220387862, 13.138786756570918 ], [ 77.267387061667222, 13.138349104293322 ], [ 77.267385953723689, 13.138255161676657 ], [ 77.267364962497936, 13.137766020522994 ], [ 77.267362096879381, 13.137654768239571 ], [ 77.2673502106679, 13.137193120805192 ], [ 77.267340295306013, 13.136927521389792 ], [ 77.267330431436619, 13.136663304958933 ], [ 77.267314143062251, 13.136227066420854 ], [ 77.267306548798814, 13.13602364559765 ], [ 77.267265330359493, 13.135835148228729 ], [ 77.267203238996103, 13.135551178249017 ], [ 77.267157974767329, 13.135344175062066 ], [ 77.26711324955177, 13.135139632184353 ], [ 77.267106881830401, 13.134851128878955 ], [ 77.26692724465903, 13.134628937583917 ], [ 77.266553441023632, 13.133754380546357 ], [ 77.266385662628593, 13.133080050838538 ], [ 77.266314355057304, 13.133085969089795 ], [ 77.266245644604879, 13.133091670155121 ], [ 77.265679622545875, 13.133138645489847 ], [ 77.26546783793718, 13.133073184987273 ], [ 77.265457301880105, 13.133069928973788 ], [ 77.265455257553739, 13.132995107911059 ], [ 77.265440410798007, 13.132451956233488 ], [ 77.26543966695948, 13.132424734775793 ], [ 77.264905996017561, 13.131656953718565 ], [ 77.264904716933827, 13.131655113455782 ], [ 77.2649156804125, 13.131623942154192 ], [ 77.264978748484523, 13.131444630790476 ], [ 77.264972482115411, 13.131076211306855 ], [ 77.264968031247932, 13.130814493004122 ], [ 77.265241882543705, 13.130818845786662 ], [ 77.265390542090188, 13.130392647677979 ], [ 77.265439736210226, 13.130251619450123 ], [ 77.265478751564217, 13.130148905093362 ], [ 77.265514235144025, 13.130055483993599 ], [ 77.265545837729192, 13.129972283635006 ], [ 77.265490846634364, 13.129753986939628 ], [ 77.265475552135214, 13.129245721693446 ], [ 77.265475707734623, 13.129159922977783 ], [ 77.265476355837066, 13.128803336167771 ], [ 77.265476478393836, 13.128737059646438 ], [ 77.265644419573732, 13.128460829897382 ], [ 77.2659424770995, 13.127877451551964 ], [ 77.266070746264859, 13.12767340201329 ], [ 77.266076970139011, 13.127663504009949 ], [ 77.266079332866013, 13.12756423542772 ], [ 77.266079397842162, 13.127561467957699 ], [ 77.266081338870734, 13.127480056899071 ], [ 77.266085095039386, 13.127189185995952 ], [ 77.266086521324738, 13.127185765865343 ], [ 77.266216749976337, 13.126873406917234 ], [ 77.266392163116464, 13.126599114485842 ], [ 77.26651633984325, 13.126429969062158 ], [ 77.266582159799654, 13.126340315366408 ], [ 77.266686018470466, 13.126323335747678 ], [ 77.266716673317475, 13.126318322549569 ], [ 77.266813496219584, 13.126200404105081 ], [ 77.26683143746888, 13.126178551827362 ], [ 77.265453883420449, 13.125813829444986 ], [ 77.265411933274592, 13.125802725490008 ], [ 77.265228808173376, 13.125754239044758 ], [ 77.265186799741429, 13.125734963179083 ], [ 77.265193996700404, 13.125722392744683 ], [ 77.265250061428617, 13.125624465791532 ], [ 77.2656865614358, 13.124771007384522 ], [ 77.265638275237066, 13.124423397868631 ], [ 77.2654507754702, 13.123761968776716 ], [ 77.265550763214819, 13.12366626571357 ], [ 77.265969646805814, 13.123265343200593 ], [ 77.265868630297774, 13.123153923874256 ], [ 77.265718642020246, 13.122988489557386 ], [ 77.265678131763138, 13.122943809557899 ], [ 77.265774833667805, 13.122926210383007 ], [ 77.266342678045177, 13.122822887705787 ], [ 77.266532517573552, 13.122673287061058 ], [ 77.266604707831547, 13.121565092442502 ], [ 77.266641572487856, 13.121287862030039 ], [ 77.266685382657286, 13.120958387952028 ], [ 77.266769842597697, 13.120356480914495 ], [ 77.266810696127806, 13.119834541015985 ], [ 77.266884293193371, 13.119804733812961 ], [ 77.266933142941014, 13.119784947963096 ], [ 77.266975494950572, 13.119767795564792 ], [ 77.267114215438852, 13.119711611751521 ], [ 77.267175710674792, 13.119686705694548 ], [ 77.267186851633895, 13.119682194265264 ], [ 77.267833844415833, 13.119642008869011 ], [ 77.267944432560824, 13.119598425943913 ], [ 77.268298589209977, 13.119458856316118 ], [ 77.268306520911764, 13.119352441676147 ], [ 77.268313720191159, 13.119255833287841 ], [ 77.268332405084493, 13.119005148945048 ], [ 77.268490181332254, 13.118917203192526 ], [ 77.26854546890668, 13.11888638674488 ], [ 77.268933269981858, 13.118887635171365 ], [ 77.269205943030755, 13.118883756001141 ], [ 77.269290000517429, 13.118882556857624 ], [ 77.269661780881847, 13.11879793317499 ], [ 77.269684452056666, 13.118792770585088 ], [ 77.269821608596672, 13.118959077515147 ], [ 77.269967917747991, 13.118824812958602 ], [ 77.269859994754754, 13.118746150044235 ], [ 77.269857230743824, 13.118741326480778 ], [ 77.269853419205248, 13.118734673281873 ], [ 77.270014069070299, 13.118735595238945 ], [ 77.270049034719861, 13.118735795636345 ], [ 77.270399112496634, 13.118972772697768 ], [ 77.270513818384458, 13.119050420385358 ], [ 77.270585306440481, 13.119004783099768 ], [ 77.270721387091413, 13.118917909404679 ], [ 77.270755511929039, 13.118896121147316 ], [ 77.27095042386587, 13.119009262898293 ], [ 77.271229271541699, 13.119018900394902 ], [ 77.271667461553164, 13.119095973859787 ], [ 77.271968455711402, 13.118998993778469 ], [ 77.272395422603395, 13.119120279817803 ], [ 77.272614065055365, 13.118998262848365 ], [ 77.273847326694707, 13.118680652370935 ], [ 77.274266795448568, 13.11900294763597 ], [ 77.274369227100564, 13.119081649752681 ], [ 77.274481141613819, 13.119270073228019 ], [ 77.274581408824758, 13.119438890692534 ], [ 77.274728379624335, 13.119686332290673 ], [ 77.2748846834521, 13.119949490158142 ], [ 77.275054980854293, 13.119991994896839 ], [ 77.275097636782462, 13.120002643835488 ], [ 77.27692064718758, 13.12045765080777 ], [ 77.276924658567211, 13.120458650868821 ], [ 77.27696128781615, 13.120467794947981 ], [ 77.277101148633776, 13.122369873596483 ], [ 77.27713945490521, 13.122890843835071 ], [ 77.277145402667955, 13.122971739143848 ], [ 77.277153939847352, 13.123335034734918 ], [ 77.277151436079208, 13.123850487096318 ], [ 77.277150723670943, 13.123996832574546 ], [ 77.277147537951052, 13.124652198164023 ], [ 77.277149918144474, 13.124694195347946 ], [ 77.277154988313654, 13.124783593321323 ], [ 77.277164953405034, 13.124959276043478 ], [ 77.277469334960998, 13.125197212838502 ], [ 77.277470128978948, 13.125197835632086 ], [ 77.277471026033965, 13.125201836141468 ], [ 77.277685934721092, 13.126161127504847 ], [ 77.277873758089413, 13.126671093926051 ], [ 77.278222919560179, 13.12783815526066 ], [ 77.278224982471315, 13.127883906118692 ], [ 77.278290952440713, 13.129347322969224 ], [ 77.278120894514601, 13.130464357458113 ], [ 77.27809854845961, 13.130611146514431 ], [ 77.278667331255463, 13.130772381706363 ], [ 77.278754637737094, 13.131212301282448 ], [ 77.278807398202929, 13.131478153207347 ], [ 77.278813673983237, 13.131534504981532 ], [ 77.278858301414843, 13.131935142845322 ], [ 77.278984385581239, 13.13306704892287 ], [ 77.278994036889557, 13.135080377593912 ], [ 77.279003549431309, 13.135080006832645 ], [ 77.279056983164594, 13.135077923872913 ], [ 77.280829683892335, 13.135008822062868 ], [ 77.282093482295025, 13.134503874028502 ], [ 77.28236576947991, 13.134395081038994 ], [ 77.28302696593019, 13.134130597741827 ], [ 77.283733693714524, 13.133878119723651 ], [ 77.283861407619355, 13.133832493295474 ], [ 77.28417420754603, 13.133720746327249 ], [ 77.284957257119757, 13.133739493616062 ], [ 77.284956135141314, 13.133720168068894 ], [ 77.284886405787176, 13.132517128592637 ], [ 77.284873089107862, 13.132287326996176 ], [ 77.284886477474217, 13.13197226443282 ], [ 77.284975541262085, 13.131264250167094 ], [ 77.285157453766033, 13.130556435700417 ], [ 77.285476498544753, 13.129031601778983 ], [ 77.285477062214767, 13.129018481727934 ], [ 77.285539172964249, 13.127570263701838 ], [ 77.285544605621666, 13.127443610175336 ], [ 77.286696359181292, 13.124606069369474 ], [ 77.286704447535328, 13.124586141500528 ], [ 77.286410933203484, 13.124080783727905 ], [ 77.286460873859568, 13.12397754857602 ], [ 77.286689490020109, 13.123504959766414 ], [ 77.286761638571093, 13.122885179352849 ], [ 77.286762690839353, 13.122876144716715 ], [ 77.28696760181117, 13.12061894949508 ], [ 77.286982233805546, 13.120457762229059 ], [ 77.289773085952945, 13.120899536104933 ], [ 77.290545930377661, 13.120978159846862 ], [ 77.290832207396321, 13.121007283485449 ], [ 77.290859763440878, 13.121010086996831 ], [ 77.290958106449523, 13.121020093823196 ], [ 77.291449517976858, 13.118414554622667 ], [ 77.291496669463157, 13.118179779005715 ], [ 77.291723710201111, 13.117049277743982 ], [ 77.291925226739636, 13.116088255376322 ], [ 77.292061835657407, 13.114354455917898 ], [ 77.292186087135406, 13.113629173976255 ], [ 77.292217873513522, 13.113345678768759 ], [ 77.292333141915151, 13.112317667053439 ], [ 77.292337706331367, 13.112276976610222 ], [ 77.292262469386571, 13.112037951887938 ], [ 77.292192449338032, 13.111815508021557 ], [ 77.291917682632189, 13.11052978591003 ], [ 77.292877775482197, 13.110143235431703 ], [ 77.294008470220248, 13.109680913806391 ], [ 77.294949410839962, 13.109157812010643 ], [ 77.295184880098958, 13.109106724882517 ], [ 77.297051089603755, 13.108701805967719 ], [ 77.297191747755349, 13.108671284704238 ], [ 77.298238302752353, 13.108684885076121 ], [ 77.298588892891345, 13.108669888977882 ], [ 77.299038922266462, 13.109038908877134 ], [ 77.299563283091317, 13.109375367793049 ], [ 77.299756300613765, 13.109541041260275 ], [ 77.300002831959219, 13.109764688274785 ], [ 77.300031312505794, 13.109765932140393 ], [ 77.30005381311193, 13.109766919463942 ], [ 77.300588238618957, 13.109806230965326 ], [ 77.301191297701706, 13.1100362340846 ], [ 77.301435323184961, 13.110115165947443 ], [ 77.301463666302851, 13.110124330071185 ], [ 77.301945876725568, 13.110152192916155 ], [ 77.302369329312924, 13.110167175092464 ], [ 77.302807473094504, 13.110525108473848 ], [ 77.302857433545441, 13.110564954413087 ], [ 77.302929556645296, 13.110622462824162 ], [ 77.302999993133298, 13.110678629980292 ], [ 77.303041842444273, 13.110711998172039 ], [ 77.303093968820548, 13.110753562316841 ], [ 77.303124472887461, 13.111437203206675 ], [ 77.303123783370935, 13.112719035168759 ], [ 77.303114611429578, 13.113203794193915 ], [ 77.303221237134196, 13.113795854207957 ], [ 77.303337355827068, 13.113989323554215 ], [ 77.30352241281274, 13.114398583814946 ], [ 77.303496488033389, 13.114592452615035 ], [ 77.303365886401622, 13.115343766675801 ], [ 77.303340477384907, 13.115490763647328 ], [ 77.303357635757422, 13.116079875513645 ], [ 77.303358083190787, 13.116095252654995 ], [ 77.30336276695013, 13.116256067592305 ], [ 77.303367734274303, 13.116426638910948 ], [ 77.303467821737399, 13.11660586781607 ], [ 77.303471427362723, 13.116609531295342 ], [ 77.303488786511608, 13.116650552297839 ], [ 77.303494641417473, 13.116664390108843 ], [ 77.303569767509046, 13.116798511194681 ], [ 77.303579732636976, 13.116924527148166 ], [ 77.303583437619977, 13.116971421748374 ], [ 77.30358364242413, 13.116994300967171 ], [ 77.303585653610938, 13.117218738113316 ], [ 77.303589743953907, 13.117675589701925 ], [ 77.303625628810934, 13.117882047425592 ], [ 77.303705915735605, 13.118343973956113 ], [ 77.303799629003251, 13.118636672666383 ], [ 77.30384360242104, 13.1191495972176 ], [ 77.30391255511563, 13.119651559711297 ], [ 77.303867892253649, 13.119812441230424 ], [ 77.303859700860286, 13.120022596896646 ], [ 77.303853621827628, 13.120178552697192 ], [ 77.303838092482181, 13.120470300746844 ], [ 77.303838406359631, 13.120476480391025 ], [ 77.303845064275023, 13.120606956229404 ], [ 77.303858443813198, 13.120609974681438 ], [ 77.304260958189715, 13.120698812694311 ], [ 77.304419940437924, 13.120767533295952 ], [ 77.305043019192425, 13.121036858654362 ], [ 77.305130503579974, 13.121074672506674 ], [ 77.305329675781962, 13.121160765701866 ], [ 77.305615163541532, 13.121284171415253 ], [ 77.306118100332313, 13.121501546661419 ], [ 77.306121806894055, 13.121503169750977 ], [ 77.306301914922386, 13.121580950796535 ], [ 77.306840665902982, 13.12173219328459 ], [ 77.306993186482714, 13.121759113366332 ], [ 77.307141731665354, 13.121785337976934 ], [ 77.307390853794686, 13.1218399537194 ], [ 77.307449089836737, 13.121852622356041 ], [ 77.308075823339507, 13.121962440962555 ], [ 77.30835241619755, 13.122001118314513 ], [ 77.308645267548542, 13.122042081997684 ], [ 77.309342679387456, 13.122276798647553 ], [ 77.309359810224919, 13.122282562598938 ], [ 77.309555417632311, 13.122337392449555 ], [ 77.309682361429537, 13.122381288586144 ], [ 77.310734217114259, 13.122744986480068 ], [ 77.310806227461399, 13.123800038223086 ], [ 77.310824097474651, 13.124061677506676 ], [ 77.31075058886637, 13.125222629334203 ], [ 77.31079435894091, 13.125219948322842 ], [ 77.310746058274589, 13.12568341607372 ], [ 77.310730114397671, 13.125978577119438 ], [ 77.310733549321711, 13.126039390108513 ], [ 77.310736637933047, 13.126092153333115 ], [ 77.310758123685957, 13.12618806895536 ], [ 77.310759280836379, 13.126207307931473 ], [ 77.310764694727325, 13.12629045276033 ], [ 77.310795706297043, 13.126768363301714 ], [ 77.310814143464512, 13.126881453881516 ], [ 77.31081573805271, 13.126975965943826 ], [ 77.310795272732264, 13.127422222209635 ], [ 77.310810974671924, 13.127532169328893 ], [ 77.310840266603009, 13.128078900671497 ], [ 77.310836756139935, 13.128102893839884 ], [ 77.310782773634926, 13.128471986550974 ], [ 77.310779177418638, 13.128496570540092 ], [ 77.310747925292347, 13.128710246990112 ], [ 77.31070528466438, 13.128935311695606 ], [ 77.310695800437017, 13.129064849175723 ], [ 77.31067386663085, 13.129364505194603 ], [ 77.310668666681934, 13.12956254938892 ], [ 77.310666310171399, 13.129652261778681 ], [ 77.310696376316784, 13.129988326517676 ], [ 77.31074666111796, 13.130443350888291 ], [ 77.310769133966787, 13.130646699959785 ], [ 77.310898269311551, 13.131298823452708 ], [ 77.310914433007781, 13.131411155457654 ], [ 77.31099039201591, 13.1319389994446 ], [ 77.311003001396173, 13.132055049144086 ], [ 77.311017786738716, 13.132137404881528 ], [ 77.311020523849379, 13.132216318648258 ], [ 77.311036415023764, 13.132362571445134 ], [ 77.311059798964791, 13.132577790918299 ], [ 77.311098707362433, 13.133217143737257 ], [ 77.31113761531644, 13.133856495592529 ], [ 77.311160918617617, 13.134239413626368 ], [ 77.311176522843681, 13.134495848291161 ], [ 77.311175636604574, 13.134563609861369 ], [ 77.311175855833724, 13.134848319950656 ], [ 77.311175924850914, 13.134938453253994 ], [ 77.311176026500533, 13.1350707915293 ], [ 77.311176087805265, 13.135149754619484 ], [ 77.311146703937709, 13.13563088932122 ], [ 77.311138656382582, 13.13576265387093 ], [ 77.311136925684039, 13.136290482816703 ], [ 77.310979419831824, 13.136294301325666 ], [ 77.310931765804341, 13.136295456168204 ], [ 77.310938760093563, 13.136332905278158 ], [ 77.31097179498471, 13.136509760581598 ], [ 77.311049842497951, 13.136927600269376 ], [ 77.311184555568772, 13.13691099914719 ], [ 77.311921453418208, 13.136820189686578 ], [ 77.311947178125735, 13.136912988245838 ], [ 77.312092417081132, 13.137164578252202 ], [ 77.312229347168625, 13.137255754910075 ], [ 77.312634769899446, 13.137617653841438 ], [ 77.312920859698181, 13.137849547158408 ], [ 77.313073963757162, 13.138109876558349 ], [ 77.313317289694822, 13.138346583500569 ], [ 77.31383565060797, 13.138405252107404 ], [ 77.314386805003423, 13.138338019986879 ], [ 77.314842837424337, 13.138257155074813 ], [ 77.315042358069888, 13.138223813759851 ], [ 77.315182198237181, 13.138302865023388 ], [ 77.315473630238529, 13.138465951376658 ], [ 77.31600135345407, 13.138788363792026 ], [ 77.316202496644323, 13.138911255676382 ], [ 77.316257503589526, 13.138944858979372 ], [ 77.316838389833052, 13.139100335469315 ], [ 77.317069496217229, 13.139188316288038 ], [ 77.317244722045814, 13.139255024924813 ], [ 77.317395171697584, 13.139490237704662 ], [ 77.318821775690736, 13.140604648005896 ], [ 77.319282173508981, 13.140955990899304 ], [ 77.319640846483736, 13.141246793037851 ], [ 77.320112544058446, 13.141621012231312 ], [ 77.320530076326207, 13.141935307942788 ], [ 77.321142313952677, 13.142437013964164 ], [ 77.32107075069824, 13.143773484746829 ], [ 77.321026763067309, 13.144918167503338 ], [ 77.321008159348253, 13.145473563004405 ], [ 77.321148778873436, 13.146102869642023 ], [ 77.321402430529588, 13.147375127309697 ], [ 77.321756783674914, 13.148476580777094 ], [ 77.322063440070806, 13.149152678695323 ], [ 77.322359355420389, 13.149964765011392 ], [ 77.322593116535572, 13.151119710957756 ], [ 77.322761263726335, 13.152293636903547 ], [ 77.322861689281808, 13.152681090823728 ], [ 77.32315420625082, 13.153132088562412 ], [ 77.323180470150021, 13.153210438906475 ], [ 77.323636740917991, 13.154515709067805 ], [ 77.323704329982704, 13.1545544839733 ], [ 77.323820237214221, 13.154573800992505 ], [ 77.324008866111598, 13.15473104058325 ], [ 77.324183302053072, 13.155108758726165 ], [ 77.324422875692875, 13.155872887048851 ], [ 77.324587739287267, 13.156398724547671 ], [ 77.32467554881886, 13.156967618930285 ], [ 77.324807170307196, 13.158015097232045 ], [ 77.324726102124899, 13.158760644508988 ], [ 77.324606725021141, 13.15914934638683 ], [ 77.324304846795769, 13.160575375029254 ], [ 77.324042371114402, 13.161693188627323 ], [ 77.323844660512179, 13.162535152633795 ], [ 77.323772691281533, 13.162724047316358 ], [ 77.323441893023315, 13.163592242260465 ], [ 77.323036579400537, 13.164700944324915 ], [ 77.322795682930789, 13.165359891361774 ], [ 77.322726284964631, 13.165648052752307 ], [ 77.32265911045441, 13.165668852512891 ], [ 77.322657171322447, 13.165678831242092 ], [ 77.32249762617424, 13.166499795444118 ], [ 77.322249560642845, 13.167836375060004 ], [ 77.322324930708959, 13.167829393810633 ], [ 77.322352691115057, 13.167826822975361 ], [ 77.323759457154097, 13.167696517359989 ], [ 77.324439564112652, 13.167633518980621 ], [ 77.324792192495408, 13.167600854750663 ], [ 77.326145960930319, 13.167559690282921 ], [ 77.326182335879651, 13.167565176830827 ], [ 77.326755364999684, 13.167651590155677 ], [ 77.327281846812909, 13.167718269021995 ], [ 77.327409608300854, 13.167734448816208 ], [ 77.327446283304653, 13.167739093924826 ], [ 77.327705578214903, 13.167670027576355 ], [ 77.32835409606831, 13.167509962234758 ], [ 77.329408724819459, 13.167207307909333 ], [ 77.331152981300178, 13.166749193035281 ], [ 77.331203812327487, 13.166735842400419 ], [ 77.333758230745062, 13.166007285733238 ], [ 77.333922300997855, 13.165947054867264 ], [ 77.334471835021716, 13.165704645869102 ], [ 77.335847489544832, 13.165094984434296 ], [ 77.336457831066994, 13.164809875101122 ], [ 77.336490372723276, 13.164794673277013 ], [ 77.33651136120929, 13.164872378129012 ], [ 77.336557509287928, 13.164922928923064 ], [ 77.336974772143762, 13.165423993098679 ], [ 77.337106994183912, 13.165582767783429 ], [ 77.337222247960483, 13.165715655736108 ], [ 77.337374418826016, 13.165903898610996 ], [ 77.33776636666677, 13.166374557472842 ], [ 77.338852279012698, 13.16767853164551 ], [ 77.338870611666593, 13.167700546489241 ], [ 77.339134782123452, 13.168017760248437 ], [ 77.339325120839604, 13.168262368430542 ], [ 77.339938184059164, 13.169042206981544 ], [ 77.339990903312753, 13.169122914468911 ], [ 77.340152497208194, 13.169370297745195 ], [ 77.34038568862006, 13.169654390568045 ], [ 77.340420793000533, 13.169699734432196 ], [ 77.340443339583331, 13.169716570199782 ], [ 77.340506216868761, 13.169810076199928 ], [ 77.340566361097345, 13.169887764663446 ], [ 77.340567080114539, 13.169886965662997 ], [ 77.340615049081563, 13.169928370854596 ], [ 77.341000045925867, 13.170350476245259 ], [ 77.341468937793806, 13.170935062650813 ], [ 77.341490235604226, 13.170971927576783 ], [ 77.34170866732326, 13.171349975601105 ], [ 77.341878622858218, 13.171644126912687 ], [ 77.341928981562731, 13.17174729391412 ], [ 77.342010015982652, 13.171913300210633 ], [ 77.342200203998061, 13.172267340790091 ], [ 77.342228812597895, 13.172320600227547 ], [ 77.342197878707367, 13.172367217348015 ], [ 77.342256249129818, 13.172457799213577 ], [ 77.342367301719946, 13.172443067629265 ], [ 77.343179911813777, 13.172335275214166 ], [ 77.343200760965729, 13.172332509509886 ], [ 77.34339642240873, 13.172169793538249 ], [ 77.343549069017925, 13.172116129345932 ], [ 77.343918588978141, 13.171986220621445 ], [ 77.344711153197935, 13.17170758423647 ], [ 77.345297620448406, 13.171566764562439 ], [ 77.345908836445616, 13.171420000335875 ], [ 77.345960429185212, 13.171403499852783 ], [ 77.346248176974257, 13.171311468581445 ], [ 77.346269321557145, 13.171262593181297 ], [ 77.34628042874111, 13.171257713454963 ], [ 77.346290125987892, 13.171214503389193 ], [ 77.346338689199882, 13.171102250622939 ], [ 77.346352132388162, 13.170388388608112 ], [ 77.346352208911469, 13.170387032544335 ], [ 77.34636646506695, 13.170135360172825 ], [ 77.346200665977918, 13.169232695600934 ], [ 77.34617648895015, 13.169101062428782 ], [ 77.346734843350859, 13.168978118328743 ], [ 77.34670338993395, 13.168592437419235 ], [ 77.346640465357595, 13.167899194318821 ], [ 77.347475732451585, 13.1675792084846 ], [ 77.34750293047037, 13.167568789850769 ], [ 77.347735437243557, 13.167322491618092 ], [ 77.348993013454077, 13.166582433471412 ], [ 77.349020904685133, 13.166550064146492 ], [ 77.349100334836763, 13.166457877029723 ], [ 77.349101476665496, 13.166451622875011 ], [ 77.349147107048196, 13.1664158011932 ], [ 77.349312334862447, 13.166211980588795 ], [ 77.349597845997181, 13.166024485579497 ], [ 77.349812808888046, 13.165847150219374 ], [ 77.350452217820717, 13.165633915606506 ], [ 77.350931583141659, 13.165514588922569 ], [ 77.351563205532287, 13.165289743584283 ], [ 77.351845409839427, 13.165189283648957 ], [ 77.352390386115744, 13.164937390780622 ], [ 77.352496967980329, 13.164881372431353 ], [ 77.352622879160648, 13.164867075462048 ], [ 77.35270214261736, 13.164833632096641 ], [ 77.352758874916034, 13.164849392436587 ], [ 77.353302996110102, 13.164635030173454 ], [ 77.353792511200751, 13.164382903390479 ], [ 77.353990642543252, 13.164280854313564 ], [ 77.354045049477421, 13.164255423806459 ], [ 77.354489428257295, 13.164047727503897 ], [ 77.354486839222858, 13.164038862829392 ], [ 77.354551774203159, 13.164013050094784 ], [ 77.354586110520586, 13.16399940010133 ], [ 77.354708453388056, 13.163927296438983 ], [ 77.354947794130453, 13.163749464641022 ], [ 77.355171676338159, 13.163524094019472 ], [ 77.35572646655811, 13.163072274981623 ], [ 77.355962126347336, 13.162718209516569 ], [ 77.355996482301222, 13.16252687383901 ], [ 77.3561264132437, 13.162180572964598 ], [ 77.356218924286253, 13.161875081152145 ], [ 77.356398103318128, 13.161300795468849 ], [ 77.356496798840382, 13.161334633328085 ], [ 77.357554016122677, 13.161454448395169 ], [ 77.357690386442627, 13.161414605939518 ], [ 77.358846326149319, 13.161417762244424 ], [ 77.35922153985463, 13.161436493092882 ], [ 77.359683763641442, 13.161493049103736 ], [ 77.359782213008231, 13.161505093803292 ], [ 77.359955322647494, 13.161526276404643 ], [ 77.36098733276377, 13.161981856703685 ], [ 77.361507958912895, 13.162089939938495 ], [ 77.362183989109937, 13.162105587931793 ], [ 77.36228686134443, 13.162107968811714 ], [ 77.362228603926198, 13.162507796757582 ], [ 77.36222630609852, 13.162523564371629 ], [ 77.362233745701317, 13.162732724045142 ], [ 77.362247350528136, 13.163115239523069 ], [ 77.362269734410376, 13.16374454851284 ], [ 77.362180566093329, 13.164815992275139 ], [ 77.362380486471011, 13.165308606794547 ], [ 77.362779515440153, 13.16585933267058 ], [ 77.362887024569503, 13.165969207402044 ], [ 77.363162444240601, 13.166250687640289 ], [ 77.363181854100873, 13.166338770998491 ], [ 77.363286530655586, 13.166768670430843 ], [ 77.363286705446114, 13.166815051579205 ], [ 77.363313246171046, 13.166876647138318 ], [ 77.363314034527377, 13.16746954998586 ], [ 77.36262308724038, 13.16759030165635 ], [ 77.362384604318507, 13.167932204728697 ], [ 77.362297353714879, 13.168258494628406 ], [ 77.362279086261736, 13.168327984490098 ], [ 77.362187896577353, 13.16867487313219 ], [ 77.362104600332785, 13.168991733137677 ], [ 77.362083256469504, 13.169072923604983 ], [ 77.362081442391514, 13.169115960927439 ], [ 77.362078365552378, 13.16918895046401 ], [ 77.362042558896007, 13.17003843409163 ], [ 77.362015784963404, 13.170056376116122 ], [ 77.361924919609038, 13.170117271194558 ], [ 77.361925912164565, 13.170122119628564 ], [ 77.36181291667161, 13.170192330945415 ], [ 77.361520668344767, 13.170373921956132 ], [ 77.361473780345563, 13.170403055489274 ], [ 77.361436434391862, 13.170426261404348 ], [ 77.361421308284051, 13.170435660431336 ], [ 77.36136701415505, 13.170455089159026 ], [ 77.36002932039338, 13.170933709030505 ], [ 77.359803390764384, 13.171023884065075 ], [ 77.359801741747759, 13.171081008343732 ], [ 77.359775378133975, 13.171994050563258 ], [ 77.359776371362045, 13.172118957872 ], [ 77.35978001838636, 13.172577449747862 ], [ 77.359690141275223, 13.172678696638366 ], [ 77.359688316557637, 13.172698913592832 ], [ 77.359686846143774, 13.172715208513113 ], [ 77.35966938343438, 13.172908693877263 ], [ 77.35959743273213, 13.173705894430771 ], [ 77.359541366292532, 13.174435380016011 ], [ 77.359543702512312, 13.174500764178791 ], [ 77.359552135538777, 13.174736715657994 ], [ 77.359564422322492, 13.175080443567403 ], [ 77.35960335954789, 13.17534351949827 ], [ 77.358220919380045, 13.175564858571253 ], [ 77.358060586592899, 13.175617913516238 ], [ 77.357959919407492, 13.17565122329983 ], [ 77.357705175855742, 13.175719407374213 ], [ 77.356710600326807, 13.175997791174249 ], [ 77.356293024886796, 13.176114667817044 ], [ 77.355552136661856, 13.17631407768147 ], [ 77.354987073957702, 13.176481089447075 ], [ 77.353872557161537, 13.176788221475206 ], [ 77.353764125062185, 13.176820722797704 ], [ 77.353789136498918, 13.176968170096178 ], [ 77.353938899143955, 13.177851036723752 ], [ 77.354070014962588, 13.178726725555254 ], [ 77.354332014039599, 13.180294398725513 ], [ 77.354285135310505, 13.180304741523575 ], [ 77.354420495564042, 13.18091053118947 ], [ 77.354440116758596, 13.180998345140681 ], [ 77.354512356800882, 13.181603886840071 ], [ 77.354529717897975, 13.18174941449905 ], [ 77.354705390366789, 13.183085552361558 ], [ 77.354732121443931, 13.183288864810239 ], [ 77.355348645147117, 13.184318972220114 ], [ 77.355364181853815, 13.184344931717684 ], [ 77.355907368949389, 13.184251402409538 ], [ 77.357523777042175, 13.183833122127879 ], [ 77.357589250409418, 13.183816936766393 ], [ 77.358777044068049, 13.183482815068359 ], [ 77.359399939824485, 13.183381503572337 ], [ 77.360139443335143, 13.183221092262402 ], [ 77.360435333195085, 13.183091197844414 ], [ 77.36144991976002, 13.182832933473668 ], [ 77.361999820004485, 13.182692953818185 ], [ 77.362479631464865, 13.182545609154742 ], [ 77.362658613581289, 13.182490645907261 ], [ 77.362807405073724, 13.18244345600014 ], [ 77.362830832308745, 13.182436025015543 ], [ 77.362906840528993, 13.182411919100751 ], [ 77.363128966646727, 13.182341469085596 ], [ 77.363143263864032, 13.182337013679287 ], [ 77.363266767851954, 13.18223906131627 ], [ 77.363424752025963, 13.182113761659155 ], [ 77.363443220256954, 13.182112500726467 ], [ 77.363497813999061, 13.182108772385449 ], [ 77.364182077199075, 13.181866080700827 ], [ 77.364314290767339, 13.1818290544579 ], [ 77.364836174528307, 13.181682902542242 ], [ 77.364967431437321, 13.181653246158444 ], [ 77.365335610503536, 13.181570062533119 ], [ 77.365503943698783, 13.18153203099639 ], [ 77.366148476115683, 13.181420090079573 ], [ 77.366562331824198, 13.181397057053506 ], [ 77.366645262539677, 13.181382544396518 ], [ 77.36666283937204, 13.181379024434293 ], [ 77.366833763704321, 13.181298379599527 ], [ 77.366861589681193, 13.181285249544286 ], [ 77.367776940956674, 13.181101177573357 ], [ 77.368200729457342, 13.181015953812471 ], [ 77.368248069830415, 13.181006433738663 ], [ 77.368699905629512, 13.180969453231979 ], [ 77.368764018944233, 13.180968516388498 ], [ 77.369058183424642, 13.180964222372179 ], [ 77.369383804251868, 13.180959467326749 ], [ 77.370001708481212, 13.180900572940308 ], [ 77.370746593799396, 13.180829574824106 ], [ 77.370880033513359, 13.180803073220448 ], [ 77.371627445925014, 13.180654633999779 ], [ 77.373166291790909, 13.180379012783535 ], [ 77.373245274924102, 13.180372260088312 ], [ 77.373248967709856, 13.180371943982406 ], [ 77.373833694144125, 13.180321950725682 ], [ 77.373924895664388, 13.180307215559861 ], [ 77.374007654668475, 13.180301025817549 ], [ 77.375113668001873, 13.180218311275587 ], [ 77.375138657113652, 13.180214379622917 ], [ 77.376202318187367, 13.180046967659745 ], [ 77.376449546617195, 13.179998295781674 ], [ 77.376507537699894, 13.180006553292857 ], [ 77.376544473067, 13.179999891324044 ], [ 77.377029666197672, 13.180040232657397 ], [ 77.377237107359434, 13.17996171048752 ], [ 77.378396330473009, 13.179522903011385 ], [ 77.37924243405736, 13.179236630178183 ], [ 77.379722949264703, 13.179074046990708 ], [ 77.380948625952144, 13.178597923473042 ], [ 77.381143032586564, 13.178522404650057 ], [ 77.381495976234845, 13.178501883139074 ], [ 77.382107742313423, 13.178362328756462 ], [ 77.382771009550467, 13.178096098512528 ], [ 77.383267075364756, 13.177925170503467 ], [ 77.384182312085642, 13.177514050554034 ], [ 77.384302541208356, 13.177460043711504 ], [ 77.386049321983506, 13.177436211389448 ], [ 77.386166123128945, 13.177434617269574 ], [ 77.386392158079431, 13.177410539626223 ], [ 77.387346310079195, 13.177618486741048 ], [ 77.388350440931077, 13.17811656251954 ], [ 77.388815678754156, 13.178517041266945 ], [ 77.388981762400576, 13.178660004488018 ], [ 77.39036601344965, 13.178705983308657 ], [ 77.390880606103281, 13.17873250712762 ], [ 77.391176279455067, 13.178666456259839 ], [ 77.391389524570343, 13.178618820432357 ], [ 77.392675051513109, 13.178315311832311 ], [ 77.392693049418753, 13.178311944364953 ], [ 77.392817065199097, 13.179204248343227 ], [ 77.392878313396693, 13.179587624756573 ], [ 77.392945895406399, 13.180102294336915 ], [ 77.392948898819043, 13.180125160388778 ], [ 77.393005832623757, 13.180558733801226 ], [ 77.392952376687418, 13.180610055687813 ], [ 77.392924486176952, 13.180636831618379 ], [ 77.39288916010608, 13.180670749041198 ], [ 77.392915718386107, 13.180768779958603 ], [ 77.393110173993549, 13.181486554089327 ], [ 77.393213008177895, 13.182041714631557 ], [ 77.393243275066951, 13.182751705227126 ], [ 77.393253307698757, 13.182986989252687 ], [ 77.39313934459139, 13.183493461967057 ], [ 77.393064124809669, 13.184450003912144 ], [ 77.393063076148465, 13.18446334735696 ], [ 77.392429214099678, 13.18468331561569 ], [ 77.392360628754417, 13.18470711668656 ], [ 77.392447755544779, 13.185206238838763 ], [ 77.392460951387307, 13.185578387239243 ], [ 77.392448194734115, 13.185606448582377 ], [ 77.391915378056936, 13.1867784220159 ], [ 77.391429388194311, 13.187796834478625 ], [ 77.391396489310068, 13.187865776953007 ], [ 77.391346433207573, 13.187971418191001 ], [ 77.391019150037224, 13.188636743722704 ], [ 77.390959475949643, 13.188758714191472 ], [ 77.390919125980503, 13.188840459905455 ], [ 77.390661711826411, 13.189368029509408 ], [ 77.390608976136392, 13.189476111793599 ], [ 77.390591468512895, 13.189512259935301 ], [ 77.390480052229847, 13.189742301559976 ], [ 77.390317382007936, 13.19004355313251 ], [ 77.389639400552298, 13.191373638128162 ], [ 77.389591761596904, 13.191467095812662 ], [ 77.388098958231069, 13.192010500474696 ], [ 77.388063139500005, 13.192023538419964 ], [ 77.3881481412417, 13.192782105348668 ], [ 77.388871874302296, 13.194578088328674 ], [ 77.389654659779069, 13.19616646971172 ], [ 77.389685570049551, 13.196163840986328 ], [ 77.390196603972853, 13.197742649073103 ], [ 77.390158423007591, 13.199439817957646 ], [ 77.39022383264367, 13.20067654598113 ], [ 77.389852337214052, 13.202661425600056 ], [ 77.38985769100556, 13.202703277651683 ], [ 77.388853556505197, 13.203053359591157 ], [ 77.387760303804043, 13.203458881122394 ], [ 77.387197233168706, 13.203692768360574 ], [ 77.386684285577104, 13.203881124227969 ], [ 77.385701534673998, 13.204262705882975 ], [ 77.384575764250712, 13.204468520277084 ], [ 77.384187280517196, 13.204532137409664 ], [ 77.383604409435748, 13.204632395158962 ], [ 77.383039079048274, 13.204729633953502 ], [ 77.382101467729953, 13.204929680927654 ], [ 77.381991657722949, 13.204968782643377 ], [ 77.381863128908464, 13.205014549710944 ], [ 77.381236294035801, 13.205169746540617 ], [ 77.380359052936328, 13.205398102378522 ], [ 77.38018120280762, 13.205434043323521 ], [ 77.379728773455795, 13.20554659276759 ], [ 77.37931770086908, 13.205603082537825 ], [ 77.379188364951702, 13.205620856549789 ], [ 77.379124296849611, 13.205638498818468 ], [ 77.378421621928737, 13.205831993259677 ], [ 77.378256338992927, 13.205872141439292 ], [ 77.37817193517148, 13.205892645251344 ], [ 77.377970924300385, 13.20593949544655 ], [ 77.37737749553915, 13.206083345143549 ], [ 77.377224938401895, 13.206120324947662 ], [ 77.377136946616588, 13.206136505743492 ], [ 77.376851977552917, 13.206188909642323 ], [ 77.376833912120375, 13.206228710156479 ], [ 77.376780970862399, 13.206345342383532 ], [ 77.376380284218385, 13.206484555715273 ], [ 77.376266337035148, 13.206495065379521 ], [ 77.375856922247493, 13.206699797312833 ], [ 77.375279966012116, 13.206970652584022 ], [ 77.375137438688711, 13.207007818248725 ], [ 77.374463152599574, 13.207183647644129 ], [ 77.373875465951073, 13.207359289807332 ], [ 77.37307898997922, 13.20761773171165 ], [ 77.373074865954138, 13.207619081033396 ], [ 77.373085303816737, 13.208655190753786 ], [ 77.373085810870634, 13.208705553980622 ], [ 77.373132641367562, 13.209747846011132 ], [ 77.373179125471012, 13.210571302144057 ], [ 77.373186572209647, 13.210703213911293 ], [ 77.37326126150451, 13.211674107314467 ], [ 77.373268068079412, 13.21176258465961 ], [ 77.373468603713263, 13.212369179094127 ], [ 77.373553336225854, 13.212625480895165 ], [ 77.373603356093426, 13.212863007274247 ], [ 77.373701532560446, 13.213329208828375 ], [ 77.37392400925313, 13.214320503246174 ], [ 77.373932132364672, 13.214319359819983 ], [ 77.374105612476939, 13.215155627313457 ], [ 77.374140909549155, 13.21550147748165 ], [ 77.37429429911991, 13.217004386415985 ], [ 77.374350823481862, 13.217440938868654 ], [ 77.374800716250746, 13.218445242360172 ], [ 77.375234270694932, 13.219408664858795 ], [ 77.375249635950183, 13.219442807497032 ], [ 77.375256161269562, 13.219455129186125 ], [ 77.375281546213742, 13.219509014468324 ], [ 77.375318818903438, 13.219573451225321 ], [ 77.375617569725819, 13.220089939906991 ], [ 77.375719525707069, 13.220227915675892 ], [ 77.375751006057243, 13.220278940485043 ], [ 77.376228751516834, 13.221053290501699 ], [ 77.376339447521957, 13.221289397467814 ], [ 77.37647264211077, 13.221465019863183 ], [ 77.376472407827293, 13.221466254491114 ], [ 77.376438474472437, 13.221645080023421 ], [ 77.376420253155857, 13.221648785082218 ], [ 77.376377332309886, 13.22192080916917 ], [ 77.376302003470343, 13.222398225399001 ], [ 77.376212990870499, 13.223152658866818 ], [ 77.376187244313925, 13.223404777865728 ], [ 77.376174227406693, 13.223532243278116 ], [ 77.376167502308618, 13.223598127105264 ], [ 77.376135687358683, 13.223909663408106 ], [ 77.37604078611821, 13.224661374148658 ], [ 77.376036600977756, 13.224698132650403 ], [ 77.376016196906875, 13.224877317598395 ], [ 77.376034999298255, 13.22526260390296 ], [ 77.376032733976913, 13.225269246223348 ], [ 77.376013239202805, 13.225326398490537 ], [ 77.375219743655236, 13.226209673803194 ], [ 77.374547315715589, 13.226962543163662 ], [ 77.374266382446905, 13.227284799147675 ], [ 77.373858924704464, 13.227720110936167 ], [ 77.373800786244971, 13.227785082024093 ], [ 77.373494456210082, 13.228127392074908 ], [ 77.372586164406528, 13.229212549630994 ], [ 77.372572245971668, 13.229229604352446 ], [ 77.372505415556063, 13.229311491066518 ], [ 77.372102676592732, 13.229804958928542 ], [ 77.372186500975516, 13.230124427241353 ], [ 77.372404469290075, 13.230955136101228 ], [ 77.372326527082336, 13.231608142479992 ], [ 77.372376398851173, 13.23269755407493 ], [ 77.372452226372076, 13.234169405036281 ], [ 77.372465714080789, 13.234224820439435 ], [ 77.372422485825851, 13.234226710273635 ], [ 77.372438197437916, 13.234306437798294 ], [ 77.372500931338408, 13.234845182454597 ], [ 77.372540569215687, 13.235612840890884 ], [ 77.372550329662161, 13.235801856455002 ], [ 77.372575116506866, 13.235939995854238 ], [ 77.372595764076806, 13.236221864510334 ], [ 77.372775763584926, 13.236682740173645 ], [ 77.372740320386697, 13.238122681658412 ], [ 77.372731438790865, 13.238245186168943 ], [ 77.372768930435669, 13.238889314570095 ], [ 77.372744669732356, 13.23923851343241 ], [ 77.372723915622629, 13.239475534805548 ], [ 77.372459786904543, 13.239491829915186 ], [ 77.372459232990536, 13.239502347039958 ], [ 77.372479350414324, 13.239986965050967 ], [ 77.372482826835238, 13.240023732780415 ], [ 77.372508486948732, 13.240521688130691 ], [ 77.372551590041695, 13.241041473842705 ], [ 77.372603854921095, 13.241279331628856 ], [ 77.372644862636591, 13.241566114998699 ], [ 77.372698728355743, 13.241864738258245 ], [ 77.372745632608613, 13.242369382794445 ], [ 77.372793694348104, 13.242600030298778 ], [ 77.372851739768066, 13.242898548614038 ], [ 77.372932173049506, 13.243253258650867 ], [ 77.373005879981122, 13.24366203219234 ], [ 77.372934329294367, 13.244118861450501 ], [ 77.372845921208338, 13.244695673470758 ], [ 77.372845009442798, 13.244701620120093 ], [ 77.372799982958711, 13.244897319005743 ], [ 77.372748649699901, 13.245175379652592 ], [ 77.372709615227663, 13.245439841250926 ], [ 77.37272181744504, 13.245630597636561 ], [ 77.372722372980533, 13.245639286485147 ], [ 77.372735288794999, 13.245832480346394 ], [ 77.372773641205725, 13.246078645313833 ], [ 77.372804421334337, 13.246644953604992 ], [ 77.372804689923896, 13.246649920663845 ], [ 77.37286264833368, 13.247638458889863 ], [ 77.372879241337841, 13.248113779953746 ], [ 77.372887008059465, 13.248554719682581 ], [ 77.372882543663735, 13.249290337747224 ], [ 77.372882846578833, 13.249905432225852 ], [ 77.373182065166787, 13.250524150604186 ], [ 77.373435515223761, 13.251059570905413 ], [ 77.37365677828474, 13.251605082184843 ], [ 77.374040452578768, 13.252700983211243 ], [ 77.374370873715051, 13.253644767687714 ], [ 77.374401696538115, 13.253732805819853 ], [ 77.373863791626277, 13.255534968552578 ], [ 77.373805268008212, 13.255731041823305 ], [ 77.373948098668592, 13.257044010611976 ], [ 77.373954013240407, 13.257098386560918 ], [ 77.373943241751931, 13.257341533108651 ], [ 77.373841174741926, 13.259645347778688 ], [ 77.373832343237353, 13.259844680059684 ], [ 77.370730642753387, 13.260913703045874 ], [ 77.370726844244047, 13.260855571949655 ], [ 77.370715175271613, 13.260857817411278 ], [ 77.368078714219507, 13.261365117602919 ], [ 77.367940654163846, 13.26139168203621 ], [ 77.367814614924058, 13.261775247896715 ], [ 77.366725199189432, 13.262115297994026 ], [ 77.366028134001468, 13.262331177251058 ], [ 77.365343304672606, 13.262544526898889 ], [ 77.364543940458418, 13.26279403832719 ], [ 77.363921444463031, 13.262992169337403 ], [ 77.363476864688579, 13.263133674344068 ], [ 77.362962922432146, 13.262743334631702 ], [ 77.36242304973193, 13.262307386420453 ], [ 77.362375822753904, 13.262269250327289 ], [ 77.361853454203938, 13.261862614268992 ], [ 77.361819120600458, 13.261835886179494 ], [ 77.36103240510802, 13.261218170909579 ], [ 77.360368147297592, 13.260903402369985 ], [ 77.359903319984213, 13.260702932743879 ], [ 77.359579655532485, 13.260563344736626 ], [ 77.359409516257799, 13.260487260505851 ], [ 77.358828255654572, 13.260227330514494 ], [ 77.358790949647613, 13.260210648144616 ], [ 77.358216170173833, 13.259968124249015 ], [ 77.357523093237418, 13.259668140387374 ], [ 77.357325043726206, 13.259582417790661 ], [ 77.356771578244022, 13.259350982156851 ], [ 77.356764960874628, 13.259348215189176 ], [ 77.356667097074876, 13.259137105894334 ], [ 77.356517764450373, 13.258814967089764 ], [ 77.356310237501901, 13.258357415743403 ], [ 77.356276840383771, 13.258283783052317 ], [ 77.356035918448654, 13.257752598582927 ], [ 77.355794996800341, 13.257221413698701 ], [ 77.355613341050272, 13.256814140561879 ], [ 77.35552195673506, 13.256609255801225 ], [ 77.355440506839273, 13.256636177455041 ], [ 77.354809459276382, 13.256844756744066 ], [ 77.354107716567086, 13.257074808377025 ], [ 77.353405935372237, 13.257302752419855 ], [ 77.352702256015121, 13.257541236996371 ], [ 77.35262139449236, 13.257567072650435 ], [ 77.352725159385116, 13.257809047963617 ], [ 77.352551539722128, 13.257905313499613 ], [ 77.352157018856005, 13.258124062074536 ], [ 77.351626625616277, 13.258400192441952 ], [ 77.35121568867018, 13.258621650165372 ], [ 77.350556175976465, 13.258651900710847 ], [ 77.350309224866606, 13.258663227188174 ], [ 77.350338468094421, 13.258733356349355 ], [ 77.35026310511897, 13.25873805407584 ], [ 77.349210236073972, 13.258803672152283 ], [ 77.349057566595732, 13.258813186943142 ], [ 77.348929436433991, 13.258821173457072 ], [ 77.348395864548991, 13.258871715836005 ], [ 77.348113080118154, 13.258898497942853 ], [ 77.347357286868771, 13.258970084680344 ], [ 77.34678321177212, 13.25902446017597 ], [ 77.346334758532734, 13.25908246152429 ], [ 77.344567085470658, 13.259311079876664 ], [ 77.342442289260163, 13.259565069371837 ], [ 77.342462548203656, 13.259611251825447 ], [ 77.340343274835959, 13.262069915952917 ], [ 77.33861801293952, 13.264063458877002 ], [ 77.337083949542148, 13.266526756756996 ], [ 77.336626855781631, 13.267260720013319 ], [ 77.33655136884272, 13.267381927748255 ], [ 77.336499176684072, 13.267441459673298 ], [ 77.336379459315793, 13.267578014600845 ], [ 77.336563360578921, 13.267705525584631 ], [ 77.336354696493331, 13.268598820728771 ], [ 77.335840011721444, 13.270802177574561 ], [ 77.335800379803857, 13.270976118929198 ], [ 77.335790277931224, 13.271044652044228 ], [ 77.335637193547356, 13.272032433148746 ], [ 77.335622199789825, 13.272119598597374 ], [ 77.335529600088847, 13.272683445375279 ], [ 77.335497049246158, 13.272881646967807 ], [ 77.335653591424119, 13.274109720493557 ], [ 77.335714427494693, 13.274582328057816 ], [ 77.335674692354985, 13.274790071373044 ], [ 77.335608940016087, 13.274780443372917 ], [ 77.334831694805175, 13.274780491843782 ], [ 77.334658099154709, 13.274780500672778 ], [ 77.333600429363884, 13.274968964387028 ], [ 77.332528475756675, 13.275377261528336 ], [ 77.331420792093411, 13.275713341734203 ], [ 77.331353310227385, 13.275733815834474 ], [ 77.330680782569956, 13.27593510589157 ], [ 77.330092211265423, 13.276042594331816 ], [ 77.329984728866336, 13.276112223863713 ], [ 77.329573543869515, 13.276435715633699 ], [ 77.328840802968784, 13.276917362062182 ], [ 77.328784632232697, 13.27695428476312 ], [ 77.328688471507064, 13.277017493364411 ], [ 77.328519501508552, 13.277094200583761 ], [ 77.328503756060826, 13.277101348256569 ], [ 77.327018422710864, 13.277775635824192 ], [ 77.326690892272211, 13.27792630652702 ], [ 77.326517070841476, 13.278006267372897 ], [ 77.32525190539603, 13.278588258752155 ], [ 77.322698522406156, 13.279823813361753 ], [ 77.321537245587905, 13.280897059074517 ], [ 77.321588599052006, 13.281114596434827 ], [ 77.321040949833645, 13.281478259440819 ], [ 77.32095609661738, 13.281506195065274 ], [ 77.320381506913918, 13.281659254851034 ], [ 77.319096514556293, 13.28265701527674 ], [ 77.317719773808491, 13.283764231054928 ], [ 77.317614154520072, 13.283849172368159 ], [ 77.316721229174192, 13.284560791113295 ], [ 77.316721044369331, 13.284577963645043 ], [ 77.316703511309129, 13.286210274630131 ], [ 77.316701327041542, 13.286413619472249 ], [ 77.316936047653883, 13.286418909340876 ], [ 77.316951770307838, 13.286419263118633 ], [ 77.319220294361884, 13.286470376669113 ], [ 77.319329035164401, 13.286413610644354 ], [ 77.320023233539899, 13.28605121615905 ], [ 77.320693689467333, 13.285941328119931 ], [ 77.321215088552719, 13.286153306750851 ], [ 77.321298104608147, 13.286187057138591 ], [ 77.321403654947147, 13.286924554793812 ], [ 77.321410311848169, 13.286951785879445 ], [ 77.321408721653611, 13.286959961555823 ], [ 77.321446910918453, 13.287226797235904 ], [ 77.323485034469741, 13.287314342474088 ], [ 77.324341957957301, 13.28694024809568 ], [ 77.324347675968028, 13.286938124841056 ], [ 77.324343504361153, 13.286846897590966 ], [ 77.324309794318808, 13.286315767609985 ], [ 77.324319164378025, 13.286314776611816 ], [ 77.324515457193726, 13.286294007895178 ], [ 77.3253061925423, 13.286210340362912 ], [ 77.325650395690886, 13.286230659103451 ], [ 77.325806941357499, 13.286239899256664 ], [ 77.325883516120442, 13.286229453153167 ], [ 77.326097336995815, 13.28620028052848 ], [ 77.326408908065204, 13.286099160805314 ], [ 77.32640839924882, 13.286097076379972 ], [ 77.327048638234928, 13.286030717135638 ], [ 77.327775206103809, 13.285950241356122 ], [ 77.328139106507237, 13.285919776966052 ], [ 77.328192182699851, 13.285789967327828 ], [ 77.328202456283449, 13.285559628591514 ], [ 77.328220633661829, 13.285556694580325 ], [ 77.329451029804773, 13.285358082873737 ], [ 77.330061029178438, 13.285320088295766 ], [ 77.330505753235911, 13.285310996452251 ], [ 77.330507130913944, 13.285311610915759 ], [ 77.330734114042514, 13.285412817810286 ], [ 77.331091319108396, 13.285328404757458 ], [ 77.331230553764584, 13.285362409176878 ], [ 77.331401755384533, 13.285199024976796 ], [ 77.331382435303297, 13.285020025262758 ], [ 77.331338110176816, 13.284609337873528 ], [ 77.331328833643539, 13.284454654453134 ], [ 77.331731618582637, 13.284266835133931 ], [ 77.331735028278572, 13.284266837318635 ], [ 77.331665248231076, 13.28415444646537 ], [ 77.332132122614851, 13.28417849835856 ], [ 77.332151147225744, 13.284186338711935 ], [ 77.332643035746855, 13.284389048747906 ], [ 77.333028630778614, 13.284459908411124 ], [ 77.333318222425405, 13.284411745982938 ], [ 77.334138666574717, 13.284082964952967 ], [ 77.334479576813052, 13.284010120101795 ], [ 77.334491383045119, 13.283915174248298 ], [ 77.335008956301252, 13.283764438786232 ], [ 77.335078047361478, 13.283916444869735 ], [ 77.335323214134348, 13.283853329033491 ], [ 77.335517476120586, 13.283567722998358 ], [ 77.335546267945716, 13.283547645120521 ], [ 77.33571037159291, 13.28343321354633 ], [ 77.336111038902857, 13.283394433232354 ], [ 77.336204882566435, 13.283385350005094 ], [ 77.336515465626107, 13.283284272415719 ], [ 77.336835111405918, 13.283167888733388 ], [ 77.336844118843018, 13.283162772196782 ], [ 77.337015802361009, 13.283065252984715 ], [ 77.337136468207291, 13.28297696784524 ], [ 77.337203659961588, 13.282927805250782 ], [ 77.337344341167935, 13.282757574452491 ], [ 77.337304333742978, 13.28264306599743 ], [ 77.337242784677329, 13.282466901195702 ], [ 77.3372271871729, 13.282362693345888 ], [ 77.337196961020112, 13.282160749173247 ], [ 77.337093148694819, 13.282018490557817 ], [ 77.337046911568265, 13.281955130053879 ], [ 77.337036166254308, 13.281940405593996 ], [ 77.336961355337493, 13.281831972426938 ], [ 77.336963786255012, 13.281825813023508 ], [ 77.33707505121167, 13.281543932199725 ], [ 77.337537254547129, 13.281425122879526 ], [ 77.337587808843779, 13.281217527642807 ], [ 77.337982370958258, 13.280996167943698 ], [ 77.3380886199743, 13.280936558904529 ], [ 77.338311971666258, 13.280825286415718 ], [ 77.338973832153499, 13.280947682585907 ], [ 77.339385283215748, 13.281182076333616 ], [ 77.343738242982184, 13.279768299631822 ], [ 77.343783794922075, 13.279890874220023 ], [ 77.343880818985681, 13.279868510965132 ], [ 77.344210831136451, 13.280728940786933 ], [ 77.344563809144816, 13.281666492955413 ], [ 77.344636288312742, 13.281912784486888 ], [ 77.344688836479349, 13.282091334628648 ], [ 77.344728089564924, 13.282225234443528 ], [ 77.344756973494725, 13.282323775504199 ], [ 77.344796309834393, 13.282457977223597 ], [ 77.345140256588678, 13.28303053439665 ], [ 77.345226766460414, 13.28317454498892 ], [ 77.345384117239135, 13.28367549119166 ], [ 77.345394705792515, 13.283695638972246 ], [ 77.345483908204599, 13.283927706366223 ], [ 77.345698640086454, 13.284370076101629 ], [ 77.345741024610859, 13.284690410930715 ], [ 77.345810267180283, 13.285213791263478 ], [ 77.345815752358135, 13.285255238918454 ], [ 77.345921547143462, 13.285591966124986 ], [ 77.345954260365886, 13.28574479777722 ], [ 77.346031199910072, 13.286104274462339 ], [ 77.346035846979902, 13.286125993168286 ], [ 77.346060907432999, 13.286243065220486 ], [ 77.346381038394256, 13.286926628201929 ], [ 77.346467192523704, 13.287108606537618 ], [ 77.346648939797461, 13.287341626572877 ], [ 77.346724656903461, 13.287522181242005 ], [ 77.346825175084689, 13.287761869708628 ], [ 77.346882050290986, 13.287915052833005 ], [ 77.346978022269951, 13.288155667722092 ], [ 77.347122656614829, 13.288518288717064 ], [ 77.347124206970008, 13.288522176019326 ], [ 77.347224516145829, 13.289001844827729 ], [ 77.347255927531364, 13.28928299478981 ], [ 77.347295551983919, 13.28963764649572 ], [ 77.34739793459849, 13.290294435957769 ], [ 77.347398396686515, 13.290297397203414 ], [ 77.34757101470916, 13.291469493572722 ], [ 77.347573415180079, 13.291485790754447 ], [ 77.347641304116351, 13.292008184392252 ], [ 77.347694046425261, 13.291996879958917 ], [ 77.348425014817195, 13.291840205180321 ], [ 77.348839970377682, 13.291749185757867 ], [ 77.349231938950638, 13.291663207624303 ], [ 77.349273455434158, 13.29165410105734 ], [ 77.349782901734685, 13.291542352287026 ], [ 77.349894289658351, 13.291520270832786 ], [ 77.350406736368768, 13.291421748490162 ], [ 77.350409344117793, 13.291431867823789 ], [ 77.35088457206821, 13.293276106078611 ], [ 77.350978668050985, 13.293641263403385 ], [ 77.351062937289669, 13.295407961867607 ], [ 77.35106800978312, 13.295504161874698 ], [ 77.351097271267136, 13.2960590456345 ], [ 77.351806920669375, 13.295950579422392 ], [ 77.351899845565981, 13.296419456198725 ], [ 77.352010704833347, 13.296978823427898 ], [ 77.352027674563459, 13.297059742406526 ], [ 77.352160214774258, 13.297691764189064 ], [ 77.352724402018623, 13.297680753783478 ], [ 77.352516667729432, 13.299012092941854 ], [ 77.35189680713377, 13.301179810933325 ], [ 77.351339915458439, 13.301733102919695 ], [ 77.350823536577849, 13.301766662498595 ], [ 77.350563818614447, 13.30178390601599 ], [ 77.349979236021369, 13.301822720121139 ], [ 77.350114323365091, 13.302452760718545 ], [ 77.350145643302838, 13.302598856853619 ], [ 77.350130203536878, 13.30270370214707 ], [ 77.350002384056594, 13.302969218855882 ], [ 77.349901701388319, 13.303178366808824 ], [ 77.349767162009343, 13.303436300543932 ], [ 77.349706414803322, 13.303552762720214 ], [ 77.34948365950352, 13.303979818498902 ], [ 77.349333518678165, 13.304268901366823 ], [ 77.349279870869395, 13.304372195240765 ], [ 77.349494074262751, 13.304334816447419 ], [ 77.349568141455478, 13.304558569200161 ], [ 77.349635169147376, 13.304761053814989 ], [ 77.349526762595872, 13.304789057599134 ], [ 77.349410580655316, 13.305348106633772 ], [ 77.349193932644084, 13.305486093091002 ], [ 77.349144080593689, 13.305517844552742 ], [ 77.349072258198333, 13.30616531029213 ], [ 77.349086270547318, 13.306174385353252 ], [ 77.349096161134383, 13.306350979946334 ], [ 77.348781541659008, 13.306383214250896 ], [ 77.348788619371177, 13.306151919846734 ], [ 77.348723942336093, 13.306042832075505 ], [ 77.347468073683913, 13.307916334692747 ], [ 77.346782005721664, 13.309601907110174 ], [ 77.34649497161881, 13.310171213400711 ], [ 77.345997817850233, 13.312249938657708 ], [ 77.346051987112602, 13.312411413551311 ], [ 77.34632570803025, 13.313294461966834 ], [ 77.346638661670909, 13.314636571276832 ], [ 77.346696987983805, 13.315081359753465 ], [ 77.34670146321416, 13.315116156321354 ], [ 77.346716434994391, 13.315189308971791 ], [ 77.346133832763428, 13.315097049397291 ], [ 77.345222020725885, 13.31562446230838 ] ], [ [ 77.292357503805007, 13.189467404008438 ], [ 77.292346609061099, 13.189569210477595 ], [ 77.291582605382104, 13.189667241687763 ], [ 77.291413649783351, 13.189703389394346 ], [ 77.291478232703653, 13.191343681892151 ], [ 77.291478835633114, 13.191358998947237 ], [ 77.292327391485159, 13.191112521511215 ], [ 77.292726604269049, 13.191088845446767 ], [ 77.292808876775936, 13.191074810547011 ], [ 77.292951340775588, 13.191056951218107 ], [ 77.292964510353329, 13.191054140564962 ], [ 77.293001515833495, 13.191055060739131 ], [ 77.293237210485458, 13.190995945544042 ], [ 77.294313591676058, 13.190766237670806 ], [ 77.294622717434564, 13.190691990432995 ], [ 77.296261568704296, 13.190504760741016 ], [ 77.296325822534598, 13.190504628320635 ], [ 77.296577907367734, 13.190349826217654 ], [ 77.296644253905498, 13.190323461427095 ], [ 77.297022837370648, 13.190076600442083 ], [ 77.29766459986233, 13.189658128010915 ], [ 77.297777902825061, 13.189584245966 ], [ 77.297618417470702, 13.189279033642618 ], [ 77.296999129775656, 13.188744382460449 ], [ 77.297254535590355, 13.188412520846232 ], [ 77.297216272167205, 13.187772963011733 ], [ 77.297181889750775, 13.187358521112483 ], [ 77.297164070047614, 13.187143734494907 ], [ 77.296652000939162, 13.187177898001321 ], [ 77.296522198486997, 13.187053524025337 ], [ 77.296266278619129, 13.186731043054795 ], [ 77.295248799859749, 13.186116364145594 ], [ 77.295245319441804, 13.186114673056741 ], [ 77.295184861848156, 13.186085292732711 ], [ 77.294623998177499, 13.185768572926374 ], [ 77.294575591523639, 13.185746677491158 ], [ 77.294516565117036, 13.18577244200649 ], [ 77.290947470095816, 13.187214374168525 ], [ 77.29122174000841, 13.189230827580957 ], [ 77.291981045967233, 13.188993382539158 ], [ 77.292305826927446, 13.188909548339478 ], [ 77.292438864406364, 13.188875208037954 ], [ 77.292357503805007, 13.189467404008438 ] ] ] } }
]
}
