{
"type": "FeatureCollection",
"name": "police_station_boundary.writing_20260805_172659",
"crs": { "type": "name", "properties": { "name": "urn:ogc:def:crs:OGC:1.3:CRS84" } },
"features": [
{ "type": "Feature", "properties": { "Shape.STArea()": 66235176.150009543, "Shape.STLength()": 45463.133458782861, "OBJECTID": 256, "KGISPS_BOUNDID": 348, "PS_BOUNDName": "Gandhi Gunj PS", "PS_BOUNDCode": "PSB - 348", "KGISPS_SUB_DIVID": 29, "_source_layer": "Police Station Boundary", "_source_layer_url": "https://kgis.ksrsac.in/kgismaps/rest/services/Home/Home_Department/MapServer/82", "_police_station": "Gandhi Gunj PS" }, "geometry": { "type": "Polygon", "coordinates": [ [ [ 77.491196020455263, 17.921474160150204 ], [ 77.490856298551719, 17.921536772071313 ], [ 77.490799484278313, 17.921543448401227 ], [ 77.490623938379173, 17.92156774424765 ], [ 77.489377793608114, 17.921740223828724 ], [ 77.489463658403821, 17.922672008286472 ], [ 77.489003276607349, 17.92273817851137 ], [ 77.488613626782524, 17.922794180916558 ], [ 77.488455080964599, 17.922802151876684 ], [ 77.488060400606912, 17.922821992129116 ], [ 77.486555441547779, 17.922942894231237 ], [ 77.486322898855789, 17.923010899534511 ], [ 77.485945973814694, 17.923121128697357 ], [ 77.485519781240228, 17.923245763368964 ], [ 77.485078824309227, 17.923343826598252 ], [ 77.48352317976763, 17.923832646707577 ], [ 77.483243681312445, 17.923920470001562 ], [ 77.48186561863092, 17.924347213903992 ], [ 77.480196236562279, 17.924558255217086 ], [ 77.480147577325042, 17.924564405429315 ], [ 77.479917373334274, 17.924586910312527 ], [ 77.479733649716479, 17.924604871387942 ], [ 77.479367646576733, 17.92461834411754 ], [ 77.477883759759891, 17.924663355825146 ], [ 77.47645054168953, 17.924686596047646 ], [ 77.475201557547777, 17.924673098921414 ], [ 77.474999745260519, 17.924670917357137 ], [ 77.475094117987922, 17.923958655877485 ], [ 77.475260928306838, 17.922531775845016 ], [ 77.475415279292307, 17.92121146025012 ], [ 77.47545884476051, 17.920838799491392 ], [ 77.474457060696992, 17.920799042132263 ], [ 77.473601788096573, 17.920751284447828 ], [ 77.471438504281238, 17.920618895506365 ], [ 77.470977851379246, 17.92059070054593 ], [ 77.470954106417892, 17.920589247483509 ], [ 77.471718759410621, 17.917968689837807 ], [ 77.471736803007659, 17.917906854172099 ], [ 77.471934378164178, 17.917229727879182 ], [ 77.471942060638753, 17.917203398994648 ], [ 77.471884363281021, 17.917005374900491 ], [ 77.471856098563038, 17.916908361842399 ], [ 77.471844276449431, 17.916867790227133 ], [ 77.47171526919314, 17.91642501342282 ], [ 77.471054065321979, 17.915682713300679 ], [ 77.470427895973259, 17.914942275515635 ], [ 77.469968332257523, 17.914517367812916 ], [ 77.469063471773993, 17.913283284201004 ], [ 77.468721581360043, 17.912911053548758 ], [ 77.467200446428876, 17.911329752504493 ], [ 77.467192963565978, 17.91132167538521 ], [ 77.467190383398702, 17.91131889016992 ], [ 77.467190066691785, 17.911318979087397 ], [ 77.467091924739805, 17.911346641455097 ], [ 77.466446434056877, 17.910550740647334 ], [ 77.466240371584959, 17.910337858324926 ], [ 77.465208604879024, 17.90951634221528 ], [ 77.464773225698565, 17.909178122282171 ], [ 77.464385907409309, 17.908928711677113 ], [ 77.46334803537286, 17.908106723702186 ], [ 77.463207095663051, 17.90796147361878 ], [ 77.462964791006939, 17.907773237031346 ], [ 77.462860424730721, 17.90759816530759 ], [ 77.462612271258422, 17.907332919386672 ], [ 77.462571946752959, 17.907289818405026 ], [ 77.462184016901134, 17.906873949435962 ], [ 77.462123131356151, 17.906808679634931 ], [ 77.461980283120567, 17.906577743315108 ], [ 77.46195827589861, 17.906554839627329 ], [ 77.461872525128015, 17.906465595793485 ], [ 77.461838086246871, 17.906429754044453 ], [ 77.461568430334552, 17.906203618495994 ], [ 77.461250755632676, 17.905979815141304 ], [ 77.460800091533329, 17.905662321823137 ], [ 77.460427308728711, 17.905342198467611 ], [ 77.459832944263113, 17.904831788845307 ], [ 77.459175006953828, 17.904328128142044 ], [ 77.459168837071715, 17.903970149606085 ], [ 77.459174884384723, 17.903322801480495 ], [ 77.459181381444154, 17.902627184597833 ], [ 77.459188114225185, 17.901906359281273 ], [ 77.459188601016095, 17.901854158482667 ], [ 77.459288068937866, 17.901888414836261 ], [ 77.459316359702214, 17.901898157660796 ], [ 77.459668625752656, 17.902019473521019 ], [ 77.459716664168795, 17.901811470502007 ], [ 77.459853582402772, 17.901218624060938 ], [ 77.460032658870006, 17.900443231328261 ], [ 77.459674269645646, 17.900368914995987 ], [ 77.459934118649713, 17.899331409825987 ], [ 77.459977910008789, 17.899156560721494 ], [ 77.460955919608779, 17.899526601998176 ], [ 77.461045322191424, 17.899560428489686 ], [ 77.462940765922198, 17.898770683351156 ], [ 77.464759358316797, 17.898012934803166 ], [ 77.464897435292528, 17.897955401288765 ], [ 77.46506774344941, 17.897884438120723 ], [ 77.465839511309284, 17.897593302505424 ], [ 77.466347065070579, 17.897401834276451 ], [ 77.466645496524677, 17.897289254639634 ], [ 77.469692454965553, 17.896426508518161 ], [ 77.469955122116545, 17.896352132187367 ], [ 77.471027873264589, 17.893673162712656 ], [ 77.472152801864894, 17.89117870357283 ], [ 77.472208070413373, 17.891056138280486 ], [ 77.472333491605909, 17.890778022116695 ], [ 77.473178244533116, 17.88911269387469 ], [ 77.473706180742653, 17.889080517693674 ], [ 77.473922962357577, 17.88923722249103 ], [ 77.476945554737313, 17.889248731122457 ], [ 77.477354410496545, 17.88926304313512 ], [ 77.478493299229427, 17.889302900325099 ], [ 77.480136032148849, 17.88939144236781 ], [ 77.480362572043745, 17.889403652089133 ], [ 77.481339249709208, 17.889456285168759 ], [ 77.482679818934685, 17.889243503904066 ], [ 77.483676816191476, 17.889128873414194 ], [ 77.485448366374456, 17.888925175855121 ], [ 77.487190827561875, 17.888666307656383 ], [ 77.487361655140845, 17.888640928005991 ], [ 77.487874677795006, 17.888564707224894 ], [ 77.487723455749489, 17.886383999927368 ], [ 77.487734945207592, 17.88624079052277 ], [ 77.487819919934068, 17.885181609259963 ], [ 77.487836362728643, 17.884976681971136 ], [ 77.488024285727903, 17.88421769085835 ], [ 77.488158258761075, 17.883305324780451 ], [ 77.488031394860869, 17.882936483366613 ], [ 77.488043257517305, 17.882686780788262 ], [ 77.488049514870383, 17.882555101365206 ], [ 77.487894999277103, 17.8810136770127 ], [ 77.487222245583979, 17.878749514051325 ], [ 77.487162842574875, 17.878549586047694 ], [ 77.487130266834356, 17.878439954969352 ], [ 77.487229187931419, 17.877904266935786 ], [ 77.487252331040452, 17.876751317248239 ], [ 77.487355361325726, 17.875952766807391 ], [ 77.4874617676181, 17.875315737658969 ], [ 77.487458733194359, 17.875193475932246 ], [ 77.4874513510171, 17.874896090776545 ], [ 77.485796471438519, 17.872887534667793 ], [ 77.485737138786135, 17.872815521446505 ], [ 77.484273627785711, 17.871039178389861 ], [ 77.484615087251697, 17.870499667053391 ], [ 77.487039714979488, 17.866668611938636 ], [ 77.48693489799372, 17.866231591603558 ], [ 77.48714666790886, 17.865955097359507 ], [ 77.486405004793369, 17.864022244830856 ], [ 77.486342704484713, 17.863762487085324 ], [ 77.485351070003702, 17.860088076356082 ], [ 77.485306051720698, 17.859921259893458 ], [ 77.485434199370488, 17.859631602430557 ], [ 77.485333864822124, 17.856950953304434 ], [ 77.485325980925325, 17.856740302522699 ], [ 77.485300728868509, 17.856420299018705 ], [ 77.48528983857139, 17.856282272594417 ], [ 77.485266685082763, 17.8559888618081 ], [ 77.48525467551201, 17.855836660640243 ], [ 77.4851991638469, 17.855517419342746 ], [ 77.485161686678637, 17.854485987429403 ], [ 77.485178763876462, 17.854385201329304 ], [ 77.485100736412434, 17.85335490196244 ], [ 77.485061937690688, 17.853111295865379 ], [ 77.485011652427232, 17.85264622033538 ], [ 77.485070772739689, 17.852259716770995 ], [ 77.485082904340203, 17.851973545878259 ], [ 77.485043635642057, 17.851767892026011 ], [ 77.485023193690125, 17.851524582125005 ], [ 77.485006760829449, 17.851337744124326 ], [ 77.484981766365408, 17.851097873717908 ], [ 77.484997278726794, 17.85092890732027 ], [ 77.485008757021262, 17.850750610956812 ], [ 77.484978425909915, 17.850553729581026 ], [ 77.484980976833853, 17.850306453450383 ], [ 77.484964799593897, 17.850092437182894 ], [ 77.484968319823068, 17.849751037020699 ], [ 77.484969004686889, 17.849684647955023 ], [ 77.48499009933164, 17.849427622342596 ], [ 77.484968782795249, 17.848824170201649 ], [ 77.484948366101804, 17.848583762693611 ], [ 77.484958088648014, 17.848393249640726 ], [ 77.484959870776578, 17.848358326135571 ], [ 77.484994232419126, 17.848141936419218 ], [ 77.484943113410282, 17.847753824141495 ], [ 77.484927046904488, 17.847514594024542 ], [ 77.484916542710849, 17.847004750820865 ], [ 77.484866351531437, 17.846723932018268 ], [ 77.484819281521041, 17.84634744707904 ], [ 77.484132971763458, 17.844706140810842 ], [ 77.483861476104124, 17.843746736297739 ], [ 77.483703569042646, 17.843188720725493 ], [ 77.483696504156825, 17.843163753614128 ], [ 77.483678512788359, 17.843100178076632 ], [ 77.483658550814155, 17.843029630650406 ], [ 77.483381551992736, 17.842296211965692 ], [ 77.483149026641414, 17.841593182413597 ], [ 77.483649146537275, 17.841560900766332 ], [ 77.485020221895979, 17.841351243245509 ], [ 77.485176658500876, 17.841204053420473 ], [ 77.485547473815515, 17.841314280548442 ], [ 77.485783110868667, 17.841297641852623 ], [ 77.486021184187933, 17.84128083094231 ], [ 77.487401505997255, 17.841183356431934 ], [ 77.487435078083479, 17.841059743458473 ], [ 77.487600332616552, 17.840451266545898 ], [ 77.48768941214027, 17.840123263028406 ], [ 77.488103685972021, 17.839959908483255 ], [ 77.489639301530744, 17.841686247041821 ], [ 77.491304680795309, 17.842934906581796 ], [ 77.492385555885818, 17.843362103910692 ], [ 77.493688700312376, 17.843719596229999 ], [ 77.493797992698347, 17.843749577605031 ], [ 77.496275355852163, 17.843655252963853 ], [ 77.498011759142059, 17.842811772737345 ], [ 77.499451271029727, 17.842197761987702 ], [ 77.50028844136861, 17.8418406672514 ], [ 77.501625661115682, 17.840698208469885 ], [ 77.502289362623515, 17.839268306304042 ], [ 77.502295532476452, 17.838973330008688 ], [ 77.502318449547062, 17.837877535598381 ], [ 77.502283141541284, 17.837076261287127 ], [ 77.502183993089133, 17.83680737218527 ], [ 77.502159659651682, 17.836473319951246 ], [ 77.502084247949583, 17.835438081841577 ], [ 77.50204611158496, 17.834914544302382 ], [ 77.501975750128608, 17.834647588075544 ], [ 77.501511882208519, 17.832743995492187 ], [ 77.501227202736857, 17.831820149026363 ], [ 77.500749237105765, 17.830350792069542 ], [ 77.500535526055756, 17.82970710198332 ], [ 77.500439758062171, 17.828780093953707 ], [ 77.500614306890412, 17.82860228754955 ], [ 77.502000391665078, 17.826474562526386 ], [ 77.502295820145704, 17.82637911388014 ], [ 77.505158721219416, 17.825454127575142 ], [ 77.50562695285528, 17.825261428262131 ], [ 77.505843009887428, 17.825172508686798 ], [ 77.506246869960876, 17.825006299468861 ], [ 77.506516540199272, 17.824982914508382 ], [ 77.50677689673654, 17.82496033695146 ], [ 77.506903592553556, 17.825496714264709 ], [ 77.507665060675905, 17.825097265061714 ], [ 77.507772226117353, 17.825041047439946 ], [ 77.507865954335003, 17.825100826909793 ], [ 77.508021608735348, 17.825200104253938 ], [ 77.508111373446894, 17.825156191651168 ], [ 77.508261087027563, 17.825082952565076 ], [ 77.508354653038865, 17.825037181083797 ], [ 77.50868098314271, 17.82546587315732 ], [ 77.508768239038503, 17.825911266659272 ], [ 77.508772333338172, 17.8259227791706 ], [ 77.508810309791031, 17.826029552827752 ], [ 77.508858443699268, 17.82613685348279 ], [ 77.509083243903703, 17.826673002213756 ], [ 77.509112318639296, 17.826749845252326 ], [ 77.509039481835089, 17.826863257559854 ], [ 77.508973576722198, 17.826954657208027 ], [ 77.509127369271667, 17.827306064908186 ], [ 77.509328846353938, 17.828330329838998 ], [ 77.509384118894104, 17.828511415169341 ], [ 77.509484549719062, 17.828812246826928 ], [ 77.509551684619396, 17.829013343797826 ], [ 77.509764168104311, 17.828867518823898 ], [ 77.510114065305785, 17.829526214530059 ], [ 77.511353657132886, 17.828797757422134 ], [ 77.511608010791093, 17.828815377894703 ], [ 77.511752979914334, 17.828786819890059 ], [ 77.512366597314752, 17.828665938895849 ], [ 77.514699568288634, 17.828206331847323 ], [ 77.516837562405513, 17.827785108669509 ], [ 77.518840483001895, 17.827390476021197 ], [ 77.520643419982719, 17.827035226449095 ], [ 77.522502655521549, 17.826668865413851 ], [ 77.522755709940284, 17.826618999435961 ], [ 77.525262571781539, 17.826075876097644 ], [ 77.525893709158623, 17.825939132158258 ], [ 77.5265203291749, 17.8258033641435 ], [ 77.527133318167813, 17.826850306422052 ], [ 77.527255278226164, 17.827058604548593 ], [ 77.527776611575121, 17.827948991216228 ], [ 77.528690968298818, 17.829510598567627 ], [ 77.528870225134312, 17.829815939155022 ], [ 77.531899812916762, 17.829177810049444 ], [ 77.532119829275899, 17.829168447793808 ], [ 77.532237096224051, 17.8291634570298 ], [ 77.533189428214158, 17.82899576420817 ], [ 77.535534915916472, 17.828687283979182 ], [ 77.538780912812044, 17.828302375020389 ], [ 77.538963865542954, 17.828313545249546 ], [ 77.539875287412116, 17.828229280453918 ], [ 77.543525686682173, 17.827536711802278 ], [ 77.544588130240797, 17.82804499267905 ], [ 77.54472070146177, 17.82810878947528 ], [ 77.546128714465652, 17.828226940909893 ], [ 77.546509082557506, 17.828318769328533 ], [ 77.54699679025066, 17.828335501605135 ], [ 77.547374122223744, 17.827376494913619 ], [ 77.547241277762041, 17.827344619025776 ], [ 77.547395976344475, 17.826791490130649 ], [ 77.547699870915338, 17.825905678761703 ], [ 77.547885777520719, 17.824928611635418 ], [ 77.548077380623425, 17.823799693224668 ], [ 77.54849457988891, 17.823004482750395 ], [ 77.548510472084629, 17.822168183319846 ], [ 77.548418405274035, 17.821807673371524 ], [ 77.548608847508163, 17.82181212103913 ], [ 77.548477735156993, 17.819442694796873 ], [ 77.553398674100308, 17.820092905182964 ], [ 77.553559643297618, 17.820045846812498 ], [ 77.55385260208503, 17.82091989292007 ], [ 77.555366423343244, 17.824100395130113 ], [ 77.556865295067112, 17.82723755095579 ], [ 77.557316706330511, 17.828699759042902 ], [ 77.557576409792503, 17.82923356693513 ], [ 77.557589589610203, 17.829260658380441 ], [ 77.558037197439575, 17.830180685025582 ], [ 77.558803182852103, 17.832427481316557 ], [ 77.559897211954421, 17.835901912105403 ], [ 77.560136378019166, 17.836669741828096 ], [ 77.560516864098261, 17.837891250475362 ], [ 77.560601382446379, 17.837985981102648 ], [ 77.562930200897398, 17.840596139916887 ], [ 77.563892924569203, 17.841661312608032 ], [ 77.564943250920251, 17.842750235203155 ], [ 77.567298923892437, 17.845204833411412 ], [ 77.566621993354346, 17.847590968964376 ], [ 77.566207023831481, 17.849225817587371 ], [ 77.565950065114961, 17.849523204374687 ], [ 77.565809704093624, 17.849685649347585 ], [ 77.564811983970955, 17.85123613557203 ], [ 77.564717747534715, 17.851232497854152 ], [ 77.56259225974253, 17.85047781225871 ], [ 77.562523721527967, 17.850453476326688 ], [ 77.562354021757059, 17.850389316045167 ], [ 77.559885458235314, 17.849455983463717 ], [ 77.55975414088617, 17.849442402205668 ], [ 77.558553460180704, 17.849318210049002 ], [ 77.558212018833359, 17.849282892429155 ], [ 77.558189621922935, 17.84927976868218 ], [ 77.557109430891259, 17.849129151582645 ], [ 77.556998094513176, 17.849148382247723 ], [ 77.556113190621559, 17.84930122381212 ], [ 77.554935027248163, 17.849611869099554 ], [ 77.554351601766712, 17.849560843013037 ], [ 77.554321482423831, 17.849639241063954 ], [ 77.554210493804646, 17.850026933859958 ], [ 77.553996234361918, 17.850800598087872 ], [ 77.553964582927861, 17.850949455076787 ], [ 77.553863897269764, 17.851422966906416 ], [ 77.553838911912266, 17.85177953555494 ], [ 77.553821284408286, 17.852031084215135 ], [ 77.553427777306041, 17.852107668063312 ], [ 77.552779062746055, 17.851709172696758 ], [ 77.552541722182042, 17.851874963426141 ], [ 77.55249799784292, 17.851905506531473 ], [ 77.552149255822187, 17.852149112981017 ], [ 77.552083302682277, 17.852296943885467 ], [ 77.552060789144463, 17.852347405476237 ], [ 77.551992128146836, 17.852501305709087 ], [ 77.551947872445339, 17.852616310554001 ], [ 77.551911940011493, 17.852709682734432 ], [ 77.551542657905117, 17.852997555639426 ], [ 77.551386655104622, 17.853115629102607 ], [ 77.551243212157942, 17.85324607652035 ], [ 77.551099901402893, 17.853356251932187 ], [ 77.550491102619716, 17.853824280897065 ], [ 77.550386356143818, 17.853872207958464 ], [ 77.549767505213637, 17.854155361571511 ], [ 77.549739283359685, 17.854156481085209 ], [ 77.549694044717867, 17.854158277366587 ], [ 77.54892630575759, 17.854168555815797 ], [ 77.548527854986474, 17.854168328307352 ], [ 77.548511248085134, 17.854168319550013 ], [ 77.548409599014903, 17.854174831092053 ], [ 77.548329360194614, 17.854175476838055 ], [ 77.54810391838754, 17.854158450510834 ], [ 77.547973680646166, 17.854148614513207 ], [ 77.547742550643676, 17.854131158123877 ], [ 77.546743856520422, 17.854055728054163 ], [ 77.546129320730259, 17.854420813076334 ], [ 77.546062390044384, 17.854460575600633 ], [ 77.544917878054875, 17.85478324418283 ], [ 77.543720009666487, 17.855186814817248 ], [ 77.543061315877139, 17.855408729189229 ], [ 77.542985133642688, 17.85543439494219 ], [ 77.542930682879842, 17.855510780854662 ], [ 77.539787155535478, 17.855536224379847 ], [ 77.538650445569345, 17.85557240663934 ], [ 77.538505022370771, 17.855577034571013 ], [ 77.538200263860247, 17.857952988883287 ], [ 77.538195611484582, 17.857989263147743 ], [ 77.538288501060734, 17.858003329804774 ], [ 77.537818240287876, 17.860067930025657 ], [ 77.537767048616274, 17.860192312028005 ], [ 77.537747943849567, 17.860308855141323 ], [ 77.537818916994894, 17.86031379091029 ], [ 77.538095863193135, 17.860284154897155 ], [ 77.541161485772491, 17.859990142574887 ], [ 77.541171667318793, 17.859989585382309 ], [ 77.541292380922826, 17.860407642672197 ], [ 77.541737770010371, 17.861950078511732 ], [ 77.542082562455775, 17.862453602519722 ], [ 77.543058770100203, 17.863879205062645 ], [ 77.541084093372802, 17.878664837618722 ], [ 77.539286712034382, 17.88633459236371 ], [ 77.543995407387186, 17.887528194008436 ], [ 77.540437406551973, 17.889195827679224 ], [ 77.539473702109788, 17.8946954570402 ], [ 77.538129384914129, 17.896334169726998 ], [ 77.531641017772316, 17.903627101642275 ], [ 77.529666161925718, 17.905772078727832 ], [ 77.528759985311595, 17.905777835830005 ], [ 77.52829099512654, 17.905899813886137 ], [ 77.526782534620153, 17.906743338037657 ], [ 77.52500162706923, 17.908606564207123 ], [ 77.524300513059529, 17.909741696794377 ], [ 77.523192389805644, 17.910497609552802 ], [ 77.522454413040393, 17.911056467544714 ], [ 77.521066371601592, 17.911543225040141 ], [ 77.52003601336969, 17.911612998886046 ], [ 77.519944094818143, 17.911613154956417 ], [ 77.519937750455128, 17.911495852721384 ], [ 77.518994952709491, 17.91161476080309 ], [ 77.515244322645273, 17.911621062922496 ], [ 77.513750569614672, 17.911625719483403 ], [ 77.512493361814293, 17.91236450362732 ], [ 77.510316566778712, 17.912510129878193 ], [ 77.50941751159101, 17.912809979459819 ], [ 77.507594376277268, 17.913476750908334 ], [ 77.505988879382429, 17.914489457883093 ], [ 77.504448666825127, 17.916257772013328 ], [ 77.502569984704238, 17.918726112969352 ], [ 77.501772036152985, 17.919053409760966 ], [ 77.50138154847113, 17.919827246872206 ], [ 77.500316618564412, 17.920796798733846 ], [ 77.497772643320729, 17.922523877094154 ], [ 77.496600544200533, 17.92308711616305 ], [ 77.494971926215811, 17.924132440480641 ], [ 77.494861892164522, 17.923854211966088 ], [ 77.494377855562547, 17.922081148126257 ], [ 77.494354327973966, 17.922081611715548 ], [ 77.494318720272631, 17.921937970207487 ], [ 77.493685037388104, 17.922094791932228 ], [ 77.493664725810788, 17.922099817650945 ], [ 77.493553862794769, 17.922106306686416 ], [ 77.493132414133967, 17.922148896412384 ], [ 77.493003216834197, 17.922161953349264 ], [ 77.492137194100351, 17.922268401372119 ], [ 77.491680008638752, 17.922344679393305 ], [ 77.491671313247053, 17.921386559504704 ], [ 77.491196020455263, 17.921474160150204 ] ] ] } }
]
}
