{
"type": "FeatureCollection",
"name": "wards_in_police_area.writing_20260805_172659",
"crs": { "type": "name", "properties": { "name": "urn:ogc:def:crs:OGC:1.3:CRS84" } },
"features": [
{ "type": "Feature", "properties": { "KGISWardID": 145, "KGISWardCode": "2802015", "KGISWardName": "Kandwara Bagilu", "SHAPE.STArea()": 1654521.17912913, "SHAPE.STLength()": 11245.024214877785, "OBJECTID": 20406, "KGISWardNo": "15", "KGISTownCode": "2802", "LGD_WardCode": 25610, "created_user": "SA", "created_date": 1634898537000, "last_edited_user": "SURESHBV1", "last_edited_date": 1692254057000, "_overlap_percent": 1.0890960472761846, "_police_station": "Nandi Girighama PS", "_police_feature_index": "80", "_admin_layer": "Ward", "_geometry_clipped": true }, "geometry": { "type": "Polygon", "coordinates": [ [ [ 77.728238859856404, 13.407593992241047 ], [ 77.728230881371772, 13.407561255432627 ], [ 77.728410350754842, 13.407469507571845 ], [ 77.728422798766658, 13.407463145410864 ], [ 77.728366234230833, 13.407050463080584 ], [ 77.728350957865715, 13.406939008433104 ], [ 77.728311728317379, 13.406652792414786 ], [ 77.728300797339614, 13.406581979088564 ], [ 77.727506709789324, 13.406737343550661 ], [ 77.727390441568787, 13.406627870593898 ], [ 77.727380687604651, 13.406457140568737 ], [ 77.727154290572173, 13.406499259697723 ], [ 77.727261528979867, 13.407255836293885 ], [ 77.727407016205703, 13.408249118547397 ], [ 77.727535528370765, 13.409090220629837 ], [ 77.727538375354499, 13.409108217850402 ], [ 77.727582925721535, 13.409102249731555 ], [ 77.727743763667704, 13.409074712132728 ], [ 77.727663778845368, 13.40863675405966 ], [ 77.727564602643611, 13.408181011072193 ], [ 77.727453612722726, 13.407976282739979 ], [ 77.727702366262463, 13.407883127493243 ], [ 77.727849513325609, 13.407828021402551 ], [ 77.727869889157589, 13.407820391068794 ], [ 77.727933431768406, 13.407787796645117 ], [ 77.728246983979091, 13.407626955581081 ], [ 77.728238859856404, 13.407593992241047 ] ] ] } },
{ "type": "Feature", "properties": { "KGISWardID": 144, "KGISWardCode": "2802014", "KGISWardName": "Kandwara", "SHAPE.STArea()": 3416446.4346975149, "SHAPE.STLength()": 9728.4817250581727, "OBJECTID": 20405, "KGISWardNo": "14", "KGISTownCode": "2802", "LGD_WardCode": 25609, "created_user": "SA", "created_date": 1634898537000, "last_edited_user": "SURESHBV1", "last_edited_date": 1692254057000, "_overlap_percent": 1.5363060795295267, "_police_station": "Nandi Girighama PS", "_police_feature_index": "80", "_admin_layer": "Ward", "_geometry_clipped": true }, "geometry": { "type": "MultiPolygon", "coordinates": [ [ [ [ 77.712375107850022, 13.411331191731602 ], [ 77.712426165925734, 13.411449006163132 ], [ 77.712460303620645, 13.411681781829246 ], [ 77.712485892791634, 13.411856272480991 ], [ 77.712478325385305, 13.412064922517347 ], [ 77.712269128645971, 13.412117135360154 ], [ 77.712278119209245, 13.412136021295586 ], [ 77.712519667161502, 13.412076476730297 ], [ 77.712519467856254, 13.411867444132982 ], [ 77.712445268150375, 13.411459848433077 ], [ 77.712257212158562, 13.411059154040769 ], [ 77.712375107850022, 13.411331191731602 ] ] ], [ [ [ 77.711883893417323, 13.409264083934456 ], [ 77.711792710278246, 13.409286935948007 ], [ 77.711794961376157, 13.409292560267957 ], [ 77.711849726046168, 13.409279119669787 ], [ 77.712298289481225, 13.409092640042468 ], [ 77.712304256873836, 13.409089093515792 ], [ 77.712304998378059, 13.409085198697898 ], [ 77.711883893417323, 13.409264083934456 ] ] ], [ [ [ 77.712364209983861, 13.408889065119112 ], [ 77.712362488977107, 13.408898064733812 ], [ 77.712394970455222, 13.408889079360348 ], [ 77.712392452487208, 13.408881086876615 ], [ 77.712364209983861, 13.408889065119112 ] ] ], [ [ [ 77.712400995509867, 13.408815520314819 ], [ 77.712402541126494, 13.408820608830306 ], [ 77.712655440519143, 13.408718966191069 ], [ 77.712662932428984, 13.408708072821529 ], [ 77.712400995509867, 13.408815520314819 ] ] ], [ [ [ 77.712918382588995, 13.40834286644327 ], [ 77.712909455437554, 13.408356072427063 ], [ 77.713280545556643, 13.408183787028738 ], [ 77.713284607877313, 13.408169385939736 ], [ 77.712918382588995, 13.40834286644327 ] ] ], [ [ [ 77.71584364890596, 13.409116897056185 ], [ 77.715524461535239, 13.409154888392095 ], [ 77.71500084297935, 13.409272113627098 ], [ 77.714678520575987, 13.409378957983096 ], [ 77.714606125653333, 13.409497874926956 ], [ 77.714459217803309, 13.409326650789421 ], [ 77.713818276747162, 13.408579442102342 ], [ 77.713402751821548, 13.407993635233291 ], [ 77.713304320868801, 13.408115269150032 ], [ 77.713301898610467, 13.408123992426772 ], [ 77.713394987786643, 13.408010901945298 ], [ 77.71381692678348, 13.408597360664265 ], [ 77.714468695749559, 13.409345486208695 ], [ 77.714618121792853, 13.409516870219822 ], [ 77.714690314990406, 13.409398478472912 ], [ 77.715014511631978, 13.409293120676349 ], [ 77.715540726239894, 13.409178385034428 ], [ 77.715853975154417, 13.409142807547445 ], [ 77.71584364890596, 13.409116897056185 ] ] ], [ [ [ 77.716912791774348, 13.408652233065467 ], [ 77.716779150849845, 13.408661220957139 ], [ 77.716776136613447, 13.408661422350351 ], [ 77.716729145712051, 13.409214928979653 ], [ 77.716408263143592, 13.40924320541397 ], [ 77.715919455116406, 13.409286279210825 ], [ 77.715929783410886, 13.409311853924656 ], [ 77.716748637787319, 13.409244614696693 ], [ 77.716795726195272, 13.408693876630357 ], [ 77.716798747184967, 13.408693701360663 ], [ 77.716932664603448, 13.408685913711937 ], [ 77.716932665065869, 13.408664202178441 ], [ 77.716932665018831, 13.408651548479137 ], [ 77.716912791774348, 13.408652233065467 ] ] ], [ [ [ 77.727535528370765, 13.409090220629837 ], [ 77.727407016205703, 13.408249118547397 ], [ 77.727261528979867, 13.407255836293885 ], [ 77.727154290572173, 13.406499259697723 ], [ 77.72695658592157, 13.406536041445785 ], [ 77.726840213070844, 13.40653039364754 ], [ 77.726975542431518, 13.407010577005755 ], [ 77.726637108575048, 13.406999523385382 ], [ 77.726627358939922, 13.406999205123174 ], [ 77.726699061065545, 13.407790205390741 ], [ 77.726216783987979, 13.407904712905744 ], [ 77.726321803629247, 13.408533675553683 ], [ 77.726345898643174, 13.408677982946685 ], [ 77.72611924739418, 13.408855416730317 ], [ 77.725697903607923, 13.409030131853079 ], [ 77.725660746235931, 13.409243361949622 ], [ 77.725488837040743, 13.409364064805462 ], [ 77.725461698993868, 13.40938314813892 ], [ 77.725032462715305, 13.409615352134317 ], [ 77.724851647143495, 13.409735544767164 ], [ 77.724682202772343, 13.409831778419029 ], [ 77.72454915996137, 13.409809805308779 ], [ 77.724515726930562, 13.409515420767185 ], [ 77.72439230931073, 13.409522318590888 ], [ 77.724411906005855, 13.409649773744786 ], [ 77.724300371394989, 13.409657882788812 ], [ 77.724303241384575, 13.409527339438167 ], [ 77.724106406102521, 13.409555989180669 ], [ 77.724107948677087, 13.409465505443054 ], [ 77.723965248863706, 13.409436360914318 ], [ 77.723734413889275, 13.409389216464769 ], [ 77.723649947735566, 13.409371965574746 ], [ 77.723547870437173, 13.409247092991309 ], [ 77.723547069680492, 13.409247274174374 ], [ 77.723532231768843, 13.40925063309362 ], [ 77.72347584292406, 13.40926339901846 ], [ 77.723327844823288, 13.409296903625968 ], [ 77.723327444045779, 13.409296795038257 ], [ 77.723221826815191, 13.409268272164235 ], [ 77.72295635567329, 13.409196580914484 ], [ 77.722882978994789, 13.409176764704991 ], [ 77.722205125702928, 13.409050487889557 ], [ 77.722088799554854, 13.409032245219276 ], [ 77.72204749663382, 13.409020255841236 ], [ 77.722038298692951, 13.409120217832283 ], [ 77.722036972551038, 13.409134624842615 ], [ 77.721696678076611, 13.409035486431302 ], [ 77.721458116194157, 13.40896644519459 ], [ 77.721212049187628, 13.40881418079624 ], [ 77.721128718716884, 13.408760335611744 ], [ 77.720981070733458, 13.408839389840947 ], [ 77.720701166907119, 13.408672070136451 ], [ 77.720572296275535, 13.408675538783726 ], [ 77.720606512760838, 13.408692188486246 ], [ 77.720922237031033, 13.40891359968227 ], [ 77.721122523310669, 13.408932609073636 ], [ 77.72147414863862, 13.409045727888392 ], [ 77.721867950109939, 13.409217048442802 ], [ 77.722307535744079, 13.409408285601133 ], [ 77.722665867263373, 13.409498345906417 ], [ 77.723188749010617, 13.409629766204416 ], [ 77.723557254837999, 13.409801991007944 ], [ 77.723779883645022, 13.409969279694302 ], [ 77.723850541638697, 13.410085982159666 ], [ 77.723890014250273, 13.41037289621489 ], [ 77.723947052974722, 13.410397300372761 ], [ 77.723961906320397, 13.410403655606203 ], [ 77.724033762218639, 13.410434397297834 ], [ 77.724120719422118, 13.410462464585382 ], [ 77.724336310398868, 13.410538080654355 ], [ 77.724380683350006, 13.410553643394213 ], [ 77.724503933090034, 13.410609561768824 ], [ 77.724561525607669, 13.410448675295362 ], [ 77.724752669138113, 13.409928017818112 ], [ 77.724768211734002, 13.409901879305448 ], [ 77.724784064908292, 13.409875215315115 ], [ 77.724952553699666, 13.409780083137983 ], [ 77.725132895616738, 13.409660932570405 ], [ 77.725561002607122, 13.409428257333834 ], [ 77.725588194758387, 13.409409144499087 ], [ 77.725812405639132, 13.409379903269222 ], [ 77.726508032728773, 13.409278923786925 ], [ 77.726817051580682, 13.409204848839003 ], [ 77.727538375354499, 13.409108217850402 ], [ 77.727535528370765, 13.409090220629837 ] ] ] ] } }
]
}
