{
"type": "FeatureCollection",
"name": "police_station_boundary.writing_20260805_172659",
"crs": { "type": "name", "properties": { "name": "urn:ogc:def:crs:OGC:1.3:CRS84" } },
"features": [
{ "type": "Feature", "properties": { "Shape.STArea()": 687787284.50636828, "Shape.STLength()": 223248.44065894958, "OBJECTID": 427, "KGISPS_BOUNDID": 527, "PS_BOUNDName": "Hanur PS", "PS_BOUNDCode": "PSB - 527", "KGISPS_SUB_DIVID": 94, "_source_layer": "Police Station Boundary", "_source_layer_url": "https://kgis.ksrsac.in/kgismaps/rest/services/Home/Home_Department/MapServer/82", "_police_station": "Hanur PS" }, "geometry": { "type": "MultiPolygon", "coordinates": [ [ [ [ 77.279810845484249, 12.308808190013758 ], [ 77.278079911045907, 12.309056057985778 ], [ 77.27423576155168, 12.30997182220926 ], [ 77.273283159645132, 12.310138520438141 ], [ 77.269733799740223, 12.312582031553156 ], [ 77.263986213972004, 12.312766944341597 ], [ 77.255258961125293, 12.30925374201448 ], [ 77.249448429010258, 12.305828472748386 ], [ 77.244216119349176, 12.307082790226726 ], [ 77.244207176508326, 12.30565102901814 ], [ 77.244283455617179, 12.30300958505911 ], [ 77.244992943474898, 12.300665604105587 ], [ 77.246137196048466, 12.298686870069876 ], [ 77.247220455497995, 12.297012393571919 ], [ 77.248288449206626, 12.295242490448356 ], [ 77.248830100243538, 12.292349231343771 ], [ 77.249020817750718, 12.288664512939301 ], [ 77.249303040708227, 12.286136523678859 ], [ 77.250790596943943, 12.284127301841401 ], [ 77.249501458653754, 12.28160976961925 ], [ 77.2483343131249, 12.279601467179928 ], [ 77.247312081026706, 12.276909499069721 ], [ 77.246076251816561, 12.274071535947902 ], [ 77.246022909100404, 12.273966630832124 ], [ 77.244863390766668, 12.271636986272595 ], [ 77.243902198227403, 12.268966907189871 ], [ 77.243696265548706, 12.266737400122475 ], [ 77.242208698090934, 12.264757686730077 ], [ 77.24124751096619, 12.262247820576698 ], [ 77.24002696310427, 12.259537654611467 ], [ 77.23934039527434, 12.257507448123794 ], [ 77.236166990991634, 12.25281855284733 ], [ 77.233893707135337, 12.249858567349984 ], [ 77.231628134940422, 12.246668752377637 ], [ 77.230705057351031, 12.242358450870164 ], [ 77.229438765978813, 12.240228115824062 ], [ 77.229850736916489, 12.237849782848855 ], [ 77.230018550471854, 12.235419107351738 ], [ 77.230323704544062, 12.23313996764572 ], [ 77.229385113544737, 12.226352153786495 ], [ 77.22968920811519, 12.225820966425067 ], [ 77.23232109648545, 12.222638458158993 ], [ 77.234446149496932, 12.219804178912213 ], [ 77.234550883865012, 12.216180313954053 ], [ 77.235291436941779, 12.21491819993031 ], [ 77.236995686100173, 12.214568329754357 ], [ 77.237097498326136, 12.214547429211279 ], [ 77.237332766337303, 12.214499128927031 ], [ 77.237350423874901, 12.214265378945653 ], [ 77.237347534571853, 12.21403076129495 ], [ 77.237346689632247, 12.213962133594281 ], [ 77.237342857332578, 12.213650927498566 ], [ 77.237862733108571, 12.213501275325857 ], [ 77.23791513150293, 12.213486191317271 ], [ 77.238328114716836, 12.213367308992723 ], [ 77.238380206531815, 12.212988554488584 ], [ 77.240150251645389, 12.212873410115904 ], [ 77.240710962934415, 12.212840407980154 ], [ 77.241053365453155, 12.212819616574972 ], [ 77.242352483451086, 12.212740726278469 ], [ 77.242356209532332, 12.212449958020338 ], [ 77.242369553947967, 12.211408487365022 ], [ 77.242388138286302, 12.210274811123911 ], [ 77.242413147472277, 12.208911391531574 ], [ 77.242419018075964, 12.207928676277909 ], [ 77.242428538601374, 12.206493037759119 ], [ 77.242428976316745, 12.20642694369875 ], [ 77.242433471201139, 12.205749301020102 ], [ 77.242433764074377, 12.205705071120086 ], [ 77.242434720851747, 12.205560927409882 ], [ 77.242439788731843, 12.204817603422628 ], [ 77.242439470665062, 12.203707994220748 ], [ 77.242439017306808, 12.202123956588879 ], [ 77.242427457833955, 12.202004295421723 ], [ 77.242413614950181, 12.201860983375184 ], [ 77.242382872203251, 12.201542721544127 ], [ 77.242366868650706, 12.201393067801378 ], [ 77.242258069168301, 12.200375630400341 ], [ 77.242227541190488, 12.20010706700309 ], [ 77.242066271668818, 12.198705853874975 ], [ 77.2420907837313, 12.198600293051824 ], [ 77.242115989017051, 12.198491741695946 ], [ 77.242150222081875, 12.198446679786091 ], [ 77.242215373594121, 12.198360914325859 ], [ 77.242051199333162, 12.196848263220859 ], [ 77.241936639189376, 12.1957927378034 ], [ 77.241794422273784, 12.194482353923416 ], [ 77.241624657359566, 12.193432027612257 ], [ 77.241503528187039, 12.192682594408561 ], [ 77.241485971619241, 12.192573971559041 ], [ 77.241402343298532, 12.192056566030029 ], [ 77.241399099040905, 12.192036490690407 ], [ 77.241248834642846, 12.191148720069156 ], [ 77.241207750548043, 12.190905057266301 ], [ 77.241135774693362, 12.190478187064375 ], [ 77.240880666869202, 12.18896520187895 ], [ 77.240868669183797, 12.188894043256701 ], [ 77.240682784727326, 12.187908072129977 ], [ 77.240656900911077, 12.187770777529364 ], [ 77.240418150444796, 12.186550054863748 ], [ 77.240396963456234, 12.186430437110891 ], [ 77.240380923031438, 12.186339874637845 ], [ 77.240166876150511, 12.185131348303713 ], [ 77.24015358652268, 12.185052855754845 ], [ 77.239986037532134, 12.184063234111671 ], [ 77.239798306657264, 12.182986207203426 ], [ 77.239709567785553, 12.182519514097343 ], [ 77.23952924127849, 12.181571157552803 ], [ 77.239353640345783, 12.180742988755309 ], [ 77.239239934447355, 12.179970670715839 ], [ 77.240093774180394, 12.179550323337486 ], [ 77.240032826485304, 12.179218480443145 ], [ 77.239429801848885, 12.176490690666165 ], [ 77.237780799062321, 12.176676787324455 ], [ 77.23774104381711, 12.176681273914697 ], [ 77.236214633276404, 12.176853525966024 ], [ 77.235552046304136, 12.17449556019737 ], [ 77.235438524538324, 12.173454635418773 ], [ 77.235558586658556, 12.171563739757772 ], [ 77.235562259269216, 12.171505901473765 ], [ 77.235569808965622, 12.171386997054444 ], [ 77.235572647942789, 12.17134227453853 ], [ 77.235576671217501, 12.17127891906059 ], [ 77.237852009823968, 12.170742125817039 ], [ 77.238486606035295, 12.170428746577565 ], [ 77.238534168735072, 12.170405258911153 ], [ 77.239662724875132, 12.169847944893728 ], [ 77.239585824398901, 12.169346892826772 ], [ 77.239572913762018, 12.169262770540806 ], [ 77.23924675974061, 12.167137662829861 ], [ 77.239228244386894, 12.167017014314906 ], [ 77.239208353439551, 12.166887416817831 ], [ 77.24049895011423, 12.166658508068132 ], [ 77.239680097578059, 12.165150705498636 ], [ 77.239655640862281, 12.165105672098482 ], [ 77.239599779003001, 12.165002809285252 ], [ 77.239439587105494, 12.164898755397299 ], [ 77.238925002496444, 12.163310830918133 ], [ 77.237880369903436, 12.160162853272714 ], [ 77.235829677163778, 12.156583168038146 ], [ 77.234411383426149, 12.153281137955474 ], [ 77.233311263846659, 12.150403898257892 ], [ 77.233116472473043, 12.149763008387064 ], [ 77.233100842443662, 12.149711574063689 ], [ 77.232848336253966, 12.148880791050688 ], [ 77.232827874774955, 12.148826782201164 ], [ 77.232812713029503, 12.148786767719175 ], [ 77.232806330519139, 12.148769922786402 ], [ 77.232817546538683, 12.148701687000894 ], [ 77.232879673020008, 12.148323728414569 ], [ 77.232857761917202, 12.148200957053415 ], [ 77.232848837903248, 12.148150951518643 ], [ 77.232839290549848, 12.148097458218226 ], [ 77.232830237411491, 12.148046726246056 ], [ 77.232819743915385, 12.147987932253091 ], [ 77.232730459064129, 12.147487639505986 ], [ 77.232727786340547, 12.147472666000635 ], [ 77.232720671898022, 12.147432805230249 ], [ 77.232676805785616, 12.14718700792576 ], [ 77.232623177462642, 12.147098539389839 ], [ 77.232577193181569, 12.147022679002701 ], [ 77.232512829039592, 12.146916499631745 ], [ 77.232517267576796, 12.146903553559138 ], [ 77.232532689574128, 12.146858583910685 ], [ 77.232666732043342, 12.146276671893485 ], [ 77.232918657277892, 12.146242838145515 ], [ 77.232859761866621, 12.145933421552476 ], [ 77.232810636421391, 12.145934761540195 ], [ 77.232739001499525, 12.145936716073965 ], [ 77.232408272638878, 12.145903067432176 ], [ 77.232348310510631, 12.145896966070014 ], [ 77.232234331093352, 12.145885369611907 ], [ 77.232128613939125, 12.145874612846821 ], [ 77.231517201337695, 12.145959869284788 ], [ 77.231360961427242, 12.145675179047441 ], [ 77.231312684327349, 12.145279075468491 ], [ 77.23125448471832, 12.14485072109963 ], [ 77.231131144851304, 12.144468476460682 ], [ 77.231076488209695, 12.144299092077524 ], [ 77.231065507518153, 12.1442096266418 ], [ 77.23104800119286, 12.144210807071429 ], [ 77.23020574274112, 12.144267587005331 ], [ 77.229644980106698, 12.144316925880872 ], [ 77.229562521602077, 12.144250293597834 ], [ 77.229552975072878, 12.144206608803591 ], [ 77.229516343428344, 12.144038976448046 ], [ 77.229497564555302, 12.143953043913385 ], [ 77.22948505422373, 12.143895795848344 ], [ 77.229324955876336, 12.143909182868724 ], [ 77.229155156008261, 12.143923380867301 ], [ 77.22911090343915, 12.143759418288612 ], [ 77.229033464290211, 12.1437568620692 ], [ 77.228883970792253, 12.143171923797135 ], [ 77.228878282114664, 12.143149665364561 ], [ 77.228673585830791, 12.143183560133251 ], [ 77.22851890245974, 12.142618494093002 ], [ 77.228443810966169, 12.142628162096633 ], [ 77.228412191912469, 12.142497229960375 ], [ 77.228196262905513, 12.141603106462128 ], [ 77.228181885940955, 12.141493642027399 ], [ 77.227225902761504, 12.141723371444959 ], [ 77.227107464664442, 12.140902008582847 ], [ 77.226706779704557, 12.141125176157782 ], [ 77.22651530481788, 12.139997634723706 ], [ 77.226492585551739, 12.139911061101081 ], [ 77.226490235197488, 12.139902106237844 ], [ 77.226396260558275, 12.139544006237527 ], [ 77.226234177434193, 12.138926370001407 ], [ 77.226142272349591, 12.138576154211773 ], [ 77.225883120272314, 12.137588617975718 ], [ 77.225832935266837, 12.137588848918949 ], [ 77.224992001111929, 12.13759270974869 ], [ 77.224921901045292, 12.137596008725582 ], [ 77.22487546389371, 12.137598193000935 ], [ 77.224817348594442, 12.137600926598912 ], [ 77.224820444853165, 12.137097677652642 ], [ 77.224792327381678, 12.137106191508328 ], [ 77.22426868027658, 12.137264761386167 ], [ 77.223767679604876, 12.137416471870552 ], [ 77.22364158624174, 12.137454655108385 ], [ 77.223064099664015, 12.137458341043144 ], [ 77.223016150783408, 12.137462086095914 ], [ 77.222911387437506, 12.137470270025524 ], [ 77.222593632950435, 12.137605567773509 ], [ 77.222568561391611, 12.137616243933255 ], [ 77.222504851005013, 12.137643370510633 ], [ 77.222511173024188, 12.13767142589367 ], [ 77.222629028926107, 12.138194543753244 ], [ 77.222664665275033, 12.138754541343687 ], [ 77.22221677773608, 12.138831387567805 ], [ 77.222126435675861, 12.138918571316818 ], [ 77.22180815776079, 12.139573074259738 ], [ 77.22200064927614, 12.140131334775585 ], [ 77.22185898498293, 12.140190171947145 ], [ 77.221776597834378, 12.140213633868601 ], [ 77.221748351783859, 12.140297852849853 ], [ 77.221665469839323, 12.140334864363505 ], [ 77.220768441936698, 12.140434947005348 ], [ 77.219964100564823, 12.140503317837508 ], [ 77.219863774785125, 12.140511845686166 ], [ 77.219805658358823, 12.140089301143641 ], [ 77.219925366192783, 12.139552756406299 ], [ 77.220463290069929, 12.139055068029757 ], [ 77.22042932597715, 12.138932324358301 ], [ 77.220417233248568, 12.13888861781026 ], [ 77.220392830120886, 12.138800427461421 ], [ 77.220374202540413, 12.138733107064549 ], [ 77.220223917118773, 12.138098815233315 ], [ 77.220221858539404, 12.138090129953525 ], [ 77.220220994352459, 12.138086481391618 ], [ 77.220212142249707, 12.138049119959218 ], [ 77.220186740141457, 12.13795340427707 ], [ 77.220175842056108, 12.137914086460558 ], [ 77.220165994880915, 12.13787856120444 ], [ 77.220152819434915, 12.137820666981442 ], [ 77.220052025331242, 12.136997445673082 ], [ 77.219959303749704, 12.13644091657728 ], [ 77.219924300042123, 12.136230820615989 ], [ 77.219833515133885, 12.135685908351634 ], [ 77.219280494175223, 12.13574642977809 ], [ 77.219122812573744, 12.135198685136347 ], [ 77.219055971532597, 12.134944610322957 ], [ 77.219045132591333, 12.134903406798601 ], [ 77.220027789964774, 12.134728820459069 ], [ 77.220056927910505, 12.1347236435405 ], [ 77.219972538722502, 12.134242254838895 ], [ 77.219925375932334, 12.133973217105781 ], [ 77.219911633313757, 12.133906010143642 ], [ 77.219839338656882, 12.13355247571004 ], [ 77.219792564792172, 12.133297087087664 ], [ 77.219787264115595, 12.133297820013663 ], [ 77.218667069355732, 12.133452749480622 ], [ 77.218661626369027, 12.133424857676209 ], [ 77.218624944566173, 12.133190780374223 ], [ 77.218559264682185, 12.132771653568994 ], [ 77.219124197010217, 12.132653463899601 ], [ 77.218974712713916, 12.131432735948174 ], [ 77.218936854288927, 12.131123582617983 ], [ 77.218901533591307, 12.130993000582061 ], [ 77.218812704846343, 12.130664600818822 ], [ 77.218323618253834, 12.130746668672071 ], [ 77.21800524670725, 12.130716041630198 ], [ 77.217997471159535, 12.130697486604976 ], [ 77.217971100409954, 12.130634552074788 ], [ 77.217784742221312, 12.130273525391921 ], [ 77.217588494031602, 12.129782666846474 ], [ 77.217496136772809, 12.12916555780178 ], [ 77.21747075435934, 12.12899596497426 ], [ 77.217442921204096, 12.128809991249209 ], [ 77.217403007414163, 12.128543292828079 ], [ 77.217344288059778, 12.128150947736485 ], [ 77.217341647527178, 12.128143274695429 ], [ 77.217230688300944, 12.127940204783268 ], [ 77.214767861267433, 12.129280595074635 ], [ 77.213804500193547, 12.129925920439105 ], [ 77.213716172941261, 12.12996921830949 ], [ 77.212822958265747, 12.130407072952609 ], [ 77.212674446183172, 12.130492839631824 ], [ 77.212529035308862, 12.130511123026743 ], [ 77.212375882676554, 12.130530379131981 ], [ 77.2123075179653, 12.130712819777157 ], [ 77.212304120182822, 12.130721888552902 ], [ 77.212291699949731, 12.130755033786588 ], [ 77.212270321952275, 12.130812081448642 ], [ 77.21226042953127, 12.130813868483349 ], [ 77.211785432753331, 12.130899692226333 ], [ 77.211102562676956, 12.130965541840245 ], [ 77.211038510395767, 12.130971718586 ], [ 77.21073382055944, 12.131001099638324 ], [ 77.210693489155204, 12.13100498943739 ], [ 77.210552805488035, 12.131018554702306 ], [ 77.210474868338622, 12.131220936027512 ], [ 77.210462836294369, 12.131252180324505 ], [ 77.210185439465477, 12.131972500657062 ], [ 77.210125568464989, 12.132127967025527 ], [ 77.210104165816418, 12.132153456254644 ], [ 77.209344921198195, 12.133057650997586 ], [ 77.209319032104418, 12.133180026014857 ], [ 77.209416023404515, 12.1334500262465 ], [ 77.209447560797528, 12.133537814321745 ], [ 77.209502440840083, 12.133712112020469 ], [ 77.209533003133203, 12.133809175432109 ], [ 77.209572918583007, 12.133935948767581 ], [ 77.207877806301227, 12.134294327971714 ], [ 77.207973474496114, 12.134992412358875 ], [ 77.208038107800348, 12.135464032185018 ], [ 77.208046072023407, 12.135522156982844 ], [ 77.207216994617681, 12.135752402111116 ], [ 77.207189380128014, 12.135760072491607 ], [ 77.207138939267509, 12.135810796149105 ], [ 77.20710336813687, 12.135846567689097 ], [ 77.207116134543853, 12.136169778693159 ], [ 77.206882837024423, 12.136236784636621 ], [ 77.206596097616114, 12.136319141226387 ], [ 77.206497375118687, 12.136375452326829 ], [ 77.206382084368286, 12.136462650663873 ], [ 77.206361747772164, 12.136529245710072 ], [ 77.206344265932415, 12.136586492572889 ], [ 77.206136017679242, 12.136777890760934 ], [ 77.206123231241833, 12.136780054034556 ], [ 77.205254929369588, 12.136926938109545 ], [ 77.204973197659115, 12.137016315857453 ], [ 77.20491468368958, 12.137034879740771 ], [ 77.204812766289379, 12.137067212201902 ], [ 77.204674128668174, 12.137037790691105 ], [ 77.204622407989859, 12.137026813983061 ], [ 77.204452434739125, 12.136990742043698 ], [ 77.204401728919095, 12.13697998223469 ], [ 77.204155598851258, 12.135564424120288 ], [ 77.203985856437214, 12.134588187956405 ], [ 77.203940234555404, 12.134592040364732 ], [ 77.203851916756719, 12.134599495036504 ], [ 77.203468199653358, 12.134631884630663 ], [ 77.203205567412738, 12.134678211576057 ], [ 77.202779309320192, 12.134710863755744 ], [ 77.202695957854075, 12.134717247416543 ], [ 77.201675028703917, 12.134795447431713 ], [ 77.201606729415374, 12.134800679030606 ], [ 77.201580717316872, 12.134672461315176 ], [ 77.200215876210308, 12.134813334966593 ], [ 77.200102499859312, 12.134841723416274 ], [ 77.200078940272732, 12.134847622128635 ], [ 77.199998299630082, 12.134856441565312 ], [ 77.199102798915206, 12.13492451435976 ], [ 77.199066037258831, 12.134929950317193 ], [ 77.199011408486768, 12.134938028770675 ], [ 77.198740747931268, 12.134771483875957 ], [ 77.198635794270103, 12.134706902548167 ], [ 77.198534378968844, 12.134644499956982 ], [ 77.198105017123865, 12.134891033009243 ], [ 77.197987018440045, 12.134956801723831 ], [ 77.197904589383526, 12.134973577553355 ], [ 77.197844676417532, 12.13498577350664 ], [ 77.197830510784613, 12.134988654954363 ], [ 77.197766915411492, 12.135001598580901 ], [ 77.197767287859421, 12.134999303791899 ], [ 77.197755266534713, 12.134920375278705 ], [ 77.197753839604985, 12.134911008708963 ], [ 77.197751210876348, 12.134893745037592 ], [ 77.197748609374855, 12.134876665508752 ], [ 77.197732815792804, 12.134855071787058 ], [ 77.19767649464373, 12.134778061053497 ], [ 77.197634096376532, 12.134720089608066 ], [ 77.197581578733988, 12.134677486696351 ], [ 77.197530847302588, 12.134639228234208 ], [ 77.197480228956238, 12.134603670984372 ], [ 77.197339269442651, 12.134525209967514 ], [ 77.197086177891691, 12.134237696432651 ], [ 77.197163261665807, 12.134229804383489 ], [ 77.197660939304242, 12.13412611925931 ], [ 77.197663925252414, 12.134094420189438 ], [ 77.19768776553984, 12.133841332282218 ], [ 77.197537627683403, 12.133672264023946 ], [ 77.197357636991271, 12.133560724772208 ], [ 77.197174046196352, 12.133327943777553 ], [ 77.197050001240314, 12.13299815840643 ], [ 77.196882961320725, 12.132850410555413 ], [ 77.196856978293212, 12.132827428139308 ], [ 77.196816087306473, 12.132791260326309 ], [ 77.196792608679644, 12.13277049203016 ], [ 77.19676738150936, 12.132748176878099 ], [ 77.196755616339374, 12.132737999432788 ], [ 77.196787529652127, 12.132628810936076 ], [ 77.197013031138411, 12.132507297097478 ], [ 77.197024932777779, 12.132471363848207 ], [ 77.197078866980945, 12.132308523000683 ], [ 77.197080722298011, 12.132302925098745 ], [ 77.197097619773558, 12.132251910697294 ], [ 77.197794286955272, 12.131912392123763 ], [ 77.197860438659021, 12.13170304644593 ], [ 77.197735430655328, 12.131542135350097 ], [ 77.197641612483011, 12.131347627604525 ], [ 77.197463567940702, 12.131121453024749 ], [ 77.197471202870076, 12.13109756948648 ], [ 77.197504318851458, 12.130993970881411 ], [ 77.198111338849586, 12.130850772570735 ], [ 77.198245743893438, 12.130760249322563 ], [ 77.1982442335634, 12.130751124707185 ], [ 77.198230245335282, 12.130666609640762 ], [ 77.19809273586192, 12.130652918892837 ], [ 77.197946496241528, 12.130347068785024 ], [ 77.197934140890311, 12.130274513201645 ], [ 77.197942117228564, 12.130256656567825 ], [ 77.197943049785067, 12.130254568804721 ], [ 77.197958280981808, 12.130220475305595 ], [ 77.19795941646322, 12.130217933168572 ], [ 77.197972431715499, 12.130188801504469 ], [ 77.197867194903679, 12.130121685950014 ], [ 77.197690158029943, 12.130136373633482 ], [ 77.197622447263512, 12.130096639336804 ], [ 77.197610129776322, 12.130082373347857 ], [ 77.197563649998671, 12.129872542328485 ], [ 77.197553518768188, 12.129852827632176 ], [ 77.197554414166916, 12.129840265148237 ], [ 77.197501344941145, 12.12972416327316 ], [ 77.197480110057683, 12.129709974349597 ], [ 77.197445331198281, 12.129686738195053 ], [ 77.197405037225508, 12.129659817040853 ], [ 77.197380237904937, 12.129606399695493 ], [ 77.197594354801311, 12.129459030343577 ], [ 77.197587749416186, 12.129441437621104 ], [ 77.197552743236557, 12.129348202042051 ], [ 77.197424052589199, 12.129332409313474 ], [ 77.197385324726298, 12.129224459938563 ], [ 77.197409804912496, 12.129186588743725 ], [ 77.197404936151472, 12.129172114529833 ], [ 77.197484665592157, 12.129066168816019 ], [ 77.197499828306405, 12.129046020282736 ], [ 77.197447712358354, 12.128934253173529 ], [ 77.19724471078662, 12.128906872212546 ], [ 77.197247158632834, 12.128605229896005 ], [ 77.197248872210409, 12.128394109099624 ], [ 77.197191030811567, 12.128298461783993 ], [ 77.197154336330584, 12.128237781550807 ], [ 77.197203920169045, 12.128206312037562 ], [ 77.197238553382306, 12.128184331779563 ], [ 77.197170201740633, 12.127865386268647 ], [ 77.197165726925121, 12.12784450786878 ], [ 77.197157679679137, 12.127806957958308 ], [ 77.197153254502084, 12.127786308709057 ], [ 77.197185729205955, 12.127756462434453 ], [ 77.197293953567339, 12.127656999127822 ], [ 77.197125927823535, 12.127018328022597 ], [ 77.197054521877007, 12.126948164657037 ], [ 77.1970526116055, 12.12691083356605 ], [ 77.197050670758159, 12.126872908973148 ], [ 77.19704721767512, 12.126805432971016 ], [ 77.197065609245385, 12.126801732785122 ], [ 77.19778952989374, 12.126556829443155 ], [ 77.197846851985972, 12.126412587449884 ], [ 77.197944079872698, 12.126320036137571 ], [ 77.197972535127505, 12.126208234431196 ], [ 77.197918244741075, 12.126184885554558 ], [ 77.197893262716576, 12.126174140597525 ], [ 77.197871760362389, 12.126089718479207 ], [ 77.197855525669993, 12.126025978673241 ], [ 77.197943295601235, 12.125876275255662 ], [ 77.198091743850426, 12.125729801109859 ], [ 77.198212045655239, 12.125611097406635 ], [ 77.198453271227251, 12.125334750910872 ], [ 77.198583256673288, 12.124760838126955 ], [ 77.198588030495088, 12.124758691870177 ], [ 77.198629018007395, 12.12471298636517 ], [ 77.198630340731398, 12.124712337843533 ], [ 77.198655858613094, 12.124699839353262 ], [ 77.198669317323123, 12.124693245659893 ], [ 77.198672198804687, 12.124691836489562 ], [ 77.198713508023204, 12.124671604275367 ], [ 77.198933309658273, 12.124563952251508 ], [ 77.198950748097488, 12.124531725498288 ], [ 77.199022688536601, 12.124398779576017 ], [ 77.199017140686323, 12.124140762029738 ], [ 77.19882866899809, 12.123755154856653 ], [ 77.198839798028473, 12.122912563212953 ], [ 77.198924332478455, 12.122675727968609 ], [ 77.198982057325154, 12.122548827834759 ], [ 77.199604695260746, 12.122167965669128 ], [ 77.199676804007439, 12.12213138556098 ], [ 77.199673833192747, 12.12208458383965 ], [ 77.199670796790755, 12.122036727094658 ], [ 77.199667412616293, 12.12198341735737 ], [ 77.199665969642894, 12.121960655088815 ], [ 77.199661759559376, 12.121894316661637 ], [ 77.199627725841722, 12.121358050534079 ], [ 77.199585001079953, 12.120684794374291 ], [ 77.199504706375322, 12.120341868229294 ], [ 77.199483343828064, 12.12029127764256 ], [ 77.199461362206634, 12.120239220710078 ], [ 77.199429180296008, 12.120163010576011 ], [ 77.19921918674298, 12.120252233648324 ], [ 77.199162164656954, 12.120281817468367 ], [ 77.199166218026733, 12.120087295839685 ], [ 77.199205257229451, 12.12003916307426 ], [ 77.199345394449267, 12.119866392390534 ], [ 77.199342437028562, 12.119852924229253 ], [ 77.199278550661347, 12.119561930094223 ], [ 77.198722155658658, 12.119454321616498 ], [ 77.198704978851367, 12.119217886616315 ], [ 77.198389687203161, 12.118878793762466 ], [ 77.198475595759149, 12.118845636377772 ], [ 77.198710173601711, 12.118755100208666 ], [ 77.198750595578716, 12.118583043014901 ], [ 77.198835684150239, 12.118220862138815 ], [ 77.198844264115593, 12.118184345259865 ], [ 77.198891086455831, 12.118035626474008 ], [ 77.1988194885204, 12.11799431236969 ], [ 77.198815297291645, 12.117962175898578 ], [ 77.198804936152214, 12.117882710852138 ], [ 77.198909627349806, 12.117819608780186 ], [ 77.198893024929546, 12.117464685233344 ], [ 77.198987231565255, 12.117007489069499 ], [ 77.199009376325392, 12.116669493045071 ], [ 77.198967198770248, 12.116636942105885 ], [ 77.198929344824819, 12.116607730454103 ], [ 77.198928412274213, 12.116607011259422 ], [ 77.198908413463485, 12.116608262466103 ], [ 77.198655147257242, 12.116614698305394 ], [ 77.198466855613134, 12.116332681754816 ], [ 77.198424109958395, 12.116323604828201 ], [ 77.198230954633019, 12.116282592753681 ], [ 77.19802811700221, 12.116273921914283 ], [ 77.198012754288413, 12.116149314028311 ], [ 77.197952990355375, 12.116021377261529 ], [ 77.197898447469839, 12.115999895306608 ], [ 77.197866674247024, 12.115987381212715 ], [ 77.197926509991859, 12.115523004621529 ], [ 77.198016557090369, 12.115242063407059 ], [ 77.198153161000491, 12.114874869875369 ], [ 77.1983484759036, 12.114262531351246 ], [ 77.198391655082986, 12.114174735136052 ], [ 77.198537780651833, 12.113967356775619 ], [ 77.198497821673072, 12.113767908022647 ], [ 77.197973607198932, 12.113602822689723 ], [ 77.197347720649205, 12.11364244748831 ], [ 77.197282101545753, 12.113639470010467 ], [ 77.196691127070295, 12.113612643557039 ], [ 77.196623159551919, 12.11341822846215 ], [ 77.196618824376301, 12.113405829402508 ], [ 77.196591438403431, 12.113327492151123 ], [ 77.195931236937156, 12.113420991522094 ], [ 77.195910739178288, 12.113421738534655 ], [ 77.194801996647243, 12.11346212678667 ], [ 77.194775744207902, 12.113678950456487 ], [ 77.194770076472523, 12.113725762036198 ], [ 77.194749270385003, 12.113930602625475 ], [ 77.194715414513738, 12.114483273522977 ], [ 77.194715100132285, 12.114488406442447 ], [ 77.194666950980746, 12.115026307064532 ], [ 77.194663084919469, 12.115054666644751 ], [ 77.194608903232265, 12.115452167541536 ], [ 77.194577030421343, 12.11572351750903 ], [ 77.194534081030866, 12.115725229288854 ], [ 77.194420688970865, 12.115729747930891 ], [ 77.19441700846842, 12.115758228046369 ], [ 77.194375346594157, 12.11608062724625 ], [ 77.194372721659292, 12.116100945624925 ], [ 77.194290335191752, 12.116096452745678 ], [ 77.194276072623282, 12.116267942114751 ], [ 77.194241712468951, 12.116681095891959 ], [ 77.194231950511394, 12.116798480836293 ], [ 77.192672504556256, 12.116849145030333 ], [ 77.192182603508783, 12.116822997304334 ], [ 77.191815614799054, 12.116803408682795 ], [ 77.191725651689609, 12.116800321513221 ], [ 77.191666259850692, 12.1167975231395 ], [ 77.190926918335023, 12.116762670047677 ], [ 77.190721590924255, 12.116347712627366 ], [ 77.189616865514893, 12.116531093867408 ], [ 77.189544803182798, 12.116519817833142 ], [ 77.189234942016128, 12.116471323466802 ], [ 77.189236307636548, 12.116416582182532 ], [ 77.18926152147408, 12.115546308098583 ], [ 77.189486767919746, 12.113971154046594 ], [ 77.189618033655194, 12.113174407530492 ], [ 77.189675306773353, 12.112826777576439 ], [ 77.18817009213268, 12.111190470937574 ], [ 77.188073946127872, 12.109332616196683 ], [ 77.188085153149316, 12.107551820128254 ], [ 77.188136206329034, 12.103341828241506 ], [ 77.188581825364764, 12.102554166716056 ], [ 77.19055976835503, 12.101113202617542 ], [ 77.191261395144352, 12.10006117229117 ], [ 77.190993906187558, 12.098738531753719 ], [ 77.190851120442701, 12.097829546561114 ], [ 77.190852293570103, 12.097786878757891 ], [ 77.190853107089538, 12.097757332268989 ], [ 77.190860693301303, 12.097481837714104 ], [ 77.189214428596685, 12.097804145895761 ], [ 77.189169894187401, 12.097812864620758 ], [ 77.188954161901762, 12.097855099358835 ], [ 77.18903235892013, 12.097167043546767 ], [ 77.190858903598922, 12.095712862692231 ], [ 77.192189986850124, 12.093753861966304 ], [ 77.193709419365049, 12.090875409119308 ], [ 77.194230293666024, 12.089094027696893 ], [ 77.195546120123822, 12.085180974651793 ], [ 77.196234344160203, 12.083139863850171 ], [ 77.196385878250837, 12.082832701192666 ], [ 77.1964715886091, 12.081306926201263 ], [ 77.196536696582712, 12.081062694863707 ], [ 77.196652902572566, 12.079701236117193 ], [ 77.196660567596979, 12.079385581893089 ], [ 77.196682327745719, 12.078827487475388 ], [ 77.196704947212382, 12.077310933594275 ], [ 77.196140799380515, 12.076776689455485 ], [ 77.196152925092804, 12.076339446348332 ], [ 77.196608966663163, 12.076064294177762 ], [ 77.196963582268708, 12.07594712984992 ], [ 77.197361874016167, 12.073292200835754 ], [ 77.197332581905599, 12.072525552651593 ], [ 77.197393560818739, 12.070847231281929 ], [ 77.19711609048899, 12.070107993304543 ], [ 77.197018774694243, 12.069378531432569 ], [ 77.197256037886604, 12.06905577758728 ], [ 77.197319177654947, 12.067860582058838 ], [ 77.19736196783316, 12.06669047548235 ], [ 77.197642283209859, 12.066013292199138 ], [ 77.197635900269347, 12.064797839193899 ], [ 77.197465514417743, 12.064097029039496 ], [ 77.197299065757278, 12.062877070578038 ], [ 77.196094025399731, 12.062176861805485 ], [ 77.195771421982485, 12.061642175264099 ], [ 77.19567840476688, 12.060989398343422 ], [ 77.195673728274272, 12.060760620257344 ], [ 77.195869704926977, 12.060720520226029 ], [ 77.195900507089945, 12.060807605140196 ], [ 77.196187354055439, 12.060741362906082 ], [ 77.196669104852575, 12.060704604211111 ], [ 77.196798280596937, 12.060604706920925 ], [ 77.197102009227663, 12.060632054037224 ], [ 77.197444872706598, 12.060523022827763 ], [ 77.197808321009759, 12.05947223196517 ], [ 77.197901838830219, 12.059300709152243 ], [ 77.197869408263657, 12.058724789797807 ], [ 77.197751318611623, 12.058608761769442 ], [ 77.197699507884892, 12.058557855368139 ], [ 77.197538947984981, 12.058400098520577 ], [ 77.197350178399475, 12.058245367458481 ], [ 77.19734242773805, 12.057342460176875 ], [ 77.197578605608811, 12.057261897925704 ], [ 77.197880024439741, 12.057439467328058 ], [ 77.198301747231582, 12.057506152529246 ], [ 77.198230016809305, 12.057158416386953 ], [ 77.197556665153328, 12.056355839315062 ], [ 77.197562048982874, 12.056118332540832 ], [ 77.197450493709951, 12.055848164051824 ], [ 77.197636613706933, 12.055371863014582 ], [ 77.197656459211686, 12.055124683469559 ], [ 77.197629544314481, 12.054864756142448 ], [ 77.197493419334009, 12.054681218069405 ], [ 77.197407803937324, 12.054384922403663 ], [ 77.197334776457083, 12.054262801561279 ], [ 77.197297949047694, 12.054201216731078 ], [ 77.197153297202973, 12.053959324384445 ], [ 77.197112640152653, 12.05473826490992 ], [ 77.197212741840161, 12.055057481468415 ], [ 77.197308144332069, 12.055265364571001 ], [ 77.197357550366732, 12.055733842286013 ], [ 77.197134811463329, 12.055792654860811 ], [ 77.197009799996167, 12.055362235392167 ], [ 77.196709005512048, 12.054891452549191 ], [ 77.195950766152308, 12.055085260451087 ], [ 77.195712335127226, 12.054410894990625 ], [ 77.196170439821145, 12.05404066746363 ], [ 77.196103535272698, 12.053914355247892 ], [ 77.196273657259738, 12.053813862989983 ], [ 77.196008980856718, 12.053140831499762 ], [ 77.195977186039698, 12.05266611406533 ], [ 77.196567991601611, 12.052266760038538 ], [ 77.196368607167216, 12.05187394981318 ], [ 77.196106404872396, 12.051617616090015 ], [ 77.195901909675413, 12.051673437565038 ], [ 77.195672667079066, 12.051563567906719 ], [ 77.195778340201841, 12.051357497466542 ], [ 77.195820313067301, 12.051184719711218 ], [ 77.195751298577363, 12.050483753138641 ], [ 77.196497784691573, 12.049663378696533 ], [ 77.196775361049092, 12.049430203439075 ], [ 77.199277762122719, 12.046515614636951 ], [ 77.199326649817479, 12.046803417323412 ], [ 77.199477596968435, 12.047114754709137 ], [ 77.199518265499151, 12.048455060321633 ], [ 77.19932435986631, 12.048641054794523 ], [ 77.19893777047416, 12.048759772527523 ], [ 77.199176927399733, 12.049537346175615 ], [ 77.199293573463848, 12.049584983698246 ], [ 77.199310881035956, 12.050309449737655 ], [ 77.198960427898541, 12.050603282779495 ], [ 77.198858014243811, 12.050258506083434 ], [ 77.198730094185748, 12.050264027625273 ], [ 77.198672929881553, 12.050266495726362 ], [ 77.198422321423919, 12.050277312955377 ], [ 77.198390728927251, 12.051083861787447 ], [ 77.199004435911363, 12.051728401002839 ], [ 77.199177446043052, 12.052285037773144 ], [ 77.199191214389145, 12.052592529377606 ], [ 77.199390307154644, 12.052787284566319 ], [ 77.199698549437386, 12.052657777936849 ], [ 77.200528324739807, 12.052786438350477 ], [ 77.200572557054841, 12.053059801238238 ], [ 77.200775215167582, 12.053551821853185 ], [ 77.200512078834876, 12.053805745041341 ], [ 77.200898358133102, 12.054309705555694 ], [ 77.201228386506401, 12.054560812739599 ], [ 77.201336776350715, 12.055093885150743 ], [ 77.2014324334083, 12.055839913450225 ], [ 77.20173946023661, 12.05681598879444 ], [ 77.201485288674334, 12.056967750739323 ], [ 77.201409136426122, 12.057121326476983 ], [ 77.201002256151696, 12.057207536090093 ], [ 77.201096302592376, 12.058184962490607 ], [ 77.201177431223002, 12.058439970667683 ], [ 77.201534439382186, 12.058461977745704 ], [ 77.201946258447265, 12.05908410547238 ], [ 77.202131178916247, 12.059188320888813 ], [ 77.20220879484269, 12.059232063596596 ], [ 77.202277124581713, 12.059270572157388 ], [ 77.202376892393744, 12.059102226988749 ], [ 77.202098353988859, 12.058700621582563 ], [ 77.202045452121155, 12.058115830619343 ], [ 77.202106395257786, 12.057576371214466 ], [ 77.202240165454739, 12.057536198719696 ], [ 77.202697824610937, 12.057398755026572 ], [ 77.203164559666192, 12.058059958075535 ], [ 77.203303344581926, 12.058065946297862 ], [ 77.203484569632309, 12.059044581216128 ], [ 77.203525103336375, 12.059815528044144 ], [ 77.203531790022296, 12.059942710831381 ], [ 77.203847299989164, 12.060948680888229 ], [ 77.203841409969215, 12.061579403058364 ], [ 77.203488308540216, 12.06233774748962 ], [ 77.20324890472537, 12.063704170312961 ], [ 77.202919748413564, 12.063975670765606 ], [ 77.202503904611817, 12.065245100816206 ], [ 77.202413925898895, 12.066707824921671 ], [ 77.20237108760125, 12.06808558412375 ], [ 77.202046517510382, 12.069193582716618 ], [ 77.202390192013027, 12.071491647575492 ], [ 77.202488481075946, 12.071913201530137 ], [ 77.202866087038032, 12.072698651757674 ], [ 77.203434015094103, 12.073874715813076 ], [ 77.20360889806787, 12.074255266809455 ], [ 77.204165895757058, 12.075158746423922 ], [ 77.204510333258298, 12.07664315408473 ], [ 77.20454897790367, 12.076916023909023 ], [ 77.203822461363586, 12.07760447584451 ], [ 77.203711328562193, 12.078397573095996 ], [ 77.203636558731418, 12.078999203103026 ], [ 77.203433219052954, 12.079562700164152 ], [ 77.203392673657589, 12.079665021554057 ], [ 77.203083036266264, 12.080515069972128 ], [ 77.202941235122807, 12.081755248145241 ], [ 77.20261787614065, 12.083312471921499 ], [ 77.203423437725462, 12.086134513257306 ], [ 77.203722120754492, 12.086648192850307 ], [ 77.20389369726017, 12.086828152537425 ], [ 77.204393269396363, 12.087994001233506 ], [ 77.204780055333956, 12.088828024959851 ], [ 77.205024351602262, 12.089464139242777 ], [ 77.20511265603821, 12.089971308877695 ], [ 77.205303421910415, 12.090645708700512 ], [ 77.205607900277599, 12.091631340388592 ], [ 77.205545204551271, 12.091728760964839 ], [ 77.204479747392298, 12.0932039444161 ], [ 77.203891804196246, 12.094844247094368 ], [ 77.203740532154342, 12.097131430853699 ], [ 77.204153988283778, 12.098053430778544 ], [ 77.205026197815172, 12.098587069451129 ], [ 77.205918104617396, 12.098418494902615 ], [ 77.206963677706014, 12.097737877822777 ], [ 77.207898938486139, 12.096838979171064 ], [ 77.207972748839879, 12.096063551705655 ], [ 77.20813763634392, 12.095473625219789 ], [ 77.20830376308524, 12.094484174201201 ], [ 77.207960357345542, 12.09211247274091 ], [ 77.207834765882453, 12.091894118263031 ], [ 77.207752014277133, 12.090804978150388 ], [ 77.207741957796387, 12.087890269009538 ], [ 77.207938920131497, 12.088617338024198 ], [ 77.207979441657187, 12.090630192202692 ], [ 77.208108801863233, 12.090645654175011 ], [ 77.209563131765918, 12.09052097588062 ], [ 77.209938142886386, 12.090552713801692 ], [ 77.20988951335562, 12.089642560605435 ], [ 77.209156111126063, 12.089675272253103 ], [ 77.209044887401546, 12.088532185381048 ], [ 77.209537346440499, 12.088406355889509 ], [ 77.210157063287141, 12.088350273407265 ], [ 77.210172607188795, 12.08801986087421 ], [ 77.211655483595976, 12.087744100863311 ], [ 77.211915193953629, 12.085944009312676 ], [ 77.212206673680825, 12.084250998285512 ], [ 77.216051434378883, 12.081029748172003 ], [ 77.215326757627352, 12.076461014467194 ], [ 77.215197123625487, 12.074170470303722 ], [ 77.214800421619913, 12.072021999692973 ], [ 77.21437324700473, 12.068541335842548 ], [ 77.21404523346007, 12.064731686315822 ], [ 77.214113930653454, 12.062432562582071 ], [ 77.215496235931994, 12.060881194107635 ], [ 77.216547408006562, 12.059701443955397 ], [ 77.218095996482475, 12.053671808125255 ], [ 77.218248584317806, 12.050052891740528 ], [ 77.217630677193895, 12.047392342683347 ], [ 77.217699355840224, 12.044842386077724 ], [ 77.216791583993668, 12.042822670864426 ], [ 77.214220803222844, 12.039253334036442 ], [ 77.212252677577581, 12.03632290279578 ], [ 77.210337911372321, 12.032673450373673 ], [ 77.207942576488634, 12.028654005550377 ], [ 77.206477262857234, 12.027046151141429 ], [ 77.204990377189588, 12.025414598054462 ], [ 77.201214352860077, 12.022064569584433 ], [ 77.203235869949211, 12.020994637905366 ], [ 77.202572209533074, 12.018545775511308 ], [ 77.202145035385684, 12.014736130874452 ], [ 77.201664447855933, 12.010155965225279 ], [ 77.201191549856915, 12.005196277409704 ], [ 77.203266499009317, 12.00298679225925 ], [ 77.207706203267506, 12.002496673265084 ], [ 77.212161240870657, 12.002516716719098 ], [ 77.212966429831923, 12.005833296227477 ], [ 77.213389427946993, 12.007575589863889 ], [ 77.216181445512476, 12.008405218678607 ], [ 77.220438061390794, 12.009825164158597 ], [ 77.223703038942048, 12.010835016495337 ], [ 77.22631963700006, 12.01433571661399 ], [ 77.22844027983102, 12.01747595538019 ], [ 77.230126203584135, 12.016025499932738 ], [ 77.232185867614461, 12.013365925399359 ], [ 77.235084696701605, 12.01189357419014 ], [ 77.236259470816378, 12.0119364954479 ], [ 77.236724848883298, 12.012044234803158 ], [ 77.237281682830599, 12.012079522457976 ], [ 77.237685991265934, 12.012114819097075 ], [ 77.238395470466358, 12.012075733067844 ], [ 77.238914193347327, 12.011947941217089 ], [ 77.239410062969469, 12.011763901656307 ], [ 77.239875364969592, 12.011690469137607 ], [ 77.240241550581516, 12.011762001509949 ], [ 77.240699264534769, 12.011805849477517 ], [ 77.241401039618836, 12.011713359293188 ], [ 77.242141043680959, 12.011528382349296 ], [ 77.242401897724363, 12.011446576223564 ], [ 77.242726714024343, 12.011344711468499 ], [ 77.242726596679532, 12.011317342921851 ], [ 77.242679920614492, 12.007790161684795 ], [ 77.242747927144521, 12.006682789197615 ], [ 77.242668087394563, 12.005902505983887 ], [ 77.242657550163926, 12.005459581632568 ], [ 77.242582647409989, 12.004729190858239 ], [ 77.242621481681013, 12.004401745880125 ], [ 77.242667284495099, 12.003908111272128 ], [ 77.242671865282247, 12.003858742385416 ], [ 77.242715662060576, 12.003386715103176 ], [ 77.242794513553463, 12.002523866769197 ], [ 77.243083378555568, 12.001820078652564 ], [ 77.243331664889737, 12.001222773637824 ], [ 77.24345859986623, 12.000773588651636 ], [ 77.24355198913716, 12.000488934812338 ], [ 77.243686865237336, 12.000134965153601 ], [ 77.244192042957735, 11.997837844888579 ], [ 77.244292539352102, 11.997603293069988 ], [ 77.244503734082684, 11.997138201343239 ], [ 77.245143811051378, 11.995699346146584 ], [ 77.245374482987799, 11.995047805562756 ], [ 77.245650704257315, 11.994436030135851 ], [ 77.245855479231579, 11.993601213585331 ], [ 77.246134207686509, 11.992935830343358 ], [ 77.247061853743645, 11.992922174537739 ], [ 77.246679897349665, 11.992485806292907 ], [ 77.246355536552912, 11.992190346376509 ], [ 77.245917716646687, 11.99173692386959 ], [ 77.245545809447478, 11.990844936390104 ], [ 77.2455897533208, 11.989642796014161 ], [ 77.244228538760254, 11.989081184581851 ], [ 77.245096096344952, 11.988901676695559 ], [ 77.244675532469614, 11.986903670974966 ], [ 77.244396706038543, 11.986856271550142 ], [ 77.244316731158293, 11.986094202874048 ], [ 77.244900236640319, 11.986064005278935 ], [ 77.244884720008073, 11.985792252961181 ], [ 77.244881581344572, 11.985737268923568 ], [ 77.244826573655132, 11.98477383652968 ], [ 77.245244275253924, 11.984088501793766 ], [ 77.245423706478761, 11.982958689018172 ], [ 77.24559568562222, 11.982224080178504 ], [ 77.246334494599068, 11.980716828137352 ], [ 77.246236735048271, 11.980185740605839 ], [ 77.245987382992126, 11.978932521399262 ], [ 77.245355204299088, 11.978301978837495 ], [ 77.246861209195046, 11.977270602789119 ], [ 77.247053782994712, 11.976418705804965 ], [ 77.247378356099389, 11.975315189768944 ], [ 77.247235225701573, 11.974507845259737 ], [ 77.247192505966964, 11.974252925755488 ], [ 77.246369790414391, 11.973555847931754 ], [ 77.245941649225486, 11.972623763777218 ], [ 77.246358652845231, 11.972325938637212 ], [ 77.247016873964611, 11.972784767216385 ], [ 77.247329922720596, 11.973192428879448 ], [ 77.247665687356275, 11.973110111411966 ], [ 77.248651725269681, 11.973132514111136 ], [ 77.249160401061118, 11.972836523685725 ], [ 77.249730590088802, 11.972429462338985 ], [ 77.250729847929932, 11.969852667807949 ], [ 77.251115104744429, 11.968603440465328 ], [ 77.251040156096749, 11.966863044001821 ], [ 77.250827886919623, 11.965669654433253 ], [ 77.250593116274715, 11.964858983318534 ], [ 77.250352950253017, 11.96416054745178 ], [ 77.250031867146447, 11.963433410580905 ], [ 77.249776572377215, 11.962616277484139 ], [ 77.249508402595197, 11.961630018421628 ], [ 77.24922892579761, 11.960712701332117 ], [ 77.248812385303793, 11.959327200182432 ], [ 77.248327129734292, 11.957769375426492 ], [ 77.248219255634751, 11.957433931680358 ], [ 77.248371338726301, 11.956891064342255 ], [ 77.248480064928287, 11.956288813255775 ], [ 77.250099557978942, 11.956380748589375 ], [ 77.251002823580507, 11.956004666376886 ], [ 77.251117062145028, 11.955598123202336 ], [ 77.251039435216157, 11.955191060639432 ], [ 77.251394390405238, 11.955126189200296 ], [ 77.251470899857836, 11.955138890789506 ], [ 77.251530322367756, 11.955148264597751 ], [ 77.251578898567928, 11.955157245508831 ], [ 77.251892599365362, 11.953923298087275 ], [ 77.251726094179574, 11.952994997275114 ], [ 77.252488224409802, 11.952922204804825 ], [ 77.252539112976493, 11.952604924646115 ], [ 77.252774265887325, 11.952299907161079 ], [ 77.253546514817657, 11.952203701153119 ], [ 77.253528737503231, 11.951649647351591 ], [ 77.253750949729408, 11.951452341031681 ], [ 77.254203819526239, 11.951569448655203 ], [ 77.25412407232912, 11.952462491132851 ], [ 77.25642981277656, 11.951755268064503 ], [ 77.256477084673463, 11.95176209523458 ], [ 77.256535587769449, 11.951777458840855 ], [ 77.256598416473182, 11.951795924407058 ], [ 77.25764877189377, 11.951484145516694 ], [ 77.258827413860146, 11.952519835044875 ], [ 77.259406325208516, 11.95266835331741 ], [ 77.261714220569175, 11.952981939533201 ], [ 77.262341829798856, 11.952924759004183 ], [ 77.263202046421966, 11.953453788558342 ], [ 77.262748693200095, 11.95381009279023 ], [ 77.257740651668044, 11.957745956274458 ], [ 77.256501889446653, 11.958719483615509 ], [ 77.255730495187791, 11.960253865232131 ], [ 77.255912305395427, 11.961611945274457 ], [ 77.255933895354588, 11.961734441239757 ], [ 77.256132867164411, 11.962863361734446 ], [ 77.256139620326678, 11.963535800017036 ], [ 77.25614132535604, 11.963741136750077 ], [ 77.256149610905396, 11.963899172631363 ], [ 77.256160363566622, 11.96516453331504 ], [ 77.25657258360684, 11.96655526686618 ], [ 77.256555834919837, 11.966591022564996 ], [ 77.25594987654091, 11.967884539597996 ], [ 77.255379185395725, 11.969147368651464 ], [ 77.255109076984766, 11.969726558823092 ], [ 77.254853763879922, 11.970282880298253 ], [ 77.254727166332842, 11.970310184001603 ], [ 77.254691749424381, 11.970462212033237 ], [ 77.254292264924928, 11.971197077198637 ], [ 77.254335078649049, 11.971961237690744 ], [ 77.254360926990586, 11.972630222545309 ], [ 77.254387848207088, 11.973059464327445 ], [ 77.254749721432034, 11.976147041565413 ], [ 77.254762998706695, 11.976391715295959 ], [ 77.254253532956938, 11.9777273742615 ], [ 77.253923591601321, 11.980093577921224 ], [ 77.254107017338541, 11.980999117043991 ], [ 77.253861232975453, 11.983646474212817 ], [ 77.253156229397462, 11.984684465960411 ], [ 77.252809284346199, 11.984699145463399 ], [ 77.253232268578188, 11.984800396824212 ], [ 77.253875138466896, 11.98478223696261 ], [ 77.254549631076358, 11.984764745599918 ], [ 77.254552762236187, 11.986344393961234 ], [ 77.254376039615792, 11.988848365684996 ], [ 77.254141668932633, 11.990794081888209 ], [ 77.253701304788436, 11.991496015696271 ], [ 77.253338962369114, 11.99266503807503 ], [ 77.253226765449099, 11.993652309978128 ], [ 77.253222801816335, 11.994043678383903 ], [ 77.253362543426547, 11.994639342462651 ], [ 77.253906921667905, 11.995609867873855 ], [ 77.254397496559662, 11.998192492837346 ], [ 77.254993595709919, 12.000603075724623 ], [ 77.257703794195521, 12.001425236381529 ], [ 77.258684965380269, 12.001724255321427 ], [ 77.260865023794139, 12.002176573196005 ], [ 77.262187415398358, 12.002459929510303 ], [ 77.262229484012394, 12.002468943391641 ], [ 77.262838668961848, 12.002599474688163 ], [ 77.265322916463276, 11.99235541029477 ], [ 77.265333374386572, 11.992318898865108 ], [ 77.268215218678648, 11.982257610574733 ], [ 77.268917043641451, 11.977539185444193 ], [ 77.268756863239119, 11.972629064792409 ], [ 77.268672955606803, 11.970189763545529 ], [ 77.271571751791868, 11.970729521449632 ], [ 77.275637715075248, 11.971748941149567 ], [ 77.279261200008492, 11.972467949308122 ], [ 77.283723898238335, 11.973379620434692 ], [ 77.286424356310519, 11.974029034276297 ], [ 77.289956314122136, 11.974859629467169 ], [ 77.292893267703946, 11.976708670712124 ], [ 77.294899551170374, 11.981238327916916 ], [ 77.297279556440685, 11.984937358755094 ], [ 77.297043082767203, 11.987378567611977 ], [ 77.296715065174311, 11.989628108873292 ], [ 77.296112478180277, 11.993497834696468 ], [ 77.295578459548594, 11.996457807820654 ], [ 77.294365482397993, 12.003267486008426 ], [ 77.294393461776252, 12.006534805782769 ], [ 77.294394394021268, 12.006643721281835 ], [ 77.294394406292767, 12.006645170670321 ], [ 77.29441120570155, 12.008606735566069 ], [ 77.295235070759816, 12.011476126482259 ], [ 77.29563935219376, 12.01481659338622 ], [ 77.294044997502297, 12.019425351173684 ], [ 77.294289094730232, 12.022285207054532 ], [ 77.294334857146197, 12.025536039349539 ], [ 77.294639983919438, 12.02916546962777 ], [ 77.29436535015293, 12.032484933470808 ], [ 77.294815447231699, 12.036204941432345 ], [ 77.294174566641246, 12.040294008982697 ], [ 77.293350694859683, 12.042923075130066 ], [ 77.292961675481379, 12.045103009373612 ], [ 77.292511538862854, 12.047182834579941 ], [ 77.29430422391394, 12.048543617234124 ], [ 77.293793134296678, 12.051033495359668 ], [ 77.293571884698082, 12.054103120060653 ], [ 77.294853471818698, 12.055913066497116 ], [ 77.297019955821554, 12.052743309883725 ], [ 77.298118481193541, 12.050743600466932 ], [ 77.301299554799726, 12.049003304559429 ], [ 77.303534654029107, 12.04844352288556 ], [ 77.305838484949703, 12.047364051744506 ], [ 77.30889751727544, 12.0462740932466 ], [ 77.310743658662958, 12.045333847925273 ], [ 77.315198606625643, 12.042914581232354 ], [ 77.316617489029667, 12.042794448117041 ], [ 77.316869248295973, 12.043161570521857 ], [ 77.317021779135843, 12.043528712020024 ], [ 77.317098039664629, 12.044019826353646 ], [ 77.317128684030919, 12.044412694682071 ], [ 77.317227785932189, 12.044951501966791 ], [ 77.317328558012804, 12.045370952099653 ], [ 77.317607523786577, 12.045306020599648 ], [ 77.319067264096674, 12.045579230531105 ], [ 77.319496086778187, 12.045908436545414 ], [ 77.319335580556796, 12.047152920904033 ], [ 77.327409377402404, 12.050080185088285 ], [ 77.327979214466126, 12.05028677554499 ], [ 77.32969026317339, 12.050907095413329 ], [ 77.330901865582035, 12.052405137957324 ], [ 77.333663345499687, 12.059845450059431 ], [ 77.337239818902347, 12.070127328676604 ], [ 77.338544187289074, 12.074617040743677 ], [ 77.340437238856339, 12.075562190877942 ], [ 77.341066158206459, 12.075615823261256 ], [ 77.343225369840681, 12.075342910455948 ], [ 77.346032691220785, 12.074831808188165 ], [ 77.348984860053932, 12.074651596558404 ], [ 77.352728370467972, 12.074357807031353 ], [ 77.352753052250023, 12.074429175075 ], [ 77.352736027620296, 12.074630925154183 ], [ 77.355074075833301, 12.074428263156667 ], [ 77.355690686126522, 12.07437500817826 ], [ 77.355828785399112, 12.074321986358107 ], [ 77.356990479244004, 12.074246071289481 ], [ 77.358524980369566, 12.074097253841083 ], [ 77.358564641792015, 12.074092833132671 ], [ 77.358729376934619, 12.074074447089297 ], [ 77.359143341426815, 12.073896769882527 ], [ 77.359164080814324, 12.073887870342839 ], [ 77.359228234790365, 12.073861421867894 ], [ 77.359383062948012, 12.073723525917396 ], [ 77.359607266227869, 12.073523837691045 ], [ 77.359975916919254, 12.07328195153657 ], [ 77.360160947204335, 12.073354248869212 ], [ 77.360237307009442, 12.073330860244187 ], [ 77.360458413375738, 12.073263136650418 ], [ 77.360720678609241, 12.073222045966487 ], [ 77.360759028553545, 12.073216037583883 ], [ 77.360892010044182, 12.073195204453256 ], [ 77.361169054510839, 12.073058031611151 ], [ 77.361326413662141, 12.072783237114308 ], [ 77.361337137868716, 12.072764508743683 ], [ 77.361351835172343, 12.072758907093407 ], [ 77.361878127335515, 12.072558314791136 ], [ 77.361909185523459, 12.072546477427125 ], [ 77.361989181060835, 12.072494216417493 ], [ 77.362049191261818, 12.072477988275967 ], [ 77.362366273187618, 12.072310381900401 ], [ 77.362782393308095, 12.072090424602782 ], [ 77.362836453170033, 12.072064705447657 ], [ 77.363117090565225, 12.071931182800897 ], [ 77.363145630994183, 12.071878088098622 ], [ 77.363287743364779, 12.071938919448483 ], [ 77.363355217867138, 12.071576696492404 ], [ 77.363470210094732, 12.071506372545239 ], [ 77.363790846635212, 12.07131028851313 ], [ 77.364307605285404, 12.071036154930585 ], [ 77.364694283687612, 12.07101318316459 ], [ 77.365019530100398, 12.071359005132011 ], [ 77.365049501580245, 12.071390873364809 ], [ 77.365098945267377, 12.071479260540871 ], [ 77.365474346006422, 12.072150324951769 ], [ 77.365677069562338, 12.072515000684399 ], [ 77.366044028835006, 12.072623369201464 ], [ 77.366374461085115, 12.07376496415119 ], [ 77.36659261445088, 12.074361404844129 ], [ 77.366686771697672, 12.074649654442551 ], [ 77.366705713647789, 12.074707400281852 ], [ 77.366762646539215, 12.074880900729839 ], [ 77.366782517366062, 12.074880605133284 ], [ 77.366991986821773, 12.074877491545664 ], [ 77.367474187319232, 12.075072915082162 ], [ 77.367424743846243, 12.075252620521846 ], [ 77.367086647744301, 12.076481448865072 ], [ 77.367144229874896, 12.076584969580543 ], [ 77.367137995066642, 12.07661458383453 ], [ 77.367380417477733, 12.077009581093623 ], [ 77.367411941026035, 12.077068853465848 ], [ 77.368252836780599, 12.078657594045987 ], [ 77.368518052421024, 12.078804277539769 ], [ 77.368683439392868, 12.07885727225217 ], [ 77.368851879667602, 12.07891124657454 ], [ 77.36908228443427, 12.078985074055005 ], [ 77.369361766764172, 12.079405545883231 ], [ 77.369852815960186, 12.080509768410492 ], [ 77.369872123970907, 12.080691898021408 ], [ 77.369876587044956, 12.080740808331219 ], [ 77.369925183899952, 12.081273346372964 ], [ 77.369965928018559, 12.081719829715595 ], [ 77.369813982384031, 12.082007572661054 ], [ 77.369693731584306, 12.082235293311278 ], [ 77.36952054300437, 12.08256325953778 ], [ 77.369742302381439, 12.082714224142794 ], [ 77.36976385767143, 12.08276118057997 ], [ 77.369854633182356, 12.082958926295584 ], [ 77.370598658514311, 12.083841613488982 ], [ 77.37088243311976, 12.083984608403814 ], [ 77.370914318936073, 12.084000676608769 ], [ 77.371057238387166, 12.084072695086371 ], [ 77.371117063255141, 12.084023680091637 ], [ 77.371255170863577, 12.08389914479045 ], [ 77.372001405546044, 12.083226243395165 ], [ 77.372290064709659, 12.083215662663349 ], [ 77.372449651283787, 12.083209812290587 ], [ 77.373033517444014, 12.082987788339992 ], [ 77.373088048830454, 12.082967052756818 ], [ 77.373142264103905, 12.082955663303702 ], [ 77.373392415890066, 12.082892969516417 ], [ 77.373468111872072, 12.082874915821593 ], [ 77.373472578065631, 12.082874415935335 ], [ 77.373474696965573, 12.082874179166176 ], [ 77.373510818217923, 12.082870139680226 ], [ 77.373601814990067, 12.082862120127061 ], [ 77.374419956961518, 12.082790014989788 ], [ 77.375236103020555, 12.082725213167581 ], [ 77.375315829738483, 12.0826934464651 ], [ 77.375709043641976, 12.082536765315494 ], [ 77.376226388086806, 12.082330624756084 ], [ 77.376274278778254, 12.082347653404666 ], [ 77.376768776611016, 12.08252346091189 ], [ 77.377173471141148, 12.082667342517935 ], [ 77.377289804510866, 12.082668473821728 ], [ 77.377593733110672, 12.08267143157487 ], [ 77.377634650737136, 12.082598049346844 ], [ 77.377647318797912, 12.082570605632938 ], [ 77.377756550394707, 12.082368740029592 ], [ 77.377779695259377, 12.082325964464111 ], [ 77.377831144524308, 12.082230888434079 ], [ 77.377888705703384, 12.082221126729056 ], [ 77.377881776288902, 12.082073610706935 ], [ 77.379407065909319, 12.081878714987651 ], [ 77.379505948570298, 12.081857464903669 ], [ 77.379577505153733, 12.081842088177856 ], [ 77.37974122781678, 12.081806903111517 ], [ 77.379809940935417, 12.081793619955398 ], [ 77.380321558800389, 12.081694705887802 ], [ 77.381898612932929, 12.081389797734063 ], [ 77.38193535386047, 12.081382694063226 ], [ 77.38282502802366, 12.081274997856637 ], [ 77.383007054543256, 12.081192865821723 ], [ 77.383967781234716, 12.080759361558766 ], [ 77.384505207889688, 12.080589784154489 ], [ 77.389575419916397, 12.078569916307703 ], [ 77.389739606389355, 12.078598455439897 ], [ 77.389915387141585, 12.078463191211076 ], [ 77.390476164179972, 12.078432340390961 ], [ 77.391087952999769, 12.078918625157604 ], [ 77.391643634259978, 12.079206261368071 ], [ 77.392137609463603, 12.079631693600415 ], [ 77.392543740094908, 12.080282528770679 ], [ 77.392603212307776, 12.080390776283105 ], [ 77.397203031808559, 12.088941884479063 ], [ 77.396062324884298, 12.090365194157798 ], [ 77.395561687319471, 12.090412733146696 ], [ 77.388962356257821, 12.099229067169974 ], [ 77.386951138164534, 12.101876917568628 ], [ 77.388225561397959, 12.101231501325536 ], [ 77.393260342212699, 12.102430247179816 ], [ 77.396571079906479, 12.102921349193746 ], [ 77.399180029069342, 12.103489707615266 ], [ 77.40108712695185, 12.104590160001884 ], [ 77.402429657822537, 12.108190964559251 ], [ 77.403009451075548, 12.111299731807264 ], [ 77.403079090126397, 12.111609383553054 ], [ 77.403474825635541, 12.113369006423394 ], [ 77.403314586293277, 12.116149762595198 ], [ 77.405130121688742, 12.118759791600013 ], [ 77.406716793263712, 12.120598295598365 ], [ 77.40783819862466, 12.122849769934357 ], [ 77.409409760944058, 12.125318669261013 ], [ 77.411949889181031, 12.128648654870139 ], [ 77.412834793239128, 12.130469121366149 ], [ 77.414696183092346, 12.13122814778813 ], [ 77.417259298394185, 12.131519047317102 ], [ 77.420058985598629, 12.132177979434418 ], [ 77.423003550189449, 12.132878912781468 ], [ 77.425246290955073, 12.133409122331758 ], [ 77.427557708990548, 12.135013062663294 ], [ 77.430281065040916, 12.137981612107994 ], [ 77.430258169006706, 12.13823724531057 ], [ 77.429800454713657, 12.139241325086742 ], [ 77.429388532491473, 12.140063334435931 ], [ 77.429152067361372, 12.140565932490469 ], [ 77.4290223624145, 12.141203841122822 ], [ 77.429258855697043, 12.142204218809137 ], [ 77.430235326619979, 12.143793859742667 ], [ 77.431684634344364, 12.145151777841567 ], [ 77.432287308871963, 12.145649550965466 ], [ 77.43302725381939, 12.145736329992118 ], [ 77.434247823790372, 12.145804040792441 ], [ 77.43517845648681, 12.146572690151556 ], [ 77.436482966467295, 12.14820524905679 ], [ 77.43848919786484, 12.149925559950624 ], [ 77.439702115711484, 12.151512344042665 ], [ 77.440724361756779, 12.152692003125942 ], [ 77.441914440788082, 12.154034616702134 ], [ 77.444866512331558, 12.156555985043056 ], [ 77.445370089152732, 12.157228306837881 ], [ 77.446720250759782, 12.159045845964735 ], [ 77.448413804048926, 12.161355476141384 ], [ 77.449931881971239, 12.162987129646455 ], [ 77.451632984926292, 12.165036432384325 ], [ 77.453143395812035, 12.167676002143425 ], [ 77.454280017741738, 12.169968482259621 ], [ 77.4552488438094, 12.172229413781194 ], [ 77.45620240007743, 12.174118559753202 ], [ 77.457468713151712, 12.176283201716183 ], [ 77.458918112085868, 12.178096038785929 ], [ 77.460718395882438, 12.179847820076279 ], [ 77.462640786658341, 12.181186667190413 ], [ 77.46444111491698, 12.18258564727166 ], [ 77.465219217895125, 12.183638421435841 ], [ 77.465348893041849, 12.184576754162292 ], [ 77.465287826028614, 12.185163208496441 ], [ 77.464929278728661, 12.185577063339885 ], [ 77.463441743963969, 12.18640576442815 ], [ 77.462732291406098, 12.187173421307659 ], [ 77.462022847222016, 12.188878437491402 ], [ 77.461496512535035, 12.190860940029692 ], [ 77.46138962497686, 12.192679524455389 ], [ 77.461393633219515, 12.19269494136036 ], [ 77.461633806165636, 12.193618820660715 ], [ 77.46228983711076, 12.194025002408418 ], [ 77.462831444077821, 12.194081262128703 ], [ 77.463601988029794, 12.193960160945245 ], [ 77.463914652982567, 12.193664549018036 ], [ 77.466149815932056, 12.195494567290822 ], [ 77.467889066419588, 12.196903006154686 ], [ 77.469742772782709, 12.197944364970349 ], [ 77.475532778017907, 12.198647195058735 ], [ 77.47686010612361, 12.200183467931524 ], [ 77.478355241523104, 12.201409785527582 ], [ 77.479957292945727, 12.201475602316709 ], [ 77.481101528837613, 12.201993390764846 ], [ 77.481269485035611, 12.20466009241186 ], [ 77.480993797136534, 12.204715530910244 ], [ 77.479525274335472, 12.205021284237683 ], [ 77.477308269311351, 12.205525769501714 ], [ 77.476482171570979, 12.205588543801484 ], [ 77.475594635051038, 12.205711728422106 ], [ 77.475136471576164, 12.20595415950398 ], [ 77.474495418083677, 12.206408309749436 ], [ 77.473976102665091, 12.206680654394345 ], [ 77.473211943492373, 12.206984562568177 ], [ 77.472601032803055, 12.207346953831257 ], [ 77.472081977539275, 12.207709648603787 ], [ 77.471807756672234, 12.208101769548541 ], [ 77.471762225711785, 12.208268206415562 ], [ 77.471796167408641, 12.209079970632482 ], [ 77.472629249653934, 12.21094284243425 ], [ 77.475509736369915, 12.216032178067103 ], [ 77.476588548950502, 12.218013666529393 ], [ 77.477175246475298, 12.219365968079334 ], [ 77.477976905028228, 12.220866544471711 ], [ 77.480334781234959, 12.225236529917593 ], [ 77.48079756639369, 12.226287245543325 ], [ 77.481290560022472, 12.227067752310862 ], [ 77.481920351214143, 12.227802973579616 ], [ 77.482413350523757, 12.228583477080988 ], [ 77.482569346234428, 12.229364766570223 ], [ 77.482664183812631, 12.230236959267886 ], [ 77.482533345224553, 12.232088152440229 ], [ 77.482201513936545, 12.233443081148627 ], [ 77.481836264408216, 12.233986249763031 ], [ 77.481135081161739, 12.234830622808461 ], [ 77.48067932243795, 12.235765392092427 ], [ 77.480072714140078, 12.237331746506909 ], [ 77.479419787021541, 12.238672632983942 ], [ 77.478811010863481, 12.239577158653942 ], [ 77.478323430869949, 12.240241149603214 ], [ 77.4776822965473, 12.240755182302134 ], [ 77.476430477066501, 12.241601128800495 ], [ 77.474948040205376, 12.242284251248106 ], [ 77.474209274260602, 12.242639294598579 ], [ 77.47395256519755, 12.240746197106892 ], [ 77.472774206026031, 12.240683994242238 ], [ 77.469412920628514, 12.241740144026513 ], [ 77.466570712359882, 12.242645858944492 ], [ 77.466115653670315, 12.24282615020914 ], [ 77.465761229221243, 12.243082247069491 ], [ 77.463166097561924, 12.244862352367887 ], [ 77.460892510505204, 12.246407478226805 ], [ 77.460545655634505, 12.246595863595939 ], [ 77.460058418247186, 12.246609143055535 ], [ 77.45760644894834, 12.246675959741612 ], [ 77.454667769314653, 12.24676560311074 ], [ 77.452381425702299, 12.247505234461078 ], [ 77.452109686014339, 12.247829588840567 ], [ 77.452019033076681, 12.247931770567213 ], [ 77.451863879424053, 12.248054656347637 ], [ 77.451701460402731, 12.248239397210323 ], [ 77.451593951326686, 12.24834968261143 ], [ 77.450592941117478, 12.249376546989843 ], [ 77.448264624093895, 12.251764697304804 ], [ 77.448113800359849, 12.251919394626077 ], [ 77.44786906000175, 12.253129984524596 ], [ 77.44727737648536, 12.255753919773232 ], [ 77.446776724595566, 12.258021311710946 ], [ 77.446573377764992, 12.25832016366901 ], [ 77.445275277816819, 12.260314185802903 ], [ 77.443953457041957, 12.262309583957116 ], [ 77.442619209508692, 12.264295630361371 ], [ 77.441589943636075, 12.26588626986209 ], [ 77.441392713994858, 12.26629553498964 ], [ 77.440355255010061, 12.268274353145838 ], [ 77.439310655667327, 12.270232712508166 ], [ 77.438651816794547, 12.271429166327668 ], [ 77.437433538866941, 12.273685368136341 ], [ 77.436385288229928, 12.275684940736943 ], [ 77.435348873885147, 12.277683821136074 ], [ 77.434300035075339, 12.279673351145711 ], [ 77.433216263828754, 12.281569242064311 ], [ 77.432339424711429, 12.283326355627944 ], [ 77.431918974396154, 12.284057928322509 ], [ 77.430865518847668, 12.285527589271132 ], [ 77.430805447612542, 12.285528566540599 ], [ 77.430104955821307, 12.286420475424599 ], [ 77.429884832562024, 12.286688592878964 ], [ 77.421848229019716, 12.286515231623934 ], [ 77.41833419490068, 12.286369653475207 ], [ 77.416538802829209, 12.284487567096914 ], [ 77.413161398846469, 12.28090233273165 ], [ 77.408324871071741, 12.277530420102471 ], [ 77.405947293317155, 12.275866247535303 ], [ 77.404191055879949, 12.275641054741829 ], [ 77.402906574700069, 12.275989443105797 ], [ 77.39788405463058, 12.276104680183019 ], [ 77.386743475697486, 12.276399262396234 ], [ 77.380875023934763, 12.276567015862735 ], [ 77.358085970426089, 12.277400562073902 ], [ 77.355003525104436, 12.27574137926703 ], [ 77.349809615201465, 12.276652837445804 ], [ 77.344538613949766, 12.277622126855075 ], [ 77.341387159264826, 12.281107309697491 ], [ 77.338681544840156, 12.284117845331908 ], [ 77.337637109348435, 12.28529055720079 ], [ 77.335332425556686, 12.287878253113476 ], [ 77.331996266493363, 12.293394983307911 ], [ 77.327849863644303, 12.30003095759109 ], [ 77.326140202690098, 12.30276548815627 ], [ 77.319776979979991, 12.302228337716311 ], [ 77.319022290763215, 12.302500616805657 ], [ 77.319400427162762, 12.305796088955024 ], [ 77.315035255874719, 12.303660911886093 ], [ 77.311876038923046, 12.299361168290321 ], [ 77.306034464495866, 12.297154858012082 ], [ 77.302315057715376, 12.297246676942773 ], [ 77.295340276265421, 12.301282940013964 ], [ 77.289503837213886, 12.30203352236628 ], [ 77.279810845484249, 12.308808190013758 ] ] ], [ [ [ 77.297554515178774, 11.916034264675417 ], [ 77.297092808546296, 11.916859284303319 ], [ 77.296883517340277, 11.917217388147508 ], [ 77.295510262447166, 11.919567055197994 ], [ 77.29512863850843, 11.920361725802284 ], [ 77.294214308629563, 11.92161552213561 ], [ 77.292540961491824, 11.924024733120415 ], [ 77.291815004413536, 11.925080629147569 ], [ 77.291282277557244, 11.925855469643228 ], [ 77.290794086127178, 11.926935356785382 ], [ 77.290636341497233, 11.927284290402058 ], [ 77.289191570716099, 11.92885181977244 ], [ 77.288731543832156, 11.92943098908915 ], [ 77.287381101298692, 11.929876446870933 ], [ 77.285502506893891, 11.930320238669884 ], [ 77.285401621625937, 11.930344071418604 ], [ 77.283040554663785, 11.930901821233814 ], [ 77.280701425666436, 11.931538166242952 ], [ 77.279541733327108, 11.931897850978116 ], [ 77.278682330186655, 11.932134715411195 ], [ 77.277674649697261, 11.931283966688513 ], [ 77.276747988776776, 11.930624991089889 ], [ 77.275512002787863, 11.929789935378663 ], [ 77.272502690408331, 11.928587781364557 ], [ 77.273697893095274, 11.927740272853281 ], [ 77.274374608042137, 11.927688974094906 ], [ 77.274134404190434, 11.925577005007568 ], [ 77.276322536764866, 11.924911869211913 ], [ 77.277155884275984, 11.924561335692328 ], [ 77.277493964912935, 11.924130077700989 ], [ 77.277527346787963, 11.924087496103397 ], [ 77.277471789586244, 11.923318315294486 ], [ 77.277442223469706, 11.922884656067037 ], [ 77.277437169819152, 11.922810533260682 ], [ 77.277436065613472, 11.922794338202607 ], [ 77.277431572337179, 11.922527472727646 ], [ 77.277441754163803, 11.92252231073107 ], [ 77.27873063469211, 11.921868785815931 ], [ 77.278755270594488, 11.921852149260321 ], [ 77.278844986541969, 11.921815234928365 ], [ 77.280104695994808, 11.921004314011226 ], [ 77.279970279678764, 11.920589985180468 ], [ 77.279638368485408, 11.919761132945805 ], [ 77.279353905988273, 11.919200796332593 ], [ 77.278743466069372, 11.917998342354 ], [ 77.278507649083863, 11.917472115962015 ], [ 77.278444655446407, 11.917331544061913 ], [ 77.277809241659341, 11.91574169486808 ], [ 77.276903573795337, 11.914733036727677 ], [ 77.276864125195289, 11.914689101179926 ], [ 77.276327019542393, 11.914842604111355 ], [ 77.276277778086552, 11.914759073944767 ], [ 77.275923869040824, 11.914158718130524 ], [ 77.275925077990891, 11.914068560136794 ], [ 77.275942775080068, 11.912749674432105 ], [ 77.276121428011052, 11.912028075430269 ], [ 77.275885943160134, 11.911478368001251 ], [ 77.27563656117394, 11.910896215284632 ], [ 77.275679631755835, 11.910600669726731 ], [ 77.275859205957374, 11.909368424902528 ], [ 77.275881508498387, 11.909215385120708 ], [ 77.275678589642951, 11.907436911898669 ], [ 77.276071962798738, 11.906566835878824 ], [ 77.276771016154441, 11.906081305602026 ], [ 77.277286479193108, 11.905795622960186 ], [ 77.277406696437495, 11.905755636770802 ], [ 77.277850258359905, 11.905608101550071 ], [ 77.278288191431088, 11.905418455144245 ], [ 77.278365063828247, 11.905385165530427 ], [ 77.278816493966261, 11.905300703212911 ], [ 77.278845447765164, 11.905295285588778 ], [ 77.278945511616016, 11.905276562818878 ], [ 77.279282523012711, 11.905109572192563 ], [ 77.279546170517008, 11.9049438025939 ], [ 77.279827043906394, 11.904767201075742 ], [ 77.281101710835571, 11.903962629496782 ], [ 77.281157882875462, 11.9039271734369 ], [ 77.281144188702285, 11.903840343447969 ], [ 77.281050241977454, 11.903244605666135 ], [ 77.280992469765792, 11.902438699681737 ], [ 77.280992931275364, 11.902218249232142 ], [ 77.280993311835402, 11.90203616266917 ], [ 77.280993670975747, 11.901864706324039 ], [ 77.280953971932078, 11.901658421602253 ], [ 77.280935339656139, 11.90156160421928 ], [ 77.280921010325869, 11.901487146242177 ], [ 77.280653597314341, 11.900624038015408 ], [ 77.280657488926707, 11.900342899879808 ], [ 77.281382159679836, 11.900080650706197 ], [ 77.281451462528764, 11.899852976847784 ], [ 77.281531981491511, 11.899770203046453 ], [ 77.281355534783117, 11.899608452186964 ], [ 77.281356853751191, 11.899410807436743 ], [ 77.281369140410476, 11.899400781060782 ], [ 77.281670356175368, 11.899154994455177 ], [ 77.281674726333947, 11.899026137030548 ], [ 77.281878722368461, 11.898906897230548 ], [ 77.282239548450391, 11.898570926333319 ], [ 77.282164093914616, 11.898187555068104 ], [ 77.282179142589925, 11.897771589315091 ], [ 77.282118280514084, 11.897740657963915 ], [ 77.281925295109531, 11.897642577355764 ], [ 77.281547055928684, 11.897818002572174 ], [ 77.281488637218175, 11.897662278628337 ], [ 77.281406763521531, 11.897444033163874 ], [ 77.281384291406169, 11.89740827086389 ], [ 77.281125682950332, 11.896143667025596 ], [ 77.281209343957926, 11.895899345182546 ], [ 77.281173843111205, 11.895850272088884 ], [ 77.281115073595259, 11.895769032512897 ], [ 77.281113569329818, 11.895762610438444 ], [ 77.281083328518463, 11.895633564733165 ], [ 77.281015775248989, 11.895030103989974 ], [ 77.281270543559515, 11.894981678486376 ], [ 77.28171125580478, 11.894837088777336 ], [ 77.282124704427758, 11.894763736880458 ], [ 77.282599118981622, 11.894548329867876 ], [ 77.282457826297232, 11.893997756468135 ], [ 77.282519473701001, 11.893839790687878 ], [ 77.282388521589297, 11.893171766535909 ], [ 77.282145878045867, 11.892272422087492 ], [ 77.282240485532554, 11.892156985606853 ], [ 77.282041272649366, 11.891518736407711 ], [ 77.281945447540167, 11.890853750340895 ], [ 77.281926233217632, 11.890696668134119 ], [ 77.28185207046819, 11.890090370985199 ], [ 77.282255646604767, 11.890099928105665 ], [ 77.282605348349847, 11.88952610032519 ], [ 77.283186545334033, 11.889589945305563 ], [ 77.284145510840332, 11.889206566708181 ], [ 77.284961769742452, 11.889093297632195 ], [ 77.28498522875482, 11.88896724991767 ], [ 77.284857503353066, 11.887950582750481 ], [ 77.284787130477852, 11.887006742540397 ], [ 77.284758116236503, 11.886617599995631 ], [ 77.2846967899318, 11.88582416866668 ], [ 77.284675418145426, 11.885793932670623 ], [ 77.28465811516547, 11.885769455452969 ], [ 77.284348428564513, 11.885331305362181 ], [ 77.284371682830169, 11.885051762293944 ], [ 77.284379023948176, 11.88496351237996 ], [ 77.284378659736888, 11.8849621995631 ], [ 77.284240038883482, 11.884462916969731 ], [ 77.284176211373989, 11.88399267359315 ], [ 77.284172552804861, 11.88399088046001 ], [ 77.284104915665765, 11.883957712985444 ], [ 77.283934633986149, 11.883874220051563 ], [ 77.283632963547618, 11.88372630058106 ], [ 77.283180483237118, 11.882785440305645 ], [ 77.283136927252286, 11.882694873660613 ], [ 77.28308826595034, 11.882587233394458 ], [ 77.282891959176112, 11.882152999473382 ], [ 77.282874369888134, 11.881707454185291 ], [ 77.282882595380258, 11.881460790134557 ], [ 77.282882633706507, 11.88145966383324 ], [ 77.282892935280643, 11.881150748924536 ], [ 77.282951288439818, 11.879981524244362 ], [ 77.282478902977161, 11.879964638738128 ], [ 77.281734045166658, 11.879938014293655 ], [ 77.281781199568698, 11.879330530950259 ], [ 77.281791646157714, 11.879195943780111 ], [ 77.281794982739186, 11.87918971211945 ], [ 77.281801556338252, 11.879122545890159 ], [ 77.282233778208933, 11.878132729947097 ], [ 77.282379905786144, 11.877967457187136 ], [ 77.282396394559299, 11.877948807446666 ], [ 77.282610034946032, 11.877707177139227 ], [ 77.283409360566864, 11.876629043536749 ], [ 77.283428691495843, 11.876622040976205 ], [ 77.283461594865017, 11.876610121109032 ], [ 77.282905448958104, 11.876600349246996 ], [ 77.281943642497268, 11.876560473778316 ], [ 77.281691800317418, 11.876550031581758 ], [ 77.281667214817006, 11.876549012877977 ], [ 77.281604395151859, 11.87656533563046 ], [ 77.281158214465535, 11.8766812677801 ], [ 77.280919867005764, 11.876707297167931 ], [ 77.280740451368189, 11.876726889887214 ], [ 77.280060873646846, 11.876801104396401 ], [ 77.279656336971371, 11.876845280754942 ], [ 77.279555053443886, 11.876848742219929 ], [ 77.279008630543103, 11.876867410975139 ], [ 77.278294778348567, 11.876958376611451 ], [ 77.278260149785069, 11.87695861520959 ], [ 77.277845031663787, 11.876961464691655 ], [ 77.276677716168251, 11.877221640793675 ], [ 77.275499380766192, 11.877249998224965 ], [ 77.275314128975083, 11.877100273258694 ], [ 77.275279775210748, 11.877072507554464 ], [ 77.275250973528671, 11.877026513989817 ], [ 77.275204990725669, 11.876953083605853 ], [ 77.275097328042506, 11.876977206216285 ], [ 77.275061167249461, 11.876985308018257 ], [ 77.27505152535096, 11.876987468670903 ], [ 77.274298912451997, 11.876811710622281 ], [ 77.273946921630056, 11.876749840729337 ], [ 77.273606890054978, 11.876901636711473 ], [ 77.272901473002563, 11.876735720160394 ], [ 77.2722505291147, 11.876655039842055 ], [ 77.271754824394051, 11.876593599991216 ], [ 77.270933640939319, 11.875896187955492 ], [ 77.270643231819818, 11.875553683008604 ], [ 77.269781793191854, 11.875354230209323 ], [ 77.269655267593507, 11.875340129640128 ], [ 77.26965535387663, 11.87532495413495 ], [ 77.269605141911867, 11.87463841524656 ], [ 77.269596538181929, 11.872712490292772 ], [ 77.267211949641833, 11.872366820460554 ], [ 77.26691679136448, 11.872286482957669 ], [ 77.266820951062073, 11.872260398418646 ], [ 77.266806313808587, 11.872212021755088 ], [ 77.266620987291731, 11.87159952522209 ], [ 77.266605411539473, 11.87154804554258 ], [ 77.26657483739686, 11.871446999187899 ], [ 77.266581230826645, 11.87143991084274 ], [ 77.266825729162136, 11.871168824224139 ], [ 77.266827898988311, 11.871139734055888 ], [ 77.266854864496949, 11.870778218794806 ], [ 77.266249351430474, 11.870658316624677 ], [ 77.266023892444423, 11.870652756421533 ], [ 77.265894965404328, 11.870564753430276 ], [ 77.265885420874667, 11.870493970286397 ], [ 77.265863876462674, 11.870334183489181 ], [ 77.266096739157419, 11.87012641694324 ], [ 77.266099957031429, 11.87012354631262 ], [ 77.265878526488905, 11.869771345760853 ], [ 77.265805390503218, 11.869655017315438 ], [ 77.265640329011688, 11.869297884984126 ], [ 77.265578317261557, 11.869274622934173 ], [ 77.265291296421623, 11.869166957848091 ], [ 77.265051788040068, 11.868464814781206 ], [ 77.265029287574194, 11.868412793965739 ], [ 77.265033482658581, 11.868411152678775 ], [ 77.265154352712173, 11.868363871610052 ], [ 77.265473645534897, 11.868341171495567 ], [ 77.265407301441684, 11.86823026209799 ], [ 77.265239363058541, 11.867949515521344 ], [ 77.265001086470377, 11.86786871476793 ], [ 77.264892917444925, 11.867978513799589 ], [ 77.264604700187746, 11.868038887878473 ], [ 77.264546535881195, 11.867963394506532 ], [ 77.264506190742111, 11.86791102766218 ], [ 77.26447195834912, 11.867886917423727 ], [ 77.26399302920359, 11.867549581499112 ], [ 77.263923988181546, 11.867367171036387 ], [ 77.263678419523373, 11.867152138953397 ], [ 77.263676345639425, 11.867150322860965 ], [ 77.263641609327408, 11.866998431079262 ], [ 77.263594012804319, 11.86697867416915 ], [ 77.263591674624024, 11.866956395071957 ], [ 77.2633706189214, 11.866839556367504 ], [ 77.262736887586513, 11.866890451752573 ], [ 77.262480084727414, 11.866727523313294 ], [ 77.26246855458723, 11.866720207969419 ], [ 77.262058009650104, 11.86645973511213 ], [ 77.262037924839106, 11.866456223170445 ], [ 77.261984572545828, 11.866349746162049 ], [ 77.261664569749101, 11.866292414349047 ], [ 77.261518045187685, 11.866147619221442 ], [ 77.261485499305067, 11.866115457553276 ], [ 77.261407740921683, 11.86614245209206 ], [ 77.260739742841423, 11.866374354741939 ], [ 77.260605362147373, 11.866570367817017 ], [ 77.260087187051923, 11.866943551146958 ], [ 77.260059689456057, 11.867185655005756 ], [ 77.259666249318414, 11.86731949188056 ], [ 77.259458597621332, 11.867963800898954 ], [ 77.25852002034668, 11.867961142122773 ], [ 77.258535541130584, 11.868222083426367 ], [ 77.258569826961136, 11.868607007892848 ], [ 77.258548051037678, 11.86893037108524 ], [ 77.25847406991609, 11.868947907425619 ], [ 77.257960988275599, 11.869069530506904 ], [ 77.257817395213479, 11.869096710318404 ], [ 77.25763384024917, 11.869131452375107 ], [ 77.257104509622053, 11.869226257252484 ], [ 77.256461036160715, 11.869295338486401 ], [ 77.256494367080606, 11.87031646309333 ], [ 77.256947034720866, 11.870670359259655 ], [ 77.257013079861622, 11.871433286151548 ], [ 77.256743319684062, 11.872172541802957 ], [ 77.25656500366631, 11.872557561253986 ], [ 77.250920095576859, 11.872759663968598 ], [ 77.250838328477215, 11.872762590755345 ], [ 77.250753083090103, 11.872765641917404 ], [ 77.249962427498176, 11.86930934628754 ], [ 77.250649680088571, 11.868239835928694 ], [ 77.251913442818449, 11.867691266910565 ], [ 77.252076526124426, 11.866965124475646 ], [ 77.252088407587834, 11.866912221921654 ], [ 77.252093078521042, 11.866891419417074 ], [ 77.250595216564548, 11.866876901439143 ], [ 77.249583498313427, 11.866595067060379 ], [ 77.248599793620997, 11.865661845405976 ], [ 77.247527723390291, 11.865687672026281 ], [ 77.24671002361444, 11.864383811031562 ], [ 77.247199334907378, 11.863942306015964 ], [ 77.247795826050435, 11.863504380336151 ], [ 77.246338451344457, 11.862189322546579 ], [ 77.24476958387261, 11.861259559705326 ], [ 77.244717248921361, 11.860721974151383 ], [ 77.244711538380585, 11.860663306459738 ], [ 77.244559582302671, 11.859102385812793 ], [ 77.245405231114404, 11.855642005882183 ], [ 77.246629553748079, 11.850883632844278 ], [ 77.247279570240508, 11.849632228918894 ], [ 77.250071808140376, 11.848184510437136 ], [ 77.253113080779571, 11.846607627869936 ], [ 77.253042358194179, 11.846354519915986 ], [ 77.252821971937408, 11.845565747991223 ], [ 77.252250778743175, 11.84300136692956 ], [ 77.251783771798486, 11.840827772340274 ], [ 77.251520174411596, 11.839667617353546 ], [ 77.251443537440949, 11.839330315528263 ], [ 77.250968723217682, 11.837240497341037 ], [ 77.250869396184754, 11.836785550128251 ], [ 77.250665443594698, 11.836203109229977 ], [ 77.250163587219788, 11.83482566781348 ], [ 77.249617568882186, 11.833167035991208 ], [ 77.249601209765885, 11.833128227794434 ], [ 77.249097067099257, 11.831932375105692 ], [ 77.24823819497901, 11.831345297496048 ], [ 77.247695151078773, 11.830466923397241 ], [ 77.247276667955376, 11.828881548373051 ], [ 77.24638996739823, 11.82708697575482 ], [ 77.245600553504403, 11.825446436168871 ], [ 77.243214054138576, 11.823204112750464 ], [ 77.240344427615369, 11.824010526099009 ], [ 77.24008447359958, 11.823268224115196 ], [ 77.239743944259885, 11.821990965879758 ], [ 77.239605393539989, 11.821125186306636 ], [ 77.238491162532938, 11.821504398597988 ], [ 77.237976005858144, 11.820094558111748 ], [ 77.237907296201357, 11.819906516507219 ], [ 77.238092630205927, 11.819834942121275 ], [ 77.23944463977567, 11.81931279566936 ], [ 77.239206466231295, 11.818617838687972 ], [ 77.238610678409287, 11.818640770920599 ], [ 77.23851851424368, 11.817610003368717 ], [ 77.238384996839571, 11.816724855403411 ], [ 77.237263043434012, 11.812081185001832 ], [ 77.236960155381396, 11.810123448304125 ], [ 77.235659963940478, 11.806512883553255 ], [ 77.235251572651364, 11.806123150316816 ], [ 77.233605249790088, 11.804812684651834 ], [ 77.233190352589659, 11.804461337020555 ], [ 77.233480661472001, 11.803828874071085 ], [ 77.233442041948393, 11.803611212702373 ], [ 77.233260844576208, 11.803304673331285 ], [ 77.233012067032547, 11.803207037728928 ], [ 77.232163968335954, 11.803393693422649 ], [ 77.232111811134786, 11.803371877971992 ], [ 77.231089321151529, 11.802944206706004 ], [ 77.229043897561056, 11.803081482952392 ], [ 77.228953565993422, 11.802352082340342 ], [ 77.229152679092181, 11.801135547631182 ], [ 77.229656728498227, 11.800143601311813 ], [ 77.229447374028467, 11.798789510721809 ], [ 77.230255919023108, 11.796801079065125 ], [ 77.230121628605417, 11.796512281489628 ], [ 77.229745194915438, 11.795981644089089 ], [ 77.229684781028354, 11.795896482233184 ], [ 77.236172265788326, 11.79555184696515 ], [ 77.236558961736563, 11.794740947511563 ], [ 77.237436349437885, 11.794733062171805 ], [ 77.238126853418393, 11.794376258374227 ], [ 77.241613774852254, 11.796876167874938 ], [ 77.246305953128001, 11.800240029637814 ], [ 77.246659540263678, 11.801335646841032 ], [ 77.247171957287733, 11.801877920925486 ], [ 77.247264770997987, 11.802584332660986 ], [ 77.247503342171115, 11.803045141677472 ], [ 77.247854529563497, 11.803402991883212 ], [ 77.24949036665673, 11.804459606781956 ], [ 77.249719555214924, 11.812702468335246 ], [ 77.250415853281979, 11.812912846550189 ], [ 77.25348970349431, 11.813841549842818 ], [ 77.253542990271711, 11.813899701487683 ], [ 77.253720180622494, 11.814842009291304 ], [ 77.254090940469325, 11.815794475567543 ], [ 77.256178113931568, 11.820319753342257 ], [ 77.256818167004297, 11.821600209844311 ], [ 77.256932916250136, 11.821829769485371 ], [ 77.257568825857035, 11.822560602227293 ], [ 77.261729031712747, 11.824475381738353 ], [ 77.263045938537033, 11.825098351153132 ], [ 77.268816338335185, 11.832415832165523 ], [ 77.27090117527969, 11.835006907882837 ], [ 77.274552282644763, 11.83940034395043 ], [ 77.275550815870616, 11.840602649579292 ], [ 77.275694012980154, 11.840758419103716 ], [ 77.280054192281426, 11.846279849417957 ], [ 77.280078702753528, 11.846691942777783 ], [ 77.278924983356049, 11.849605328466321 ], [ 77.28013802026571, 11.855057342540849 ], [ 77.280237211117011, 11.855503142284435 ], [ 77.280466421853561, 11.856624129998009 ], [ 77.280850918766006, 11.858084851008062 ], [ 77.281215359815306, 11.859329682471216 ], [ 77.281554324223691, 11.860601685197981 ], [ 77.282167554072302, 11.862902876657248 ], [ 77.282334358049681, 11.862909212846949 ], [ 77.282943701727859, 11.864553525207663 ], [ 77.283988724371795, 11.867239130316973 ], [ 77.284537207351264, 11.868422971084295 ], [ 77.284542431212699, 11.86913793143475 ], [ 77.284547905552145, 11.869887205342435 ], [ 77.285122959684898, 11.870365410006041 ], [ 77.288298964063372, 11.872960502791024 ], [ 77.289008036457247, 11.873556756900394 ], [ 77.289105555438155, 11.87369889325354 ], [ 77.290194373091722, 11.874440477700549 ], [ 77.292218699683573, 11.875452831133686 ], [ 77.293225349644914, 11.876506026474251 ], [ 77.29370213919303, 11.876977997048641 ], [ 77.294203445922577, 11.877350030199853 ], [ 77.294465875607244, 11.87873016446089 ], [ 77.29483004335907, 11.882146176369854 ], [ 77.295368659046957, 11.886515469921484 ], [ 77.295929096153145, 11.887558751203263 ], [ 77.29641548495097, 11.888464178921559 ], [ 77.296880272242177, 11.891250925242892 ], [ 77.296905689387714, 11.89245089985763 ], [ 77.296879401523171, 11.89256709076165 ], [ 77.29690187083483, 11.893944489931144 ], [ 77.296763069896869, 11.897834676089198 ], [ 77.295457399910546, 11.902278757174672 ], [ 77.295266165958495, 11.902787042642538 ], [ 77.294967289971581, 11.903878895175 ], [ 77.294768853349709, 11.905047065219501 ], [ 77.297211445859773, 11.90812664729588 ], [ 77.296600100347888, 11.911057369076786 ], [ 77.295968370036462, 11.912404254991909 ], [ 77.296076964161685, 11.912616522607976 ], [ 77.296429599544027, 11.913305792182129 ], [ 77.297554515178774, 11.916034264675417 ] ] ], [ [ [ 77.225244705979392, 11.837218175569824 ], [ 77.226694066820073, 11.839169255629518 ], [ 77.229478490258572, 11.839399106573968 ], [ 77.231522846350515, 11.840569172741445 ], [ 77.22998191282035, 11.845638529048228 ], [ 77.227754384023044, 11.848437340479784 ], [ 77.223909655876255, 11.84913726200076 ], [ 77.223062945032595, 11.841997629836166 ], [ 77.221865254245174, 11.838208032862473 ], [ 77.222582337488504, 11.835918416248068 ], [ 77.224847993318917, 11.834938141256625 ], [ 77.225244705979392, 11.837218175569824 ] ] ], [ [ [ 77.202646448685513, 12.048134076222413 ], [ 77.203025288679655, 12.048418212620634 ], [ 77.203219969629714, 12.048736456484708 ], [ 77.203687669491288, 12.049745063840609 ], [ 77.203439099986156, 12.050266111123294 ], [ 77.202952424044369, 12.050418394756083 ], [ 77.202833203394036, 12.05008567961781 ], [ 77.202576141148327, 12.049897610823251 ], [ 77.202143995656172, 12.049322518238831 ], [ 77.202092323297023, 12.049058509262572 ], [ 77.201857970335197, 12.048909826876763 ], [ 77.201807031052056, 12.048498076945307 ], [ 77.20212321882866, 12.047872989743741 ], [ 77.202526291518396, 12.047776815767129 ], [ 77.202646448685513, 12.048134076222413 ] ] ] ] } }
]
}
