{
"type": "FeatureCollection",
"name": "wards_in_police_area.writing_20260805_172659",
"crs": { "type": "name", "properties": { "name": "urn:ogc:def:crs:OGC:1.3:CRS84" } },
"features": [
{ "type": "Feature", "properties": { "KGISWardID": 5007, "KGISWardCode": "2003066", "KGISWardName": "Subramanya Nagar", "SHAPE.STArea()": 950143.24045432999, "SHAPE.STLength()": 4479.7694067047441, "OBJECTID": 18909, "KGISWardNo": "66", "KGISTownCode": "2003", "LGD_WardCode": 1302738, "created_user": "SA", "created_date": 1634898537000, "last_edited_user": "SURESHBV1", "last_edited_date": 1692254014000, "_overlap_percent": 0.1263871511936098, "_police_station": "Yeshwanthpura RMC Yard PS", "_police_feature_index": "743", "_admin_layer": "Ward", "_geometry_clipped": true }, "geometry": { "type": "MultiPolygon", "coordinates": [ [ [ [ 77.555476999917701, 13.015598000025008 ], [ 77.555477815460307, 13.015597214915665 ], [ 77.555444002775104, 13.015579695057502 ], [ 77.555476999917701, 13.015598000025008 ] ] ], [ [ [ 77.555331082769911, 13.015521186173562 ], [ 77.555214291974906, 13.015460671661017 ], [ 77.555040163755947, 13.015383335124753 ], [ 77.554858862595964, 13.015336560823107 ], [ 77.554051927415287, 13.015403744214746 ], [ 77.554047860931703, 13.015404082747956 ], [ 77.555331082769911, 13.015521186173562 ] ] ], [ [ [ 77.55378099974061, 13.015432999826571 ], [ 77.553975823104423, 13.015410079869646 ], [ 77.55395911892343, 13.015411470486354 ], [ 77.553790903923115, 13.01540235042326 ], [ 77.55378099974061, 13.015432999826571 ] ] ] ] } },
{ "type": "Feature", "properties": { "KGISWardID": 4966, "KGISWardCode": "2003045", "KGISWardName": "Malleswaram", "SHAPE.STArea()": 1814031.2666270649, "SHAPE.STLength()": 7742.9823760406207, "OBJECTID": 18888, "KGISWardNo": "45", "KGISTownCode": "2003", "LGD_WardCode": 1302717, "created_user": "SA", "created_date": 1634898537000, "last_edited_user": "SURESHBV1", "last_edited_date": 1692254014000, "_overlap_percent": 0.35101575621385989, "_police_station": "Yeshwanthpura RMC Yard PS", "_police_feature_index": "743", "_admin_layer": "Ward", "_geometry_clipped": true }, "geometry": { "type": "Polygon", "coordinates": [ [ [ 77.555476999917701, 13.015598000025008 ], [ 77.555806000051334, 13.015780000129634 ], [ 77.555649999909775, 13.016005999952617 ], [ 77.555148999809887, 13.016856000226792 ], [ 77.553859000414747, 13.019082999891003 ], [ 77.553537000108292, 13.01964900039261 ], [ 77.553729000138063, 13.019691999847289 ], [ 77.554130999571811, 13.019783000452868 ], [ 77.554189529339652, 13.019796128227176 ], [ 77.554204624902596, 13.019775340002223 ], [ 77.554212939318177, 13.019694582007487 ], [ 77.554171735337505, 13.019539612277688 ], [ 77.554099785435412, 13.019358052260253 ], [ 77.55399825324352, 13.019263437032725 ], [ 77.553918662642943, 13.019228364792911 ], [ 77.553945217416938, 13.019150235924917 ], [ 77.554289584205321, 13.018497848404582 ], [ 77.554828346909602, 13.017545939765858 ], [ 77.555158452593034, 13.016929547863187 ], [ 77.555861092530108, 13.015807774093938 ], [ 77.555807701405712, 13.015767644847365 ], [ 77.555599287621448, 13.015660155052499 ], [ 77.555477815460307, 13.015597214915665 ], [ 77.555476999917701, 13.015598000025008 ] ] ] } },
{ "type": "Feature", "properties": { "KGISWardID": 4963, "KGISWardCode": "2003044", "KGISWardName": "Marappana Palya", "SHAPE.STArea()": 2025619.4064512849, "SHAPE.STLength()": 6669.828762216619, "OBJECTID": 18887, "KGISWardNo": "44", "KGISTownCode": "2003", "LGD_WardCode": 1302716, "created_user": "SA", "created_date": 1634898537000, "last_edited_user": "SURESHBV1", "last_edited_date": 1692254014000, "_overlap_percent": 39.99590996060217, "_police_station": "Yeshwanthpura RMC Yard PS", "_police_feature_index": "743", "_admin_layer": "Ward", "_geometry_clipped": true }, "geometry": { "type": "Polygon", "coordinates": [ [ [ 77.540143999901474, 13.019598000196892 ], [ 77.540503000180991, 13.020183999975943 ], [ 77.540540999842591, 13.020241000340835 ], [ 77.541021999746704, 13.021058000250706 ], [ 77.542018000262729, 13.022744999971657 ], [ 77.542427999651409, 13.023430000037072 ], [ 77.543206999772821, 13.024714000157697 ], [ 77.54363899997125, 13.02541099957606 ], [ 77.544233000229596, 13.026394000277891 ], [ 77.546027999544023, 13.025404999781971 ], [ 77.546424999739571, 13.025186000207336 ], [ 77.547271000398652, 13.024719000421383 ], [ 77.547861999706953, 13.024365000164101 ], [ 77.548665000320185, 13.023883000177356 ], [ 77.549121999876078, 13.023606000336345 ], [ 77.550332999756392, 13.022871999618918 ], [ 77.551296000194, 13.022287999857618 ], [ 77.551441999651956, 13.022188999724372 ], [ 77.551646999638677, 13.021922999625296 ], [ 77.551835000341143, 13.021633000190104 ], [ 77.552275000270114, 13.020818000113882 ], [ 77.552400000180612, 13.020586999698986 ], [ 77.552772999809179, 13.019898999684834 ], [ 77.552878999662425, 13.01966000007223 ], [ 77.553076999916215, 13.019012000305898 ], [ 77.553211999781794, 13.018540999637102 ], [ 77.553293999896809, 13.018265999578052 ], [ 77.553556999585112, 13.017368999804626 ], [ 77.553613999962053, 13.016530000186203 ], [ 77.553649999650105, 13.015838000418295 ], [ 77.55378099974061, 13.015432999826571 ], [ 77.553790903923115, 13.01540235042326 ], [ 77.553707273047905, 13.015397816232747 ], [ 77.553617975039074, 13.015604867630669 ], [ 77.553563326008884, 13.015922134867264 ], [ 77.553540034510405, 13.016325744858586 ], [ 77.553540783006326, 13.016696250257217 ], [ 77.55351629794707, 13.016983340337525 ], [ 77.553382196248322, 13.017576286344866 ], [ 77.553323612596657, 13.017806939875925 ], [ 77.552822768811893, 13.017701316172626 ], [ 77.55275696074419, 13.017980446324088 ], [ 77.552495471976556, 13.018275248555202 ], [ 77.551539775907898, 13.018508398844473 ], [ 77.55100702855205, 13.017409672037553 ], [ 77.551198012478736, 13.017312175888918 ], [ 77.550803692190968, 13.016300132397841 ], [ 77.550547967576264, 13.016443682005635 ], [ 77.550286758971367, 13.015918585531555 ], [ 77.549903441554562, 13.016299077103968 ], [ 77.549506332694534, 13.016801382940237 ], [ 77.549126516841284, 13.01746305606477 ], [ 77.548867744136828, 13.017819188959422 ], [ 77.548753689292241, 13.017938253602269 ], [ 77.548706338756247, 13.017956647427932 ], [ 77.548602975933733, 13.017914985027019 ], [ 77.547427155801145, 13.017440511153339 ], [ 77.545630372451086, 13.016642871015911 ], [ 77.545602418595038, 13.016705521502859 ], [ 77.544588626109658, 13.019016432847463 ], [ 77.543823888563736, 13.018354678591617 ], [ 77.543753444941046, 13.018033960575083 ], [ 77.543690362202895, 13.017876701865829 ], [ 77.543293719215754, 13.017710747575491 ], [ 77.543360642693003, 13.017829061045639 ], [ 77.543418050470464, 13.017959970895003 ], [ 77.54347380252959, 13.01819064668595 ], [ 77.543762732837081, 13.020702535108338 ], [ 77.543685948347957, 13.020822809802922 ], [ 77.543443352826159, 13.020939930584857 ], [ 77.54301758888748, 13.020786340917585 ], [ 77.542902483747667, 13.02097392282114 ], [ 77.540111246481558, 13.019543612268617 ], [ 77.540143999901474, 13.019598000196892 ] ] ] } },
{ "type": "Feature", "properties": { "KGISWardID": 4959, "KGISWardCode": "2003042", "KGISWardName": "Lakshmi Devi Nagar", "SHAPE.STArea()": 1512162.482840175, "SHAPE.STLength()": 8397.4170423563173, "OBJECTID": 18885, "KGISWardNo": "42", "KGISTownCode": "2003", "LGD_WardCode": 1302714, "created_user": "SA", "created_date": 1634898537000, "last_edited_user": "SURESHBV1", "last_edited_date": 1692254014000, "_overlap_percent": 51.045551245153632, "_police_station": "Yeshwanthpura RMC Yard PS", "_police_feature_index": "743", "_admin_layer": "Ward", "_geometry_clipped": true }, "geometry": { "type": "Polygon", "coordinates": [ [ [ 77.530291999843129, 13.024945000386843 ], [ 77.530639000121923, 13.02566400000617 ], [ 77.531078000168918, 13.026622999967206 ], [ 77.537066000172999, 13.023269999944006 ], [ 77.537356999587942, 13.024191000275101 ], [ 77.537384000441733, 13.024287999639959 ], [ 77.537544000368484, 13.024619000288247 ], [ 77.537737000010395, 13.025109999730573 ], [ 77.537873999843868, 13.025485000077646 ], [ 77.537905999832731, 13.025597999553701 ], [ 77.537931999951141, 13.025736999963071 ], [ 77.538100999729252, 13.025728000180681 ], [ 77.53810799996775, 13.02574700019191 ], [ 77.538173999728869, 13.026039000322145 ], [ 77.538252000097017, 13.026055000006462 ], [ 77.538441000375684, 13.026122999885667 ], [ 77.538673000372455, 13.026205999552467 ], [ 77.538904999577412, 13.0262889998947 ], [ 77.538996000231549, 13.026314999798368 ], [ 77.539106000162832, 13.026343999993252 ], [ 77.53916599962885, 13.026503999586231 ], [ 77.539268999587179, 13.026751999987015 ], [ 77.539321000178091, 13.02687900018074 ], [ 77.539446000219414, 13.027178999760736 ], [ 77.539554000263237, 13.027452000440825 ], [ 77.540008000303729, 13.028607000256546 ], [ 77.540080999694851, 13.028806000161495 ], [ 77.542116000382379, 13.027597999645032 ], [ 77.543503999682173, 13.026809000046986 ], [ 77.543829000246561, 13.026624999725342 ], [ 77.544233000229596, 13.026394000277891 ], [ 77.54363899997125, 13.02541099957606 ], [ 77.543206999772821, 13.024714000157697 ], [ 77.542427999651409, 13.023430000037072 ], [ 77.542018000262729, 13.022744999971657 ], [ 77.541021999746704, 13.021058000250706 ], [ 77.540540999842591, 13.020241000340835 ], [ 77.540503000180991, 13.020183999975943 ], [ 77.540143999901474, 13.019598000196892 ], [ 77.540111246481558, 13.019543612268617 ], [ 77.540064555643696, 13.019519686535427 ], [ 77.539822923002745, 13.019069868213263 ], [ 77.53951805503597, 13.019246945148701 ], [ 77.537414493873968, 13.020478299615537 ], [ 77.536018275136698, 13.021266464462309 ], [ 77.535135335725116, 13.021705380861665 ], [ 77.53480434496251, 13.021761208443991 ], [ 77.533417291008973, 13.022013814928082 ], [ 77.53295192831915, 13.022095885980249 ], [ 77.532585007845711, 13.022160594442195 ], [ 77.532046098933577, 13.022141566841684 ], [ 77.53156173445916, 13.021978968527183 ], [ 77.531008143248769, 13.021721426282701 ], [ 77.530204161020734, 13.021294216587119 ], [ 77.529533224518289, 13.021004350652341 ], [ 77.529235194529249, 13.020945107435487 ], [ 77.52849720284955, 13.020999608068553 ], [ 77.530291999843129, 13.024945000386843 ] ] ] } },
{ "type": "Feature", "properties": { "KGISWardID": 4950, "KGISWardCode": "2003037", "KGISWardName": "Yeshwanthpura", "SHAPE.STArea()": 786584.00968486501, "SHAPE.STLength()": 3914.1828731177225, "OBJECTID": 18880, "KGISWardNo": "37", "KGISTownCode": "2003", "LGD_WardCode": 1302709, "created_user": "SA", "created_date": 1634898537000, "last_edited_user": "SURESHBV1", "last_edited_date": 1692254014000, "_overlap_percent": 14.856907721720466, "_police_station": "Yeshwanthpura RMC Yard PS", "_police_feature_index": "743", "_admin_layer": "Ward", "_geometry_clipped": true }, "geometry": { "type": "Polygon", "coordinates": [ [ [ 77.55060300022231, 13.02911799989597 ], [ 77.550857999584707, 13.029557000354353 ], [ 77.55102099994177, 13.029830999790519 ], [ 77.551065093014842, 13.02990540650636 ], [ 77.551096392474051, 13.029145672820459 ], [ 77.551105441708572, 13.027649188745416 ], [ 77.551230844922387, 13.025611326318348 ], [ 77.551276482437132, 13.025167656081102 ], [ 77.551565503544509, 13.02452537599844 ], [ 77.552037611048902, 13.023609384131921 ], [ 77.552509730729184, 13.022635424127094 ], [ 77.552936337465056, 13.02191888104972 ], [ 77.553290987373714, 13.021317786667927 ], [ 77.553655741458314, 13.020632329705522 ], [ 77.554047494929833, 13.019905372694248 ], [ 77.554156545701744, 13.019841550268579 ], [ 77.554189529339652, 13.019796128227176 ], [ 77.554130999571811, 13.019783000452868 ], [ 77.553729000138063, 13.019691999847289 ], [ 77.553537000108292, 13.01964900039261 ], [ 77.552983999728966, 13.020659999687631 ], [ 77.551330000129937, 13.023550000235417 ], [ 77.550099000054146, 13.025916999585936 ], [ 77.54901500026557, 13.029027000012743 ], [ 77.549197999553883, 13.029104999962943 ], [ 77.549330999928429, 13.029102999869517 ], [ 77.549340999699282, 13.02910600032104 ], [ 77.549357000369426, 13.029150000366426 ], [ 77.549346999762278, 13.029174999964827 ], [ 77.54967899962999, 13.029117999811707 ], [ 77.550090000027623, 13.029046000162261 ], [ 77.550173835501127, 13.029031510099859 ], [ 77.550444827386841, 13.028965636751263 ], [ 77.550468607036521, 13.028987399952221 ], [ 77.550476999827822, 13.028987000294078 ], [ 77.550541919449216, 13.029054495674481 ], [ 77.550574031834671, 13.029083885018206 ], [ 77.550578610316435, 13.029092642293147 ], [ 77.55060300022231, 13.02911799989597 ] ] ] } },
{ "type": "Feature", "properties": { "KGISWardID": 4951, "KGISWardCode": "2003038", "KGISWardName": "HMT Ward", "SHAPE.STArea()": 5208466.7213163245, "SHAPE.STLength()": 14381.017857484969, "OBJECTID": 18881, "KGISWardNo": "38", "KGISTownCode": "2003", "LGD_WardCode": 1302710, "created_user": "SA", "created_date": 1634898537000, "last_edited_user": "SURESHBV1", "last_edited_date": 1692254014000, "_overlap_percent": 58.979177769151448, "_police_station": "Yeshwanthpura RMC Yard PS", "_police_feature_index": "743", "_admin_layer": "Ward", "_geometry_clipped": true }, "geometry": { "type": "Polygon", "coordinates": [ [ [ 77.55378099974061, 13.015432999826571 ], [ 77.553649999650105, 13.015838000418295 ], [ 77.553613999962053, 13.016530000186203 ], [ 77.553556999585112, 13.017368999804626 ], [ 77.553293999896809, 13.018265999578052 ], [ 77.553211999781794, 13.018540999637102 ], [ 77.553076999916215, 13.019012000305898 ], [ 77.552878999662425, 13.01966000007223 ], [ 77.552772999809179, 13.019898999684834 ], [ 77.552400000180612, 13.020586999698986 ], [ 77.552275000270114, 13.020818000113882 ], [ 77.551835000341143, 13.021633000190104 ], [ 77.551646999638677, 13.021922999625296 ], [ 77.551441999651956, 13.022188999724372 ], [ 77.551296000194, 13.022287999857618 ], [ 77.550332999756392, 13.022871999618918 ], [ 77.549121999876078, 13.023606000336345 ], [ 77.548665000320185, 13.023883000177356 ], [ 77.547861999706953, 13.024365000164101 ], [ 77.547271000398652, 13.024719000421383 ], [ 77.546424999739571, 13.025186000207336 ], [ 77.546027999544023, 13.025404999781971 ], [ 77.544233000229596, 13.026394000277891 ], [ 77.543829000246561, 13.026624999725342 ], [ 77.543503999682173, 13.026809000046986 ], [ 77.542116000382379, 13.027597999645032 ], [ 77.540080999694851, 13.028806000161495 ], [ 77.540008000303729, 13.028607000256546 ], [ 77.539554000263237, 13.027452000440825 ], [ 77.539446000219414, 13.027178999760736 ], [ 77.539321000178091, 13.02687900018074 ], [ 77.539268999587179, 13.026751999987015 ], [ 77.53916599962885, 13.026503999586231 ], [ 77.539106000162832, 13.026343999993252 ], [ 77.538996000231549, 13.026314999798368 ], [ 77.538904999577412, 13.0262889998947 ], [ 77.538673000372455, 13.026205999552467 ], [ 77.538441000375684, 13.026122999885667 ], [ 77.538252000097017, 13.026055000006462 ], [ 77.538173999728869, 13.026039000322145 ], [ 77.53810799996775, 13.02574700019191 ], [ 77.538100999729252, 13.025728000180681 ], [ 77.537931999951141, 13.025736999963071 ], [ 77.537905999832731, 13.025597999553701 ], [ 77.537873999843868, 13.025485000077646 ], [ 77.537737000010395, 13.025109999730573 ], [ 77.537544000368484, 13.024619000288247 ], [ 77.537384000441733, 13.024287999639959 ], [ 77.537356999587942, 13.024191000275101 ], [ 77.537066000172999, 13.023269999944006 ], [ 77.531078000168918, 13.026622999967206 ], [ 77.530639000121923, 13.02566400000617 ], [ 77.530291999843129, 13.024945000386843 ], [ 77.52849720284955, 13.020999608068553 ], [ 77.528455653644357, 13.021002676474403 ], [ 77.528275186019641, 13.02103831725676 ], [ 77.528093231415298, 13.021097688623009 ], [ 77.527443989273948, 13.021306931133212 ], [ 77.528095760895283, 13.022708739890469 ], [ 77.527295134121772, 13.023093044998248 ], [ 77.527182461757789, 13.024002514342081 ], [ 77.52707203213096, 13.025133077320726 ], [ 77.52690159657115, 13.025201229858897 ], [ 77.524616848134272, 13.026278844104038 ], [ 77.523740208268791, 13.026695441987448 ], [ 77.52307185333683, 13.027142990409347 ], [ 77.52309819785134, 13.027193773057727 ], [ 77.523560465602841, 13.028084850787952 ], [ 77.523632702999095, 13.028356659092697 ], [ 77.524148610398512, 13.029104624885408 ], [ 77.524540034868565, 13.02947730681343 ], [ 77.524728415092838, 13.029661925542927 ], [ 77.524945555984061, 13.030158218501645 ], [ 77.525239540579321, 13.031019499594587 ], [ 77.525340599281449, 13.031247997876276 ], [ 77.525447516440977, 13.031333011356901 ], [ 77.525586980478565, 13.031381851174448 ], [ 77.525668081975951, 13.031445601833324 ], [ 77.525822044168024, 13.031842109982918 ], [ 77.525928525242421, 13.031884099448765 ], [ 77.526296798185498, 13.031776522758941 ], [ 77.526559681199103, 13.031734516184512 ], [ 77.527151775429417, 13.031700053890043 ], [ 77.52719652780209, 13.032147462084781 ], [ 77.529706758804892, 13.034694871622186 ], [ 77.529897839414858, 13.034900339838693 ], [ 77.529437000930287, 13.035055639004366 ], [ 77.529009060401407, 13.035169780045996 ], [ 77.529114995134719, 13.035517749579908 ], [ 77.529316580311018, 13.036161200386955 ], [ 77.529471078902262, 13.03648957224839 ], [ 77.52969051712131, 13.036970297068041 ], [ 77.530023457862669, 13.037583777031669 ], [ 77.530734151083763, 13.038901134369269 ], [ 77.531093125557774, 13.039680968381113 ], [ 77.531172466074395, 13.039625460229811 ], [ 77.531180578064223, 13.039619784721944 ], [ 77.531221812118361, 13.039588762061136 ], [ 77.5314136712107, 13.039402152093254 ], [ 77.531924740853583, 13.038905060905261 ], [ 77.532934861862643, 13.038119306317508 ], [ 77.533440616024521, 13.037808047736615 ], [ 77.535063000333253, 13.036681000120964 ], [ 77.535130000436268, 13.036634999844809 ], [ 77.535174000302973, 13.036604000113835 ], [ 77.536212999811013, 13.035809999982403 ], [ 77.537642999653656, 13.034692999725788 ], [ 77.538320999794578, 13.034167999763126 ], [ 77.538811049261241, 13.033823374987398 ], [ 77.538979371837655, 13.033687919780418 ], [ 77.539376219958996, 13.033422049838347 ], [ 77.540712000099063, 13.032470000135117 ], [ 77.540777999813287, 13.032435000136326 ], [ 77.541204692272487, 13.034538751366197 ], [ 77.541225244025028, 13.034630595526771 ], [ 77.541287665464083, 13.034947839809391 ], [ 77.541452999998626, 13.035763000056273 ], [ 77.541574822195841, 13.036406094415746 ], [ 77.541681152351558, 13.036945371050628 ], [ 77.541930999542899, 13.038119999947121 ], [ 77.542036000180673, 13.038365000282942 ], [ 77.542944999779749, 13.039226000238431 ], [ 77.544854999675408, 13.036929000453391 ], [ 77.544994000185483, 13.036666000289559 ], [ 77.54512499957616, 13.036416000076578 ], [ 77.545253999988844, 13.036165000385727 ], [ 77.545610000083329, 13.035473999805653 ], [ 77.545855000005389, 13.035012999786064 ], [ 77.54611399993162, 13.034562999893026 ], [ 77.546898000218121, 13.033063999580326 ], [ 77.547332999703585, 13.032267000381605 ], [ 77.54772799963834, 13.031482000254135 ], [ 77.548145999857653, 13.030710000301465 ], [ 77.548559000287042, 13.029914000063048 ], [ 77.54901500026557, 13.029027000012743 ], [ 77.550099000054146, 13.025916999585936 ], [ 77.551330000129937, 13.023550000235417 ], [ 77.552983999728966, 13.020659999687631 ], [ 77.553537000108292, 13.01964900039261 ], [ 77.553859000414747, 13.019082999891003 ], [ 77.555148999809887, 13.016856000226792 ], [ 77.555649999909775, 13.016005999952617 ], [ 77.555806000051334, 13.015780000129634 ], [ 77.555476999917701, 13.015598000025008 ], [ 77.555444002775104, 13.015579695057502 ], [ 77.555331082769911, 13.015521186173562 ], [ 77.554047860931703, 13.015404082747956 ], [ 77.553975823104423, 13.015410079869646 ], [ 77.55378099974061, 13.015432999826571 ] ] ] } },
{ "type": "Feature", "properties": { "KGISWardID": 4910, "KGISWardCode": "2003017", "KGISWardName": "JP Park", "SHAPE.STArea()": 2048011.9601335649, "SHAPE.STLength()": 7130.9724935833692, "OBJECTID": 18860, "KGISWardNo": "17", "KGISTownCode": "2003", "LGD_WardCode": 1303155, "created_user": "SA", "created_date": 1634898537000, "last_edited_user": "SURESHBV1", "last_edited_date": 1692254014000, "_overlap_percent": 1.2431686330087846, "_police_station": "Yeshwanthpura RMC Yard PS", "_police_feature_index": "743", "_admin_layer": "Ward", "_geometry_clipped": true }, "geometry": { "type": "MultiPolygon", "coordinates": [ [ [ [ 77.550090000027623, 13.029046000162261 ], [ 77.54967899962999, 13.029117999811707 ], [ 77.549346999762278, 13.029174999964827 ], [ 77.549357000369426, 13.029150000366426 ], [ 77.549340999699282, 13.02910600032104 ], [ 77.549330999928429, 13.029102999869517 ], [ 77.549197999553883, 13.029104999962943 ], [ 77.54901500026557, 13.029027000012743 ], [ 77.548559000287042, 13.029914000063048 ], [ 77.548145999857653, 13.030710000301465 ], [ 77.54772799963834, 13.031482000254135 ], [ 77.547332999703585, 13.032267000381605 ], [ 77.546898000218121, 13.033063999580326 ], [ 77.54611399993162, 13.034562999893026 ], [ 77.545855000005389, 13.035012999786064 ], [ 77.545610000083329, 13.035473999805653 ], [ 77.545253999988844, 13.036165000385727 ], [ 77.54512499957616, 13.036416000076578 ], [ 77.544994000185483, 13.036666000289559 ], [ 77.544854999675408, 13.036929000453391 ], [ 77.542944999779749, 13.039226000238431 ], [ 77.542980126947384, 13.039258373486373 ], [ 77.543421255904647, 13.038710953478361 ], [ 77.543855367643559, 13.038247050693474 ], [ 77.544358012882171, 13.037614203879224 ], [ 77.544617400627345, 13.037702258983124 ], [ 77.544628496184885, 13.037679378136941 ], [ 77.545649570920332, 13.035725931487887 ], [ 77.546984780169197, 13.033380115603212 ], [ 77.547483262062215, 13.032417851285514 ], [ 77.548121853927924, 13.031210386612909 ], [ 77.549179592305876, 13.029211157018006 ], [ 77.549727409087637, 13.029140028488445 ], [ 77.550173835501127, 13.029031510099859 ], [ 77.550090000027623, 13.029046000162261 ] ] ], [ [ [ 77.550476999827822, 13.028987000294078 ], [ 77.550468607036521, 13.028987399952221 ], [ 77.550541919449216, 13.029054495674481 ], [ 77.550476999827822, 13.028987000294078 ] ] ], [ [ [ 77.55102099994177, 13.029830999790519 ], [ 77.550857999584707, 13.029557000354353 ], [ 77.55060300022231, 13.02911799989597 ], [ 77.550578610316435, 13.029092642293147 ], [ 77.551021638662874, 13.029940023855552 ], [ 77.551064176503857, 13.02992765303366 ], [ 77.551065093014842, 13.02990540650636 ], [ 77.55102099994177, 13.029830999790519 ] ] ] ] } },
{ "type": "Feature", "properties": { "KGISWardID": 4907, "KGISWardCode": "2003016", "KGISWardName": "Jalahalli", "SHAPE.STArea()": 5163246.0813063551, "SHAPE.STLength()": 10017.273443857925, "OBJECTID": 18859, "KGISWardNo": "16", "KGISTownCode": "2003", "LGD_WardCode": 1303154, "created_user": "SA", "created_date": 1634898537000, "last_edited_user": "SURESHBV1", "last_edited_date": 1692254014000, "_overlap_percent": 0.090148618865685384, "_police_station": "Yeshwanthpura RMC Yard PS", "_police_feature_index": "743", "_admin_layer": "Ward", "_geometry_clipped": true }, "geometry": { "type": "MultiPolygon", "coordinates": [ [ [ [ 77.531180578064223, 13.039619784721944 ], [ 77.531213850519322, 13.039596505836643 ], [ 77.531221812118361, 13.039588762061136 ], [ 77.531180578064223, 13.039619784721944 ] ] ], [ [ [ 77.538320999794578, 13.034167999763126 ], [ 77.537642999653656, 13.034692999725788 ], [ 77.536212999811013, 13.035809999982403 ], [ 77.535174000302973, 13.036604000113835 ], [ 77.535130000436268, 13.036634999844809 ], [ 77.535063000333253, 13.036681000120964 ], [ 77.533440616024521, 13.037808047736615 ], [ 77.533652096333, 13.037677895449853 ], [ 77.535110304356692, 13.03669104244859 ], [ 77.535164096079072, 13.036654638050109 ], [ 77.536419423613594, 13.035696349792826 ], [ 77.537600546195591, 13.034790655086644 ], [ 77.537781283457093, 13.034652064418802 ], [ 77.538811049261241, 13.033823374987398 ], [ 77.538320999794578, 13.034167999763126 ] ] ], [ [ [ 77.540777999813287, 13.032435000136326 ], [ 77.540712000099063, 13.032470000135117 ], [ 77.539376219958996, 13.033422049838347 ], [ 77.540749010646479, 13.032502343379052 ], [ 77.540770283387786, 13.032597412335056 ], [ 77.541204692272487, 13.034538751366197 ], [ 77.540777999813287, 13.032435000136326 ] ] ], [ [ [ 77.541452999998626, 13.035763000056273 ], [ 77.541287665464083, 13.034947839809391 ], [ 77.541389487236387, 13.035465328281298 ], [ 77.541465380480346, 13.035851036825081 ], [ 77.541574822195841, 13.036406094415746 ], [ 77.541452999998626, 13.035763000056273 ] ] ], [ [ [ 77.542944999779749, 13.039226000238431 ], [ 77.542036000180673, 13.038365000282942 ], [ 77.541930999542899, 13.038119999947121 ], [ 77.541681152351558, 13.036945371050628 ], [ 77.541950707919341, 13.038312481053708 ], [ 77.542147960408926, 13.038529397378971 ], [ 77.542788885271605, 13.039133764300503 ], [ 77.542954611957029, 13.039290036373142 ], [ 77.542980126947384, 13.039258373486373 ], [ 77.542944999779749, 13.039226000238431 ] ] ] ] } }
]
}
