{
"type": "FeatureCollection",
"name": "police_station_boundary.writing_20260805_172659",
"crs": { "type": "name", "properties": { "name": "urn:ogc:def:crs:OGC:1.3:CRS84" } },
"features": [
{ "type": "Feature", "properties": { "Shape.STArea()": 235549197.55208597, "Shape.STLength()": 99425.967493984979, "OBJECTID": 247, "KGISPS_BOUNDID": 339, "PS_BOUNDName": "Hokrana PS", "PS_BOUNDCode": "PSB - 339", "KGISPS_SUB_DIVID": 26, "_source_layer": "Police Station Boundary", "_source_layer_url": "https://kgis.ksrsac.in/kgismaps/rest/services/Home/Home_Department/MapServer/82", "_police_station": "Hokrana PS" }, "geometry": { "type": "MultiPolygon", "coordinates": [ [ [ [ 77.366675610229862, 18.450568848726331 ], [ 77.366301934253073, 18.450962942669303 ], [ 77.366181308762137, 18.451084543266759 ], [ 77.365620194000755, 18.451396222639101 ], [ 77.364019340410863, 18.451201149166792 ], [ 77.362830823069942, 18.451015461124999 ], [ 77.362777496463494, 18.451001403533926 ], [ 77.362697384516864, 18.450980285219817 ], [ 77.360543435930566, 18.450412466955193 ], [ 77.360494122553106, 18.450232471722664 ], [ 77.358889640951006, 18.450362307350677 ], [ 77.357774483579803, 18.450295477529117 ], [ 77.356969219932878, 18.450424509266725 ], [ 77.356844951155438, 18.450294458815566 ], [ 77.356736136771815, 18.449241867435312 ], [ 77.35618968743978, 18.44926287370988 ], [ 77.356065516564655, 18.449001642362145 ], [ 77.355357548587719, 18.449113167471079 ], [ 77.353178121191462, 18.449786859457426 ], [ 77.351434577389611, 18.446947598633457 ], [ 77.346972159358785, 18.442292840588678 ], [ 77.343569492208644, 18.442854023969065 ], [ 77.34029212204382, 18.438465966073274 ], [ 77.340059530854774, 18.438154538018011 ], [ 77.340070037733568, 18.432178706116488 ], [ 77.340082800536536, 18.424927103884951 ], [ 77.336817555685244, 18.421759467272505 ], [ 77.335438725518301, 18.42136314927194 ], [ 77.332011236269196, 18.420361846572725 ], [ 77.331975990345654, 18.420351549225796 ], [ 77.33182100771748, 18.420277996763858 ], [ 77.331690052748939, 18.419750538574387 ], [ 77.330928226721028, 18.419140118349723 ], [ 77.326451293111234, 18.41674741634699 ], [ 77.324653639928258, 18.418533605459331 ], [ 77.323088925271108, 18.419815143631677 ], [ 77.323705665315373, 18.421102978206761 ], [ 77.32328488927557, 18.421363448135118 ], [ 77.322961630135168, 18.420797233351568 ], [ 77.321943782269059, 18.420694338001635 ], [ 77.320000114922308, 18.421810914233024 ], [ 77.319034951908577, 18.422245154370753 ], [ 77.31812093197442, 18.422465123142914 ], [ 77.318081748128392, 18.422474552604292 ], [ 77.317130752256219, 18.421252559687538 ], [ 77.316514354882599, 18.4210310147791 ], [ 77.31630415616209, 18.421572717042935 ], [ 77.316128009969546, 18.422026655126395 ], [ 77.315809838793115, 18.424339574990121 ], [ 77.315694969292096, 18.424915211665549 ], [ 77.31570240008314, 18.425133260841648 ], [ 77.315595339778724, 18.425836241571695 ], [ 77.31545784250325, 18.426159536343015 ], [ 77.315361875396988, 18.426893604540755 ], [ 77.315293572048787, 18.427468300045007 ], [ 77.315605251537235, 18.427834647299079 ], [ 77.31369182946699, 18.427868613843959 ], [ 77.313611093870193, 18.428830448893624 ], [ 77.313597051086575, 18.428997735726615 ], [ 77.313266474629629, 18.429044680614407 ], [ 77.31278213204952, 18.43041955776604 ], [ 77.312565771415947, 18.431122605510488 ], [ 77.312536470166393, 18.431217815341689 ], [ 77.312369784443035, 18.432552941687568 ], [ 77.312376805108173, 18.432958557448295 ], [ 77.312378458904519, 18.433054026816393 ], [ 77.312380110804611, 18.43314949530339 ], [ 77.31239030022148, 18.433738122896276 ], [ 77.31226428630184, 18.435135559615734 ], [ 77.311833977463195, 18.436156655024455 ], [ 77.310965790916825, 18.437278983128035 ], [ 77.312398831575194, 18.438466447909814 ], [ 77.314111140674726, 18.439681943472991 ], [ 77.314874231011188, 18.439960290100931 ], [ 77.315137683192475, 18.441347520896294 ], [ 77.313324226437373, 18.441560418227372 ], [ 77.311796913997199, 18.441328405324548 ], [ 77.311675967542968, 18.44129073703564 ], [ 77.310662956234069, 18.441259434631171 ], [ 77.310041320142943, 18.441140095372354 ], [ 77.308927266146995, 18.441015641778744 ], [ 77.30788773085888, 18.44118893208962 ], [ 77.304221716655533, 18.439939391058648 ], [ 77.303074377353752, 18.439075581333416 ], [ 77.302080205400458, 18.438620805499276 ], [ 77.30028779140406, 18.43787482968305 ], [ 77.298021794932922, 18.435822587549936 ], [ 77.297960562216673, 18.435714732062273 ], [ 77.297682877604316, 18.435482044859519 ], [ 77.296425343144861, 18.435380061347416 ], [ 77.296307491100691, 18.435367379185788 ], [ 77.296163161803463, 18.435373429004109 ], [ 77.294145145117028, 18.435201741549609 ], [ 77.292632060676439, 18.434463828484404 ], [ 77.292133335388129, 18.434220892039409 ], [ 77.290532003085616, 18.432878764299314 ], [ 77.289033246477786, 18.43176774044516 ], [ 77.282509954204755, 18.431105093185245 ], [ 77.282421080304289, 18.431096062948313 ], [ 77.280551375227176, 18.42982297769127 ], [ 77.279653064886119, 18.429201103542923 ], [ 77.278775056420855, 18.428558521243801 ], [ 77.277252263015299, 18.427447001197287 ], [ 77.274942038076674, 18.426399985523059 ], [ 77.27482328336184, 18.42633373912734 ], [ 77.2737542770966, 18.425063412636291 ], [ 77.273651652213275, 18.424412942839513 ], [ 77.273660456896735, 18.423665717062285 ], [ 77.273790406822144, 18.423493055976955 ], [ 77.272570199754284, 18.422804326275408 ], [ 77.27080736702159, 18.42273647128826 ], [ 77.269821953886023, 18.422611596412864 ], [ 77.269078557926008, 18.422358992340982 ], [ 77.268104500905892, 18.422028004408919 ], [ 77.266904572470409, 18.422714828877375 ], [ 77.266098418148886, 18.422894493888698 ], [ 77.265837628879027, 18.422952614035761 ], [ 77.265073259719927, 18.422198731527399 ], [ 77.263675738325645, 18.420836050636112 ], [ 77.263673718404476, 18.418289803561404 ], [ 77.261973563554037, 18.415932935147204 ], [ 77.260215119990022, 18.413658694661947 ], [ 77.25798544253135, 18.413664133392032 ], [ 77.25605477274361, 18.413742336954293 ], [ 77.254281538399653, 18.413885117072034 ], [ 77.25273981127981, 18.413713843748287 ], [ 77.251310663050091, 18.414515867243598 ], [ 77.249894331345999, 18.414477367301068 ], [ 77.249435445393146, 18.414269731278093 ], [ 77.248915135611682, 18.414960609813043 ], [ 77.246487367678057, 18.414583188657026 ], [ 77.246447970081419, 18.414731627592431 ], [ 77.245308755688598, 18.414580830848781 ], [ 77.244837196321484, 18.414892680282509 ], [ 77.243841821246292, 18.414111780909931 ], [ 77.24226858998378, 18.413114416138651 ], [ 77.241612465367155, 18.414442578616548 ], [ 77.241566104192529, 18.414415079355699 ], [ 77.24151974209741, 18.414387580996188 ], [ 77.240299045355087, 18.413663541820128 ], [ 77.240241060295304, 18.413629147361011 ], [ 77.240183075280697, 18.413594754687853 ], [ 77.241594248475494, 18.413083775865932 ], [ 77.241349924946064, 18.411876609933046 ], [ 77.241100330998421, 18.409803602665058 ], [ 77.240501421595155, 18.409113006387901 ], [ 77.239754964076795, 18.409142985126675 ], [ 77.240151748833227, 18.408723693421059 ], [ 77.240723515250934, 18.408941050157527 ], [ 77.239569094019629, 18.407804889499786 ], [ 77.239463734282126, 18.407595184731058 ], [ 77.238155660973945, 18.405895954933403 ], [ 77.237063786690186, 18.404345245558023 ], [ 77.234935199702392, 18.401178022558859 ], [ 77.234808894251188, 18.399495495200533 ], [ 77.235039445079494, 18.398580703133408 ], [ 77.235330858944877, 18.39746455131613 ], [ 77.234990480919009, 18.397143437483354 ], [ 77.234982769862881, 18.397126742645614 ], [ 77.234982019387857, 18.39712511745055 ], [ 77.234496613942397, 18.396074209667113 ], [ 77.234367386707831, 18.395521933140799 ], [ 77.234121587113606, 18.393077082514008 ], [ 77.234191105457185, 18.392258575757246 ], [ 77.234084605156752, 18.390930746560031 ], [ 77.233465046132281, 18.390143491787516 ], [ 77.233735434995253, 18.388659304404552 ], [ 77.233574515776141, 18.388315919251177 ], [ 77.23432455901569, 18.387044932768703 ], [ 77.235521092929417, 18.385074276991649 ], [ 77.236610693039253, 18.383207789615675 ], [ 77.238209362291599, 18.380505113749209 ], [ 77.239047249328195, 18.379166851807362 ], [ 77.239873386190837, 18.377847332978476 ], [ 77.240643076918829, 18.377729322060972 ], [ 77.241932963746422, 18.377531547558942 ], [ 77.244330825224438, 18.37713422338021 ], [ 77.245898749209687, 18.376542071572679 ], [ 77.248768232309061, 18.375909055314857 ], [ 77.248716504154828, 18.375791685563012 ], [ 77.247994798539693, 18.374154114616889 ], [ 77.246876291150485, 18.371477959123961 ], [ 77.246345819598318, 18.370539094600787 ], [ 77.246329532610417, 18.37055040970208 ], [ 77.246334466437048, 18.370557153078366 ], [ 77.246210026149029, 18.370643783003246 ], [ 77.245245957488095, 18.37097043681209 ], [ 77.24460574852236, 18.370975431073564 ], [ 77.243413086847127, 18.370629506315652 ], [ 77.242264188259796, 18.370516085601487 ], [ 77.24107639457344, 18.370366797088007 ], [ 77.240022414953785, 18.370046004220807 ], [ 77.239876454587119, 18.370006794910854 ], [ 77.239871666273146, 18.370003902083756 ], [ 77.239084313787941, 18.369799078095944 ], [ 77.237927068653889, 18.369678858238562 ], [ 77.237830695105558, 18.369910297223242 ], [ 77.237361596605922, 18.369715944456679 ], [ 77.23712331264754, 18.36972866446018 ], [ 77.23693878575493, 18.369774980062431 ], [ 77.236538656198562, 18.370015840968676 ], [ 77.235443908312845, 18.369835403508198 ], [ 77.233979093603224, 18.369620015900544 ], [ 77.23348521487523, 18.369547047866753 ], [ 77.233144359267044, 18.369577155107237 ], [ 77.232623869240541, 18.369305491846134 ], [ 77.231686611230316, 18.368859959698931 ], [ 77.231177030170201, 18.368726528916305 ], [ 77.230672170308694, 18.368474024705193 ], [ 77.228904293282994, 18.367893471575247 ], [ 77.228842444885061, 18.36785361790702 ], [ 77.228584130169153, 18.367687166982083 ], [ 77.228522338194367, 18.367647349568639 ], [ 77.227744714821128, 18.36701436194334 ], [ 77.227003444294255, 18.366410955772739 ], [ 77.226702348531973, 18.366168026796338 ], [ 77.225973491113876, 18.365359134495325 ], [ 77.225847064510333, 18.365204274173312 ], [ 77.22576889640797, 18.365108524638742 ], [ 77.22559177328661, 18.364863725680113 ], [ 77.22553799724129, 18.362157020951798 ], [ 77.225537059131838, 18.362028149242128 ], [ 77.225488669460717, 18.361902410180235 ], [ 77.225226159214813, 18.360814549354917 ], [ 77.225182718201935, 18.360677482988141 ], [ 77.22515953009156, 18.360479767629798 ], [ 77.224873703173671, 18.358701313281461 ], [ 77.224806977420656, 18.358501606211114 ], [ 77.224798188814304, 18.358384341146767 ], [ 77.224403451640725, 18.356973426971898 ], [ 77.224358513145248, 18.356812799369234 ], [ 77.223737446183264, 18.355868089352505 ], [ 77.223095997998001, 18.35498646844465 ], [ 77.222838648945455, 18.354423765936158 ], [ 77.222775436430837, 18.354281128493756 ], [ 77.222730637703648, 18.354171285649574 ], [ 77.22206905426296, 18.352541278175099 ], [ 77.221880654871072, 18.351827715018725 ], [ 77.220797579802692, 18.350346379957877 ], [ 77.219820793438885, 18.349066408421461 ], [ 77.219686723243413, 18.34888857939438 ], [ 77.219898072555893, 18.348831371351345 ], [ 77.222812745176881, 18.348135373503855 ], [ 77.223707238953537, 18.347936338344809 ], [ 77.22592564972733, 18.347669832338333 ], [ 77.22694283540811, 18.347681474400257 ], [ 77.228090874876756, 18.34796276240062 ], [ 77.228930382728009, 18.348120048744374 ], [ 77.22957244772725, 18.348055065275883 ], [ 77.229742577337703, 18.348061398732181 ], [ 77.230187327913626, 18.348077954533014 ], [ 77.231873146185009, 18.348293877072241 ], [ 77.232668691702756, 18.348363182732886 ], [ 77.233898575098834, 18.348470317848307 ], [ 77.234143497796751, 18.348476230921033 ], [ 77.234386071972594, 18.348482086314114 ], [ 77.236006455504352, 18.348627412521878 ], [ 77.236621973225866, 18.348778518441371 ], [ 77.237006584089173, 18.348949318201058 ], [ 77.237175464713246, 18.349024774559815 ], [ 77.238017624136091, 18.349176872190636 ], [ 77.238545682212006, 18.349143133139389 ], [ 77.239011716147999, 18.349080333476696 ], [ 77.239510373883988, 18.348746689081327 ], [ 77.239647463941537, 18.348652303952022 ], [ 77.240020426184444, 18.348410051610959 ], [ 77.240334588261589, 18.348205990436167 ], [ 77.240635031525301, 18.34801084107605 ], [ 77.241140010311753, 18.347744601263027 ], [ 77.241503529379955, 18.347680218896684 ], [ 77.241854017929754, 18.34769182437849 ], [ 77.242237635907046, 18.347704526979015 ], [ 77.242528690538947, 18.347725831828956 ], [ 77.243108331429511, 18.347795575531784 ], [ 77.243137308895797, 18.347801623183912 ], [ 77.243139755929121, 18.34780213362486 ], [ 77.24314366662874, 18.34780208486848 ], [ 77.244982214880821, 18.347935763545898 ], [ 77.245146299387812, 18.347951776957895 ], [ 77.245553816650869, 18.347960737021086 ], [ 77.246118547034683, 18.347981078316803 ], [ 77.24589238129245, 18.347768073459079 ], [ 77.245627336160567, 18.346859924759144 ], [ 77.245306544254248, 18.346525462211019 ], [ 77.247947545184431, 18.345374654660404 ], [ 77.249186124205877, 18.345629945999498 ], [ 77.250215481768549, 18.345703369984687 ], [ 77.250389855729026, 18.345578532743694 ], [ 77.250831032155702, 18.345262683654713 ], [ 77.250949263968025, 18.345310601734781 ], [ 77.251572649345903, 18.344946835197426 ], [ 77.251251486892983, 18.344126236030121 ], [ 77.251430573801301, 18.34406133383154 ], [ 77.25096955139243, 18.342071569425965 ], [ 77.25072676969792, 18.341023703190295 ], [ 77.250644678718459, 18.340602187586676 ], [ 77.250564359324045, 18.34018976134498 ], [ 77.250534873277275, 18.340038360332766 ], [ 77.250463410138494, 18.339671404748046 ], [ 77.250443010956914, 18.339566664968387 ], [ 77.250416312455087, 18.33942956858635 ], [ 77.250273163219433, 18.338694524346852 ], [ 77.250103022730556, 18.33782086027275 ], [ 77.249863553387371, 18.336591177451321 ], [ 77.249828608901637, 18.336411738062349 ], [ 77.249722023349818, 18.336100208192502 ], [ 77.24959243654024, 18.335721445598729 ], [ 77.249304555198464, 18.334880009778406 ], [ 77.249121016720181, 18.33370469115637 ], [ 77.249082254117383, 18.333456478134277 ], [ 77.2487674376233, 18.330745794044368 ], [ 77.24847543070193, 18.329719810710856 ], [ 77.24849844468541, 18.329192357821938 ], [ 77.24849846000204, 18.329192006268883 ], [ 77.24853518730734, 18.32835028906857 ], [ 77.248645795443011, 18.327647417699964 ], [ 77.248728520306841, 18.327121738314538 ], [ 77.249198333945557, 18.326697087017749 ], [ 77.249210851430504, 18.326540856874896 ], [ 77.249254799831675, 18.325992341213233 ], [ 77.249346347353026, 18.324849760009499 ], [ 77.24935181948203, 18.324632222139712 ], [ 77.249308345530665, 18.324429002101898 ], [ 77.248959548472371, 18.323143518734074 ], [ 77.248871018155342, 18.322797772348927 ], [ 77.248833376385903, 18.322650765244358 ], [ 77.248776273868117, 18.322427751459518 ], [ 77.248924977784284, 18.322200651826414 ], [ 77.249577935289452, 18.321203464404309 ], [ 77.249617221876647, 18.320768576420601 ], [ 77.249649145962266, 18.320641960547306 ], [ 77.249587318788244, 18.320596222728057 ], [ 77.249589629219855, 18.320585977676529 ], [ 77.249619578246765, 18.320429418174683 ], [ 77.24969754423006, 18.319950936491882 ], [ 77.250191303164641, 18.317786455680142 ], [ 77.250489658597786, 18.317651075051376 ], [ 77.250675689060685, 18.317566662937477 ], [ 77.250801140388745, 18.317454271175695 ], [ 77.252032135824933, 18.316351409853727 ], [ 77.252271683082157, 18.316253484938585 ], [ 77.252321802374937, 18.316252994438418 ], [ 77.252335537705036, 18.316227380844662 ], [ 77.252706940448419, 18.316075552472071 ], [ 77.252666050244358, 18.315897436201201 ], [ 77.252606460513931, 18.315637864296843 ], [ 77.252371147534419, 18.314612834637632 ], [ 77.253218685888925, 18.313825375340464 ], [ 77.254446623190816, 18.313088765977728 ], [ 77.254815494820789, 18.312867486517813 ], [ 77.254961232643794, 18.312825648362242 ], [ 77.255042993715875, 18.310425841278409 ], [ 77.255088981483098, 18.307860151990113 ], [ 77.255093379280837, 18.307614828044361 ], [ 77.255094231812606, 18.307599383806075 ], [ 77.255116696232022, 18.304671639727257 ], [ 77.255117406758316, 18.304579059737705 ], [ 77.255123286795111, 18.303812994955639 ], [ 77.255129007231034, 18.303067516627877 ], [ 77.25514017029208, 18.301612729145237 ], [ 77.255142112355514, 18.301359608161004 ], [ 77.255142729145859, 18.301279203526594 ], [ 77.257247940208273, 18.301417135298067 ], [ 77.25737111137606, 18.301425204889526 ], [ 77.257608052414, 18.301451802845328 ], [ 77.257729596528094, 18.301465447446009 ], [ 77.258753942464011, 18.301580435610006 ], [ 77.258756822451346, 18.301580619224765 ], [ 77.258945362930518, 18.301592655643873 ], [ 77.259486118593884, 18.301352388036353 ], [ 77.260086680746667, 18.301164441909883 ], [ 77.261017425380189, 18.300738785203645 ], [ 77.262016869128104, 18.300224027921644 ], [ 77.263005475812534, 18.299714844696322 ], [ 77.263056223270397, 18.299688706083494 ], [ 77.263155011638105, 18.299650834574827 ], [ 77.264511123025372, 18.299070321612447 ], [ 77.264532171966479, 18.299061311206117 ], [ 77.267324863169407, 18.298486694870956 ], [ 77.267500978560605, 18.298495851921441 ], [ 77.26753757148667, 18.298487570721417 ], [ 77.268468715226007, 18.298276872512101 ], [ 77.269177740891735, 18.298116429690822 ], [ 77.26919979686096, 18.298111439002192 ], [ 77.269237910453327, 18.298203807190792 ], [ 77.26935812364637, 18.298160741727258 ], [ 77.269607311243121, 18.298145983457626 ], [ 77.271025953793213, 18.298029252590048 ], [ 77.272211224244728, 18.29805410714242 ], [ 77.27304003920807, 18.298016097248585 ], [ 77.273687421765231, 18.297986403556077 ], [ 77.27376933818104, 18.297982647907119 ], [ 77.273769779331801, 18.297949934675753 ], [ 77.273778096216816, 18.297333105383395 ], [ 77.273652427361753, 18.296016522617418 ], [ 77.273362737126064, 18.295324500020257 ], [ 77.273176486594338, 18.294994234677606 ], [ 77.272558725326064, 18.293911249620514 ], [ 77.272456705741789, 18.293688781569649 ], [ 77.271887817613631, 18.292448228477468 ], [ 77.27187027161014, 18.292409739619551 ], [ 77.271647369803489, 18.291920804711115 ], [ 77.271494555159279, 18.291585605825581 ], [ 77.271293396979132, 18.291122970320192 ], [ 77.271148998353837, 18.290790872090664 ], [ 77.271091672920804, 18.290667250264462 ], [ 77.270753596385433, 18.289718378563975 ], [ 77.27062215242475, 18.288708895115047 ], [ 77.270495610849949, 18.287737038122479 ], [ 77.270399692772685, 18.287436320087185 ], [ 77.270319066120692, 18.287308728501539 ], [ 77.270016708745388, 18.28683023872383 ], [ 77.26990048341186, 18.286681452057522 ], [ 77.269155829224104, 18.284863457881112 ], [ 77.269378719407896, 18.284781225888057 ], [ 77.270257207849554, 18.284457118896338 ], [ 77.270576107483151, 18.284375223472988 ], [ 77.271291626833417, 18.28419147280843 ], [ 77.273528710427001, 18.283672965585225 ], [ 77.274913705106144, 18.283116144097463 ], [ 77.275793119797186, 18.282876869135848 ], [ 77.277092732681538, 18.282983092820636 ], [ 77.277054233788107, 18.283511722243581 ], [ 77.277053452773714, 18.283522438798638 ], [ 77.277017772094354, 18.284012371473612 ], [ 77.277060507223396, 18.284636314922977 ], [ 77.277140893325921, 18.285809941955378 ], [ 77.277371791525837, 18.285999094668131 ], [ 77.278583062898576, 18.286991356906587 ], [ 77.278617744672744, 18.287167273019005 ], [ 77.278663810305844, 18.287400931477009 ], [ 77.27887802959728, 18.288487507082497 ], [ 77.278929923095745, 18.288652264815937 ], [ 77.279359871357627, 18.290017310983927 ], [ 77.279497128993938, 18.290019480347567 ], [ 77.279809116728131, 18.290033315525591 ], [ 77.280296878893097, 18.290054944464156 ], [ 77.280545402133697, 18.290041718377239 ], [ 77.281242974056212, 18.289850596748678 ], [ 77.281342717833979, 18.290062867016992 ], [ 77.281343032089595, 18.290066070731726 ], [ 77.282085947339809, 18.291631751963113 ], [ 77.282166839659013, 18.291802229085945 ], [ 77.282397993576396, 18.29250881010044 ], [ 77.282673170536839, 18.293349947408025 ], [ 77.2826910596376, 18.293402173975331 ], [ 77.282724437979638, 18.293499625737745 ], [ 77.283046519297855, 18.294840152108762 ], [ 77.283048605382305, 18.294876968288829 ], [ 77.283189849899117, 18.294837527224779 ], [ 77.283254195054852, 18.294819559952391 ], [ 77.283340421915767, 18.294770750399561 ], [ 77.283425925038159, 18.294722350511314 ], [ 77.283468139122121, 18.294700468413446 ], [ 77.283602353262367, 18.294630896305126 ], [ 77.284178025443595, 18.294332487039899 ], [ 77.285586732748769, 18.293979732791989 ], [ 77.285614460265393, 18.293977779622793 ], [ 77.286655993839688, 18.29390441302975 ], [ 77.286735853339792, 18.293934719408746 ], [ 77.287009690250159, 18.294038639615071 ], [ 77.287201995805091, 18.294007341327067 ], [ 77.287962862693362, 18.293883505531802 ], [ 77.288115300924687, 18.294463930291528 ], [ 77.289495967946422, 18.294749494809526 ], [ 77.289576062580792, 18.294730131720229 ], [ 77.290787375612126, 18.294437273130246 ], [ 77.291836739301843, 18.294596734725683 ], [ 77.291876267239815, 18.294765929013817 ], [ 77.292121378464685, 18.294729787419413 ], [ 77.292332136060324, 18.294695362167555 ], [ 77.292387060036205, 18.294607250077938 ], [ 77.292514452081562, 18.294397655999408 ], [ 77.292849567564062, 18.294313715141303 ], [ 77.293378525751706, 18.294302420464351 ], [ 77.293476624879105, 18.29430032563079 ], [ 77.29459263266358, 18.293231604847293 ], [ 77.294502698605044, 18.291516219840084 ], [ 77.294490566131955, 18.29128480819967 ], [ 77.294669559343603, 18.290743628614223 ], [ 77.29468565613648, 18.290694959577795 ], [ 77.294849868259973, 18.290556477616779 ], [ 77.294882357529445, 18.290529079190446 ], [ 77.295036370204045, 18.290399196640831 ], [ 77.295275912478402, 18.290261306865069 ], [ 77.295678316900663, 18.290029664987497 ], [ 77.295688435939141, 18.290028629287377 ], [ 77.296138822190642, 18.289982566127055 ], [ 77.298187785206409, 18.289230224105705 ], [ 77.298761332620302, 18.289027544792052 ], [ 77.299329569386998, 18.288826740621584 ], [ 77.300486142891742, 18.288578965182808 ], [ 77.301004557098551, 18.288467901452272 ], [ 77.302430258611622, 18.288226097737123 ], [ 77.302701587683416, 18.288180078521219 ], [ 77.302897008065287, 18.288011761209649 ], [ 77.303308869227209, 18.28797728052206 ], [ 77.304400986647892, 18.287885844572475 ], [ 77.304462660854242, 18.287880681035258 ], [ 77.304657053084085, 18.288285896825212 ], [ 77.304840502484979, 18.288668300092738 ], [ 77.304902821358311, 18.288664175471062 ], [ 77.305903087953155, 18.290152872988568 ], [ 77.306045515679102, 18.290373131478578 ], [ 77.307122334932572, 18.292038362004806 ], [ 77.307435405613148, 18.292308041815033 ], [ 77.308240316672709, 18.292985500258123 ], [ 77.309922025214405, 18.294400892779368 ], [ 77.309975033969806, 18.294445505888461 ], [ 77.310701227223291, 18.294543830071063 ], [ 77.311403277193705, 18.294538766795082 ], [ 77.312080311945138, 18.294533880040735 ], [ 77.31216105116539, 18.294533297269872 ], [ 77.31256957859209, 18.294552146710611 ], [ 77.312785885647514, 18.294522561040903 ], [ 77.313069904640983, 18.294483712445555 ], [ 77.313746037077181, 18.294522246797669 ], [ 77.313958161412387, 18.294440461638615 ], [ 77.314342355579498, 18.294380193727047 ], [ 77.314634268909586, 18.294179784861925 ], [ 77.315237481525131, 18.293765654766087 ], [ 77.315286586492817, 18.293731942184721 ], [ 77.315251736595698, 18.292376004297143 ], [ 77.315262804079495, 18.292305580895967 ], [ 77.315265126074308, 18.29223409471404 ], [ 77.315276670883861, 18.29213575631028 ], [ 77.315288319119318, 18.292019722178647 ], [ 77.315305122112377, 18.291879524405047 ], [ 77.315346998665589, 18.291517755054596 ], [ 77.315386314862408, 18.291119209701609 ], [ 77.315425075229086, 18.290726304591029 ], [ 77.315453831303472, 18.290373668868849 ], [ 77.315532834903365, 18.289324960723718 ], [ 77.31554131849974, 18.288624259605243 ], [ 77.315494852987655, 18.287985057713382 ], [ 77.315354642023138, 18.28751233911569 ], [ 77.315205066562754, 18.286898301688161 ], [ 77.315152812428437, 18.286142420322513 ], [ 77.315139046124131, 18.285723997410319 ], [ 77.315109588056217, 18.285457394346988 ], [ 77.314904572295077, 18.284408361561631 ], [ 77.314528237984334, 18.282971288172682 ], [ 77.313916895974174, 18.281068781521192 ], [ 77.313177282224686, 18.279831371759236 ], [ 77.312641887933694, 18.27916288988434 ], [ 77.311551234588137, 18.278125255954436 ], [ 77.311612829815317, 18.278129907864031 ], [ 77.311721545404126, 18.278138116741378 ], [ 77.312163950985507, 18.27817152695869 ], [ 77.312957521051189, 18.277970153969338 ], [ 77.314614383195206, 18.277598954466892 ], [ 77.31570250972139, 18.2773130114469 ], [ 77.316214545719234, 18.277102020720505 ], [ 77.316224395776715, 18.277097962321548 ], [ 77.318723453535767, 18.276861134118505 ], [ 77.318731167230226, 18.277159053584764 ], [ 77.318734910413326, 18.277303656562236 ], [ 77.319233389415274, 18.278717598134875 ], [ 77.319378359289757, 18.278878186156199 ], [ 77.319380589376905, 18.279113220728597 ], [ 77.319550801283924, 18.279108346793748 ], [ 77.32045628754355, 18.278852851832166 ], [ 77.322287092886526, 18.279134651374335 ], [ 77.322450476402068, 18.279096852630516 ], [ 77.322700467563791, 18.279039016055549 ], [ 77.322920661971409, 18.279048239982828 ], [ 77.322947907312283, 18.279049381104233 ], [ 77.323175567163233, 18.279643423209265 ], [ 77.323770612605912, 18.279711385977251 ], [ 77.324271414476598, 18.279773474906296 ], [ 77.325633104256497, 18.279801753960651 ], [ 77.325884617065682, 18.279791910706518 ], [ 77.326479744361748, 18.279693154628614 ], [ 77.32857411080478, 18.279345604626677 ], [ 77.328736467877462, 18.279349107179168 ], [ 77.329070284946738, 18.27935630803092 ], [ 77.329793266993164, 18.279276927027045 ], [ 77.33036807597847, 18.279375871764703 ], [ 77.332362578521256, 18.279389214829344 ], [ 77.332388527724632, 18.279428970942565 ], [ 77.332479491416322, 18.279419086774407 ], [ 77.333242299748804, 18.28064048103208 ], [ 77.333310973787988, 18.280750439267582 ], [ 77.333758835338031, 18.28300552185793 ], [ 77.33378247070371, 18.283124529259982 ], [ 77.336142360346059, 18.285182597206163 ], [ 77.337116101912287, 18.28515720059481 ], [ 77.337924708307199, 18.285136106774804 ], [ 77.338187307215435, 18.285129254170826 ], [ 77.338056744100044, 18.285706171698461 ], [ 77.337561407322937, 18.287894882963112 ], [ 77.33755686732006, 18.287914941423324 ], [ 77.342012914939829, 18.290257044035215 ], [ 77.344301315525485, 18.290692790228142 ], [ 77.345716851297283, 18.291048935772768 ], [ 77.346773824183046, 18.29146541270616 ], [ 77.347243248632495, 18.291574296986912 ], [ 77.348363744722832, 18.291736673936473 ], [ 77.348438303849989, 18.291747478334198 ], [ 77.348563952272286, 18.291765685964247 ], [ 77.348773418305697, 18.291974845505578 ], [ 77.348957037433138, 18.292158195119974 ], [ 77.349105117558963, 18.292547854041306 ], [ 77.349024431920995, 18.293165317479982 ], [ 77.349098224941145, 18.293295167568843 ], [ 77.349156080944155, 18.293396974396696 ], [ 77.349603664494509, 18.294184561696298 ], [ 77.350153829449312, 18.295404396333495 ], [ 77.350181844646031, 18.295466509342962 ], [ 77.35042421487384, 18.295828918365913 ], [ 77.35070865341963, 18.296248505089327 ], [ 77.351000453020589, 18.296337063058406 ], [ 77.351142490134876, 18.296429578078069 ], [ 77.351637403769885, 18.296751941053309 ], [ 77.351824552703164, 18.296905386679761 ], [ 77.351832818656973, 18.296912163803523 ], [ 77.351909472637047, 18.296975012369593 ], [ 77.35200378495864, 18.297052338797759 ], [ 77.352145124052726, 18.297168223349423 ], [ 77.352146403394102, 18.297169272487466 ], [ 77.351824339432511, 18.29735731309836 ], [ 77.351431701334334, 18.298173341246507 ], [ 77.351241794286565, 18.298568030892877 ], [ 77.351191767511779, 18.29877606258362 ], [ 77.351119004487998, 18.299078641604929 ], [ 77.351027301215538, 18.29945997716014 ], [ 77.351057638468703, 18.299727411322465 ], [ 77.351300018182386, 18.300450514899282 ], [ 77.351779871194822, 18.301020635327273 ], [ 77.352312937015355, 18.301653970662446 ], [ 77.352600203616291, 18.301775270334367 ], [ 77.352993247258212, 18.302318238221002 ], [ 77.353330128576545, 18.302742386983113 ], [ 77.353686300357694, 18.302787093140534 ], [ 77.353273106113662, 18.302806303545367 ], [ 77.353214304743616, 18.302809037154997 ], [ 77.353369535502111, 18.304392373934537 ], [ 77.353659988715762, 18.304499278202165 ], [ 77.354004210341685, 18.304827076736615 ], [ 77.354612282613786, 18.305645256917511 ], [ 77.355068660493899, 18.305710616794325 ], [ 77.355285497793631, 18.305827680904891 ], [ 77.357233886152486, 18.30712096468929 ], [ 77.357194279987155, 18.307341519988864 ], [ 77.357140772381442, 18.307639494619398 ], [ 77.358363171221413, 18.307887078851266 ], [ 77.358952541249437, 18.308160302496542 ], [ 77.359501456511211, 18.308288207304336 ], [ 77.360562135152875, 18.308735895280929 ], [ 77.360851252456982, 18.308917060808561 ], [ 77.361076790941738, 18.309034792038865 ], [ 77.362551428337483, 18.30999139233554 ], [ 77.364068054948945, 18.31058172748369 ], [ 77.363853324386014, 18.310825180596925 ], [ 77.362849737787457, 18.311962995256295 ], [ 77.361586192246293, 18.3133189948222 ], [ 77.360738973035481, 18.314423991858391 ], [ 77.359849777442051, 18.315465934331463 ], [ 77.359489848855191, 18.315498559064583 ], [ 77.358959335349383, 18.316121425710385 ], [ 77.358679379134529, 18.316447970953327 ], [ 77.358117946937639, 18.317100794767036 ], [ 77.35775834588101, 18.317625753809992 ], [ 77.356869426666407, 18.318863026139542 ], [ 77.356285031652703, 18.319707295406563 ], [ 77.356269847797151, 18.321529623964331 ], [ 77.35656891523827, 18.321611862922346 ], [ 77.359799582285191, 18.321809192031221 ], [ 77.361259613682321, 18.322277624823688 ], [ 77.361364632936855, 18.322311318727017 ], [ 77.361647698009961, 18.322383165391173 ], [ 77.364447995379493, 18.323093905525777 ], [ 77.36459598045488, 18.323146832548705 ], [ 77.365857186047947, 18.32367225382573 ], [ 77.366101014478289, 18.323855508968219 ], [ 77.366730859328996, 18.324328883678845 ], [ 77.366839566779348, 18.324368122133389 ], [ 77.367064105922097, 18.324449173981844 ], [ 77.367423436170085, 18.324578877361045 ], [ 77.368012966299318, 18.324668224921233 ], [ 77.36988982796845, 18.325114625904362 ], [ 77.369687217656676, 18.32594199855842 ], [ 77.370059804370541, 18.326663665500973 ], [ 77.371975939567989, 18.326849726449545 ], [ 77.374821719253234, 18.330745544845747 ], [ 77.376194149842917, 18.332606945754932 ], [ 77.378112855522076, 18.332422044371775 ], [ 77.379354200857193, 18.331400431195707 ], [ 77.381097373167691, 18.33096335469784 ], [ 77.381909908734499, 18.331902740296499 ], [ 77.381810489692668, 18.335155089185211 ], [ 77.381667093406065, 18.336116435595613 ], [ 77.382845061915532, 18.336824341300424 ], [ 77.382276145213623, 18.33777433330809 ], [ 77.381955332554213, 18.338749065451577 ], [ 77.382254552361559, 18.339822720930055 ], [ 77.382666806237395, 18.340253074282352 ], [ 77.383994514708291, 18.340232120901426 ], [ 77.384814813329143, 18.339311600237036 ], [ 77.384917438009367, 18.339357873053448 ], [ 77.387521793339346, 18.340532141114394 ], [ 77.387863776626958, 18.340037343516268 ], [ 77.388716545497971, 18.34020549370808 ], [ 77.388831760623717, 18.340228212696776 ], [ 77.388863952644428, 18.340234559645815 ], [ 77.388903230433627, 18.340626678320454 ], [ 77.389019623906506, 18.340651844508347 ], [ 77.389052144146831, 18.340658875538367 ], [ 77.389551490729488, 18.340766839201024 ], [ 77.389307058847052, 18.341017656678584 ], [ 77.38956102115101, 18.341744192437261 ], [ 77.391773852692623, 18.342361218821896 ], [ 77.392593023908802, 18.342324580153875 ], [ 77.395163415638564, 18.343076939109697 ], [ 77.394374812570263, 18.344526641426448 ], [ 77.395169778079861, 18.347216722532895 ], [ 77.394961466105542, 18.347786728947678 ], [ 77.396571577073971, 18.347804151479806 ], [ 77.397611373348127, 18.347872881063672 ], [ 77.398748028510639, 18.347727885816546 ], [ 77.400537195149724, 18.347628551342734 ], [ 77.400813161104864, 18.348894393607658 ], [ 77.400830926117607, 18.349818819385476 ], [ 77.400645661687449, 18.350323139766296 ], [ 77.400538444838404, 18.351833964037887 ], [ 77.400455857394647, 18.352452691694296 ], [ 77.400207042873873, 18.352996080215632 ], [ 77.399845269396039, 18.354359248944885 ], [ 77.39971808111855, 18.356222993819689 ], [ 77.399690612935615, 18.358220586500757 ], [ 77.399746162975632, 18.359729300318204 ], [ 77.399557756276252, 18.3605578026792 ], [ 77.399405920254011, 18.360787355630347 ], [ 77.398790905661826, 18.362124000483146 ], [ 77.398665601139754, 18.362531242172878 ], [ 77.398402817772592, 18.363140042511265 ], [ 77.397992371590661, 18.364960381089535 ], [ 77.398327441408497, 18.365133826139562 ], [ 77.397448343242743, 18.366463985645318 ], [ 77.396740755732381, 18.367407231911635 ], [ 77.395538797429225, 18.36836512022559 ], [ 77.395363315694667, 18.369257462830522 ], [ 77.395170276596318, 18.369586310714158 ], [ 77.395247495932111, 18.369669621980233 ], [ 77.395957759646123, 18.370435911034434 ], [ 77.397042383728589, 18.370718044854065 ], [ 77.398557140108593, 18.370581534028183 ], [ 77.399738136648438, 18.370467690851587 ], [ 77.401154542227374, 18.370530481061227 ], [ 77.402112570004974, 18.372772086973914 ], [ 77.402302148981235, 18.373215661625512 ], [ 77.40526615620648, 18.373872961691948 ], [ 77.406887429253658, 18.373728632077388 ], [ 77.407557123934055, 18.374518720210844 ], [ 77.40826471380646, 18.375591924722045 ], [ 77.409270528614641, 18.375723056177367 ], [ 77.409533625766315, 18.376242409372551 ], [ 77.41011201398328, 18.37739063041959 ], [ 77.409884479151572, 18.378418974268701 ], [ 77.410245909790518, 18.378876377859751 ], [ 77.410537542431612, 18.379245449562681 ], [ 77.411066634691466, 18.380697256807867 ], [ 77.412280210531563, 18.383394335413719 ], [ 77.413189437272663, 18.385484293872473 ], [ 77.413230812458366, 18.385642605878257 ], [ 77.41325377037677, 18.385730446954657 ], [ 77.413690492825324, 18.387401398540401 ], [ 77.413675300850059, 18.387648810978451 ], [ 77.41323243996878, 18.38855074380071 ], [ 77.41404701638433, 18.390630611265976 ], [ 77.414270228265423, 18.391952412655641 ], [ 77.414269528749443, 18.392092992515781 ], [ 77.413781324416362, 18.393055759593501 ], [ 77.412028209841111, 18.394385787616852 ], [ 77.410438599040319, 18.395456680233551 ], [ 77.408626318701565, 18.396389222279232 ], [ 77.407428230137711, 18.396881678246391 ], [ 77.407262030102359, 18.396997750728399 ], [ 77.405757577410725, 18.397966564561994 ], [ 77.405228709186503, 18.398278006646272 ], [ 77.403983170010093, 18.399011475152513 ], [ 77.404059798310357, 18.399395796453039 ], [ 77.403822914298104, 18.399552049117126 ], [ 77.401713220997195, 18.399708742938049 ], [ 77.401737551038366, 18.400123725039947 ], [ 77.401769101352258, 18.400661857426911 ], [ 77.40086594356714, 18.401035704017726 ], [ 77.400979359361941, 18.402298568783596 ], [ 77.400599070341556, 18.402392981630399 ], [ 77.399514815854104, 18.402511576028363 ], [ 77.398834516375899, 18.402548572115034 ], [ 77.398615195173633, 18.402560498321581 ], [ 77.397490900919095, 18.402599221132864 ], [ 77.396734631972564, 18.402519215475788 ], [ 77.39568523952245, 18.402400545860903 ], [ 77.395695646509779, 18.402123630456533 ], [ 77.39508502501829, 18.40207496381257 ], [ 77.393569505629642, 18.402003612505318 ], [ 77.393481944640811, 18.401727890274472 ], [ 77.392728124793507, 18.401677218001119 ], [ 77.392775046198167, 18.401037039671174 ], [ 77.392680308362969, 18.400974852065595 ], [ 77.392472946099048, 18.400838734607404 ], [ 77.392103720281924, 18.400903072156797 ], [ 77.391313972735531, 18.400929998570646 ], [ 77.386217098072294, 18.400675355373284 ], [ 77.384056062512514, 18.40010310031456 ], [ 77.383401081165502, 18.401509946055839 ], [ 77.380506743194474, 18.401417825501262 ], [ 77.379486953189456, 18.401867793176518 ], [ 77.376341492400144, 18.402017355806112 ], [ 77.37470881813276, 18.401784422131328 ], [ 77.373950743640918, 18.401684081568661 ], [ 77.372749280979548, 18.401004686756004 ], [ 77.372710369324238, 18.401051559254526 ], [ 77.372297873356302, 18.402077041118016 ], [ 77.372166387288459, 18.402922051848563 ], [ 77.371845126168409, 18.405629097092532 ], [ 77.370940238639136, 18.406081706525843 ], [ 77.370547400563098, 18.407636078489105 ], [ 77.369692639651063, 18.409603583839203 ], [ 77.369257102664875, 18.410685957864622 ], [ 77.369285385493058, 18.41244592797165 ], [ 77.369233575029284, 18.415623363964929 ], [ 77.369285768746479, 18.415760993029316 ], [ 77.370329957196773, 18.418514389896782 ], [ 77.370257502131551, 18.418529193780536 ], [ 77.367428849511583, 18.419107131632231 ], [ 77.367088357020222, 18.420414012597696 ], [ 77.366811671353346, 18.421776128034939 ], [ 77.366458314496839, 18.425118909258273 ], [ 77.366384235033962, 18.425830580448455 ], [ 77.366592893429896, 18.427460492721341 ], [ 77.3666281060665, 18.427531752578076 ], [ 77.367185633682709, 18.428660047297722 ], [ 77.366539942878802, 18.429174355133409 ], [ 77.366390792889689, 18.429281860821561 ], [ 77.363533707744324, 18.430490893173626 ], [ 77.363316858567998, 18.430678359708725 ], [ 77.363509026920127, 18.431985573407083 ], [ 77.363651561831588, 18.432374625143179 ], [ 77.363669006780071, 18.432444367298977 ], [ 77.363837705181524, 18.433118788879113 ], [ 77.364012365502333, 18.433817040944668 ], [ 77.364636524650663, 18.434640695192197 ], [ 77.364745156469198, 18.435474461833426 ], [ 77.362896946144332, 18.436300697232873 ], [ 77.362315510236073, 18.436560621330468 ], [ 77.362408105330019, 18.436693708832507 ], [ 77.365398017071684, 18.440991065036265 ], [ 77.369173385772186, 18.44805380022909 ], [ 77.366743776902155, 18.448395654068523 ], [ 77.366285747747796, 18.449222135987036 ], [ 77.366057526365466, 18.449617882151742 ], [ 77.366089873528139, 18.450160434297604 ], [ 77.366675610229862, 18.450568848726331 ] ] ], [ [ [ 77.299684225162594, 18.476471312882477 ], [ 77.297034657112746, 18.477347989285246 ], [ 77.292184031940309, 18.477270390341463 ], [ 77.289741776298143, 18.476892671354026 ], [ 77.287348084156946, 18.474830775475297 ], [ 77.286415185619902, 18.475086888415419 ], [ 77.286085392480175, 18.47517742642659 ], [ 77.284389668130643, 18.47507568027579 ], [ 77.283119048554695, 18.475650461009533 ], [ 77.280915160212203, 18.475470966200835 ], [ 77.279465860051587, 18.476322969531228 ], [ 77.278576389525696, 18.476466492601268 ], [ 77.278164406144413, 18.477051089264609 ], [ 77.277269148464427, 18.477146674220887 ], [ 77.275294411299598, 18.477585704688636 ], [ 77.274235829273707, 18.475204129455374 ], [ 77.272515182273452, 18.472884702831475 ], [ 77.272123786666469, 18.470945343824475 ], [ 77.27192492393938, 18.470437483468714 ], [ 77.2718889728216, 18.470345669557489 ], [ 77.271884800785145, 18.470328310393597 ], [ 77.271010538116471, 18.466690146611398 ], [ 77.271079460451034, 18.466234038793488 ], [ 77.271090171505662, 18.466175220002796 ], [ 77.271103744446449, 18.466100691926684 ], [ 77.271137480734524, 18.465915443080139 ], [ 77.271148015287849, 18.465857599202991 ], [ 77.271158549836315, 18.465799755325694 ], [ 77.271309803753951, 18.465707776225262 ], [ 77.27096715858471, 18.465258485183615 ], [ 77.269678255484308, 18.463820044721253 ], [ 77.269332850852066, 18.462693561383585 ], [ 77.269256565462229, 18.462159829559621 ], [ 77.268848914724884, 18.460909284250562 ], [ 77.268456986637915, 18.460349105905227 ], [ 77.268057941826896, 18.459253145454039 ], [ 77.267793448351156, 18.458101402076501 ], [ 77.268135682457256, 18.454590471714027 ], [ 77.269424240219237, 18.454167755721858 ], [ 77.271279558498037, 18.453559092195995 ], [ 77.272414864007942, 18.45361978949477 ], [ 77.275781911797409, 18.453743610941935 ], [ 77.278070692012349, 18.453737454701582 ], [ 77.27892616954189, 18.453825201583449 ], [ 77.280490570025052, 18.453940373810244 ], [ 77.281688969348409, 18.454898843972302 ], [ 77.28188777204376, 18.455545472483401 ], [ 77.282181546672703, 18.45590546700852 ], [ 77.282315439251448, 18.455736862236446 ], [ 77.284329843339478, 18.455234537219514 ], [ 77.284801020273008, 18.456366278507929 ], [ 77.285264284397059, 18.456287835410823 ], [ 77.285379032028345, 18.456268405124696 ], [ 77.287089482451051, 18.455978768037653 ], [ 77.288722787350437, 18.455588221604703 ], [ 77.288889866942668, 18.455538212244495 ], [ 77.288944877485008, 18.455532399493247 ], [ 77.288999887997804, 18.455526584920229 ], [ 77.290092190341639, 18.455411153468816 ], [ 77.290387448682864, 18.455507289264979 ], [ 77.291077672162018, 18.455953985473062 ], [ 77.292703085124842, 18.457056257226309 ], [ 77.2946184715355, 18.458638975083367 ], [ 77.29579273736995, 18.459352768507696 ], [ 77.295752517825946, 18.459379998757285 ], [ 77.29571230017342, 18.459407229879819 ], [ 77.295657424636047, 18.459444385379783 ], [ 77.295616447144127, 18.459472131501499 ], [ 77.295575469614462, 18.459499875809549 ], [ 77.294986848043251, 18.459642876067438 ], [ 77.295385548807346, 18.460229062483979 ], [ 77.295755625859385, 18.460598262229031 ], [ 77.296260358063265, 18.461010265993501 ], [ 77.295686826124467, 18.461492012034377 ], [ 77.296153349319582, 18.462605848089176 ], [ 77.297513573010519, 18.463502127022128 ], [ 77.299410255016795, 18.464631888046895 ], [ 77.299771424481392, 18.464564137226681 ], [ 77.299799298998465, 18.464603160936235 ], [ 77.29982717352874, 18.464642184640173 ], [ 77.299910362213851, 18.464758647702254 ], [ 77.299937701487579, 18.464796921874733 ], [ 77.299965039827626, 18.464835196053279 ], [ 77.300038448404678, 18.46488158652749 ], [ 77.300091166866551, 18.465010536261534 ], [ 77.30019297019436, 18.465719170093969 ], [ 77.300264616436181, 18.466217887096743 ], [ 77.300417111908047, 18.468573860553786 ], [ 77.300368194101438, 18.469970822255494 ], [ 77.3005231854047, 18.471072279437664 ], [ 77.3004925132349, 18.472695316219855 ], [ 77.300184952520269, 18.47382197953657 ], [ 77.299684225162594, 18.476471312882477 ] ] ] ] } }
]
}
