{
"type": "FeatureCollection",
"name": "police_station_boundary.writing_20260805_172659",
"crs": { "type": "name", "properties": { "name": "urn:ogc:def:crs:OGC:1.3:CRS84" } },
"features": [
{ "type": "Feature", "properties": { "Shape.STArea()": 27439305.26272092, "Shape.STLength()": 30763.824499609829, "OBJECTID": 838, "KGISPS_BOUNDID": 742, "PS_BOUNDName": "Kadugodi PS", "PS_BOUNDCode": "PSB - 742", "KGISPS_SUB_DIVID": 184, "_source_layer": "Police Station Boundary", "_source_layer_url": "https://kgis.ksrsac.in/kgismaps/rest/services/Home/Home_Department/MapServer/82", "_police_station": "Kadugodi PS" }, "geometry": { "type": "Polygon", "coordinates": [ [ [ 77.76741482561836, 13.038165309991015 ], [ 77.767311227678846, 13.038175383051282 ], [ 77.767117143316639, 13.038218160561859 ], [ 77.763789628517046, 13.038951540985861 ], [ 77.763042583024017, 13.038926789195546 ], [ 77.762888142282492, 13.038916194335259 ], [ 77.762617297473525, 13.038897614508571 ], [ 77.76241771484095, 13.038883923156018 ], [ 77.761198040200185, 13.038800248658024 ], [ 77.760735578810525, 13.038766516294816 ], [ 77.760086175959358, 13.038719147462654 ], [ 77.760050486874164, 13.038716543481804 ], [ 77.759918518698498, 13.038692697523492 ], [ 77.759759861883438, 13.038070765601891 ], [ 77.757042046142701, 13.038310053872312 ], [ 77.756256404841949, 13.038246720078217 ], [ 77.755532282854887, 13.038015425219504 ], [ 77.755003578988806, 13.03782028857967 ], [ 77.754766427897863, 13.037427259646842 ], [ 77.75459216955413, 13.037210424748171 ], [ 77.754080631497175, 13.037244548439697 ], [ 77.753267614107628, 13.03733948490008 ], [ 77.753134808803495, 13.037354992058326 ], [ 77.753017843435046, 13.037362708422847 ], [ 77.75230138186545, 13.038040241201102 ], [ 77.750502805254243, 13.038087134669757 ], [ 77.750190728330182, 13.038083001042622 ], [ 77.749566969729344, 13.038072415931936 ], [ 77.749095332088828, 13.038064410519906 ], [ 77.747574154749358, 13.038104805249894 ], [ 77.746881758229222, 13.037986675476523 ], [ 77.74565823265992, 13.037772863464859 ], [ 77.745029054462989, 13.037694963304714 ], [ 77.74380377279752, 13.037069269299856 ], [ 77.74333482283366, 13.036851008269242 ], [ 77.742636824498632, 13.035190925914931 ], [ 77.741982463350752, 13.033744375446718 ], [ 77.74197243363632, 13.033712080008314 ], [ 77.741456114547987, 13.032191523537332 ], [ 77.741959324428322, 13.031951350560989 ], [ 77.742228096684286, 13.031787174567594 ], [ 77.742434321341577, 13.03158780929682 ], [ 77.74253491384799, 13.031425414131446 ], [ 77.742680445179403, 13.031359341430971 ], [ 77.7435017159099, 13.031228748045315 ], [ 77.743691553906444, 13.031201640407415 ], [ 77.743568336252068, 13.030969914169512 ], [ 77.743403836081811, 13.03064182677673 ], [ 77.743362140230005, 13.030176204988097 ], [ 77.74329864447823, 13.030054983717887 ], [ 77.743012683551953, 13.029986310604924 ], [ 77.742756760774739, 13.029989021071074 ], [ 77.742537666967095, 13.030073237446663 ], [ 77.742363527025205, 13.030140174750107 ], [ 77.741727430432036, 13.030483909926275 ], [ 77.741656227994298, 13.030326919110296 ], [ 77.741468807230746, 13.029909444694862 ], [ 77.741406338621459, 13.029881425098171 ], [ 77.741128637709224, 13.029898704882518 ], [ 77.740909235080039, 13.029897442538315 ], [ 77.740708020401655, 13.029960655422597 ], [ 77.740398966975448, 13.030046246664597 ], [ 77.739588488195224, 13.0281666588237 ], [ 77.739034778545943, 13.027025276886425 ], [ 77.739315471896518, 13.026889301640876 ], [ 77.739700774940189, 13.026708921139141 ], [ 77.739928127334395, 13.026569055147528 ], [ 77.740088171467278, 13.026470596194073 ], [ 77.740158092712718, 13.026340639073538 ], [ 77.740253393906187, 13.026216880453926 ], [ 77.740275520293793, 13.02612238613677 ], [ 77.740408004793338, 13.025556592964072 ], [ 77.740440234311095, 13.025384166793224 ], [ 77.740207161416805, 13.024804647858733 ], [ 77.740123299773074, 13.024493629551358 ], [ 77.739895277275323, 13.024040731273949 ], [ 77.739649686338311, 13.023652550853246 ], [ 77.73960418710513, 13.02350600780162 ], [ 77.740483867738106, 13.023212917099954 ], [ 77.741452286685117, 13.022833406053484 ], [ 77.742516229160358, 13.022495902184852 ], [ 77.743161236728511, 13.022299064046891 ], [ 77.743234789310947, 13.022337721293129 ], [ 77.743346243713205, 13.022497871171083 ], [ 77.743415824429803, 13.022507890488162 ], [ 77.744006663543445, 13.022372569879771 ], [ 77.745491701265351, 13.022091542191403 ], [ 77.746024397534327, 13.021989100358223 ], [ 77.746254680768971, 13.021983074613988 ], [ 77.746238476568649, 13.021839842573046 ], [ 77.746308710034526, 13.021577385244862 ], [ 77.746414870586179, 13.021257186567329 ], [ 77.746430305212982, 13.020998895324286 ], [ 77.74640137559777, 13.020364639129125 ], [ 77.746471039824741, 13.020050563426032 ], [ 77.746615104000952, 13.019188612387248 ], [ 77.746616173514539, 13.018622154862381 ], [ 77.745996423376553, 13.017459978003641 ], [ 77.745573574688621, 13.016912350803967 ], [ 77.745488566274119, 13.016497378948745 ], [ 77.745468493939271, 13.016002847613107 ], [ 77.745249586225796, 13.015381357376866 ], [ 77.746285310450673, 13.015140940949617 ], [ 77.74615548382927, 13.014640401810526 ], [ 77.746034391510946, 13.014268833459948 ], [ 77.745812752914773, 13.014063244711108 ], [ 77.745602817256142, 13.013592234090275 ], [ 77.74534219348638, 13.012626940771474 ], [ 77.745240132899951, 13.012323287659628 ], [ 77.745143898438414, 13.012216753016812 ], [ 77.745074818438781, 13.011919920367134 ], [ 77.744773772926564, 13.011641377490088 ], [ 77.74465020409788, 13.011487330240593 ], [ 77.744621491398874, 13.011093272574453 ], [ 77.744521506159714, 13.010867273571185 ], [ 77.744380579557898, 13.010797062901302 ], [ 77.743875063531206, 13.010820337637144 ], [ 77.743297156124342, 13.010910103715304 ], [ 77.743022462460331, 13.011006859356312 ], [ 77.741929967240068, 13.011403441643674 ], [ 77.740589581837995, 13.010979999539073 ], [ 77.740567878748323, 13.01077946261819 ], [ 77.740524062167651, 13.010784705193203 ], [ 77.740451156185586, 13.010804596504602 ], [ 77.738544509454599, 13.011642145727929 ], [ 77.737110426249174, 13.012230906441687 ], [ 77.734754021286179, 13.012956064684698 ], [ 77.732932346947891, 13.013544112476348 ], [ 77.732581863856907, 13.012701713135918 ], [ 77.732458012615382, 13.012521371796236 ], [ 77.732243642607031, 13.012533190684973 ], [ 77.73209316399371, 13.012592138337276 ], [ 77.731990591787607, 13.012574098913998 ], [ 77.731798969931972, 13.012437491880387 ], [ 77.73160314571976, 13.012028458597403 ], [ 77.73103297009429, 13.01223397434326 ], [ 77.731028314133937, 13.012222709926789 ], [ 77.730975715111214, 13.012095458182721 ], [ 77.730741389108289, 13.011175349042745 ], [ 77.730667961670278, 13.010925162048087 ], [ 77.73063599103061, 13.010899206905723 ], [ 77.730542958642715, 13.010861945265374 ], [ 77.730507454168972, 13.010784507899672 ], [ 77.730467812308859, 13.010531814206661 ], [ 77.730444654269661, 13.010364751812839 ], [ 77.730356245527332, 13.010081857841556 ], [ 77.730173629837907, 13.00954302051038 ], [ 77.72988426235618, 13.008715507798486 ], [ 77.729763292465634, 13.008519597468768 ], [ 77.729713894791118, 13.00846036481359 ], [ 77.729579000124062, 13.00838410592902 ], [ 77.729502380160014, 13.008343085622274 ], [ 77.729437456454704, 13.008257127364914 ], [ 77.729362902937737, 13.008126456462682 ], [ 77.729282125448464, 13.007983900684282 ], [ 77.729219659730774, 13.007844139552192 ], [ 77.729120571693386, 13.007698788079917 ], [ 77.729015325121978, 13.007547526624402 ], [ 77.728768078413069, 13.007227464182757 ], [ 77.728489779615217, 13.006853950125144 ], [ 77.72813015011846, 13.006287095430627 ], [ 77.727826208289855, 13.005797332961913 ], [ 77.727540611920872, 13.005313351751559 ], [ 77.72773735614301, 13.005194766322788 ], [ 77.727858070368285, 13.005088929616488 ], [ 77.727987466571392, 13.004941175845881 ], [ 77.727983798837528, 13.004884449164182 ], [ 77.727952354543405, 13.00479515087155 ], [ 77.727914704904705, 13.004621268133322 ], [ 77.727903596921422, 13.004497100107351 ], [ 77.72788512666196, 13.004368228081409 ], [ 77.727835024884328, 13.004244470008013 ], [ 77.7277256021694, 13.004106939859504 ], [ 77.727552219457536, 13.003971660146274 ], [ 77.727549260083208, 13.003967832167627 ], [ 77.727504958134418, 13.003934785593161 ], [ 77.727438674258408, 13.003885340404244 ], [ 77.727289355951555, 13.003827157296522 ], [ 77.727101382568364, 13.003800451815268 ], [ 77.726779288431032, 13.003767985846904 ], [ 77.726456960172243, 13.003714010559925 ], [ 77.725827003108989, 13.003613074136542 ], [ 77.725477891900312, 13.003561769163117 ], [ 77.725336355765961, 13.003546524918775 ], [ 77.725253997991501, 13.003537828913709 ], [ 77.72466305703631, 13.003550010480872 ], [ 77.724196953740247, 13.003554904446727 ], [ 77.72382113103555, 13.003568530147469 ], [ 77.723558154158113, 13.003592801094952 ], [ 77.723524900398729, 13.003560883475762 ], [ 77.723505956424006, 13.003500134376001 ], [ 77.723490355366238, 13.003410669811178 ], [ 77.723420562076285, 13.003045714683456 ], [ 77.723292411841854, 13.002358707947792 ], [ 77.723252920289241, 13.00209023466387 ], [ 77.723191025811232, 13.001778974513025 ], [ 77.723111283255378, 13.001507338141616 ], [ 77.722995493183646, 13.001282688167496 ], [ 77.722451958026895, 13.000128786975274 ], [ 77.722109817861849, 12.998928355757778 ], [ 77.722068813968548, 12.998800316966378 ], [ 77.722034260683557, 12.998705074334275 ], [ 77.72198097386034, 12.998568202199433 ], [ 77.721866466510377, 12.998405082027064 ], [ 77.721455437424979, 12.997871615445533 ], [ 77.720969864121145, 12.997207473827615 ], [ 77.72054891776456, 12.996602405602676 ], [ 77.720262319260797, 12.99630365658092 ], [ 77.720022393523251, 12.996094047609343 ], [ 77.719949118651996, 12.996079876609249 ], [ 77.719842627163274, 12.996092942702434 ], [ 77.719636223501553, 12.996163821050963 ], [ 77.71949933353541, 12.996183181119637 ], [ 77.719404734286343, 12.996169233340606 ], [ 77.719358713191468, 12.996139838887224 ], [ 77.719319219088376, 12.996040865038715 ], [ 77.720510456369269, 12.995759496445283 ], [ 77.721538230070053, 12.995575441474328 ], [ 77.722658108081589, 12.995456144464704 ], [ 77.724187103447349, 12.995416204885013 ], [ 77.725388725312825, 12.995529074092504 ], [ 77.726719336247868, 12.995736187493856 ], [ 77.72685884206301, 12.995352752573869 ], [ 77.726813363493804, 12.994922924301592 ], [ 77.726776279139386, 12.993535856246579 ], [ 77.726738477592505, 12.992417683606396 ], [ 77.726792503868396, 12.992008407488703 ], [ 77.727061345281385, 12.991518002809828 ], [ 77.727269137951353, 12.991128623394097 ], [ 77.727465494010275, 12.990696342209313 ], [ 77.727396993395431, 12.99044968587131 ], [ 77.727119831886881, 12.989843118968588 ], [ 77.727028381947392, 12.989503488937814 ], [ 77.726917542762209, 12.989397098486776 ], [ 77.726813388960252, 12.989233274421494 ], [ 77.72674936712545, 12.98906185823251 ], [ 77.727999950264049, 12.988751158658467 ], [ 77.729298598752194, 12.988490141107508 ], [ 77.731123394994881, 12.988202074833019 ], [ 77.731861001381645, 12.988068692542866 ], [ 77.731866080002717, 12.988124392525416 ], [ 77.73430138288262, 12.987701799032651 ], [ 77.735466574336186, 12.9875521011882 ], [ 77.736531893145298, 12.987463202748247 ], [ 77.737138010187479, 12.987486892773692 ], [ 77.739444417112722, 12.98755818357092 ], [ 77.740185145785915, 12.98754081105521 ], [ 77.740843433306097, 12.98735217012211 ], [ 77.741535998436049, 12.987153705320686 ], [ 77.744262844545631, 12.986450912526402 ], [ 77.745026097707779, 12.986265982493812 ], [ 77.747099508768983, 12.985541385793374 ], [ 77.747759406587008, 12.98526671954019 ], [ 77.750339015807242, 12.984390279353837 ], [ 77.752293545681141, 12.983718290985426 ], [ 77.752756027724473, 12.983665591320772 ], [ 77.753978851338275, 12.983497279578931 ], [ 77.754440937804731, 12.983408729988339 ], [ 77.755635435345653, 12.982882203437134 ], [ 77.756163478746871, 12.982697349034678 ], [ 77.758181282944292, 12.982388207157156 ], [ 77.758168232991608, 12.982315226947577 ], [ 77.758020535586823, 12.981489157426839 ], [ 77.757984858254432, 12.981289613982973 ], [ 77.757859618141921, 12.980589137156279 ], [ 77.757671815068022, 12.979693952726038 ], [ 77.758702625191191, 12.979687424799343 ], [ 77.75886297736669, 12.979686409315859 ], [ 77.75900417442908, 12.979685514864052 ], [ 77.75956507751286, 12.97968196037538 ], [ 77.761623885251765, 12.979668904437675 ], [ 77.762785381954373, 12.979622763905304 ], [ 77.76469559822111, 12.979546868989127 ], [ 77.765216510492749, 12.979541414305615 ], [ 77.765218383026124, 12.979454891550239 ], [ 77.76510432117658, 12.979040201951106 ], [ 77.764998621736908, 12.978654251828928 ], [ 77.764917401313781, 12.97835768311416 ], [ 77.7647913560196, 12.977890575374078 ], [ 77.764778813676756, 12.977814227340108 ], [ 77.764768262463292, 12.977741682785442 ], [ 77.764742095825042, 12.977667391979649 ], [ 77.764643972644109, 12.977433255147705 ], [ 77.764214865377696, 12.976535339374266 ], [ 77.764001236051612, 12.976081590780721 ], [ 77.764088280145373, 12.976083453000166 ], [ 77.764179882767735, 12.976080567647013 ], [ 77.764392138237682, 12.976057277885085 ], [ 77.764582929107902, 12.976032304780599 ], [ 77.764711612444216, 12.97603284869003 ], [ 77.764774226330019, 12.976053214842723 ], [ 77.764821160560828, 12.976066100215855 ], [ 77.764889792789447, 12.976101699162836 ], [ 77.764970268658146, 12.976150555722398 ], [ 77.765040766091118, 12.976178486369994 ], [ 77.765109228319375, 12.976198791131758 ], [ 77.765163876028609, 12.976203945981178 ], [ 77.765247638293303, 12.976197318977478 ], [ 77.765522126922747, 12.976159982753808 ], [ 77.765646827096035, 12.976152920146408 ], [ 77.76571514221429, 12.976159840910539 ], [ 77.765760295918099, 12.976188040957478 ], [ 77.765786061720576, 12.976226007991656 ], [ 77.76581000467236, 12.976275465673035 ], [ 77.76583642606839, 12.97637269795726 ], [ 77.765869732219457, 12.976485790644823 ], [ 77.765967035075491, 12.976469459502013 ], [ 77.766286213115464, 12.976418262475255 ], [ 77.766500396896916, 12.97639303902675 ], [ 77.766757403899703, 12.9763616235943 ], [ 77.767265612514208, 12.976302677544179 ], [ 77.767485601886904, 12.976273567774181 ], [ 77.767771744909282, 12.976232281404885 ], [ 77.76796071230477, 12.976218797407771 ], [ 77.768235580937215, 12.976215870757885 ], [ 77.768481314925452, 12.976222813886126 ], [ 77.768931632315102, 12.97621801809802 ], [ 77.769275027500527, 12.976241128491635 ], [ 77.769676947637251, 12.976267439569794 ], [ 77.769825103907777, 12.976265861134367 ], [ 77.770115525772923, 12.976258943036772 ], [ 77.770333691625765, 12.976241321567517 ], [ 77.7704972319397, 12.976220459218043 ], [ 77.770674269215888, 12.97618606758518 ], [ 77.770800345536273, 12.976127363323581 ], [ 77.770978654419721, 12.976031773628714 ], [ 77.771144750504845, 12.975922730847458 ], [ 77.771254762342977, 12.975843882060577 ], [ 77.771297711339116, 12.975760968654878 ], [ 77.771329468115724, 12.975657858972419 ], [ 77.771347638260281, 12.975538163800326 ], [ 77.771347505950828, 12.975416273548197 ], [ 77.771339383033023, 12.975306419340697 ], [ 77.771431291695478, 12.975243298732748 ], [ 77.771710037043164, 12.975106485688457 ], [ 77.771843237834474, 12.975030974804971 ], [ 77.77200819601444, 12.974962294903195 ], [ 77.772204938060767, 12.974902836718751 ], [ 77.772375087774009, 12.974862782431442 ], [ 77.772543064533124, 12.97484665112937 ], [ 77.772640376407765, 12.974831273294615 ], [ 77.772681642119821, 12.974816493109978 ], [ 77.772734959884517, 12.974789634438149 ], [ 77.772764514574931, 12.974894530176709 ], [ 77.772779969803622, 12.974969651248879 ], [ 77.772791650439217, 12.975034057703299 ], [ 77.772786139608399, 12.975218387331546 ], [ 77.772774634562211, 12.975411624341303 ], [ 77.772750501211334, 12.975520866684498 ], [ 77.772712635956211, 12.975622608011147 ], [ 77.772661570578776, 12.975764641567185 ], [ 77.772581518355722, 12.97592992936344 ], [ 77.772534224212961, 12.976060451499446 ], [ 77.772502101995201, 12.976152570889536 ], [ 77.772476060275594, 12.976265658227293 ], [ 77.772402471342758, 12.976662230584584 ], [ 77.772343016156256, 12.977102630132935 ], [ 77.772342280827928, 12.977201371238664 ], [ 77.773277766426261, 12.977264826177528 ], [ 77.773371481776593, 12.977331280497873 ], [ 77.773427303020696, 12.9773562785668 ], [ 77.773499776197426, 12.977377322202278 ], [ 77.773587894789799, 12.977394848493665 ], [ 77.773683721558214, 12.977413908536812 ], [ 77.774000542280163, 12.977445581911532 ], [ 77.774132495296342, 12.977517346743417 ], [ 77.774233463777705, 12.977611870548419 ], [ 77.774363091193237, 12.977653507435157 ], [ 77.774511443174433, 12.977625634035364 ], [ 77.774754617739845, 12.977577627984886 ], [ 77.775032357356906, 12.977569882871968 ], [ 77.775188656566456, 12.977599284663876 ], [ 77.775356635486887, 12.9775831511996 ], [ 77.776157578607084, 12.977509075142384 ], [ 77.776241342606454, 12.97750132804312 ], [ 77.776244208651036, 12.977502618980587 ], [ 77.776680144548763, 12.977470129138851 ], [ 77.777001408427139, 12.977425019454929 ], [ 77.77700956949738, 12.97742387449434 ], [ 77.777553031154881, 12.977253140737636 ], [ 77.777941441713324, 12.977037394227837 ], [ 77.778220077520757, 12.976979039984951 ], [ 77.778276045417186, 12.976933830018664 ], [ 77.778343918379107, 12.976879003526088 ], [ 77.77840741305576, 12.976827713305585 ], [ 77.778463939984249, 12.976793029943625 ], [ 77.778589001562281, 12.976742600131868 ], [ 77.778624875840535, 12.976796607758182 ], [ 77.778826977438811, 12.977162546681088 ], [ 77.778734099844641, 12.977455986369288 ], [ 77.778633990058211, 12.977772086139959 ], [ 77.778559467532972, 12.978007743563294 ], [ 77.778519415987063, 12.978133506072211 ], [ 77.778511746342318, 12.978168591353281 ], [ 77.778479416188674, 12.978315724964771 ], [ 77.778457647551889, 12.978414729286801 ], [ 77.778430584901031, 12.978537809237066 ], [ 77.778425165538764, 12.978562457096869 ], [ 77.778391980496139, 12.978580878031211 ], [ 77.778358232378167, 12.978600434119627 ], [ 77.77779281279922, 12.978591798352594 ], [ 77.777591387410013, 12.978473688443437 ], [ 77.777412686319138, 12.978368903274774 ], [ 77.777340375523337, 12.978407202184817 ], [ 77.777160293895989, 12.978502580184031 ], [ 77.777063581774783, 12.978628483679087 ], [ 77.777019500844332, 12.978685869606046 ], [ 77.777004135303102, 12.978705873207556 ], [ 77.776991529976343, 12.978722282850418 ], [ 77.776979267865784, 12.978738246203287 ], [ 77.776941638715485, 12.978776683071009 ], [ 77.776897470247775, 12.978821798428132 ], [ 77.776586099787096, 12.979186914825657 ], [ 77.776471480464238, 12.979321318160716 ], [ 77.776434146283179, 12.979365096733348 ], [ 77.776324578367507, 12.979468338704333 ], [ 77.776316406212416, 12.979476039113171 ], [ 77.776310515697901, 12.979481589656185 ], [ 77.776180822740812, 12.979630882436265 ], [ 77.77603824144532, 12.979795011539835 ], [ 77.775911382416894, 12.979931863362825 ], [ 77.775815917993512, 12.979975384710333 ], [ 77.775756959997949, 12.980002263744362 ], [ 77.775650900267706, 12.980050616200588 ], [ 77.775525070483738, 12.980107980724734 ], [ 77.775472624818462, 12.980131890525525 ], [ 77.775402125147366, 12.980211683260013 ], [ 77.775257944706127, 12.980240322264933 ], [ 77.774932195119135, 12.98040413856647 ], [ 77.77472049285204, 12.980521571288115 ], [ 77.774739000663544, 12.980607450431627 ], [ 77.774751018397609, 12.980663212837428 ], [ 77.774752692639225, 12.980670982427519 ], [ 77.774755914855646, 12.980685933995304 ], [ 77.774759338107074, 12.980701819249306 ], [ 77.774792000111219, 12.980748987524807 ], [ 77.774808612405607, 12.980772976502781 ], [ 77.774996295407291, 12.9810440134665 ], [ 77.774997899912705, 12.98104633049546 ], [ 77.775005499319349, 12.981057305001666 ], [ 77.775027886586216, 12.981089634912893 ], [ 77.775037439862615, 12.981098801800902 ], [ 77.775050254530527, 12.981111098169526 ], [ 77.775361893229174, 12.981410131748751 ], [ 77.77542148462291, 12.981488535222343 ], [ 77.775460016274366, 12.981598833741643 ], [ 77.775649809732812, 12.98214212756403 ], [ 77.775787508688509, 12.982242479058012 ], [ 77.775906343562468, 12.982329083015628 ], [ 77.776095316124852, 12.982497564520129 ], [ 77.776128817694797, 12.982595305439652 ], [ 77.776136193542484, 12.982616825743506 ], [ 77.776161620574968, 12.982691009617859 ], [ 77.776190876445781, 12.982776364493185 ], [ 77.776247630934037, 12.982941947728936 ], [ 77.776290698218489, 12.983242968054601 ], [ 77.776389768991692, 12.98371389012345 ], [ 77.776516591799052, 12.984116254933769 ], [ 77.776522625052337, 12.984135397586348 ], [ 77.77654193638466, 12.984196665220813 ], [ 77.776575392286418, 12.98438110185069 ], [ 77.776613075447415, 12.984588845709823 ], [ 77.776575842348237, 12.984864753751003 ], [ 77.776814483177347, 12.984964408562883 ], [ 77.777005582704547, 12.985044210624762 ], [ 77.777147392391839, 12.985164641907783 ], [ 77.777040472899273, 12.985274766601098 ], [ 77.776941347073716, 12.985376864241998 ], [ 77.776731650540171, 12.985357883097429 ], [ 77.776702096040538, 12.985355208100106 ], [ 77.776662426633393, 12.985351616846275 ], [ 77.776542983395316, 12.985445510837511 ], [ 77.776488932388474, 12.985488000346603 ], [ 77.776472377023481, 12.985501014237762 ], [ 77.776461782683697, 12.985509342176591 ], [ 77.776440288101597, 12.985526238893463 ], [ 77.776422154806966, 12.985540492729726 ], [ 77.776379571136715, 12.98558035659785 ], [ 77.776349648331404, 12.985608368301479 ], [ 77.776342219364693, 12.985615322798644 ], [ 77.77633906691122, 12.985618274184995 ], [ 77.776144966414662, 12.9857999764945 ], [ 77.776117350022915, 12.985825829911622 ], [ 77.776068323665982, 12.985871724452029 ], [ 77.776010218120049, 12.986055269684977 ], [ 77.775949398315248, 12.986247386546607 ], [ 77.775903693319094, 12.986391759022874 ], [ 77.776056255843372, 12.987065354676616 ], [ 77.7760787810587, 12.987275063583008 ], [ 77.77609931317339, 12.987466218970159 ], [ 77.77614808233956, 12.987920261583758 ], [ 77.776123510031681, 12.98796484068863 ], [ 77.776098839301923, 12.988009598797095 ], [ 77.776029552067968, 12.988135298064833 ], [ 77.77600884697604, 12.988172861363543 ], [ 77.77594210142216, 12.988293950054473 ], [ 77.77610958606013, 12.988300351341273 ], [ 77.776496169063392, 12.988315127547477 ], [ 77.776346962793781, 12.989445862246322 ], [ 77.776149981616129, 12.989904140326519 ], [ 77.775996595408614, 12.990658916248856 ], [ 77.776001818482584, 12.990683380824986 ], [ 77.776116848297278, 12.991222200810888 ], [ 77.776113967493018, 12.991532745079356 ], [ 77.776027876211998, 12.991712069499041 ], [ 77.775720040748283, 12.991859594597985 ], [ 77.775379616849293, 12.992022737285273 ], [ 77.775264169421774, 12.992078205995718 ], [ 77.775208964015405, 12.992104730082698 ], [ 77.774183052151983, 12.992002777822417 ], [ 77.774489971244435, 12.9937699922473 ], [ 77.774508269599039, 12.993862386292177 ], [ 77.774730041150008, 12.994960928801927 ], [ 77.774800106498517, 12.995307955343684 ], [ 77.774825818180787, 12.995549316659211 ], [ 77.774848157693938, 12.996005250734868 ], [ 77.775109628415436, 12.997049169028129 ], [ 77.774959496286769, 12.99752727125119 ], [ 77.775080128847165, 12.997555429620402 ], [ 77.775035467588026, 12.997887258298039 ], [ 77.775030678806033, 12.997922838574025 ], [ 77.774984906245777, 12.998828898525691 ], [ 77.774960324769381, 12.998956497656517 ], [ 77.774888561577058, 12.999329008634536 ], [ 77.774832384434845, 12.999713516994209 ], [ 77.774836238200578, 13.000060121908026 ], [ 77.774845617438942, 13.000230521831392 ], [ 77.774869788367326, 13.000384955632121 ], [ 77.774951000859389, 13.000543296076732 ], [ 77.775000537227768, 13.000648905590401 ], [ 77.774991358977047, 13.000859023817451 ], [ 77.774895428373341, 13.001033937181022 ], [ 77.774839828653342, 13.001107925805012 ], [ 77.774764830025688, 13.001145989347824 ], [ 77.774689504977928, 13.001154698710639 ], [ 77.774058017895854, 13.00119331139833 ], [ 77.774040511640393, 13.001194381970917 ], [ 77.773951636472148, 13.001209027108276 ], [ 77.773938208099167, 13.001211240135122 ], [ 77.773893966370181, 13.001218531239772 ], [ 77.773858031297507, 13.001233642957903 ], [ 77.773830378559936, 13.001245271494666 ], [ 77.773822333693758, 13.00124865457583 ], [ 77.773782461980318, 13.001312044373746 ], [ 77.773770851123928, 13.001330503020766 ], [ 77.773761961522581, 13.001359576318803 ], [ 77.773748159098432, 13.001404714254118 ], [ 77.773741407214416, 13.001426794740006 ], [ 77.773741182197213, 13.001438291803392 ], [ 77.773740918215367, 13.00145175308575 ], [ 77.773737733733839, 13.001614271456836 ], [ 77.773726910514426, 13.001676489912217 ], [ 77.7737092686815, 13.001798625737749 ], [ 77.773683239504905, 13.001839553039677 ], [ 77.773661202385284, 13.001877050247465 ], [ 77.773627200007198, 13.001874026255507 ], [ 77.773315694394029, 13.00189012388749 ], [ 77.773186434869245, 13.001896803207361 ], [ 77.773035032688639, 13.001898421149896 ], [ 77.772929847494282, 13.0019142239932 ], [ 77.772862244180544, 13.001944304065653 ], [ 77.772809696193477, 13.001982127247837 ], [ 77.772750605355569, 13.002104705990815 ], [ 77.772646699663284, 13.002235667569584 ], [ 77.772575430306929, 13.002298531885648 ], [ 77.7725244349908, 13.002372470994649 ], [ 77.772470237882587, 13.002520967700779 ], [ 77.772462956211811, 13.002591052324444 ], [ 77.772464260894409, 13.002708469184681 ], [ 77.772505011244931, 13.002800623449623 ], [ 77.772649747191224, 13.002924411720073 ], [ 77.772730531590426, 13.002954797726693 ], [ 77.772769426590344, 13.002969427693991 ], [ 77.773008771415107, 13.003006389934692 ], [ 77.773148061527905, 13.003054583560319 ], [ 77.773499290053152, 13.003160356311341 ], [ 77.773563102279482, 13.003151770234691 ], [ 77.773752872956692, 13.003079734936716 ], [ 77.774022310971063, 13.002975231881983 ], [ 77.774036421757245, 13.002973076576014 ], [ 77.774168965998228, 13.002952829988157 ], [ 77.774274436347284, 13.002936719107964 ], [ 77.774300498611765, 13.002932737779213 ], [ 77.774371606127673, 13.002922789009229 ], [ 77.774475252860512, 13.002908286476741 ], [ 77.774681656631628, 13.002882367489342 ], [ 77.774769159257289, 13.002881431791097 ], [ 77.774832747197152, 13.002904463748182 ], [ 77.77504876738746, 13.003018455006192 ], [ 77.775240845986289, 13.003102215338227 ], [ 77.775497806354934, 13.003325294813395 ], [ 77.775617958743581, 13.003509749392162 ], [ 77.7756190562109, 13.003511434974756 ], [ 77.775619655379543, 13.003515030972007 ], [ 77.77561999293755, 13.00351705439231 ], [ 77.775620697665545, 13.003521278868561 ], [ 77.775621723228141, 13.003527431192955 ], [ 77.775622951097247, 13.003534793597391 ], [ 77.775623758541116, 13.003539639356513 ], [ 77.775624018118762, 13.003541194792248 ], [ 77.775636561452743, 13.003616414865629 ], [ 77.775637451784888, 13.003621755655956 ], [ 77.77563850592918, 13.003628075690294 ], [ 77.775638727022596, 13.003629401193207 ], [ 77.775638805954401, 13.0036298718775 ], [ 77.775638982624827, 13.00363093047539 ], [ 77.775695552266797, 13.003970176415679 ], [ 77.775696615754768, 13.00402726336104 ], [ 77.775698224369151, 13.004113640673996 ], [ 77.775699841760016, 13.004200474968048 ], [ 77.775696591870826, 13.004263656631514 ], [ 77.775692441433364, 13.004344342363611 ], [ 77.775673806960128, 13.00470660794897 ], [ 77.775734333464641, 13.005127129374419 ], [ 77.775775261376126, 13.005235088854935 ], [ 77.775799479832358, 13.005290157558493 ], [ 77.775856702746964, 13.005413750615329 ], [ 77.775889232040001, 13.005491313162631 ], [ 77.775890614016106, 13.005615503682757 ], [ 77.775891568844344, 13.005701308041338 ], [ 77.775869096636001, 13.005803171018153 ], [ 77.775853844442707, 13.005881244819101 ], [ 77.775814549572758, 13.005920056004873 ], [ 77.775743956526156, 13.005991947106981 ], [ 77.775680307098412, 13.006015210914056 ], [ 77.775469760408527, 13.006082953653817 ], [ 77.775350106438211, 13.006092137744625 ], [ 77.775222880650432, 13.006093498805406 ], [ 77.775095654848187, 13.00609485980398 ], [ 77.775016298594835, 13.006103612665388 ], [ 77.774858013073811, 13.006159504511386 ], [ 77.774692107457838, 13.006254997681978 ], [ 77.774558027535747, 13.006364829207177 ], [ 77.774479198576017, 13.006421000177305 ], [ 77.77441546096037, 13.006436360676306 ], [ 77.774296294466069, 13.006437635121998 ], [ 77.774224834359515, 13.006431624494411 ], [ 77.774128479831205, 13.006361519047569 ], [ 77.774080183304122, 13.006315740745679 ], [ 77.773978000971738, 13.006224314329145 ], [ 77.773887987368852, 13.006169878473187 ], [ 77.773776129067571, 13.006155266538011 ], [ 77.773665022208007, 13.006156454492203 ], [ 77.773569458786298, 13.006157476217966 ], [ 77.773490946421688, 13.006186797071658 ], [ 77.773482306411324, 13.006190023938968 ], [ 77.773411699945399, 13.00626078554801 ], [ 77.773401093763241, 13.006287431046895 ], [ 77.773365211139946, 13.006377584102777 ], [ 77.77335888386142, 13.006533473243337 ], [ 77.773376911093919, 13.006704909986512 ], [ 77.773404330425336, 13.007047875772034 ], [ 77.773439972741613, 13.007405432449445 ], [ 77.773480826809248, 13.007558558830766 ], [ 77.773466576387307, 13.007675012732514 ], [ 77.773459646685154, 13.007776709526039 ], [ 77.77346033719266, 13.007838804903761 ], [ 77.77345305596387, 13.007908889505224 ], [ 77.773430231171119, 13.007979140303409 ], [ 77.773421841341573, 13.008016219769567 ], [ 77.773418396731202, 13.008031444000041 ], [ 77.773409343109648, 13.008071459104235 ], [ 77.773407182213077, 13.00808100945032 ], [ 77.773400156144206, 13.008108264356929 ], [ 77.773376825065412, 13.00819876471515 ], [ 77.773330423952928, 13.008323466373009 ], [ 77.77330031124113, 13.008368600793725 ], [ 77.773252272045113, 13.008440603521326 ], [ 77.773236858294268, 13.008534048037577 ], [ 77.773227987179411, 13.008587827682089 ], [ 77.773222605303417, 13.008620454175229 ], [ 77.77319560090254, 13.008843719399016 ], [ 77.773188360708986, 13.008903580776538 ], [ 77.773175840102681, 13.00900709882219 ], [ 77.773164077083905, 13.009104352422399 ], [ 77.773173605652858, 13.009236360069492 ], [ 77.773190767048675, 13.009329895298105 ], [ 77.773206167078598, 13.009377452659335 ], [ 77.773223560007906, 13.009431167369833 ], [ 77.773311843488926, 13.00950023012623 ], [ 77.773417211306651, 13.009604113524947 ], [ 77.773425297998216, 13.009658225818795 ], [ 77.773402397802016, 13.009721702599487 ], [ 77.773387220160203, 13.009806550478933 ], [ 77.773340228779062, 13.009878188864638 ], [ 77.773306677026738, 13.009903276737257 ], [ 77.773277417453059, 13.009925155308039 ], [ 77.773270224125625, 13.01000314296509 ], [ 77.773271266279025, 13.010096850534058 ], [ 77.773276516071689, 13.010146778311885 ], [ 77.773279892934909, 13.010178888397544 ], [ 77.77328028024516, 13.010182568869141 ], [ 77.773297101204619, 13.010240425041003 ], [ 77.773304825375533, 13.010266991978648 ], [ 77.773320742693741, 13.010279379621029 ], [ 77.773342351739444, 13.010296196764662 ], [ 77.77334489977035, 13.010298179387824 ], [ 77.773401344717541, 13.010351774543166 ], [ 77.773529188193621, 13.010405735260173 ], [ 77.773565031251522, 13.01041793598278 ], [ 77.77362476353305, 13.010438269369216 ], [ 77.77372858092609, 13.010473609500202 ], [ 77.773952667800373, 13.010587514192354 ], [ 77.774001679154736, 13.010645705252015 ], [ 77.774002118754311, 13.010685220465499 ], [ 77.773979294035968, 13.01075547131888 ], [ 77.773948497513686, 13.010833711425878 ], [ 77.773916773606999, 13.010880345518036 ], [ 77.773910944893103, 13.010886293847678 ], [ 77.773854150599561, 13.010944247220333 ], [ 77.773775307643447, 13.010999289276095 ], [ 77.773728818602521, 13.011116088002234 ], [ 77.773723641093554, 13.011163269194329 ], [ 77.773721373532567, 13.011183933235662 ], [ 77.773714181137834, 13.011249483159597 ], [ 77.773714727326507, 13.011298582289772 ], [ 77.773715562664648, 13.011373673854699 ], [ 77.773724401085417, 13.011443586038666 ], [ 77.773732983926493, 13.011471310841182 ], [ 77.773741123417949, 13.011497605924914 ], [ 77.773773226264296, 13.011536782466401 ], [ 77.773796392303012, 13.011573057403266 ], [ 77.773837683192724, 13.0116377156545 ], [ 77.773910938907107, 13.011753233521425 ], [ 77.773919729274311, 13.011870570096658 ], [ 77.773921110971685, 13.011994760764122 ], [ 77.773915096551448, 13.012126934532018 ], [ 77.773907727652812, 13.012189116082961 ], [ 77.773892914487277, 13.012306705149285 ], [ 77.773869825900277, 13.012353246893758 ], [ 77.77386245699519, 13.012415428446079 ], [ 77.773854924794975, 13.012462932919577 ], [ 77.773855100650749, 13.012478739004752 ], [ 77.77387164726882, 13.012516952774195 ], [ 77.773895514667458, 13.012540409401726 ], [ 77.774002106591325, 13.012615718230089 ], [ 77.774054524645067, 13.01265275150322 ], [ 77.774102790200956, 13.012713083153496 ], [ 77.774344717168162, 13.01301548815073 ], [ 77.774433693400496, 13.013146645490911 ], [ 77.774442708088429, 13.013232363665098 ], [ 77.774443487092626, 13.013302362002996 ], [ 77.774436382213636, 13.013388252658864 ], [ 77.774413557537571, 13.013458503562848 ], [ 77.77437418606182, 13.013490540762978 ], [ 77.774326402976584, 13.01349105204365 ], [ 77.774270560091267, 13.013491649553313 ], [ 77.774166934111108, 13.013492758302361 ], [ 77.77407942772038, 13.013493694547178 ], [ 77.773880120293128, 13.013433724138741 ], [ 77.773878264712053, 13.013433621139601 ], [ 77.773641604644922, 13.01342046774317 ], [ 77.773427559331253, 13.013484860091411 ], [ 77.773175184606984, 13.013674996886936 ], [ 77.773109634100052, 13.013761261579242 ], [ 77.773107148158516, 13.0137645328671 ], [ 77.773104251837935, 13.013768345111954 ], [ 77.773103930252717, 13.01377264470719 ], [ 77.773103129902211, 13.013783345781054 ], [ 77.773097234423076, 13.013862138870783 ], [ 77.77309801308877, 13.013932137285419 ], [ 77.773107379072016, 13.014049467774976 ], [ 77.773149526495516, 13.014266941180713 ], [ 77.773156010505119, 13.014388953642303 ], [ 77.773158306904165, 13.014432158917641 ], [ 77.773159721503447, 13.014458786092801 ], [ 77.773113936512701, 13.01464190849121 ], [ 77.773086337590257, 13.014649143843718 ], [ 77.773014265874707, 13.014668038784027 ], [ 77.772785011732608, 13.014728141974322 ], [ 77.772784501753776, 13.014728259439318 ], [ 77.77226009939595, 13.014848927796821 ], [ 77.77216159309738, 13.014896275917792 ], [ 77.772058163602154, 13.014925641994978 ], [ 77.771671741988129, 13.01503535726007 ], [ 77.771633169039021, 13.015046308597134 ], [ 77.771670446930301, 13.015137694871814 ], [ 77.771728703038605, 13.015280507426359 ], [ 77.771731061207618, 13.015286288714869 ], [ 77.771977570828383, 13.015737524766458 ], [ 77.772028089171698, 13.015829998775745 ], [ 77.7720834702818, 13.015931373508474 ], [ 77.772144208822994, 13.016042555112582 ], [ 77.772254621465549, 13.016244662338069 ], [ 77.772346077306608, 13.01639594495586 ], [ 77.772371534392491, 13.01643805525454 ], [ 77.772464159774515, 13.016591271933544 ], [ 77.772471000575209, 13.016602586838552 ], [ 77.772479530712616, 13.016616697495758 ], [ 77.772546276452431, 13.016722192466247 ], [ 77.772768954016527, 13.017074146031534 ], [ 77.772796154841998, 13.017117137307208 ], [ 77.772815551854848, 13.017147794213397 ], [ 77.772848135347104, 13.017204017440305 ], [ 77.772865855745223, 13.017234594717161 ], [ 77.772882759941339, 13.017275937371624 ], [ 77.772906781879783, 13.017334685694575 ], [ 77.772895364197481, 13.017512474097998 ], [ 77.773037474400311, 13.017869459658664 ], [ 77.773079266821938, 13.017974443581654 ], [ 77.773117811378057, 13.018071268290358 ], [ 77.773372775014693, 13.018711739432112 ], [ 77.773429482468615, 13.018854188407943 ], [ 77.773477825171724, 13.018975624589899 ], [ 77.773471414004533, 13.019043894175331 ], [ 77.77344762659375, 13.019297108680686 ], [ 77.773428737029406, 13.019498220116601 ], [ 77.77340625880872, 13.019737536708055 ], [ 77.773409267065205, 13.019736659015908 ], [ 77.774145280602127, 13.019521816775052 ], [ 77.774430288740518, 13.0194386223223 ], [ 77.774431135606164, 13.019439967320764 ], [ 77.774563874836019, 13.019650676386343 ], [ 77.774673244474599, 13.020002649674025 ], [ 77.774676500815701, 13.020013130258715 ], [ 77.774704127070081, 13.020102036480978 ], [ 77.774704996061956, 13.020105450727252 ], [ 77.774742079087375, 13.020251195921963 ], [ 77.774752788108898, 13.020516856230618 ], [ 77.774758084558897, 13.02064823402702 ], [ 77.774767417715424, 13.020879763887526 ], [ 77.774767712858562, 13.020887073935526 ], [ 77.774770117263031, 13.02089310579629 ], [ 77.774810677326997, 13.020994841426342 ], [ 77.774811594728732, 13.020997142273387 ], [ 77.774815918445384, 13.021166654723547 ], [ 77.774822412364173, 13.021421253915939 ], [ 77.774841836586248, 13.021797473763829 ], [ 77.774842370495236, 13.021799421005365 ], [ 77.774877869860447, 13.021928905394127 ], [ 77.774955895031439, 13.022213498087146 ], [ 77.774956169688338, 13.022214501434373 ], [ 77.774958252019331, 13.022219323591932 ], [ 77.775128577892488, 13.022613750406849 ], [ 77.775150079301113, 13.022663540064883 ], [ 77.775150629763729, 13.022663416738929 ], [ 77.775157689227456, 13.022661829891819 ], [ 77.775160472758969, 13.022661203894515 ], [ 77.775883838368344, 13.022498610040016 ], [ 77.776267814619487, 13.022412301374949 ], [ 77.776268078217115, 13.022416527848899 ], [ 77.776270065722485, 13.022448385273252 ], [ 77.776272552454245, 13.022488252419626 ], [ 77.776277486557277, 13.022567347589694 ], [ 77.776423300219633, 13.022832277059276 ], [ 77.776481341480476, 13.022937736242371 ], [ 77.776606592364246, 13.023256329289923 ], [ 77.776712047362324, 13.023524578820782 ], [ 77.776720485826331, 13.023546037745513 ], [ 77.776825593259659, 13.023778702307622 ], [ 77.776848374319783, 13.023844979683712 ], [ 77.77695505873389, 13.024155357031701 ], [ 77.77702643004892, 13.0243629963977 ], [ 77.777036398691294, 13.024594573987319 ], [ 77.777036504320094, 13.024597024437139 ], [ 77.77698860373701, 13.02496215425535 ], [ 77.77698869783849, 13.024964397067569 ], [ 77.777001074069503, 13.025260772142211 ], [ 77.777012236524257, 13.025414320790301 ], [ 77.777016821981562, 13.025477389483951 ], [ 77.77702341081708, 13.025568019256387 ], [ 77.777044261297988, 13.025854824132866 ], [ 77.777044493591049, 13.025855744824961 ], [ 77.777292919292265, 13.026841025513582 ], [ 77.777357295647633, 13.027069868857833 ], [ 77.7773608767518, 13.027082598736115 ], [ 77.777575292109091, 13.027844789044583 ], [ 77.777577555756309, 13.027856027226681 ], [ 77.777774060375322, 13.028831441889309 ], [ 77.777934979259285, 13.028800069393819 ], [ 77.778151343440598, 13.029792343718167 ], [ 77.778151740570252, 13.029794165044498 ], [ 77.778283793031889, 13.029784649395278 ], [ 77.778286140889762, 13.029784191523435 ], [ 77.778377192586419, 13.02976643939264 ], [ 77.778378990463381, 13.029766561924344 ], [ 77.77876555011855, 13.02979286511758 ], [ 77.778767937290965, 13.029793288448332 ], [ 77.778917956420344, 13.029819909846013 ], [ 77.77891833557311, 13.029820945485076 ], [ 77.779018727908294, 13.030094943548441 ], [ 77.779020534304237, 13.030099873388144 ], [ 77.779025180545247, 13.030166744189035 ], [ 77.779022363469295, 13.030235268639588 ], [ 77.779022113453166, 13.030241345164461 ], [ 77.779059024260775, 13.030403469507952 ], [ 77.779059673778789, 13.030405121011002 ], [ 77.779112461405916, 13.030539365087543 ], [ 77.779128155975116, 13.030572991210869 ], [ 77.779199569759271, 13.030726000309119 ], [ 77.779202365495593, 13.030731990851164 ], [ 77.779332472124011, 13.030941287401678 ], [ 77.779366187898461, 13.030995523256335 ], [ 77.779368824140022, 13.030997707162259 ], [ 77.779527346333182, 13.031129015035512 ], [ 77.779528421292511, 13.03112990590153 ], [ 77.779564052071208, 13.03118030739793 ], [ 77.779614017910788, 13.031250984214834 ], [ 77.779616908429759, 13.031256138172461 ], [ 77.779669977446829, 13.031350763569391 ], [ 77.779669947365704, 13.031352360036353 ], [ 77.779668021555949, 13.03145464322891 ], [ 77.779667683349018, 13.031472621771997 ], [ 77.779667682142019, 13.031472678693302 ], [ 77.779647997982764, 13.031665598867717 ], [ 77.779647908338234, 13.031666481457959 ], [ 77.779649509380576, 13.031809864310798 ], [ 77.779852201846197, 13.032111116531336 ], [ 77.77985550232269, 13.032113957228924 ], [ 77.779907885791204, 13.032159045290269 ], [ 77.780232272796781, 13.032438268687532 ], [ 77.780324912530972, 13.032518009730911 ], [ 77.780379771521268, 13.032565227274754 ], [ 77.780528604609799, 13.032649644643831 ], [ 77.780904519711001, 13.032862859996639 ], [ 77.780905671261095, 13.032863513365582 ], [ 77.781057944422216, 13.032974366609967 ], [ 77.781225159215694, 13.03309609493267 ], [ 77.781226033753271, 13.033097351973977 ], [ 77.781336640021863, 13.033256222472755 ], [ 77.781354210286452, 13.033465159020221 ], [ 77.781353653827992, 13.03346821004266 ], [ 77.781254041174051, 13.034014174223532 ], [ 77.781253719083665, 13.034015938227146 ], [ 77.781110283984376, 13.034268430135395 ], [ 77.781109105168397, 13.034272510386081 ], [ 77.781016564360357, 13.034592769910748 ], [ 77.781015557254776, 13.034592759049664 ], [ 77.780835175974119, 13.034590838611548 ], [ 77.779876802271005, 13.034580635834836 ], [ 77.779858457404032, 13.034580317927775 ], [ 77.779627541284157, 13.034576312435275 ], [ 77.779619709609378, 13.03457617701679 ], [ 77.778917126231036, 13.034614749800006 ], [ 77.778917195776984, 13.034615450020263 ], [ 77.778970874249637, 13.035158314551227 ], [ 77.778972084234113, 13.035170553123926 ], [ 77.778938552334395, 13.035660386567903 ], [ 77.778936993059276, 13.035671239384468 ], [ 77.778891506616304, 13.035987844690323 ], [ 77.778818891254033, 13.036470449405217 ], [ 77.778814931977408, 13.036487656559693 ], [ 77.778776114324998, 13.036656373030201 ], [ 77.778770856022547, 13.036673252679504 ], [ 77.778700808834358, 13.036898093582629 ], [ 77.778586274606582, 13.037231972469382 ], [ 77.778585602735404, 13.037233931729734 ], [ 77.778559235615418, 13.037492334968487 ], [ 77.778559412412449, 13.037493893986483 ], [ 77.7785942340265, 13.037800845354742 ], [ 77.778594385292806, 13.037802180626349 ], [ 77.778592187237706, 13.037803106626974 ], [ 77.778539258705294, 13.037825399362916 ], [ 77.77853615556441, 13.03782670633858 ], [ 77.778407966517079, 13.037894875687959 ], [ 77.77840772288809, 13.037895004766273 ], [ 77.778272994192335, 13.038032394291427 ], [ 77.778270340608316, 13.038035100179666 ], [ 77.77820257586005, 13.038249299106546 ], [ 77.778202058821819, 13.038250933320658 ], [ 77.778145974895224, 13.038302458398281 ], [ 77.778144149142094, 13.038304135565568 ], [ 77.77794696230869, 13.038327761604307 ], [ 77.777943252935572, 13.038327088706593 ], [ 77.777810176090583, 13.038302939801975 ], [ 77.777809935403013, 13.038302919802426 ], [ 77.777699014383728, 13.038293619202587 ], [ 77.777690787901079, 13.038248310824656 ], [ 77.777685075548661, 13.038216852990741 ], [ 77.777465628042123, 13.038236873073052 ], [ 77.777139657275058, 13.038266611075409 ], [ 77.777085605978414, 13.038271541362283 ], [ 77.776948472799916, 13.038303213029018 ], [ 77.776803465081059, 13.038336703464825 ], [ 77.776552369187058, 13.038357732597579 ], [ 77.77589345407911, 13.038370728730579 ], [ 77.775496277221308, 13.038404668207054 ], [ 77.774937254728613, 13.038452437674144 ], [ 77.774516159671975, 13.038489753064045 ], [ 77.77420236095827, 13.038498672088112 ], [ 77.774083428961305, 13.038503517629687 ], [ 77.773898925731984, 13.038455744337069 ], [ 77.773826307493707, 13.038432640866816 ], [ 77.772693494188459, 13.038417101351735 ], [ 77.772623697878274, 13.038404732959417 ], [ 77.77229015303341, 13.038406714171721 ], [ 77.772273736734903, 13.03835576525422 ], [ 77.772260542933992, 13.038293792123493 ], [ 77.772253682531314, 13.038293523249225 ], [ 77.772223750393749, 13.038292347962006 ], [ 77.771865861650767, 13.038278301712802 ], [ 77.77170433110021, 13.038273379558563 ], [ 77.771487213824273, 13.038249223005643 ], [ 77.771095952304989, 13.038215030524452 ], [ 77.770950349861124, 13.038194003817097 ], [ 77.770674251386495, 13.038154134337498 ], [ 77.770354729625211, 13.038161309584906 ], [ 77.770156980698872, 13.038147686765008 ], [ 77.769633314460009, 13.038111649887208 ], [ 77.769607853907331, 13.038110843772207 ], [ 77.768088011944343, 13.038109363076785 ], [ 77.767991118809633, 13.038109269246247 ], [ 77.76741482561836, 13.038165309991015 ] ] ] } }
]
}
