{
"type": "FeatureCollection",
"name": "police_station_boundary.writing_20260805_172659",
"crs": { "type": "name", "properties": { "name": "urn:ogc:def:crs:OGC:1.3:CRS84" } },
"features": [
{ "type": "Feature", "properties": { "Shape.STArea()": 109315930.70056622, "Shape.STLength()": 70318.174721178191, "OBJECTID": 282, "KGISPS_BOUNDID": 374, "PS_BOUNDName": "Miryan PS", "PS_BOUNDCode": "PSB - 374", "KGISPS_SUB_DIVID": 37, "_source_layer": "Police Station Boundary", "_source_layer_url": "https://kgis.ksrsac.in/kgismaps/rest/services/Home/Home_Department/MapServer/82", "_police_station": "Miryan PS" }, "geometry": { "type": "Polygon", "coordinates": [ [ [ 77.501243711146202, 17.456629485534059 ], [ 77.497117760397686, 17.460913586186617 ], [ 77.49661169089697, 17.461277810334554 ], [ 77.495606030651018, 17.462104468176793 ], [ 77.495460859191937, 17.462223860689608 ], [ 77.492051618265862, 17.465027851409655 ], [ 77.490818689336308, 17.467764254897521 ], [ 77.490695625669048, 17.468037103650232 ], [ 77.490415827525382, 17.468657520857004 ], [ 77.489893331239685, 17.468261813371157 ], [ 77.489295477892426, 17.464569012565175 ], [ 77.484985776051303, 17.455301331654244 ], [ 77.477548509680489, 17.450203276608839 ], [ 77.477124859398643, 17.44979681989172 ], [ 77.476682137089938, 17.449348682959236 ], [ 77.476548370492935, 17.449212779138275 ], [ 77.474819782742799, 17.447407565501919 ], [ 77.473865171024755, 17.447726781057479 ], [ 77.473544411518915, 17.447406703055535 ], [ 77.472856092045674, 17.447399207162221 ], [ 77.472543608175599, 17.447871845562091 ], [ 77.471978637166529, 17.44783317651077 ], [ 77.471611587433941, 17.44724796618371 ], [ 77.471319734995319, 17.44723602175004 ], [ 77.471209076299559, 17.447225338202497 ], [ 77.469484211502589, 17.447018005095543 ], [ 77.469137714345436, 17.446918273158065 ], [ 77.469121216285856, 17.446913847074978 ], [ 77.468744117058748, 17.446812023848004 ], [ 77.468529402722666, 17.446713825913573 ], [ 77.468456419048437, 17.446707451402343 ], [ 77.468361069007003, 17.44669894002141 ], [ 77.468138583685587, 17.446678705738716 ], [ 77.468116216390101, 17.446676569782923 ], [ 77.466567982313521, 17.446097832142531 ], [ 77.46620530139468, 17.44565036094237 ], [ 77.465736210755082, 17.44570826691109 ], [ 77.46498765750475, 17.444671155180512 ], [ 77.464828519411213, 17.444421322805912 ], [ 77.464460338245203, 17.443640735894792 ], [ 77.464278389155027, 17.443511862526428 ], [ 77.46413188281042, 17.443407639882302 ], [ 77.463910631151464, 17.443396427256662 ], [ 77.463464521681118, 17.443559226954161 ], [ 77.463347121329946, 17.443601652336891 ], [ 77.46259334824866, 17.443863250654271 ], [ 77.462488849698829, 17.443898830236638 ], [ 77.462396155671613, 17.443941120087906 ], [ 77.461662975475562, 17.444303110471168 ], [ 77.461617077805542, 17.444102346394498 ], [ 77.461585721466264, 17.442582484178818 ], [ 77.46188771507768, 17.442718609553854 ], [ 77.46175610794991, 17.442150162660475 ], [ 77.462372165949489, 17.441680399387348 ], [ 77.462157547509207, 17.441596874200609 ], [ 77.461166647785745, 17.441549204965057 ], [ 77.460415822470722, 17.441512644266982 ], [ 77.460026271308635, 17.441491052045173 ], [ 77.458947072061648, 17.441432560266776 ], [ 77.457749009127099, 17.441367932462921 ], [ 77.456229292407428, 17.44122373474222 ], [ 77.45612687962911, 17.441214127345322 ], [ 77.455378208729144, 17.441143656833592 ], [ 77.455126345120718, 17.441128083286749 ], [ 77.454587318428423, 17.441095998560655 ], [ 77.45399414642948, 17.441059688064747 ], [ 77.453988264757939, 17.441059719939659 ], [ 77.452473218118357, 17.441309593784855 ], [ 77.452402696689575, 17.441321268125421 ], [ 77.452069354121434, 17.440653397007495 ], [ 77.451996735120233, 17.44050810989383 ], [ 77.450997343937615, 17.440616278549768 ], [ 77.450906607831996, 17.440992826302409 ], [ 77.450885934930611, 17.441078764219199 ], [ 77.450874442203215, 17.441125127763694 ], [ 77.450799174445109, 17.441130051418657 ], [ 77.450531032649153, 17.441147310754445 ], [ 77.450518005149391, 17.441132699687813 ], [ 77.44961416290576, 17.440079424480341 ], [ 77.448955543308514, 17.439312794954329 ], [ 77.448662883709929, 17.4389597725371 ], [ 77.448356002181043, 17.438588756830832 ], [ 77.44764024674933, 17.43810927257308 ], [ 77.448065668013328, 17.437627026792679 ], [ 77.448359187020742, 17.436920761208448 ], [ 77.44888123739733, 17.435662163989473 ], [ 77.449289677664439, 17.435094180869271 ], [ 77.449325855734514, 17.43504429637715 ], [ 77.44940667875251, 17.434984007431275 ], [ 77.450013383842631, 17.434522238320625 ], [ 77.450301591229945, 17.433915376771125 ], [ 77.450324885037318, 17.433473694403144 ], [ 77.45036626022916, 17.432704417078593 ], [ 77.450668861712174, 17.431542990782066 ], [ 77.450947276741587, 17.430470909995861 ], [ 77.451148648356664, 17.428498060665468 ], [ 77.451233161881774, 17.427663050738843 ], [ 77.451247621033176, 17.427520680373554 ], [ 77.451315521459989, 17.426861931339793 ], [ 77.451979027770136, 17.425058239759508 ], [ 77.45201607603606, 17.424956402107352 ], [ 77.452248729032178, 17.424308055220049 ], [ 77.452267245953578, 17.424256006979075 ], [ 77.452396381988407, 17.42380923443071 ], [ 77.453010932102686, 17.421685081851045 ], [ 77.453264597063239, 17.420809630678178 ], [ 77.453624347105801, 17.419569969498706 ], [ 77.453905115108611, 17.418703405364958 ], [ 77.453953645184413, 17.418554075101245 ], [ 77.452572109145734, 17.416665448859924 ], [ 77.452499752208809, 17.416563073621919 ], [ 77.451805011215612, 17.41523989569513 ], [ 77.451578551096816, 17.414936206260826 ], [ 77.451001131576419, 17.414160104152227 ], [ 77.450782973945678, 17.413867662326965 ], [ 77.450670400479169, 17.413727106899479 ], [ 77.450446409309649, 17.413442600771802 ], [ 77.450185696227038, 17.413114250207034 ], [ 77.450052967386299, 17.412946699622704 ], [ 77.448964103936149, 17.411205533757418 ], [ 77.44782223130305, 17.40985086839946 ], [ 77.447401737305142, 17.409352847300841 ], [ 77.446414063363363, 17.4080120241141 ], [ 77.444833488174922, 17.405851111008825 ], [ 77.445371848117333, 17.403765782753446 ], [ 77.44537681620271, 17.403608782359864 ], [ 77.445493944373069, 17.402310581113994 ], [ 77.44570004926122, 17.398718280635602 ], [ 77.444103314972452, 17.399022719973217 ], [ 77.443207806928243, 17.398955239992791 ], [ 77.442026183983486, 17.399040613682338 ], [ 77.441649943197532, 17.39906746950906 ], [ 77.441527591885645, 17.399063606564685 ], [ 77.440929937528338, 17.39904195485477 ], [ 77.440156306289708, 17.399505714828827 ], [ 77.440078944141121, 17.399552429478007 ], [ 77.439012262570813, 17.400191663040271 ], [ 77.438281990848878, 17.400629210017716 ], [ 77.438240966299645, 17.400654273456514 ], [ 77.437686653722835, 17.401009570403033 ], [ 77.437263590901154, 17.401280599028166 ], [ 77.437229611291173, 17.401303365954416 ], [ 77.437008120800115, 17.401445708683362 ], [ 77.436526461805897, 17.401754314279987 ], [ 77.435472900175895, 17.402429597680925 ], [ 77.434395904617759, 17.403121939283437 ], [ 77.433206631784273, 17.403927801969008 ], [ 77.431552176792977, 17.405048941223928 ], [ 77.430123147580062, 17.405690047697334 ], [ 77.429611610716805, 17.405920873200301 ], [ 77.426918815606058, 17.407106187525031 ], [ 77.425358010626042, 17.40774795689644 ], [ 77.424990691660923, 17.407898960228952 ], [ 77.424669874782509, 17.407953726101578 ], [ 77.424655772389741, 17.407956059093252 ], [ 77.424313801640182, 17.408014324355591 ], [ 77.423519399073456, 17.408150631376671 ], [ 77.422988234948065, 17.408242638246737 ], [ 77.422395769251438, 17.408311251073453 ], [ 77.421327215818536, 17.408435436887512 ], [ 77.420919635203816, 17.408540342444763 ], [ 77.420849817752128, 17.40846730339609 ], [ 77.419705008596708, 17.407385772831052 ], [ 77.41764576887077, 17.404977557234346 ], [ 77.417448020885743, 17.403709241241909 ], [ 77.418390635879788, 17.402124402786178 ], [ 77.418622446959603, 17.401103419953269 ], [ 77.418371964787028, 17.399662594162489 ], [ 77.41706417547995, 17.398659820508957 ], [ 77.415292483190626, 17.396947987003514 ], [ 77.415015943582418, 17.396717918660244 ], [ 77.414963380228244, 17.395742464402726 ], [ 77.414933066341391, 17.395165541646001 ], [ 77.415083090198948, 17.394863232161665 ], [ 77.415126110882071, 17.394774921211127 ], [ 77.415196203418077, 17.394689857595985 ], [ 77.415568850482288, 17.394236188424522 ], [ 77.416181259062327, 17.393541853983624 ], [ 77.416503824724472, 17.393176531352697 ], [ 77.416833479016546, 17.392816817484675 ], [ 77.417796718211662, 17.391766041110532 ], [ 77.418935267890902, 17.390520101620965 ], [ 77.4191177297742, 17.390339586376598 ], [ 77.419260406416967, 17.390195417062547 ], [ 77.41941594429781, 17.3900376287319 ], [ 77.419546923045672, 17.389904813183474 ], [ 77.420055631406157, 17.389388313257729 ], [ 77.420410865067723, 17.388978770139154 ], [ 77.420823349181063, 17.388502297405662 ], [ 77.420638617858259, 17.387868590258332 ], [ 77.42032796320855, 17.38680753079154 ], [ 77.420246992386524, 17.386632911237339 ], [ 77.420205321626938, 17.386543913181992 ], [ 77.420133199710122, 17.386477661580177 ], [ 77.418849186587892, 17.385296337262805 ], [ 77.417398379072651, 17.383943089302786 ], [ 77.417056666815654, 17.383624146581298 ], [ 77.416938116392615, 17.383458755308542 ], [ 77.416834491986052, 17.382813326845682 ], [ 77.41670769824637, 17.382022337228108 ], [ 77.416706400622843, 17.38200088706364 ], [ 77.416673989968956, 17.381261353024101 ], [ 77.416657940744514, 17.380919253974728 ], [ 77.416631027603188, 17.38031972659455 ], [ 77.416590603261341, 17.379410837636019 ], [ 77.41697135591653, 17.378524595699847 ], [ 77.417005015674334, 17.378445368307755 ], [ 77.417045871889584, 17.378390948428439 ], [ 77.417216313895082, 17.378166453738977 ], [ 77.417218659084938, 17.378165312535391 ], [ 77.417234990073368, 17.378141511843673 ], [ 77.417236153118495, 17.378139246849553 ], [ 77.417238492878056, 17.378136975738524 ], [ 77.417330859785963, 17.378040502551297 ], [ 77.417443104866351, 17.377923596373037 ], [ 77.417538066811716, 17.377870023433474 ], [ 77.418629530460862, 17.377253362777996 ], [ 77.419698247049979, 17.376774593349609 ], [ 77.420381709264987, 17.376385920571103 ], [ 77.421517164261999, 17.375649308135266 ], [ 77.421927226279962, 17.375372735752215 ], [ 77.422127574763536, 17.375238427113008 ], [ 77.422235361189195, 17.375165585643231 ], [ 77.422313731972181, 17.375297304822674 ], [ 77.422346982909616, 17.375353595963322 ], [ 77.422409711900499, 17.375423285141405 ], [ 77.422490006485461, 17.375272664610655 ], [ 77.42513982140116, 17.370334938704264 ], [ 77.427880275252718, 17.367082771874969 ], [ 77.429359773154786, 17.365034300295331 ], [ 77.430304113224764, 17.363389552156956 ], [ 77.430488475675773, 17.359028292336724 ], [ 77.431401225537101, 17.35803419161666 ], [ 77.434865072563284, 17.355885974890846 ], [ 77.4347366516552, 17.354616176349975 ], [ 77.433614615301863, 17.352741809039571 ], [ 77.43261763117242, 17.351548879523452 ], [ 77.431735019472541, 17.35061282407715 ], [ 77.429329266377266, 17.350237033923083 ], [ 77.428007392055704, 17.349802433972847 ], [ 77.425566933675114, 17.348491704342038 ], [ 77.423789560331912, 17.347565954201606 ], [ 77.421961977535389, 17.346078048876048 ], [ 77.421589847929582, 17.345775078953153 ], [ 77.421121136962, 17.342331975525369 ], [ 77.421952457171457, 17.33942414592148 ], [ 77.421808001434329, 17.33758862646463 ], [ 77.421355505917333, 17.336380361395683 ], [ 77.421456912801006, 17.334770548817229 ], [ 77.421863396045737, 17.333670724413693 ], [ 77.422389415592292, 17.332086923226054 ], [ 77.422695986130677, 17.330579934469679 ], [ 77.42333032962253, 17.326745958854325 ], [ 77.424176246069024, 17.323733016586157 ], [ 77.424348466651267, 17.323210368561796 ], [ 77.424820452069113, 17.321850451155818 ], [ 77.426114407708226, 17.318446669137511 ], [ 77.425912250845911, 17.315976773183372 ], [ 77.424636020597958, 17.31359607580718 ], [ 77.422609303117994, 17.310723519743917 ], [ 77.422386587301943, 17.309387563697875 ], [ 77.422923311478399, 17.307836456731984 ], [ 77.425585609674471, 17.305251054721641 ], [ 77.430338541078967, 17.301506107089793 ], [ 77.431432863368897, 17.298385676330334 ], [ 77.431938106262223, 17.295456942018596 ], [ 77.432749223767971, 17.293599448958762 ], [ 77.4342637925795, 17.292854010417148 ], [ 77.437007699885314, 17.292469086031826 ], [ 77.437016171758657, 17.292716362793048 ], [ 77.437141764223043, 17.293707241017909 ], [ 77.437892286758668, 17.295638921709312 ], [ 77.438694401970793, 17.295907965608631 ], [ 77.438818105137898, 17.296363554097702 ], [ 77.439382678833312, 17.297641207419844 ], [ 77.439522518275496, 17.298040244094651 ], [ 77.439405917206443, 17.299024500438087 ], [ 77.439626878944466, 17.299833049299085 ], [ 77.440029771358482, 17.300590941768458 ], [ 77.440320106517703, 17.300788159649457 ], [ 77.441452790958252, 17.300887166399463 ], [ 77.442815891378928, 17.300781661582302 ], [ 77.443068606933593, 17.301996591301535 ], [ 77.443117527060721, 17.302324962992135 ], [ 77.443170795146273, 17.302795604463341 ], [ 77.444036856808097, 17.302934412092768 ], [ 77.444188699266704, 17.303780591280418 ], [ 77.444469588025527, 17.303765541453981 ], [ 77.444606066263944, 17.304393842998937 ], [ 77.445037086405392, 17.305537799686615 ], [ 77.445212349976586, 17.305757080973923 ], [ 77.445739504409403, 17.307056368273322 ], [ 77.445979074288729, 17.307011044736793 ], [ 77.447807819849956, 17.306711032962994 ], [ 77.44807805552766, 17.307898756253323 ], [ 77.448080120594739, 17.309065328255059 ], [ 77.448481338471012, 17.308917497983437 ], [ 77.44892220870419, 17.310536833948294 ], [ 77.449883795938618, 17.313147172429478 ], [ 77.450371427958899, 17.314716561612098 ], [ 77.450686611289214, 17.315541527478317 ], [ 77.451226483913345, 17.316590019961222 ], [ 77.451514793035145, 17.317644380830174 ], [ 77.452227785305595, 17.31752987578756 ], [ 77.452177240273286, 17.318338736294461 ], [ 77.452110487270545, 17.319392744225752 ], [ 77.452293041033244, 17.319447098543286 ], [ 77.4520165878277, 17.32163945263337 ], [ 77.451627231835133, 17.321607666254081 ], [ 77.451410279985723, 17.32331861134309 ], [ 77.454840742112381, 17.323454863363157 ], [ 77.456780609478159, 17.323233214899698 ], [ 77.456984532956838, 17.327739194996237 ], [ 77.457181712792448, 17.331893991438147 ], [ 77.456074721495213, 17.331999351262002 ], [ 77.456153467023981, 17.33239531436951 ], [ 77.456333736297978, 17.333663685821037 ], [ 77.456910292699305, 17.335338725716952 ], [ 77.457149042062397, 17.336953477373079 ], [ 77.457160094516425, 17.337033598727537 ], [ 77.457066448015183, 17.338309095644792 ], [ 77.457118345111681, 17.33974077914834 ], [ 77.456972119768835, 17.341875965590727 ], [ 77.456978766554883, 17.34200692909566 ], [ 77.457009881180397, 17.342099364364969 ], [ 77.457090372171521, 17.343594133983718 ], [ 77.457157201192217, 17.345766563170571 ], [ 77.457061429624346, 17.347281483980534 ], [ 77.456894112998725, 17.349229317864996 ], [ 77.456731815766517, 17.349225677678131 ], [ 77.455873570173978, 17.349255161900086 ], [ 77.455760353935133, 17.349801229382958 ], [ 77.455540229430454, 17.350364814859734 ], [ 77.454884637901145, 17.351467172291816 ], [ 77.454823988217314, 17.351753215218586 ], [ 77.454461284706241, 17.352066861909218 ], [ 77.453561794858672, 17.352486170188097 ], [ 77.452624079342158, 17.352603026702656 ], [ 77.451429897542184, 17.352700930811469 ], [ 77.451954396683817, 17.355525899491649 ], [ 77.451958489565413, 17.356428195069931 ], [ 77.451658944261382, 17.358296556098054 ], [ 77.451098402529283, 17.359372416962593 ], [ 77.451327335130628, 17.359910994642021 ], [ 77.451814162427823, 17.36071131221065 ], [ 77.452240234188665, 17.36157858458829 ], [ 77.452041244329308, 17.364354367948323 ], [ 77.45272609709049, 17.364827244408801 ], [ 77.452274848474318, 17.365288176045347 ], [ 77.452287608252888, 17.366062812756169 ], [ 77.452508949338593, 17.366507696618932 ], [ 77.453058518204941, 17.367575316716373 ], [ 77.452612048163175, 17.368049774783952 ], [ 77.452786346001034, 17.368493782197401 ], [ 77.45271775390728, 17.369031702593006 ], [ 77.452704269103862, 17.369139059800634 ], [ 77.452798817963171, 17.369218730367766 ], [ 77.453091340154089, 17.369567237784317 ], [ 77.453070416040518, 17.370011169065172 ], [ 77.45292421434462, 17.370148604520558 ], [ 77.453125913071247, 17.370451299395146 ], [ 77.452944007864986, 17.370918684935241 ], [ 77.452317551245017, 17.371587225512197 ], [ 77.452261690188692, 17.371688035207132 ], [ 77.452312747741146, 17.37177132802902 ], [ 77.452780671780957, 17.372550285878027 ], [ 77.452947846563561, 17.373584958321814 ], [ 77.452956739049014, 17.373697841249765 ], [ 77.4529591910281, 17.373714767587209 ], [ 77.452962804623709, 17.373729428791318 ], [ 77.45529657696413, 17.373404006508945 ], [ 77.456343579713291, 17.373254920739722 ], [ 77.456990064735606, 17.373194956203101 ], [ 77.457844041631546, 17.373220821086171 ], [ 77.459199957736317, 17.373205563104619 ], [ 77.460918593942637, 17.373074264759175 ], [ 77.461459493669679, 17.3730589014869 ], [ 77.462003068417872, 17.372898972316111 ], [ 77.463961274510623, 17.372511121872208 ], [ 77.464096217486457, 17.37245956794343 ], [ 77.464823032970074, 17.372262494192945 ], [ 77.465426785881348, 17.371938478064518 ], [ 77.465570948094722, 17.371855252393249 ], [ 77.466184426964674, 17.371585387421803 ], [ 77.466660419323915, 17.371533098630863 ], [ 77.468060746120884, 17.371473495414065 ], [ 77.469043546970198, 17.371409393514458 ], [ 77.469774470168872, 17.371311657537071 ], [ 77.471516374262862, 17.370945247957636 ], [ 77.47250631940193, 17.370896899857218 ], [ 77.473694294472949, 17.370727751995492 ], [ 77.475043199028974, 17.370527221255859 ], [ 77.476236649178986, 17.370487897943473 ], [ 77.477678621801459, 17.370511566337306 ], [ 77.478432096088198, 17.370449813044708 ], [ 77.479341917434411, 17.370377029819103 ], [ 77.479038744211365, 17.370221731988408 ], [ 77.478565442669279, 17.370132873263287 ], [ 77.47800520476919, 17.368880184120947 ], [ 77.477450853051394, 17.368413453721143 ], [ 77.47681014139792, 17.368254367926127 ], [ 77.476836352960149, 17.367917692485076 ], [ 77.476845052695822, 17.367799068163567 ], [ 77.476853818676659, 17.367691736022024 ], [ 77.476992483994948, 17.365313794037764 ], [ 77.476997729772663, 17.365207611081861 ], [ 77.476995743285457, 17.365072106127862 ], [ 77.476350041369969, 17.362304360832063 ], [ 77.476302233508434, 17.362175882605694 ], [ 77.475855140239844, 17.36233644873829 ], [ 77.475737794089994, 17.362378878399738 ], [ 77.475284833078192, 17.362541733483244 ], [ 77.474837638245944, 17.361502976899505 ], [ 77.477023800030082, 17.360716237906981 ], [ 77.478683168586286, 17.359547292679832 ], [ 77.478848103524314, 17.359400702320976 ], [ 77.478869708904369, 17.35927748944156 ], [ 77.478883217640131, 17.358587412266459 ], [ 77.479601298685694, 17.357533197489651 ], [ 77.479671237847796, 17.357430045238335 ], [ 77.479864231198107, 17.357452694340854 ], [ 77.48106675321462, 17.357568010013075 ], [ 77.481207931647106, 17.357578522221932 ], [ 77.481293015700956, 17.357451570368873 ], [ 77.482126246528921, 17.356188918712533 ], [ 77.482244334923877, 17.356075334459138 ], [ 77.483147247957803, 17.356430580179886 ], [ 77.483505198578015, 17.355137807112353 ], [ 77.483538560122426, 17.355014528421364 ], [ 77.483678975784059, 17.354898561579855 ], [ 77.48370861285612, 17.354742553994569 ], [ 77.485253959622241, 17.355355095150795 ], [ 77.485494171598461, 17.355994074173122 ], [ 77.485693859394289, 17.356152195938375 ], [ 77.486516141657404, 17.356396073343653 ], [ 77.486675967019607, 17.356768982106676 ], [ 77.486646962548974, 17.357419619708484 ], [ 77.486929781227389, 17.358102401273282 ], [ 77.4873527029999, 17.3584218992175 ], [ 77.48867176607807, 17.358555718955749 ], [ 77.489623131436332, 17.358362954384781 ], [ 77.491289926798387, 17.358438353481677 ], [ 77.493523129535944, 17.358058852100399 ], [ 77.495452796914336, 17.357658442071241 ], [ 77.497958706942072, 17.357263812054562 ], [ 77.500936132402686, 17.356479150191415 ], [ 77.502311058531859, 17.356326854459883 ], [ 77.503029855524815, 17.355413719826682 ], [ 77.503194664023255, 17.355058192172834 ], [ 77.503318713762852, 17.355152352614983 ], [ 77.503922475594806, 17.356387779947109 ], [ 77.505337234665348, 17.358322170787481 ], [ 77.509275045124468, 17.359393025008938 ], [ 77.510426108425662, 17.360314768243818 ], [ 77.514057793823952, 17.359982427270889 ], [ 77.524077180701255, 17.363973584755431 ], [ 77.524007003655839, 17.364223560351263 ], [ 77.524080722533711, 17.364353004562993 ], [ 77.524868715286999, 17.365685546759806 ], [ 77.524930457316046, 17.365780050898142 ], [ 77.524974685954206, 17.365894983572019 ], [ 77.526005273438926, 17.368032433510972 ], [ 77.526064544490467, 17.368107754693444 ], [ 77.526122632944364, 17.368181952781825 ], [ 77.527446053865376, 17.369187292831434 ], [ 77.527488650567093, 17.369228830936208 ], [ 77.527602229192112, 17.369337716158398 ], [ 77.527706131953252, 17.369403745251017 ], [ 77.528242959341014, 17.369869301432267 ], [ 77.529366748834505, 17.370730102105451 ], [ 77.529548608215038, 17.370849885307145 ], [ 77.529743396883617, 17.373220253086298 ], [ 77.529751111027352, 17.373325231911224 ], [ 77.529781416746559, 17.373469604509321 ], [ 77.529873115141513, 17.373839479815427 ], [ 77.529652648356105, 17.374127591365351 ], [ 77.529561598730524, 17.374236529080665 ], [ 77.529705057599102, 17.374233440962247 ], [ 77.531384190673407, 17.374190980517064 ], [ 77.531496203006782, 17.377421208104089 ], [ 77.532662168472655, 17.378994318946955 ], [ 77.532452904381984, 17.379568076490045 ], [ 77.532040167534078, 17.380702007908653 ], [ 77.531279045588946, 17.381046329143018 ], [ 77.530050836784881, 17.381175398412747 ], [ 77.52917298458641, 17.380159602725907 ], [ 77.528715691020068, 17.379629223489509 ], [ 77.528587438952201, 17.379619800129152 ], [ 77.526762679460674, 17.38045583681447 ], [ 77.526647744058209, 17.380507316783806 ], [ 77.526461882317832, 17.380689074206341 ], [ 77.526408200261216, 17.380756011027589 ], [ 77.525281009547783, 17.382183144649112 ], [ 77.525184136552369, 17.382302276838601 ], [ 77.525224807560576, 17.382411583570736 ], [ 77.525665365125562, 17.383463795692091 ], [ 77.52570245848996, 17.383565217477557 ], [ 77.52558964820868, 17.383580547835201 ], [ 77.524814027886734, 17.383678745552814 ], [ 77.524669546993024, 17.383707809896183 ], [ 77.524616132392268, 17.383817657420675 ], [ 77.524518816637368, 17.384242828203046 ], [ 77.524460430595141, 17.384498382402917 ], [ 77.524460782873348, 17.384554844796572 ], [ 77.524462140150575, 17.38609066279113 ], [ 77.523002897492034, 17.386332819703807 ], [ 77.523366445745509, 17.387672317215113 ], [ 77.523589222133012, 17.388127265634445 ], [ 77.524079770487035, 17.388331102041896 ], [ 77.524178838495331, 17.388374574211589 ], [ 77.524293808459902, 17.388516202178398 ], [ 77.525470949690018, 17.39036934960971 ], [ 77.526086177133394, 17.390385001221837 ], [ 77.526551068911587, 17.391562419279296 ], [ 77.52809381386308, 17.393941944395429 ], [ 77.528714590381284, 17.394653191529905 ], [ 77.531751523655998, 17.398025710031121 ], [ 77.536314689291174, 17.402790732420836 ], [ 77.539546510968151, 17.4060614746063 ], [ 77.53982704162172, 17.406710299238032 ], [ 77.540305878784508, 17.407468635463733 ], [ 77.540148494594561, 17.407505691674697 ], [ 77.527425785465951, 17.410466044799236 ], [ 77.521403145599933, 17.412530074091702 ], [ 77.520588534801476, 17.412809170718266 ], [ 77.518657637013021, 17.413470721419603 ], [ 77.518528522459789, 17.413515503298548 ], [ 77.513883742637333, 17.415107274520096 ], [ 77.513220532041743, 17.415334659171993 ], [ 77.512260822220568, 17.414791304218504 ], [ 77.510491342149962, 17.413790678571281 ], [ 77.511705493524289, 17.415344432233354 ], [ 77.515705102931264, 17.418964654917296 ], [ 77.514967544701605, 17.429200168835813 ], [ 77.514506082075243, 17.435593411543842 ], [ 77.512714431994709, 17.437504234839771 ], [ 77.510560420507346, 17.439799935065626 ], [ 77.506262691697515, 17.444178910867656 ], [ 77.505902588953347, 17.444545714578641 ], [ 77.501243711146202, 17.456629485534059 ] ] ] } }
]
}
