{
"type": "FeatureCollection",
"name": "hoblis_in_police_area.writing_20260805_172659",
"crs": { "type": "name", "properties": { "name": "urn:ogc:def:crs:OGC:1.3:CRS84" } },
"features": [
{ "type": "Feature", "properties": { "OBJECTID": 388, "KGISHobliID": 574, "KGISHobliCode": "200141", "KGISHobliName": "Kasaba ", "BhuCodeHobli": null, "SHAPE.STArea()": 89716967.367870346, "SHAPE.STLength()": 77128.595071578398, "KGISTalukCode": "2001", "created_user": null, "created_date": null, "last_edited_user": "SURESHBV1", "last_edited_date": 1669289844000.0, "_overlap_percent": 0.53460225850666365, "_police_station": "S.J. Park PS", "_police_feature_index": "767", "_admin_layer": "Hobli", "_geometry_clipped": true }, "geometry": { "type": "Polygon", "coordinates": [ [ [ 77.588129076808571, 12.964528056217643 ], [ 77.589010499869133, 12.963755800475626 ], [ 77.589378950421107, 12.963325456066531 ], [ 77.589536748561414, 12.963155813927791 ], [ 77.589587887681574, 12.962849801130057 ], [ 77.589551539765324, 12.962516708271339 ], [ 77.589454271154608, 12.962302544823007 ], [ 77.589077516328643, 12.961929812113061 ], [ 77.588416619742844, 12.961301746851595 ], [ 77.588121659441555, 12.961060864308124 ], [ 77.587832232430372, 12.960647820196547 ], [ 77.587272066569781, 12.959860985286298 ], [ 77.587086437629807, 12.959617249951084 ], [ 77.587035448873849, 12.959550300438536 ], [ 77.586778253130305, 12.959212593673179 ], [ 77.586749432252901, 12.959158670937839 ], [ 77.586683549029786, 12.959035405209478 ], [ 77.586551209212203, 12.959080784555299 ], [ 77.585010983863796, 12.959608927433647 ], [ 77.583855492180788, 12.960160101143295 ], [ 77.58377407443372, 12.960198937895838 ], [ 77.583616694744279, 12.960274007672357 ], [ 77.58353024357973, 12.960315245077178 ], [ 77.583271248146872, 12.959820922196895 ], [ 77.583110922662044, 12.959515342727231 ], [ 77.583027524036396, 12.959355809215635 ], [ 77.582971775840136, 12.959253595773282 ], [ 77.582864402434311, 12.959058162346601 ], [ 77.582834294620412, 12.959003173080106 ], [ 77.582800443672099, 12.958941349358943 ], [ 77.582800251459986, 12.958941468713515 ], [ 77.582382834659398, 12.959200102406834 ], [ 77.583190381100309, 12.960759125738484 ], [ 77.582890066443625, 12.960897948476289 ], [ 77.581903240027557, 12.961620910762546 ], [ 77.581815909891233, 12.961786727718614 ], [ 77.581832711839454, 12.961972680293528 ], [ 77.581844281294238, 12.96210072436773 ], [ 77.581860582204911, 12.96228113837266 ], [ 77.581874732108886, 12.962499679135334 ], [ 77.581933382725964, 12.962760349557286 ], [ 77.581987684248958, 12.963001689654872 ], [ 77.582029283722932, 12.9631865758153 ], [ 77.582067268701238, 12.963355397560289 ], [ 77.582083070950048, 12.963425630728331 ], [ 77.581782029276141, 12.963533896571855 ], [ 77.581616516735522, 12.963547353756635 ], [ 77.581563544729136, 12.96355166105301 ], [ 77.580919938303396, 12.963597037405064 ], [ 77.580574201684655, 12.963612163797976 ], [ 77.580225733825145, 12.96364616356618 ], [ 77.579462103180759, 12.963720669926944 ], [ 77.579335652054397, 12.96371761835821 ], [ 77.578889447756936, 12.963706849080531 ], [ 77.578950948584307, 12.964077291697045 ], [ 77.578993633982833, 12.96433440107055 ], [ 77.579001372227211, 12.96438101260658 ], [ 77.579004098648511, 12.964397436414488 ], [ 77.579009620203919, 12.964430694416414 ], [ 77.579024319855847, 12.964519239014392 ], [ 77.578535827808338, 12.964714727632742 ], [ 77.577813767203338, 12.965035452218862 ], [ 77.577820425548055, 12.965051643761985 ], [ 77.577830791486264, 12.965076852003758 ], [ 77.577833689338391, 12.965083899081977 ], [ 77.577865659285067, 12.965161646389802 ], [ 77.578079304641605, 12.96568120355392 ], [ 77.578467792175445, 12.96552182151655 ], [ 77.579531084688981, 12.965085588731442 ], [ 77.579933936505014, 12.964959959656914 ], [ 77.580272070803431, 12.964896847746381 ], [ 77.581118955862706, 12.964771320905415 ], [ 77.581942800179448, 12.964713059149624 ], [ 77.582388113653749, 12.964706141359706 ], [ 77.583180349124291, 12.964717400344771 ], [ 77.584004809595413, 12.964780926240719 ], [ 77.584099924682292, 12.965197479244488 ], [ 77.58420511141405, 12.965217368274224 ], [ 77.584762423337807, 12.965373182942898 ], [ 77.586530480881606, 12.965805956170239 ], [ 77.586653556215509, 12.965699005831997 ], [ 77.586835711890572, 12.965534804359281 ], [ 77.588129076808571, 12.964528056217643 ] ] ] } }
]
}
