{
"type": "FeatureCollection",
"name": "hoblis_in_police_area.writing_20260805_172659",
"crs": { "type": "name", "properties": { "name": "urn:ogc:def:crs:OGC:1.3:CRS84" } },
"features": [
{ "type": "Feature", "properties": { "OBJECTID": 282, "KGISHobliID": 75, "KGISHobliCode": "150105", "KGISHobliName": "Avinahalli", "BhuCodeHobli": null, "SHAPE.STArea()": 232452934.66493055, "SHAPE.STLength()": 91581.035480880266, "KGISTalukCode": "1501", "created_user": null, "created_date": null, "last_edited_user": "SURESHBV1", "last_edited_date": 1657883804000.0, "_overlap_percent": 1.9058941350801113, "_police_station": "Sagara Town PS", "_police_feature_index": "627", "_admin_layer": "Hobli", "_geometry_clipped": true }, "geometry": { "type": "MultiPolygon", "coordinates": [ [ [ [ 75.038920221510409, 14.149030314065497 ], [ 75.040233497874297, 14.148408471778852 ], [ 75.040403965051581, 14.148330418035229 ], [ 75.040531279126185, 14.148272098134379 ], [ 75.040472553272963, 14.148185019571821 ], [ 75.040348841762821, 14.148247939998875 ], [ 75.039010677799851, 14.148928132433245 ], [ 75.038754789240969, 14.149058192528503 ], [ 75.038707463360453, 14.149137381894874 ], [ 75.038920221510409, 14.149030314065497 ] ] ], [ [ [ 75.037740104647213, 14.149422970773925 ], [ 75.037834814154934, 14.149401258970281 ], [ 75.03803520663719, 14.149372876495436 ], [ 75.038092447577682, 14.149360710611916 ], [ 75.038273730746809, 14.149322187782762 ], [ 75.038486522891219, 14.149293470214074 ], [ 75.038609912061261, 14.149285130070606 ], [ 75.038656850219979, 14.149199447759587 ], [ 75.038532552182303, 14.149206252057628 ], [ 75.038295182011453, 14.149230079215169 ], [ 75.038100401049107, 14.149263040730963 ], [ 75.038040760795553, 14.149273073111836 ], [ 75.037839481036826, 14.14929221311756 ], [ 75.037746219087623, 14.149309243712446 ], [ 75.037694028761237, 14.149465704526051 ], [ 75.037689609209195, 14.149479150500531 ], [ 75.037707353103841, 14.149513458168517 ], [ 75.037740104647213, 14.149422970773925 ] ] ], [ [ [ 75.018300338020381, 14.17486257216302 ], [ 75.018307680115086, 14.174859725223229 ], [ 75.018382322096301, 14.174585109906152 ], [ 75.018338324752207, 14.174354518562236 ], [ 75.018101054118787, 14.173979873292346 ], [ 75.017971571639563, 14.173776135416707 ], [ 75.017939743637911, 14.173430310806795 ], [ 75.017766580043869, 14.173148910956339 ], [ 75.017599519655747, 14.173089707181585 ], [ 75.017432401922164, 14.173103635724932 ], [ 75.017409347271936, 14.173089681277524 ], [ 75.017279415743531, 14.173011104188996 ], [ 75.017150172079198, 14.172959354200698 ], [ 75.016938023651207, 14.172804906152365 ], [ 75.01679689580439, 14.172559342571583 ], [ 75.016763332041506, 14.172186215065588 ], [ 75.016745776824976, 14.171847383136351 ], [ 75.016758531886609, 14.171721038412164 ], [ 75.016770408422857, 14.171619889817807 ], [ 75.016798572474528, 14.171517518525436 ], [ 75.016817109781741, 14.171424994498883 ], [ 75.016825094564297, 14.171392281362774 ], [ 75.016832943162271, 14.171360137873597 ], [ 75.01679274822942, 14.171253463821161 ], [ 75.016756889633626, 14.171176053466185 ], [ 75.016739678406054, 14.171078726184509 ], [ 75.016728694369618, 14.1710164990014 ], [ 75.016734273148543, 14.170764665383402 ], [ 75.016743680732247, 14.170357403568611 ], [ 75.016766962881817, 14.170192613872905 ], [ 75.016808133261733, 14.170045307183138 ], [ 75.016944877821871, 14.169686745837126 ], [ 75.017147659316421, 14.169016412390588 ], [ 75.017336571077621, 14.168385344063102 ], [ 75.017552869770071, 14.168066656637173 ], [ 75.017680626528403, 14.167799307157111 ], [ 75.017720310385798, 14.167233493754408 ], [ 75.017693374087202, 14.166963590446182 ], [ 75.017606322255787, 14.166474441519972 ], [ 75.017591874084587, 14.166325284238237 ], [ 75.017733429222758, 14.165822940836641 ], [ 75.017857510365658, 14.165687307159828 ], [ 75.018005310683918, 14.165672056037877 ], [ 75.018025781679256, 14.165623426404725 ], [ 75.018401838192347, 14.165633089842325 ], [ 75.018809813539576, 14.165806309530126 ], [ 75.018997439099223, 14.165886497966641 ], [ 75.019170439521801, 14.16596070622602 ], [ 75.019327868606211, 14.16602847328079 ], [ 75.019462180127192, 14.166086409071776 ], [ 75.019485653654641, 14.16609656571026 ], [ 75.019557782170395, 14.166127734409361 ], [ 75.019586577799018, 14.166140232448988 ], [ 75.019656162531533, 14.166170369648396 ], [ 75.019689345210381, 14.166184738983752 ], [ 75.019737254239274, 14.166205551245964 ], [ 75.019918238837974, 14.166284215045529 ], [ 75.020612911825879, 14.166512755694818 ], [ 75.02202530599304, 14.166502331504006 ], [ 75.024378003183173, 14.165723130435785 ], [ 75.024721743975704, 14.165610359391817 ], [ 75.025276929404924, 14.16429773625387 ], [ 75.025706575619125, 14.163126589823362 ], [ 75.02559811499151, 14.162651863222635 ], [ 75.025119173445546, 14.161489408987359 ], [ 75.025131881630742, 14.160672370190879 ], [ 75.025676209155563, 14.158403148661579 ], [ 75.025711545626962, 14.158278357018451 ], [ 75.026166619200424, 14.158143373188972 ], [ 75.026449761564081, 14.158074644682857 ], [ 75.026872282895795, 14.157952499853458 ], [ 75.027461850085729, 14.157983316573144 ], [ 75.027674328719442, 14.157988931592094 ], [ 75.02788454970181, 14.157953594211286 ], [ 75.028261908378383, 14.158004085138787 ], [ 75.028231219567388, 14.157896643209032 ], [ 75.028230800234866, 14.157862659359623 ], [ 75.028230112688121, 14.157795302873678 ], [ 75.028237645236899, 14.157696875718745 ], [ 75.028048336625716, 14.155395841856816 ], [ 75.028005147195827, 14.155069850049713 ], [ 75.028008723778541, 14.155045464585807 ], [ 75.028225612817778, 14.154267150282129 ], [ 75.027879792035691, 14.152981920712296 ], [ 75.028675505219937, 14.152822815576346 ], [ 75.028776989794025, 14.152794711213941 ], [ 75.028757647558493, 14.152323475052372 ], [ 75.028567345026602, 14.150898418377736 ], [ 75.028647072398755, 14.150016225751211 ], [ 75.028921226646247, 14.149732475754758 ], [ 75.028803508328608, 14.149716283227098 ], [ 75.028761870771248, 14.14958023136796 ], [ 75.02861085083137, 14.149183294402226 ], [ 75.028574756547656, 14.148714354908462 ], [ 75.028788798154295, 14.148631953258104 ], [ 75.029127650888668, 14.148488872499517 ], [ 75.02943806435465, 14.148334779924413 ], [ 75.030546083162136, 14.147674156271368 ], [ 75.031767361071132, 14.147481669733688 ], [ 75.033935691543874, 14.147314676103932 ], [ 75.033933784156403, 14.14730540663227 ], [ 75.033880081432883, 14.147043478017137 ], [ 75.034025177043688, 14.146967233508976 ], [ 75.034117890608215, 14.146918522570981 ], [ 75.034587370784678, 14.147890611836152 ], [ 75.034941603909346, 14.148389632832654 ], [ 75.035230839460212, 14.149239715785495 ], [ 75.035237769825329, 14.149259571650386 ], [ 75.035240740465497, 14.149265204308302 ], [ 75.035445311426571, 14.14965667421502 ], [ 75.035893528254107, 14.150536646923651 ], [ 75.035905995350205, 14.150533733573871 ], [ 75.036125168538632, 14.150475037875486 ], [ 75.036544621537644, 14.150332082829635 ], [ 75.036599049066169, 14.150322312925125 ], [ 75.03683020095184, 14.150280034817326 ], [ 75.037047208935292, 14.150220338577125 ], [ 75.037121558409808, 14.150204135797457 ], [ 75.037220241628248, 14.150182580951236 ], [ 75.037225760043285, 14.150111364415817 ], [ 75.037233388519539, 14.150103834057248 ], [ 75.037306300014691, 14.150031865628469 ], [ 75.037370222066599, 14.149969004656699 ], [ 75.037462035373323, 14.149970632360157 ], [ 75.037463290930532, 14.149970645727144 ], [ 75.037545967971269, 14.149797886732063 ], [ 75.037596840818722, 14.14983295585675 ], [ 75.037566846491828, 14.14991747865021 ], [ 75.037675626732991, 14.149844905923185 ], [ 75.037773934638381, 14.149779504103137 ], [ 75.037736441947217, 14.14970638446453 ], [ 75.037690271361001, 14.149735542045981 ], [ 75.037579142756528, 14.149805712719182 ], [ 75.037609798489555, 14.149720139153024 ], [ 75.037558031916689, 14.149682033001792 ], [ 75.037472419722462, 14.149856569190584 ], [ 75.037471129873651, 14.149856508811197 ], [ 75.037376902224523, 14.149851373236077 ], [ 75.037309638851525, 14.149914203986787 ], [ 75.037232381637409, 14.149986409084038 ], [ 75.037224269481626, 14.149993979301886 ], [ 75.037217151206391, 14.150067603035186 ], [ 75.037113199012424, 14.15008716134243 ], [ 75.037034509117873, 14.150102012123153 ], [ 75.036802158983264, 14.150159322742148 ], [ 75.03654964127054, 14.150200509103332 ], [ 75.036488329098177, 14.150210533215406 ], [ 75.036165588416992, 14.150353143592156 ], [ 75.035995779473481, 14.150410952159408 ], [ 75.035983741599026, 14.150415092433093 ], [ 75.035543810090232, 14.149610733219463 ], [ 75.035349741263744, 14.149255952911203 ], [ 75.035346938423487, 14.149250881730946 ], [ 75.035338299124845, 14.14922932353387 ], [ 75.03498039987673, 14.148341471916661 ], [ 75.034821411272389, 14.148144542873046 ], [ 75.035402950881007, 14.147610897138302 ], [ 75.034359978213359, 14.146143606564044 ], [ 75.034458488263084, 14.145646634091889 ], [ 75.034045707252005, 14.145395568998085 ], [ 75.033762937624985, 14.144709897486186 ], [ 75.03376658462723, 14.14408801491977 ], [ 75.033929004381022, 14.143560304731794 ], [ 75.033360736259866, 14.142655372609498 ], [ 75.034400609322233, 14.139209616569476 ], [ 75.032843486538454, 14.138485736164512 ], [ 75.032820010824437, 14.137055228738205 ], [ 75.030261996160036, 14.137102106613664 ], [ 75.03014173005964, 14.139515993305517 ], [ 75.029597618594025, 14.14121363891468 ], [ 75.029553647988877, 14.141320793440501 ], [ 75.025902166841391, 14.143017843124367 ], [ 75.026717437235718, 14.145261263403508 ], [ 75.02528152296054, 14.145595245279805 ], [ 75.0179751784339, 14.147139922814237 ], [ 75.018767509342837, 14.153239007473383 ], [ 75.01852631314101, 14.154175078874388 ], [ 75.018390373200631, 14.154760196689976 ], [ 75.015584695109709, 14.154921710481364 ], [ 75.016141996552577, 14.157281549203461 ], [ 75.015368842857526, 14.16064748059957 ], [ 75.014737883173595, 14.161936279584308 ], [ 75.01505949652126, 14.164624212760923 ], [ 75.014450567832299, 14.166571989901481 ], [ 75.014240693979573, 14.166925568584167 ], [ 75.013480913415407, 14.168036245458765 ], [ 75.012368126583596, 14.167371070510944 ], [ 75.010804016541755, 14.168350463902069 ], [ 75.009590234384419, 14.167203230397019 ], [ 75.008869438724219, 14.166134820760627 ], [ 75.008516017662117, 14.164434988493738 ], [ 75.008077412444436, 14.163951018353096 ], [ 75.005732851404346, 14.165153996840635 ], [ 75.004560258221829, 14.165806155348287 ], [ 75.003618480080704, 14.165844521036034 ], [ 75.005771256187401, 14.16980570711571 ], [ 75.005926699270802, 14.170098724108263 ], [ 75.005935119592777, 14.170114523663354 ], [ 75.005940470874947, 14.170136431981396 ], [ 75.005948118850426, 14.17034975391118 ], [ 75.005951216222641, 14.170435016856205 ], [ 75.005955127835506, 14.170721057203332 ], [ 75.00595874914211, 14.170961587110842 ], [ 75.005956107930288, 14.17106305593591 ], [ 75.005955150532898, 14.171164984045248 ], [ 75.005956282830581, 14.171266826204077 ], [ 75.005955249440703, 14.171368651236277 ], [ 75.005960269239154, 14.171470838696198 ], [ 75.005960894635876, 14.171572613955171 ], [ 75.005965898673608, 14.171674267943391 ], [ 75.005969270798929, 14.171775821606508 ], [ 75.005976447023627, 14.171877433946106 ], [ 75.005985241265748, 14.171978887107374 ], [ 75.005989258656172, 14.172020061867311 ], [ 75.005979787293569, 14.173294229199193 ], [ 75.006217898592979, 14.173560859941 ], [ 75.006332379836977, 14.173689114926828 ], [ 75.006309274080891, 14.173722459834735 ], [ 75.006380613488176, 14.173806379430617 ], [ 75.005954291815456, 14.174375744088536 ], [ 75.005831485854884, 14.174538861474325 ], [ 75.005817684586205, 14.174619586688923 ], [ 75.005785673638272, 14.174743546930276 ], [ 75.005774657979785, 14.174785618999698 ], [ 75.005749601890514, 14.1749074072107 ], [ 75.005800178260515, 14.17535434271775 ], [ 75.005648533684621, 14.175683114001028 ], [ 75.005490026404544, 14.175898558212529 ], [ 75.005492129145381, 14.175962010226025 ], [ 75.005591613425594, 14.175999121300588 ], [ 75.005766890344233, 14.175924580531753 ], [ 75.006054638984949, 14.175825071326019 ], [ 75.006276189152317, 14.175748471082454 ], [ 75.006475883033048, 14.175685791177123 ], [ 75.006640777916658, 14.175531519780534 ], [ 75.0070573028719, 14.175232602787565 ], [ 75.00751718874433, 14.175196298378783 ], [ 75.007791541538822, 14.175220500121579 ], [ 75.007997261019298, 14.175159969810963 ], [ 75.008590282115435, 14.175063168783513 ], [ 75.009030022754771, 14.175055091803943 ], [ 75.00932452066921, 14.175131751035911 ], [ 75.0094778113328, 14.175079313053793 ], [ 75.009703729757277, 14.174800949266237 ], [ 75.009974020876911, 14.174345059028774 ], [ 75.010494428510469, 14.173961833468367 ], [ 75.010813117439781, 14.173828713084518 ], [ 75.010946248163691, 14.174006209740993 ], [ 75.011281090489362, 14.174514499027822 ], [ 75.011749049181873, 14.17501072943624 ], [ 75.011910412154037, 14.17510755081833 ], [ 75.012071779276255, 14.175034921194539 ], [ 75.012378399659681, 14.174720273036661 ], [ 75.01275697858793, 14.17433172239174 ], [ 75.013084392631256, 14.174441899785414 ], [ 75.013616882194412, 14.174849361733136 ], [ 75.014165552038989, 14.175224541162873 ], [ 75.015125659633, 14.175410110217308 ], [ 75.016033358557394, 14.175543240634708 ], [ 75.01633593855864, 14.175490791859467 ], [ 75.01671915978487, 14.17513175184358 ], [ 75.017010318562427, 14.174858991621992 ], [ 75.017356951094996, 14.17477869852244 ], [ 75.017930538127388, 14.175110471999185 ], [ 75.018094010834488, 14.17512172950139 ], [ 75.018273588029118, 14.175134070689309 ], [ 75.018400912448897, 14.17512249821938 ], [ 75.018300338020381, 14.17486257216302 ] ] ] ] } },
{ "type": "Feature", "properties": { "OBJECTID": 755, "KGISHobliID": 555, "KGISHobliCode": "150101", "KGISHobliName": "Kasaba", "BhuCodeHobli": null, "SHAPE.STArea()": 289105192.2586239, "SHAPE.STLength()": 125870.21794516547, "KGISTalukCode": "1501", "created_user": null, "created_date": null, "last_edited_user": "SA", "last_edited_date": 1609584978000.0, "_overlap_percent": 4.7725383532985495, "_police_station": "Sagara Town PS", "_police_feature_index": "627", "_admin_layer": "Hobli", "_geometry_clipped": true }, "geometry": { "type": "Polygon", "coordinates": [ [ [ 75.037773934638381, 14.149779504103137 ], [ 75.037675626732991, 14.149844905923185 ], [ 75.037566846491828, 14.14991747865021 ], [ 75.037596840818722, 14.14983295585675 ], [ 75.037545967971269, 14.149797886732063 ], [ 75.037463290930532, 14.149970645727144 ], [ 75.037462035373323, 14.149970632360157 ], [ 75.037370222066599, 14.149969004656699 ], [ 75.037306300014691, 14.150031865628469 ], [ 75.037233388519539, 14.150103834057248 ], [ 75.037225760043285, 14.150111364415817 ], [ 75.037220241628248, 14.150182580951236 ], [ 75.037121558409808, 14.150204135797457 ], [ 75.037047208935292, 14.150220338577125 ], [ 75.03683020095184, 14.150280034817326 ], [ 75.036599049066169, 14.150322312925125 ], [ 75.036544621537644, 14.150332082829635 ], [ 75.036125168538632, 14.150475037875486 ], [ 75.035905995350205, 14.150533733573871 ], [ 75.035893528254107, 14.150536646923651 ], [ 75.035445311426571, 14.14965667421502 ], [ 75.035240740465497, 14.149265204308302 ], [ 75.035237769825329, 14.149259571650386 ], [ 75.035230839460212, 14.149239715785495 ], [ 75.034941603909346, 14.148389632832654 ], [ 75.034587370784678, 14.147890611836152 ], [ 75.034117890608215, 14.146918522570981 ], [ 75.034025177043688, 14.146967233508976 ], [ 75.033880081432883, 14.147043478017137 ], [ 75.033933784156403, 14.14730540663227 ], [ 75.033935691543874, 14.147314676103932 ], [ 75.031767361071132, 14.147481669733688 ], [ 75.030546083162136, 14.147674156271368 ], [ 75.02943806435465, 14.148334779924413 ], [ 75.029127650888668, 14.148488872499517 ], [ 75.028788798154295, 14.148631953258104 ], [ 75.028574756547656, 14.148714354908462 ], [ 75.02861085083137, 14.149183294402226 ], [ 75.028761870771248, 14.14958023136796 ], [ 75.028803508328608, 14.149716283227098 ], [ 75.028921226646247, 14.149732475754758 ], [ 75.028647072398755, 14.150016225751211 ], [ 75.028567345026602, 14.150898418377736 ], [ 75.028757647558493, 14.152323475052372 ], [ 75.028776989794025, 14.152794711213941 ], [ 75.028675505219937, 14.152822815576346 ], [ 75.027879792035691, 14.152981920712296 ], [ 75.028225612817778, 14.154267150282129 ], [ 75.028008723778541, 14.155045464585807 ], [ 75.028005147195827, 14.155069850049713 ], [ 75.028048336625716, 14.155395841856816 ], [ 75.028237645236899, 14.157696875718745 ], [ 75.028230112688121, 14.157795302873678 ], [ 75.028230800234866, 14.157862659359623 ], [ 75.028231219567388, 14.157896643209032 ], [ 75.028261908378383, 14.158004085138787 ], [ 75.02788454970181, 14.157953594211286 ], [ 75.027674328719442, 14.157988931592094 ], [ 75.027461850085729, 14.157983316573144 ], [ 75.026872282895795, 14.157952499853458 ], [ 75.026449761564081, 14.158074644682857 ], [ 75.026166619200424, 14.158143373188972 ], [ 75.025711545626962, 14.158278357018451 ], [ 75.025676209155563, 14.158403148661579 ], [ 75.025131881630742, 14.160672370190879 ], [ 75.025119173445546, 14.161489408987359 ], [ 75.02559811499151, 14.162651863222635 ], [ 75.025706575619125, 14.163126589823362 ], [ 75.025276929404924, 14.16429773625387 ], [ 75.024721743975704, 14.165610359391817 ], [ 75.024378003183173, 14.165723130435785 ], [ 75.02202530599304, 14.166502331504006 ], [ 75.020612911825879, 14.166512755694818 ], [ 75.019918238837974, 14.166284215045529 ], [ 75.019737254239274, 14.166205551245964 ], [ 75.019689345210381, 14.166184738983752 ], [ 75.019656162531533, 14.166170369648396 ], [ 75.019586577799018, 14.166140232448988 ], [ 75.019557782170395, 14.166127734409361 ], [ 75.019485653654641, 14.16609656571026 ], [ 75.019462180127192, 14.166086409071776 ], [ 75.019327868606211, 14.16602847328079 ], [ 75.019170439521801, 14.16596070622602 ], [ 75.018997439099223, 14.165886497966641 ], [ 75.018809813539576, 14.165806309530126 ], [ 75.018401838192347, 14.165633089842325 ], [ 75.018025781679256, 14.165623426404725 ], [ 75.018005310683918, 14.165672056037877 ], [ 75.017857510365658, 14.165687307159828 ], [ 75.017733429222758, 14.165822940836641 ], [ 75.017591874084587, 14.166325284238237 ], [ 75.017606322255787, 14.166474441519972 ], [ 75.017693374087202, 14.166963590446182 ], [ 75.017720310385798, 14.167233493754408 ], [ 75.017680626528403, 14.167799307157111 ], [ 75.017552869770071, 14.168066656637173 ], [ 75.017336571077621, 14.168385344063102 ], [ 75.017147659316421, 14.169016412390588 ], [ 75.016944877821871, 14.169686745837126 ], [ 75.016808133261733, 14.170045307183138 ], [ 75.016766962881817, 14.170192613872905 ], [ 75.016743680732247, 14.170357403568611 ], [ 75.016734273148543, 14.170764665383402 ], [ 75.016728694369618, 14.1710164990014 ], [ 75.016739678406054, 14.171078726184509 ], [ 75.016756889633626, 14.171176053466185 ], [ 75.01679274822942, 14.171253463821161 ], [ 75.016832943162271, 14.171360137873597 ], [ 75.016825094564297, 14.171392281362774 ], [ 75.016817109781741, 14.171424994498883 ], [ 75.016798572474528, 14.171517518525436 ], [ 75.016770408422857, 14.171619889817807 ], [ 75.016758531886609, 14.171721038412164 ], [ 75.016745776824976, 14.171847383136351 ], [ 75.016763332041506, 14.172186215065588 ], [ 75.01679689580439, 14.172559342571583 ], [ 75.016938023651207, 14.172804906152365 ], [ 75.017150172079198, 14.172959354200698 ], [ 75.017279415743531, 14.173011104188996 ], [ 75.017409347271936, 14.173089681277524 ], [ 75.017432401922164, 14.173103635724932 ], [ 75.017599519655747, 14.173089707181585 ], [ 75.017766580043869, 14.173148910956339 ], [ 75.017939743637911, 14.173430310806795 ], [ 75.017971571639563, 14.173776135416707 ], [ 75.018101054118787, 14.173979873292346 ], [ 75.018338324752207, 14.174354518562236 ], [ 75.018382322096301, 14.174585109906152 ], [ 75.018307680115086, 14.174859725223229 ], [ 75.018300338020381, 14.17486257216302 ], [ 75.018400912448897, 14.17512249821938 ], [ 75.019136418029547, 14.175055648386259 ], [ 75.019428641051519, 14.174909600565222 ], [ 75.019605320476316, 14.174988419500345 ], [ 75.019638967059251, 14.175134338895878 ], [ 75.019639897825712, 14.175138390479626 ], [ 75.019648140572514, 14.175177412687828 ], [ 75.01967186950894, 14.175290699892178 ], [ 75.019698817611356, 14.175443980807547 ], [ 75.019727557955434, 14.175607319741356 ], [ 75.019757089390168, 14.175766452328613 ], [ 75.019787988743815, 14.175872679036633 ], [ 75.019800048240981, 14.175981444443455 ], [ 75.019813982154588, 14.176107651451094 ], [ 75.01983495847351, 14.176258393878301 ], [ 75.019862857270141, 14.176418402735436 ], [ 75.019898027028717, 14.176545391903071 ], [ 75.019925309954246, 14.176740873842471 ], [ 75.019932887747316, 14.176900321064601 ], [ 75.019976019944096, 14.178032729541711 ], [ 75.019981470313397, 14.178480870954537 ], [ 75.019991478092152, 14.179306963634557 ], [ 75.020165620197346, 14.180027431751475 ], [ 75.020389490695948, 14.180754682293728 ], [ 75.02038246932301, 14.181517522101901 ], [ 75.020348628957592, 14.185189401462111 ], [ 75.020518341953718, 14.185227313064422 ], [ 75.02060763260431, 14.18524722009472 ], [ 75.020820891877108, 14.185294791671502 ], [ 75.020900219791884, 14.185312513136761 ], [ 75.021074103436405, 14.185351282053391 ], [ 75.021949752786554, 14.186100400005955 ], [ 75.022831901697657, 14.18684964247932 ], [ 75.023359510334174, 14.187404752563976 ], [ 75.023630099566176, 14.187691760655152 ], [ 75.023862519273806, 14.187938213185204 ], [ 75.023902938579027, 14.188888049733132 ], [ 75.023881728350403, 14.189089290084256 ], [ 75.023863418493306, 14.189251503687945 ], [ 75.02386328979901, 14.189252712596744 ], [ 75.023852539108233, 14.189711752348154 ], [ 75.023821370511456, 14.190364548384766 ], [ 75.023732941369985, 14.191164210556668 ], [ 75.023819599249293, 14.191152232350101 ], [ 75.023978497803824, 14.191196409459383 ], [ 75.024458957706372, 14.191115091802772 ], [ 75.024897220616182, 14.19113054348581 ], [ 75.024983370649167, 14.191170241814936 ], [ 75.025036397905509, 14.19119469268324 ], [ 75.025083879333962, 14.191210633024115 ], [ 75.025101950732719, 14.191220750773205 ], [ 75.025209017486731, 14.191254163644262 ], [ 75.02524328243355, 14.191264032835353 ], [ 75.025250418839875, 14.191266081871328 ], [ 75.025312059785335, 14.191283770272445 ], [ 75.02537814941455, 14.191302771063491 ], [ 75.025545388799642, 14.191350162435585 ], [ 75.025707751934064, 14.191392713205875 ], [ 75.02586512863401, 14.19143961353562 ], [ 75.026018389258326, 14.191459330782155 ], [ 75.026161721649231, 14.191473643795383 ], [ 75.026342900517974, 14.1914929427624 ], [ 75.026529619332877, 14.191517109112379 ], [ 75.026713191689879, 14.19153262171027 ], [ 75.026911691049733, 14.191558499879317 ], [ 75.027127347944059, 14.191584811758652 ], [ 75.027418267114172, 14.191607102066637 ], [ 75.027479438999265, 14.191614029253889 ], [ 75.027934990849516, 14.19162677892057 ], [ 75.028903178115115, 14.191574803605405 ], [ 75.029515069271469, 14.19147478306647 ], [ 75.029528329339271, 14.191472753344735 ], [ 75.029579981645909, 14.191310170842842 ], [ 75.029439301214822, 14.191163812329529 ], [ 75.029343182284123, 14.191003823108803 ], [ 75.029261776388893, 14.190853785322373 ], [ 75.031167533677092, 14.189996480329651 ], [ 75.031221829447787, 14.190056992194544 ], [ 75.031227611529545, 14.190063422007208 ], [ 75.03130798962215, 14.190152021681561 ], [ 75.031761530565944, 14.190651412257996 ], [ 75.032113549059105, 14.191507340351764 ], [ 75.032117292874091, 14.191511320977465 ], [ 75.032850371677029, 14.19109723673013 ], [ 75.034007819328764, 14.190513969735278 ], [ 75.035201265079877, 14.190038125338747 ], [ 75.0365078610713, 14.189008898129972 ], [ 75.037783132843373, 14.190195523238609 ], [ 75.038239697388676, 14.190430398821166 ], [ 75.039137445119138, 14.19039966434458 ], [ 75.039394826904442, 14.190240258598809 ], [ 75.039709252884066, 14.18972374508783 ], [ 75.039728302184685, 14.189598752776142 ], [ 75.040591400765479, 14.189228265537416 ], [ 75.04174965754585, 14.188501992993926 ], [ 75.042647055523872, 14.188289610873161 ], [ 75.043787599075728, 14.18789730333882 ], [ 75.044268673154093, 14.187357257101745 ], [ 75.044862778652558, 14.187899679553723 ], [ 75.045295463091108, 14.18832557072894 ], [ 75.046103818535244, 14.188032191942975 ], [ 75.050854796959129, 14.188161521941462 ], [ 75.050954658022377, 14.187790083999007 ], [ 75.051066249069677, 14.187386861389246 ], [ 75.051173790723098, 14.186975413301338 ], [ 75.051272720565834, 14.18656810002671 ], [ 75.051371561091599, 14.18616491251592 ], [ 75.051373816760886, 14.186156444335561 ], [ 75.051478952427843, 14.185761720402599 ], [ 75.051586178435684, 14.185362673954966 ], [ 75.051684979907748, 14.184963631072748 ], [ 75.051796571079223, 14.184560413461469 ], [ 75.051895198840398, 14.184207510192529 ], [ 75.05190813315069, 14.184161362279477 ], [ 75.05193773868595, 14.184054040788808 ], [ 75.051966961819176, 14.183948352335737 ], [ 75.051982920185665, 14.183890493654102 ], [ 75.05198306904704, 14.183872711907442 ], [ 75.051984408443658, 14.183751789448435 ], [ 75.051987230454827, 14.183483682423541 ], [ 75.051769862372723, 14.183074751831407 ], [ 75.051582551696654, 14.182705142116431 ], [ 75.051386919487783, 14.182327231792492 ], [ 75.051195712175314, 14.181945179179012 ], [ 75.05100024900959, 14.181559012354796 ], [ 75.050804821730807, 14.181172879708122 ], [ 75.050605168289934, 14.180782601183486 ], [ 75.050405550742184, 14.180392289015307 ], [ 75.050205971876011, 14.180001981178933 ], [ 75.050138259998974, 14.179882471915663 ], [ 75.050078929076406, 14.179777763309438 ], [ 75.049985058557283, 14.179611752658376 ], [ 75.049781101383886, 14.179221449872356 ], [ 75.049564388502858, 14.178835293420047 ], [ 75.049360321476684, 14.178453270805145 ], [ 75.049156369164947, 14.178067143878113 ], [ 75.04895250098717, 14.177676870148346 ], [ 75.048744308501028, 14.177286562750556 ], [ 75.048515089612408, 14.17688807381502 ], [ 75.048307020978996, 14.176493649222586 ], [ 75.048090442123524, 14.176099249650276 ], [ 75.047865389289541, 14.175700731181996 ], [ 75.047648920446619, 14.175302220727435 ], [ 75.047440782411897, 14.174911933797263 ], [ 75.047377439387873, 14.174802128366785 ], [ 75.04728207084942, 14.174636869155687 ], [ 75.047215577903856, 14.174521650936695 ], [ 75.047171830135497, 14.174442272885885 ], [ 75.047007212206708, 14.174143789879283 ], [ 75.046893067994603, 14.173936831296059 ], [ 75.046832198766452, 14.173826459206657 ], [ 75.046798771211826, 14.173765933162581 ], [ 75.046603159257089, 14.173388021315381 ], [ 75.046390800855789, 14.172997739646647 ], [ 75.046200459595894, 14.17264799092982 ], [ 75.046178338469446, 14.172607480399819 ], [ 75.046059799152346, 14.172389529135247 ], [ 75.046003587912182, 14.172286273681035 ], [ 75.045965980603555, 14.172217232684428 ], [ 75.04706721935797, 14.171847189616374 ], [ 75.047139758636831, 14.171690952724274 ], [ 75.04704490968146, 14.170887370058306 ], [ 75.048094831119101, 14.170869041032159 ], [ 75.048234549706734, 14.17092207245706 ], [ 75.048752508500328, 14.171117499906345 ], [ 75.048934817938914, 14.171186232503103 ], [ 75.049335228758466, 14.171417412476568 ], [ 75.049858969789966, 14.171767329265547 ], [ 75.049909900159975, 14.171801349542283 ], [ 75.050249632172196, 14.171869460602048 ], [ 75.050465478859053, 14.171912732148195 ], [ 75.050493642460864, 14.172044139787202 ], [ 75.050566504232421, 14.172153488509311 ], [ 75.05057957873727, 14.172173110216612 ], [ 75.050989150285815, 14.172378013424629 ], [ 75.051151971231405, 14.172459973097768 ], [ 75.051520403070995, 14.172488922239667 ], [ 75.052424379401131, 14.172327092167027 ], [ 75.052999141537285, 14.17227129960629 ], [ 75.053818778889919, 14.172191713238199 ], [ 75.05534289957204, 14.173069283487905 ], [ 75.055277737368797, 14.172329704769345 ], [ 75.054326506876876, 14.171883639185127 ], [ 75.053877835311113, 14.171342375893998 ], [ 75.054887757764774, 14.170319336498542 ], [ 75.056504575788082, 14.168515930632038 ], [ 75.057437462284113, 14.166744851167774 ], [ 75.060357556689581, 14.161736501802311 ], [ 75.060919159511471, 14.160311322883844 ], [ 75.062327756006596, 14.159780238584336 ], [ 75.062331414039363, 14.159143502600537 ], [ 75.061835081444585, 14.158161163565723 ], [ 75.059673270884431, 14.15873710028926 ], [ 75.059676371613691, 14.158198324069716 ], [ 75.058067279033182, 14.158679312394529 ], [ 75.057817992725504, 14.158384057712176 ], [ 75.057134021531212, 14.159075509844254 ], [ 75.056231692476715, 14.159318150932393 ], [ 75.055056349695093, 14.158802491318479 ], [ 75.054401547777687, 14.159317549140271 ], [ 75.054266029453245, 14.159458169206129 ], [ 75.053265409836541, 14.15997467892293 ], [ 75.053418491765342, 14.160356969688998 ], [ 75.053523231223906, 14.161314933739096 ], [ 75.053493859426666, 14.161494670115902 ], [ 75.051917881375502, 14.161937660182703 ], [ 75.05187912900108, 14.162237503387171 ], [ 75.051234647805273, 14.162351254773155 ], [ 75.050749360429862, 14.16296542036496 ], [ 75.050400549002916, 14.162745523207052 ], [ 75.050165521691113, 14.162047923262975 ], [ 75.049854611504131, 14.161653614098347 ], [ 75.049130431080698, 14.161293410420221 ], [ 75.048444221836547, 14.16106971922717 ], [ 75.047655578134936, 14.160455551386871 ], [ 75.047223402843031, 14.160258402779437 ], [ 75.046920101096021, 14.159826181079135 ], [ 75.046609201207389, 14.158726702590652 ], [ 75.046381669355441, 14.158188310179755 ], [ 75.04659404205141, 14.157703042184616 ], [ 75.046514649588488, 14.157285138423003 ], [ 75.046313448391444, 14.156762791011634 ], [ 75.046725982195213, 14.156603892310642 ], [ 75.046745669900417, 14.156429142442903 ], [ 75.046851831726798, 14.155488901181201 ], [ 75.047071769481093, 14.155488900660158 ], [ 75.047441050337966, 14.155184370760102 ], [ 75.04721592267687, 14.155156740658915 ], [ 75.046631709669299, 14.155085061411686 ], [ 75.046333679403702, 14.15523461029267 ], [ 75.046210820033522, 14.155095781458565 ], [ 75.046144859540576, 14.155021231196756 ], [ 75.046156400028096, 14.154889350466016 ], [ 75.045570549635912, 14.154696231993119 ], [ 75.044607382507792, 14.151402662038594 ], [ 75.044320589060447, 14.151389662275076 ], [ 75.044217592165083, 14.151384969535734 ], [ 75.044174539424404, 14.151383023507833 ], [ 75.044104229753913, 14.150570970553014 ], [ 75.044103169190379, 14.150558662937762 ], [ 75.044036099137827, 14.149797890349245 ], [ 75.043976458584552, 14.14912140024777 ], [ 75.043661501609634, 14.149237360180576 ], [ 75.042925997872686, 14.149508089186773 ], [ 75.042787360155614, 14.149559159874102 ], [ 75.042515600234026, 14.149659170668849 ], [ 75.042395648874574, 14.149703313547596 ], [ 75.041644011882966, 14.149980000073548 ], [ 75.041488761244139, 14.14965253174684 ], [ 75.041380727437058, 14.1494544219258 ], [ 75.040641801255859, 14.14809902954924 ], [ 75.040516808430269, 14.148162511129447 ], [ 75.040472553272963, 14.148185019571821 ], [ 75.040531279126185, 14.148272098134379 ], [ 75.040403965051581, 14.148330418035229 ], [ 75.040233497874297, 14.148408471778852 ], [ 75.038920221510409, 14.149030314065497 ], [ 75.038707463360453, 14.149137381894874 ], [ 75.038670828281624, 14.149198682575364 ], [ 75.038656850219979, 14.149199447759587 ], [ 75.038609912061261, 14.149285130070606 ], [ 75.038486522891219, 14.149293470214074 ], [ 75.038273730746809, 14.149322187782762 ], [ 75.038092447577682, 14.149360710611916 ], [ 75.03803520663719, 14.149372876495436 ], [ 75.037834814154934, 14.149401258970281 ], [ 75.037740104647213, 14.149422970773925 ], [ 75.037707353103841, 14.149513458168517 ], [ 75.03778972956367, 14.14967273234649 ], [ 75.037736441947217, 14.14970638446453 ], [ 75.037773934638381, 14.149779504103137 ] ] ] } }
]
}
