{
"type": "FeatureCollection",
"name": "police_station_boundary.writing_20260805_172659",
"crs": { "type": "name", "properties": { "name": "urn:ogc:def:crs:OGC:1.3:CRS84" } },
"features": [
{ "type": "Feature", "properties": { "Shape.STArea()": 2850943.8500321801, "Shape.STLength()": 7004.6132977109492, "OBJECTID": 849, "KGISPS_BOUNDID": 92, "PS_BOUNDName": "Govindapura PS", "PS_BOUNDCode": "PSB - 92", "KGISPS_SUB_DIVID": 13, "_source_layer": "Police Station Boundary", "_source_layer_url": "https://kgis.ksrsac.in/kgismaps/rest/services/Home/Home_Department/MapServer/82", "_police_station": "Govindapura PS" }, "geometry": { "type": "Polygon", "coordinates": [ [ [ 77.630536891606127, 13.025532121625458 ], [ 77.63143069948778, 13.025269269689728 ], [ 77.631549821133035, 13.025639415366472 ], [ 77.63199772709919, 13.026846731909231 ], [ 77.632251244865657, 13.027306673303963 ], [ 77.632506642150148, 13.027673067278497 ], [ 77.632620894666417, 13.027822508568136 ], [ 77.632494238114916, 13.027884221008641 ], [ 77.632086926239921, 13.028096313460312 ], [ 77.631769865523921, 13.028544125109905 ], [ 77.63125208167331, 13.029721813122995 ], [ 77.630632142322412, 13.03092205051245 ], [ 77.630156029959664, 13.031891361020257 ], [ 77.629486102954004, 13.033206838929866 ], [ 77.628640903719671, 13.034893392149348 ], [ 77.628081550595326, 13.035946011525686 ], [ 77.627592900395527, 13.036768445037898 ], [ 77.627397721060177, 13.036985551342516 ], [ 77.626657851862461, 13.037566725799644 ], [ 77.626094460784103, 13.037891544518263 ], [ 77.625780316747566, 13.038271199669699 ], [ 77.625040754320949, 13.039228837117076 ], [ 77.62437159535105, 13.040065882263951 ], [ 77.62436014925153, 13.04008019995312 ], [ 77.624345572439651, 13.040049036426167 ], [ 77.62429615387137, 13.039943387582536 ], [ 77.62376925264698, 13.040610505795074 ], [ 77.623483720733915, 13.040814184562517 ], [ 77.623473711096594, 13.040818369452412 ], [ 77.623167761566762, 13.040946289718645 ], [ 77.623143903910517, 13.040956264899231 ], [ 77.622621249437373, 13.041067981195621 ], [ 77.6226038909208, 13.041071691254201 ], [ 77.620974794656476, 13.041021266656065 ], [ 77.619678383475076, 13.040968606190852 ], [ 77.61946748220582, 13.040960039095008 ], [ 77.61893011105883, 13.040921898684221 ], [ 77.617538527659221, 13.040823126023152 ], [ 77.617463188043928, 13.040817778201047 ], [ 77.617097655874943, 13.040833426143131 ], [ 77.617088231234305, 13.040835249683308 ], [ 77.616245242451001, 13.040998366447006 ], [ 77.61618527002841, 13.041009970906744 ], [ 77.614881485853601, 13.041411936855928 ], [ 77.614842635673483, 13.041423914829236 ], [ 77.614275066555834, 13.041656688710397 ], [ 77.614260029826454, 13.041662855567663 ], [ 77.613860378453822, 13.041911897714566 ], [ 77.613834149279185, 13.041921695512059 ], [ 77.613675658965136, 13.04198089553395 ], [ 77.61362957223669, 13.041998110377895 ], [ 77.613469980391045, 13.042057721630171 ], [ 77.613465752806619, 13.042059301040014 ], [ 77.612025801212567, 13.042404377917977 ], [ 77.61198087757937, 13.042415143898783 ], [ 77.611949417605288, 13.042428930523156 ], [ 77.611948620665629, 13.042424378106466 ], [ 77.61174164559884, 13.041242076981517 ], [ 77.611740896671492, 13.04123779600722 ], [ 77.611570923900558, 13.040537383497332 ], [ 77.611497237991642, 13.040348117089984 ], [ 77.611488363350034, 13.04032562114493 ], [ 77.611355279514754, 13.039991569357568 ], [ 77.611293126600955, 13.039886044609432 ], [ 77.611231940664425, 13.039817776152235 ], [ 77.611141078908233, 13.039720445912177 ], [ 77.610869742872879, 13.039327936823717 ], [ 77.610762729589624, 13.039173176270403 ], [ 77.610674470257663, 13.038994511708173 ], [ 77.610559118413917, 13.038758527285813 ], [ 77.610420823548495, 13.038476473846092 ], [ 77.610334903662064, 13.038301173306476 ], [ 77.610314875145193, 13.038258462802315 ], [ 77.610279192486999, 13.038205746671652 ], [ 77.610295673909633, 13.038129918993889 ], [ 77.610619812614075, 13.036748933955407 ], [ 77.610891444279531, 13.035633876351298 ], [ 77.611229222260874, 13.034716177832358 ], [ 77.611505480051648, 13.034255081147109 ], [ 77.611814973635703, 13.033719898412123 ], [ 77.611851519412426, 13.033663753540669 ], [ 77.612057360838477, 13.033413236728403 ], [ 77.612153454473145, 13.033295952079689 ], [ 77.612570574014455, 13.032764372829364 ], [ 77.613018620208706, 13.032216671311057 ], [ 77.61367064495515, 13.031406048598699 ], [ 77.614240346141486, 13.030708053978769 ], [ 77.614904135223497, 13.02986682039538 ], [ 77.615471562070624, 13.029172235022299 ], [ 77.615759008504241, 13.028796672572801 ], [ 77.616452452436889, 13.028044749952061 ], [ 77.617245753796837, 13.027443942761266 ], [ 77.618216114304872, 13.026989542572975 ], [ 77.619483101275833, 13.026460431669349 ], [ 77.620022079997725, 13.026249415625061 ], [ 77.620244783498464, 13.027026398287516 ], [ 77.620366524107595, 13.027012020412883 ], [ 77.622210218323275, 13.026730432635965 ], [ 77.623926186932934, 13.026474030418964 ], [ 77.625289458219129, 13.026292899114713 ], [ 77.627005668757931, 13.026060376617282 ], [ 77.629025872931663, 13.025759026597239 ], [ 77.630536891606127, 13.025532121625458 ] ] ] } }
]
}
