{
"type": "FeatureCollection",
"name": "wards_in_police_area.writing_20260805_172659",
"crs": { "type": "name", "properties": { "name": "urn:ogc:def:crs:OGC:1.3:CRS84" } },
"features": [
{ "type": "Feature", "properties": { "KGISWardID": 4894, "KGISWardCode": "2003009", "KGISWardName": "Vidyaranyapura", "SHAPE.STArea()": 10574864.580234431, "SHAPE.STLength()": 18274.162893429886, "OBJECTID": 18852, "KGISWardNo": "9", "KGISTownCode": "2003", "LGD_WardCode": 1303147, "created_user": "SA", "created_date": 1634898537000, "last_edited_user": "SURESHBV1", "last_edited_date": 1692254014000, "_overlap_percent": 0.28914488922648685, "_police_station": "Yelahanka New Town PS", "_police_feature_index": "756", "_admin_layer": "Ward", "_geometry_clipped": true }, "geometry": { "type": "MultiPolygon", "coordinates": [ [ [ [ 77.561057999769446, 13.093815000208783 ], [ 77.561003999733458, 13.0938049996504 ], [ 77.561177999948129, 13.094033000351565 ], [ 77.561259000362227, 13.094199000426437 ], [ 77.561330999544339, 13.094538000078074 ], [ 77.561484999677319, 13.095036999781996 ], [ 77.561679000360712, 13.095584999673042 ], [ 77.561728999561979, 13.095757000113174 ], [ 77.561792999927761, 13.095882999634531 ], [ 77.562287999962905, 13.096799000325436 ], [ 77.562544999908695, 13.097259000258971 ], [ 77.562735000303419, 13.09760199992157 ], [ 77.562789000344566, 13.097673999972395 ], [ 77.562845000434763, 13.097714999989943 ], [ 77.56289499986157, 13.097736000403328 ], [ 77.56307999958257, 13.097721999616155 ], [ 77.56330900000664, 13.097687999697404 ], [ 77.563789999934087, 13.09761400021095 ], [ 77.564012999899347, 13.097593000356962 ], [ 77.564228999592714, 13.097602000248829 ], [ 77.56437100045423, 13.097608999598156 ], [ 77.56456899962194, 13.097635000454503 ], [ 77.564810000374493, 13.097667000400888 ], [ 77.565063000074858, 13.097701000192277 ], [ 77.565410000435037, 13.09774699973644 ], [ 77.566098000143768, 13.097817999578645 ], [ 77.566412999843152, 13.097848000053073 ], [ 77.566721999624846, 13.097874999904159 ], [ 77.566816999882775, 13.097880999586021 ], [ 77.567027000236791, 13.097897999895961 ], [ 77.567190999575558, 13.097911999797013 ], [ 77.567485999669884, 13.097937999790881 ], [ 77.56777899994681, 13.09796100004499 ], [ 77.568038999563541, 13.097981000451414 ], [ 77.568342999669071, 13.098010000447477 ], [ 77.568626999681285, 13.098029000397235 ], [ 77.568907999609436, 13.098051999658185 ], [ 77.56920899962347, 13.098077000040657 ], [ 77.569502000107065, 13.098101000189832 ], [ 77.569772000423455, 13.098122999603936 ], [ 77.569881000102924, 13.09812900039244 ], [ 77.56987699972737, 13.098065999807011 ], [ 77.56986101907296, 13.097906188476928 ], [ 77.569574468660093, 13.097908083699325 ], [ 77.568299148661893, 13.097798287864624 ], [ 77.566025657658457, 13.097555001209859 ], [ 77.565308760028245, 13.097501780258247 ], [ 77.56474429800484, 13.097450625476322 ], [ 77.563750040312385, 13.097400756761468 ], [ 77.563016778394612, 13.097533543860335 ], [ 77.562952275568364, 13.097486377463612 ], [ 77.562502313531866, 13.096716966348019 ], [ 77.561995049550873, 13.095712073078817 ], [ 77.561652676077571, 13.094934800726714 ], [ 77.561611099248296, 13.094840411333241 ], [ 77.56154774251867, 13.094550211601781 ], [ 77.561672244486644, 13.094504155416656 ], [ 77.561636956446577, 13.094334191471207 ], [ 77.561503063499288, 13.094356437474577 ], [ 77.56137355735865, 13.09391849157584 ], [ 77.561252089503924, 13.093784082810085 ], [ 77.561057999769446, 13.093815000208783 ] ] ], [ [ [ 77.560622761914217, 13.093174470981889 ], [ 77.560385011526506, 13.092945265589048 ], [ 77.560217025283251, 13.092797881235244 ], [ 77.560622761914217, 13.093174470981889 ] ] ], [ [ [ 77.577762999635681, 13.090991999995385 ], [ 77.57788599985993, 13.090961999579628 ], [ 77.577948000223415, 13.090947999878042 ], [ 77.578048000087108, 13.090923000371541 ], [ 77.578154999856167, 13.090898000414969 ], [ 77.578247999595334, 13.090875999766581 ], [ 77.57838700029022, 13.090841999552806 ], [ 77.578473000321708, 13.090821000258474 ], [ 77.578515000009133, 13.09081100026682 ], [ 77.578585000303505, 13.090793999620983 ], [ 77.578695999619768, 13.090768000016446 ], [ 77.578778999872981, 13.090748000013184 ], [ 77.578889999784494, 13.090721000220187 ], [ 77.578974999972843, 13.090701000035539 ], [ 77.579036999890846, 13.090685999992077 ], [ 77.579106000108922, 13.090669000183624 ], [ 77.579147999726203, 13.090659000098185 ], [ 77.579275000333269, 13.090621999887471 ], [ 77.579451999841865, 13.09055599969153 ], [ 77.579564999998013, 13.090506999895842 ], [ 77.579620999550357, 13.090484000177945 ], [ 77.579699999844138, 13.090458000437218 ], [ 77.579790000016104, 13.090421999808068 ], [ 77.579864000428557, 13.090393000033639 ], [ 77.579943999654532, 13.090360000339953 ], [ 77.580015000328132, 13.090331999925208 ], [ 77.580102999780294, 13.090297000350363 ], [ 77.580172000438111, 13.090269000031681 ], [ 77.580204765651189, 13.090255796100305 ], [ 77.579072519099995, 13.090659500191677 ], [ 77.578355091459585, 13.090845949496268 ], [ 77.577649480712182, 13.090996425001858 ], [ 77.577652001021107, 13.091018311140914 ], [ 77.577762999635681, 13.090991999995385 ] ] ], [ [ [ 77.576040999721485, 13.092798999680248 ], [ 77.576020999889224, 13.092611000343689 ], [ 77.576014999588295, 13.092559999680978 ], [ 77.576001999775158, 13.092435999639831 ], [ 77.57598999966406, 13.092325000043928 ], [ 77.575984000059094, 13.092273000165921 ], [ 77.575970999928543, 13.092143999579642 ], [ 77.575959999792019, 13.092046999626991 ], [ 77.575958569508472, 13.092029477599954 ], [ 77.575947173512304, 13.092032323086801 ], [ 77.576033450684605, 13.09280112241629 ], [ 77.576040999721485, 13.092798999680248 ] ] ], [ [ [ 77.571600999899118, 13.094064000445726 ], [ 77.571604252279727, 13.094063060304039 ], [ 77.571588714672473, 13.094048136714681 ], [ 77.571600999899118, 13.094064000445726 ] ] ], [ [ [ 77.569754999833393, 13.096720000335132 ], [ 77.569748741548878, 13.096720552458599 ], [ 77.569763077632643, 13.09684278993184 ], [ 77.569783248580691, 13.097036384931833 ], [ 77.569754999833393, 13.096720000335132 ] ] ] ] } },
{ "type": "Feature", "properties": { "KGISWardID": 4883, "KGISWardCode": "2003004", "KGISWardName": "Yelahanka Satellite Town", "SHAPE.STArea()": 4437765.291121535, "SHAPE.STLength()": 10697.050783399243, "OBJECTID": 18847, "KGISWardNo": "4", "KGISTownCode": "2003", "LGD_WardCode": 1303142, "created_user": "SA", "created_date": 1634898537000, "last_edited_user": "SURESHBV1", "last_edited_date": 1692254014000, "_overlap_percent": 46.460163978858226, "_police_station": "Yelahanka New Town PS", "_police_feature_index": "756", "_admin_layer": "Ward", "_geometry_clipped": true }, "geometry": { "type": "Polygon", "coordinates": [ [ [ 77.56987699972737, 13.098065999807011 ], [ 77.569881000102924, 13.09812900039244 ], [ 77.57044399979921, 13.098159000283195 ], [ 77.570934999795057, 13.09822099968113 ], [ 77.572545999661003, 13.098456999729676 ], [ 77.572632000306925, 13.098483999885822 ], [ 77.573048000099462, 13.098550999726692 ], [ 77.573981000406746, 13.09872699964712 ], [ 77.574507999950768, 13.098826999651402 ], [ 77.575046000425246, 13.098925000401653 ], [ 77.576287999786643, 13.099159000045029 ], [ 77.576334000340026, 13.099173999878685 ], [ 77.576467999556471, 13.099217000272976 ], [ 77.57664300030234, 13.099272000326565 ], [ 77.577114000050926, 13.099418000106676 ], [ 77.57885499962191, 13.099923000158405 ], [ 77.580897000402203, 13.100510999907307 ], [ 77.581319999776042, 13.10063499975459 ], [ 77.582696999735674, 13.101053000223311 ], [ 77.583067999805451, 13.101158000202123 ], [ 77.583174000024414, 13.101188999671276 ], [ 77.584011000379022, 13.101433999795855 ], [ 77.584065000297102, 13.101450000187086 ], [ 77.584963000283111, 13.101713999638074 ], [ 77.585007000010037, 13.101727000444454 ], [ 77.58640399954227, 13.10216599984442 ], [ 77.587391000450523, 13.101364000015467 ], [ 77.58820099954805, 13.10068099993825 ], [ 77.588936999667908, 13.100063999874031 ], [ 77.5910959999689, 13.098270000116534 ], [ 77.59220800008174, 13.097239000400075 ], [ 77.59233099964969, 13.097122999962764 ], [ 77.592345358039282, 13.097109325380845 ], [ 77.592115840987773, 13.095942746541441 ], [ 77.592026467521166, 13.095441676390271 ], [ 77.591979764587307, 13.095173233892623 ], [ 77.591845414012056, 13.094568636426439 ], [ 77.591660798495766, 13.094054181392416 ], [ 77.591212756583715, 13.093183823939444 ], [ 77.591156782967516, 13.093096236974157 ], [ 77.590807324300258, 13.092997070988094 ], [ 77.590034674400385, 13.092565609673528 ], [ 77.589407741298544, 13.092368728112046 ], [ 77.588935012867751, 13.092343595607984 ], [ 77.587895758258568, 13.092360003938389 ], [ 77.587279655627867, 13.0923243548201 ], [ 77.586388279144771, 13.092198840907736 ], [ 77.58604701350761, 13.092211227478145 ], [ 77.585291675460638, 13.092269596160897 ], [ 77.58421609265595, 13.092310256891549 ], [ 77.584044727670161, 13.092246239407539 ], [ 77.584037703937398, 13.09222964232765 ], [ 77.583966470131827, 13.092011507238809 ], [ 77.583888219448113, 13.091767604182195 ], [ 77.583868218818893, 13.091704863195059 ], [ 77.583760877430919, 13.0913671795846 ], [ 77.583656233432777, 13.091035179458578 ], [ 77.583522665894421, 13.090805293342175 ], [ 77.583308101863167, 13.090449272271558 ], [ 77.583151533501336, 13.090169338253425 ], [ 77.58313996078158, 13.09014956865245 ], [ 77.583107625173966, 13.09016153328902 ], [ 77.583067278756715, 13.090112943190498 ], [ 77.582949087321367, 13.090155146518244 ], [ 77.582701916046872, 13.090243405811712 ], [ 77.582489570215913, 13.090319229104738 ], [ 77.581857673977737, 13.09052275884217 ], [ 77.581584170453681, 13.090597319108968 ], [ 77.581504910912884, 13.090328306672223 ], [ 77.581426176102141, 13.090061072307511 ], [ 77.581408634208657, 13.089957267779084 ], [ 77.581255248032264, 13.08998031653657 ], [ 77.580788045914645, 13.090075825495326 ], [ 77.580761199313613, 13.090073703650059 ], [ 77.580710021051274, 13.090076606266775 ], [ 77.58052545875664, 13.09015016334213 ], [ 77.58047023918887, 13.090167948917742 ], [ 77.580272699751049, 13.09023157410199 ], [ 77.580204765651189, 13.090255796100305 ], [ 77.580172000438111, 13.090269000031681 ], [ 77.580102999780294, 13.090297000350363 ], [ 77.580015000328132, 13.090331999925208 ], [ 77.579943999654532, 13.090360000339953 ], [ 77.579864000428557, 13.090393000033639 ], [ 77.579790000016104, 13.090421999808068 ], [ 77.579699999844138, 13.090458000437218 ], [ 77.579620999550357, 13.090484000177945 ], [ 77.579564999998013, 13.090506999895842 ], [ 77.579451999841865, 13.09055599969153 ], [ 77.579275000333269, 13.090621999887471 ], [ 77.579147999726203, 13.090659000098185 ], [ 77.579106000108922, 13.090669000183624 ], [ 77.579036999890846, 13.090685999992077 ], [ 77.578974999972843, 13.090701000035539 ], [ 77.578889999784494, 13.090721000220187 ], [ 77.578778999872981, 13.090748000013184 ], [ 77.578695999619768, 13.090768000016446 ], [ 77.578585000303505, 13.090793999620983 ], [ 77.578515000009133, 13.09081100026682 ], [ 77.578473000321708, 13.090821000258474 ], [ 77.57838700029022, 13.090841999552806 ], [ 77.578247999595334, 13.090875999766581 ], [ 77.578154999856167, 13.090898000414969 ], [ 77.578048000087108, 13.090923000371541 ], [ 77.577948000223415, 13.090947999878042 ], [ 77.57788599985993, 13.090961999579628 ], [ 77.577762999635681, 13.090991999995385 ], [ 77.577652001021107, 13.091018311140914 ], [ 77.577703095086406, 13.091462007470117 ], [ 77.577383628005848, 13.091518984144702 ], [ 77.576806553450282, 13.091718967115602 ], [ 77.576782387412138, 13.091740124117843 ], [ 77.576816908903822, 13.091835393750646 ], [ 77.576570434399429, 13.091876699951287 ], [ 77.575958569508472, 13.092029477599954 ], [ 77.575959999792019, 13.092046999626991 ], [ 77.575970999928543, 13.092143999579642 ], [ 77.575984000059094, 13.092273000165921 ], [ 77.57598999966406, 13.092325000043928 ], [ 77.576001999775158, 13.092435999639831 ], [ 77.576014999588295, 13.092559999680978 ], [ 77.576020999889224, 13.092611000343689 ], [ 77.576040999721485, 13.092798999680248 ], [ 77.576033450684605, 13.09280112241629 ], [ 77.5760593788915, 13.093032163693362 ], [ 77.575098668290266, 13.093274820456395 ], [ 77.57394307503003, 13.093537346466404 ], [ 77.5716444810014, 13.094101699260046 ], [ 77.571604252279727, 13.094063060304039 ], [ 77.571600999899118, 13.094064000445726 ], [ 77.571588714672473, 13.094048136714681 ], [ 77.571233137262567, 13.093706611075167 ], [ 77.570236895277262, 13.092464919837674 ], [ 77.570015535448007, 13.092265112565038 ], [ 77.569536774296026, 13.093363477224594 ], [ 77.569401508663219, 13.093723379477524 ], [ 77.56950224249033, 13.094618763533525 ], [ 77.569748741548878, 13.096720552458599 ], [ 77.569754999833393, 13.096720000335132 ], [ 77.569783248580691, 13.097036384931833 ], [ 77.569873865839639, 13.097906103509402 ], [ 77.56986101907296, 13.097906188476928 ], [ 77.56987699972737, 13.098065999807011 ] ] ] } },
{ "type": "Feature", "properties": { "KGISWardID": 4882, "KGISWardCode": "2003003", "KGISWardName": "Atturu", "SHAPE.STArea()": 8813568.2864073198, "SHAPE.STLength()": 20995.001881359498, "OBJECTID": 18846, "KGISWardNo": "3", "KGISTownCode": "2003", "LGD_WardCode": 1303141, "created_user": "SA", "created_date": 1634898537000, "last_edited_user": "SURESHBV1", "last_edited_date": 1692254014000, "_overlap_percent": 80.524793870483876, "_police_station": "Yelahanka New Town PS", "_police_feature_index": "756", "_admin_layer": "Ward", "_geometry_clipped": true }, "geometry": { "type": "Polygon", "coordinates": [ [ [ 77.54432600031393, 13.100779000349 ], [ 77.543867999954841, 13.100805999753812 ], [ 77.543837000164316, 13.101291000158009 ], [ 77.544150999817418, 13.10129200030312 ], [ 77.544795999551155, 13.101337999872154 ], [ 77.54569299980345, 13.101268999917693 ], [ 77.546329999669041, 13.101208000375902 ], [ 77.546654999780074, 13.101180999939313 ], [ 77.546992000026407, 13.101138999649637 ], [ 77.546985999780844, 13.101232999584749 ], [ 77.547028999851648, 13.101229999738669 ], [ 77.547529999744256, 13.101132999720434 ], [ 77.547874000005379, 13.101067000145443 ], [ 77.549057000135093, 13.101054999638347 ], [ 77.549138999969685, 13.101044000258733 ], [ 77.549539999889376, 13.101032999986309 ], [ 77.550196000366398, 13.101012999828102 ], [ 77.550961000254503, 13.100896000144701 ], [ 77.551562999911454, 13.100810999911802 ], [ 77.55167400001865, 13.100795000205482 ], [ 77.551698999668972, 13.100790999723229 ], [ 77.551816999928647, 13.10077400008832 ], [ 77.551882999852509, 13.100765000442692 ], [ 77.551997999912913, 13.100747999719816 ], [ 77.552120000134437, 13.100729999970833 ], [ 77.55218399992205, 13.100721000183199 ], [ 77.55233400003786, 13.100700000034239 ], [ 77.553831000357022, 13.100483000259514 ], [ 77.553890999840434, 13.100485000406021 ], [ 77.553916000074281, 13.100138000018893 ], [ 77.554422999997001, 13.100013000405887 ], [ 77.554440000363272, 13.100093999938 ], [ 77.554453999978733, 13.10016100039007 ], [ 77.554467999774531, 13.100229000057084 ], [ 77.554478999901633, 13.100283999854371 ], [ 77.554503000422727, 13.100400000228582 ], [ 77.554505000265237, 13.100408999577493 ], [ 77.554506000106343, 13.10041300009493 ], [ 77.554533999621697, 13.100548000190559 ], [ 77.554740000229756, 13.100544000391503 ], [ 77.556883000376956, 13.100114000109674 ], [ 77.556721000077474, 13.100392000231734 ], [ 77.556632999647903, 13.100563999631577 ], [ 77.556597000115445, 13.100683999961863 ], [ 77.55659999955661, 13.10078400037456 ], [ 77.557139999919883, 13.100868999629654 ], [ 77.55726500037332, 13.101196000262386 ], [ 77.557874999643033, 13.101723000358961 ], [ 77.558352999738347, 13.10230400013767 ], [ 77.558648000056351, 13.102661000267581 ], [ 77.559346000422238, 13.103326000104357 ], [ 77.559258000052964, 13.103413000062471 ], [ 77.55911299958801, 13.103524999943051 ], [ 77.558636000400654, 13.103752999556489 ], [ 77.559064000301277, 13.104630000198332 ], [ 77.559688000298252, 13.105906000352373 ], [ 77.560002000300443, 13.10655000011203 ], [ 77.560053000041421, 13.106550000119487 ], [ 77.560309000334954, 13.107049000148209 ], [ 77.559854000164776, 13.107219999812752 ], [ 77.558965999644656, 13.107450000071166 ], [ 77.559529999941532, 13.109373999905571 ], [ 77.559545000019895, 13.109426999855122 ], [ 77.560179999784523, 13.112182000274178 ], [ 77.561671999860266, 13.11398700017212 ], [ 77.561937999944107, 13.114831000327435 ], [ 77.562250999942449, 13.115538000407746 ], [ 77.562265000369763, 13.115571000411441 ], [ 77.562370999606571, 13.115918000211959 ], [ 77.562378999534886, 13.115967999562255 ], [ 77.562439000175956, 13.11642399997004 ], [ 77.562488999700406, 13.116451999690987 ], [ 77.56252100026019, 13.116642000386811 ], [ 77.562547999853464, 13.116804999842522 ], [ 77.562563000376215, 13.116890999602859 ], [ 77.56256500003704, 13.116905000289687 ], [ 77.562616000450021, 13.117208000147992 ], [ 77.562644000130817, 13.117370000335418 ], [ 77.562713999984837, 13.117782999867185 ], [ 77.562735000386795, 13.117917999726942 ], [ 77.562693000423579, 13.117980000440401 ], [ 77.562761999588673, 13.118236999965879 ], [ 77.562805000316771, 13.118276000038867 ], [ 77.562833999875721, 13.118373999969512 ], [ 77.562698999571424, 13.118416000153154 ], [ 77.562735000442913, 13.118544999923012 ], [ 77.562861999612281, 13.118562999577053 ], [ 77.562899999724621, 13.118683000040471 ], [ 77.56294200004929, 13.11881800033346 ], [ 77.562946000454346, 13.118829999827671 ], [ 77.562894999917503, 13.118878000061198 ], [ 77.563002999856366, 13.119748999880846 ], [ 77.562971999724297, 13.119793000178714 ], [ 77.563296999659201, 13.121017000358963 ], [ 77.563591999883883, 13.12153499960781 ], [ 77.563701000224469, 13.121760000145954 ], [ 77.563740999603993, 13.121823000050533 ], [ 77.563839999686095, 13.12206299974339 ], [ 77.56387099963743, 13.122129000181221 ], [ 77.563950999679363, 13.122294999937587 ], [ 77.564089000057237, 13.122626999907579 ], [ 77.564183999888158, 13.122852999659054 ], [ 77.564508521988856, 13.123620052520172 ], [ 77.564869140316617, 13.123660587023265 ], [ 77.565934491702805, 13.123500566524607 ], [ 77.566393285162192, 13.123645388717287 ], [ 77.567094701882269, 13.123668270965529 ], [ 77.567831567760877, 13.124168870719673 ], [ 77.568239953404444, 13.125330096669728 ], [ 77.568271751079337, 13.125320008047682 ], [ 77.568274000272126, 13.125303999620852 ], [ 77.568291000298132, 13.125272999919586 ], [ 77.568506540934351, 13.125245514987565 ], [ 77.568726129513436, 13.125175844919317 ], [ 77.568727239492745, 13.125202295045904 ], [ 77.569502000121332, 13.125018999972383 ], [ 77.569690000337999, 13.124981999999646 ], [ 77.56977899954525, 13.124993000317474 ], [ 77.570806000030501, 13.12529200036864 ], [ 77.570867999606449, 13.125275999713509 ], [ 77.571412999914685, 13.124995999861383 ], [ 77.571526000268719, 13.124981999964016 ], [ 77.571728000372048, 13.125002000336655 ], [ 77.574184000276986, 13.125304000031241 ], [ 77.574398000440169, 13.12495300019248 ], [ 77.575154000325824, 13.123613999618739 ], [ 77.574665999964026, 13.123398999951089 ], [ 77.574870000380045, 13.123027000335084 ], [ 77.57537099972798, 13.122028999855981 ], [ 77.575523999739687, 13.121696999781975 ], [ 77.574159999950012, 13.121205999637922 ], [ 77.574149999766078, 13.12118599995302 ], [ 77.574668999899359, 13.119901999809739 ], [ 77.574039999585878, 13.119599000093574 ], [ 77.574016999920033, 13.119518000072407 ], [ 77.57419400026977, 13.119122999628841 ], [ 77.574203999662259, 13.118405000448595 ], [ 77.574196000067985, 13.116551999552287 ], [ 77.574231999904853, 13.116552000023704 ], [ 77.574350999923297, 13.116549999593957 ], [ 77.574602999725926, 13.116546999594352 ], [ 77.574807000449781, 13.116541000313273 ], [ 77.5748300003997, 13.116295999680617 ], [ 77.574840999614537, 13.116181000208595 ], [ 77.574839999759888, 13.116121000166276 ], [ 77.574800000169432, 13.116123000237945 ], [ 77.574758000287716, 13.114876000183031 ], [ 77.574339999702403, 13.11482299977177 ], [ 77.573777000064567, 13.114757000449373 ], [ 77.573541999990113, 13.114739999782246 ], [ 77.573055999828696, 13.114707999809124 ], [ 77.572785999975295, 13.114690000293754 ], [ 77.572604999792446, 13.114682000345667 ], [ 77.572292999995668, 13.114671999849948 ], [ 77.572292999673067, 13.113319000414149 ], [ 77.57227799961359, 13.113267000042757 ], [ 77.572242999798675, 13.111960000065178 ], [ 77.572240000171519, 13.111940999946343 ], [ 77.572239999911744, 13.111939999839679 ], [ 77.572191000432966, 13.111942999960009 ], [ 77.571701000437415, 13.111938999694978 ], [ 77.571609000223091, 13.111942000016951 ], [ 77.571086000314196, 13.111946000161137 ], [ 77.571035999932363, 13.11194599978913 ], [ 77.57074799985466, 13.111939999736951 ], [ 77.57071800036077, 13.11127199965172 ], [ 77.571443999578719, 13.111225999846505 ], [ 77.572753000296359, 13.111203000254388 ], [ 77.57265500041126, 13.110770999864926 ], [ 77.572615000377553, 13.110530000051376 ], [ 77.57260099979473, 13.110425000167762 ], [ 77.572589999990129, 13.110347000353995 ], [ 77.572465999547447, 13.110370000193345 ], [ 77.572432000382491, 13.110357999704313 ], [ 77.572382000451555, 13.110151000406077 ], [ 77.572349999958092, 13.109964999766806 ], [ 77.572285000376354, 13.109544000348597 ], [ 77.572220000236911, 13.109008000027819 ], [ 77.572221999824862, 13.108825999888117 ], [ 77.572292999665976, 13.108194999624029 ], [ 77.572166000137045, 13.108121000393881 ], [ 77.572164000422475, 13.10803600021023 ], [ 77.572162999972818, 13.108002000151824 ], [ 77.572827000112525, 13.108030000161001 ], [ 77.572903000376002, 13.108029999900332 ], [ 77.573312000359721, 13.107907999741723 ], [ 77.573561999916294, 13.108594000409134 ], [ 77.574413999759614, 13.108222000420188 ], [ 77.574918999985755, 13.108001999807058 ], [ 77.575067000337043, 13.107979000312266 ], [ 77.575252999814253, 13.107950999731191 ], [ 77.575549000426818, 13.107908999823575 ], [ 77.575912999849749, 13.107857999807974 ], [ 77.575974000236087, 13.107849000431379 ], [ 77.576607999733639, 13.107681999806934 ], [ 77.577306000386201, 13.107328999911477 ], [ 77.577319999896176, 13.107351000394857 ], [ 77.577491999747835, 13.107571000208649 ], [ 77.57766999973876, 13.107799000277572 ], [ 77.57792099971843, 13.108119000202512 ], [ 77.578162000372799, 13.108428000219266 ], [ 77.578406999991898, 13.10873999993172 ], [ 77.578532999704038, 13.108893999642355 ], [ 77.579282000349224, 13.108395999779024 ], [ 77.579332999673341, 13.108360000265451 ], [ 77.579669999965859, 13.108705000315664 ], [ 77.579684000185139, 13.108342000248754 ], [ 77.579887999586063, 13.108374000295756 ], [ 77.580158999665287, 13.108423000218108 ], [ 77.580747000456796, 13.108512999966889 ], [ 77.580882000443836, 13.108019000142871 ], [ 77.580995999692703, 13.107736999572879 ], [ 77.581205000388437, 13.107239999641918 ], [ 77.58156100020436, 13.106844999700101 ], [ 77.581984000013932, 13.106304000435959 ], [ 77.58228000042817, 13.105942000265975 ], [ 77.583867999573783, 13.104312000433142 ], [ 77.584611000369634, 13.103623000280219 ], [ 77.585411000448119, 13.102960000337356 ], [ 77.58640399954227, 13.10216599984442 ], [ 77.585007000010037, 13.101727000444454 ], [ 77.584963000283111, 13.101713999638074 ], [ 77.584065000297102, 13.101450000187086 ], [ 77.584011000379022, 13.101433999795855 ], [ 77.583174000024414, 13.101188999671276 ], [ 77.583067999805451, 13.101158000202123 ], [ 77.582696999735674, 13.101053000223311 ], [ 77.581319999776042, 13.10063499975459 ], [ 77.580897000402203, 13.100510999907307 ], [ 77.57885499962191, 13.099923000158405 ], [ 77.577114000050926, 13.099418000106676 ], [ 77.57664300030234, 13.099272000326565 ], [ 77.576467999556471, 13.099217000272976 ], [ 77.576334000340026, 13.099173999878685 ], [ 77.576287999786643, 13.099159000045029 ], [ 77.575046000425246, 13.098925000401653 ], [ 77.574507999950768, 13.098826999651402 ], [ 77.573981000406746, 13.09872699964712 ], [ 77.573048000099462, 13.098550999726692 ], [ 77.572632000306925, 13.098483999885822 ], [ 77.572545999661003, 13.098456999729676 ], [ 77.570934999795057, 13.09822099968113 ], [ 77.57044399979921, 13.098159000283195 ], [ 77.569881000102924, 13.09812900039244 ], [ 77.569772000423455, 13.098122999603936 ], [ 77.569502000107065, 13.098101000189832 ], [ 77.56920899962347, 13.098077000040657 ], [ 77.568907999609436, 13.098051999658185 ], [ 77.568626999681285, 13.098029000397235 ], [ 77.568342999669071, 13.098010000447477 ], [ 77.568038999563541, 13.097981000451414 ], [ 77.56777899994681, 13.09796100004499 ], [ 77.567485999669884, 13.097937999790881 ], [ 77.567190999575558, 13.097911999797013 ], [ 77.567027000236791, 13.097897999895961 ], [ 77.566816999882775, 13.097880999586021 ], [ 77.566721999624846, 13.097874999904159 ], [ 77.566412999843152, 13.097848000053073 ], [ 77.566098000143768, 13.097817999578645 ], [ 77.565410000435037, 13.09774699973644 ], [ 77.565063000074858, 13.097701000192277 ], [ 77.564810000374493, 13.097667000400888 ], [ 77.56456899962194, 13.097635000454503 ], [ 77.56437100045423, 13.097608999598156 ], [ 77.564228999592714, 13.097602000248829 ], [ 77.564012999899347, 13.097593000356962 ], [ 77.563789999934087, 13.09761400021095 ], [ 77.56330900000664, 13.097687999697404 ], [ 77.56307999958257, 13.097721999616155 ], [ 77.56289499986157, 13.097736000403328 ], [ 77.562845000434763, 13.097714999989943 ], [ 77.562789000344566, 13.097673999972395 ], [ 77.562735000303419, 13.09760199992157 ], [ 77.562544999908695, 13.097259000258971 ], [ 77.562287999962905, 13.096799000325436 ], [ 77.561792999927761, 13.095882999634531 ], [ 77.561728999561979, 13.095757000113174 ], [ 77.561679000360712, 13.095584999673042 ], [ 77.561484999677319, 13.095036999781996 ], [ 77.561330999544339, 13.094538000078074 ], [ 77.561259000362227, 13.094199000426437 ], [ 77.561177999948129, 13.094033000351565 ], [ 77.561003999733458, 13.0938049996504 ], [ 77.561057999769446, 13.093815000208783 ], [ 77.561252089503924, 13.093784082810085 ], [ 77.561231715079529, 13.093761537740516 ], [ 77.560622761914217, 13.093174470981889 ], [ 77.560217025283251, 13.092797881235244 ], [ 77.559745178396611, 13.092383901809676 ], [ 77.559647052954361, 13.092303961053675 ], [ 77.559579485420372, 13.092413070164527 ], [ 77.559336127401238, 13.09222545028832 ], [ 77.558608528508415, 13.09154782515254 ], [ 77.558283929585087, 13.091285712793599 ], [ 77.557848978223632, 13.090963739486281 ], [ 77.55705363304898, 13.090455303135171 ], [ 77.556821546811719, 13.090296253032738 ], [ 77.55669974028396, 13.090189892860147 ], [ 77.556409464130738, 13.089708716793693 ], [ 77.556104485425152, 13.089220514290455 ], [ 77.555863089934647, 13.088867933581852 ], [ 77.555700901669979, 13.088392657587926 ], [ 77.555673229519755, 13.088192138447766 ], [ 77.555676921111655, 13.087840714682812 ], [ 77.555726940693631, 13.087370507579745 ], [ 77.555737910769309, 13.087015425895647 ], [ 77.555700410084199, 13.086571184709364 ], [ 77.555196053985625, 13.086612036215259 ], [ 77.55423902636602, 13.086739838308565 ], [ 77.553949202045317, 13.086774978297935 ], [ 77.553811802300373, 13.086752434971824 ], [ 77.553130632495368, 13.086878835552385 ], [ 77.55240761373841, 13.086998584411262 ], [ 77.552450208092694, 13.087227640544199 ], [ 77.552628014226798, 13.087192626752806 ], [ 77.552825117100241, 13.088321934452651 ], [ 77.552915536272522, 13.088518246548208 ], [ 77.55298649953798, 13.088601208594046 ], [ 77.55300247806683, 13.088672762151218 ], [ 77.552917782826611, 13.088736348087139 ], [ 77.552567675654061, 13.088778657148424 ], [ 77.552385171245263, 13.088816318634018 ], [ 77.552018962394541, 13.088775122751384 ], [ 77.551764879604718, 13.088670068470309 ], [ 77.551458891552343, 13.088556564164508 ], [ 77.551175529594943, 13.088568331088071 ], [ 77.550692789652345, 13.088755373078575 ], [ 77.548763341789126, 13.089018864947541 ], [ 77.54869780933096, 13.088693222570706 ], [ 77.54735827725311, 13.088975376050145 ], [ 77.547126890488144, 13.087815923947614 ], [ 77.546667512152041, 13.088318859007424 ], [ 77.546600929657401, 13.088602779589809 ], [ 77.546438164039955, 13.089493617636494 ], [ 77.546315997640406, 13.090419911363947 ], [ 77.546139227214766, 13.091371843251379 ], [ 77.546025407143958, 13.092398450637715 ], [ 77.546014993146386, 13.093520849879059 ], [ 77.546064428564975, 13.094771738794996 ], [ 77.546079464178121, 13.09481103170492 ], [ 77.546004100103758, 13.09539674828982 ], [ 77.54598315584667, 13.095731612486041 ], [ 77.545835792072282, 13.096223100179344 ], [ 77.545902279759588, 13.096760285182004 ], [ 77.546045482848555, 13.097643320648711 ], [ 77.546426174910124, 13.099091731087963 ], [ 77.54684057717931, 13.100481820288607 ], [ 77.545648984743863, 13.100809126172669 ], [ 77.545555340814232, 13.100714435422718 ], [ 77.545276276701088, 13.100612013759287 ], [ 77.544867748898227, 13.100726007303312 ], [ 77.544628878687263, 13.1007379273072 ], [ 77.544389616359609, 13.100711604817109 ], [ 77.544249855623193, 13.100453464875335 ], [ 77.54432600031393, 13.100779000349 ] ] ] } },
{ "type": "Feature", "properties": { "KGISWardID": 4878, "KGISWardCode": "2003001", "KGISWardName": "Kempegowda Ward", "SHAPE.STArea()": 10716222.445726531, "SHAPE.STLength()": 21217.843000180757, "OBJECTID": 18844, "KGISWardNo": "1", "KGISTownCode": "2003", "LGD_WardCode": 1303139, "created_user": "SA", "created_date": 1634898537000, "last_edited_user": "SURESHBV1", "last_edited_date": 1692254014000, "_overlap_percent": 1.9226008232279053, "_police_station": "Yelahanka New Town PS", "_police_feature_index": "756", "_admin_layer": "Ward", "_geometry_clipped": true }, "geometry": { "type": "MultiPolygon", "coordinates": [ [ [ [ 77.587650000417895, 13.133527999555193 ], [ 77.588570135942334, 13.13358402034924 ], [ 77.588558848455179, 13.133509401053118 ], [ 77.588539038093046, 13.133292712396489 ], [ 77.588404334032532, 13.131819255025501 ], [ 77.588371526566405, 13.131460384362663 ], [ 77.58835028266769, 13.130829551678291 ], [ 77.58826989868227, 13.129209717052209 ], [ 77.588164310288235, 13.127977369238575 ], [ 77.587883944912477, 13.126823270230952 ], [ 77.586167130891127, 13.12730426156706 ], [ 77.585720573606181, 13.127514319586345 ], [ 77.585706583257746, 13.127217085787173 ], [ 77.585648699069921, 13.126902000513505 ], [ 77.585646455576935, 13.126870036164455 ], [ 77.585646219428796, 13.126866672351911 ], [ 77.585646092714612, 13.126864869472655 ], [ 77.58560589430499, 13.126292229536356 ], [ 77.585600674402599, 13.126140896663371 ], [ 77.585595435902562, 13.125989017398483 ], [ 77.585612350862334, 13.1256578986651 ], [ 77.585641547452838, 13.125228537482771 ], [ 77.585946329130778, 13.122898472742676 ], [ 77.586052445226301, 13.121980499926774 ], [ 77.586184587669095, 13.120837383395603 ], [ 77.586479323123811, 13.11883332047444 ], [ 77.586609471907764, 13.11767223234046 ], [ 77.586878993468247, 13.115515969117949 ], [ 77.586973042827779, 13.114648859144292 ], [ 77.586998592858961, 13.11452962361062 ], [ 77.586968999625782, 13.114524999566402 ], [ 77.586854000009268, 13.115473000103481 ], [ 77.586507999895417, 13.118055999846012 ], [ 77.586206999753173, 13.120499000091058 ], [ 77.5858870000217, 13.122919999712323 ], [ 77.585523999569133, 13.125933999983271 ], [ 77.585511000310746, 13.126269000266761 ], [ 77.585505000318136, 13.126428000417365 ], [ 77.585510000437338, 13.126525999608276 ], [ 77.585526999875142, 13.126853000218604 ], [ 77.585556999819332, 13.127084999871826 ], [ 77.585682000021706, 13.127644000151941 ], [ 77.585989000098706, 13.128706999853657 ], [ 77.58613799999091, 13.129221999630463 ], [ 77.58604099974842, 13.129245999843645 ], [ 77.585966000125865, 13.129284999822312 ], [ 77.585672000258285, 13.130493999721425 ], [ 77.585691000291718, 13.130524999653032 ], [ 77.585412999939408, 13.131584000140226 ], [ 77.585537999702609, 13.131626999717973 ], [ 77.58536199996135, 13.132296999668279 ], [ 77.58523100029285, 13.132230000193889 ], [ 77.585193000315385, 13.132292999995011 ], [ 77.585166999679274, 13.132385000368981 ], [ 77.585166999594975, 13.132458000356104 ], [ 77.585165999964261, 13.132622999607351 ], [ 77.585166000303587, 13.132655000055415 ], [ 77.585166000037219, 13.132763999986253 ], [ 77.585100000432092, 13.132821999840967 ], [ 77.584980999845129, 13.132925000350982 ], [ 77.584937999662372, 13.132961999957278 ], [ 77.584840000046313, 13.133046999814258 ], [ 77.584818999716575, 13.133090000173796 ], [ 77.584756000404795, 13.133212999734408 ], [ 77.584735000318119, 13.133253999891075 ], [ 77.584708000422978, 13.133307000117755 ], [ 77.584671000459522, 13.133376000369276 ], [ 77.584715317946916, 13.133400063361627 ], [ 77.584743398749751, 13.133341270999132 ], [ 77.58478324449375, 13.13325784504298 ], [ 77.584899600969109, 13.133090669691642 ], [ 77.585194050183574, 13.13282006770187 ], [ 77.585206124061429, 13.132816291022422 ], [ 77.585600616392483, 13.132692887102939 ], [ 77.585894649516646, 13.132767851121169 ], [ 77.585747595836892, 13.133304613005178 ], [ 77.586213199759641, 13.133313481539545 ], [ 77.586791538660762, 13.133359610826473 ], [ 77.586855481183477, 13.133356332189051 ], [ 77.587090676557338, 13.133344271926275 ], [ 77.587273992072923, 13.133334871933595 ], [ 77.587323819600826, 13.13347938281399 ], [ 77.587340072832134, 13.133526519958364 ], [ 77.587650000417895, 13.133527999555193 ] ] ], [ [ [ 77.593269000421387, 13.099509999922507 ], [ 77.593332000103445, 13.099655000442764 ], [ 77.593441000272932, 13.099865000439838 ], [ 77.593467083962338, 13.09989189556614 ], [ 77.593247090155032, 13.099451801098265 ], [ 77.593152314681035, 13.099257065163071 ], [ 77.593269000421387, 13.099509999922507 ] ] ], [ [ [ 77.59233099964969, 13.097122999962764 ], [ 77.592367987364909, 13.097224344688795 ], [ 77.592345358039282, 13.097109325380845 ], [ 77.59233099964969, 13.097122999962764 ] ] ] ] } },
{ "type": "Feature", "properties": { "KGISWardID": 4879, "KGISWardCode": "2003002", "KGISWardName": "Chowdeshwari Ward", "SHAPE.STArea()": 6719021.2198569104, "SHAPE.STLength()": 16640.05067046668, "OBJECTID": 18845, "KGISWardNo": "2", "KGISTownCode": "2003", "LGD_WardCode": 1303140, "created_user": "SA", "created_date": 1634898537000, "last_edited_user": "SURESHBV1", "last_edited_date": 1692254014000, "_overlap_percent": 73.28782467009303, "_police_station": "Yelahanka New Town PS", "_police_feature_index": "756", "_admin_layer": "Ward", "_geometry_clipped": true }, "geometry": { "type": "Polygon", "coordinates": [ [ [ 77.59233099964969, 13.097122999962764 ], [ 77.59220800008174, 13.097239000400075 ], [ 77.5910959999689, 13.098270000116534 ], [ 77.588936999667908, 13.100063999874031 ], [ 77.58820099954805, 13.10068099993825 ], [ 77.587391000450523, 13.101364000015467 ], [ 77.58640399954227, 13.10216599984442 ], [ 77.585411000448119, 13.102960000337356 ], [ 77.584611000369634, 13.103623000280219 ], [ 77.583867999573783, 13.104312000433142 ], [ 77.58228000042817, 13.105942000265975 ], [ 77.581984000013932, 13.106304000435959 ], [ 77.58156100020436, 13.106844999700101 ], [ 77.581205000388437, 13.107239999641918 ], [ 77.580995999692703, 13.107736999572879 ], [ 77.580882000443836, 13.108019000142871 ], [ 77.580747000456796, 13.108512999966889 ], [ 77.580158999665287, 13.108423000218108 ], [ 77.579887999586063, 13.108374000295756 ], [ 77.579684000185139, 13.108342000248754 ], [ 77.579669999965859, 13.108705000315664 ], [ 77.579332999673341, 13.108360000265451 ], [ 77.579282000349224, 13.108395999779024 ], [ 77.578532999704038, 13.108893999642355 ], [ 77.578406999991898, 13.10873999993172 ], [ 77.578162000372799, 13.108428000219266 ], [ 77.57792099971843, 13.108119000202512 ], [ 77.57766999973876, 13.107799000277572 ], [ 77.577491999747835, 13.107571000208649 ], [ 77.577319999896176, 13.107351000394857 ], [ 77.577306000386201, 13.107328999911477 ], [ 77.576607999733639, 13.107681999806934 ], [ 77.575974000236087, 13.107849000431379 ], [ 77.575912999849749, 13.107857999807974 ], [ 77.575549000426818, 13.107908999823575 ], [ 77.575252999814253, 13.107950999731191 ], [ 77.575067000337043, 13.107979000312266 ], [ 77.574918999985755, 13.108001999807058 ], [ 77.574413999759614, 13.108222000420188 ], [ 77.573561999916294, 13.108594000409134 ], [ 77.573312000359721, 13.107907999741723 ], [ 77.572903000376002, 13.108029999900332 ], [ 77.572827000112525, 13.108030000161001 ], [ 77.572162999972818, 13.108002000151824 ], [ 77.572164000422475, 13.10803600021023 ], [ 77.572166000137045, 13.108121000393881 ], [ 77.572292999665976, 13.108194999624029 ], [ 77.572221999824862, 13.108825999888117 ], [ 77.572220000236911, 13.109008000027819 ], [ 77.572285000376354, 13.109544000348597 ], [ 77.572349999958092, 13.109964999766806 ], [ 77.572382000451555, 13.110151000406077 ], [ 77.572432000382491, 13.110357999704313 ], [ 77.572465999547447, 13.110370000193345 ], [ 77.572589999990129, 13.110347000353995 ], [ 77.57260099979473, 13.110425000167762 ], [ 77.572615000377553, 13.110530000051376 ], [ 77.57265500041126, 13.110770999864926 ], [ 77.572753000296359, 13.111203000254388 ], [ 77.571443999578719, 13.111225999846505 ], [ 77.57071800036077, 13.11127199965172 ], [ 77.57074799985466, 13.111939999736951 ], [ 77.571035999932363, 13.11194599978913 ], [ 77.571086000314196, 13.111946000161137 ], [ 77.571609000223091, 13.111942000016951 ], [ 77.571701000437415, 13.111938999694978 ], [ 77.572191000432966, 13.111942999960009 ], [ 77.572239999911744, 13.111939999839679 ], [ 77.572240000171519, 13.111940999946343 ], [ 77.572242999798675, 13.111960000065178 ], [ 77.57227799961359, 13.113267000042757 ], [ 77.572292999673067, 13.113319000414149 ], [ 77.572292999995668, 13.114671999849948 ], [ 77.572604999792446, 13.114682000345667 ], [ 77.572785999975295, 13.114690000293754 ], [ 77.573055999828696, 13.114707999809124 ], [ 77.573541999990113, 13.114739999782246 ], [ 77.573777000064567, 13.114757000449373 ], [ 77.574339999702403, 13.11482299977177 ], [ 77.574758000287716, 13.114876000183031 ], [ 77.574800000169432, 13.116123000237945 ], [ 77.574839999759888, 13.116121000166276 ], [ 77.574840999614537, 13.116181000208595 ], [ 77.5748300003997, 13.116295999680617 ], [ 77.574807000449781, 13.116541000313273 ], [ 77.574602999725926, 13.116546999594352 ], [ 77.574350999923297, 13.116549999593957 ], [ 77.574231999904853, 13.116552000023704 ], [ 77.574196000067985, 13.116551999552287 ], [ 77.574203999662259, 13.118405000448595 ], [ 77.57419400026977, 13.119122999628841 ], [ 77.574016999920033, 13.119518000072407 ], [ 77.574039999585878, 13.119599000093574 ], [ 77.574668999899359, 13.119901999809739 ], [ 77.574149999766078, 13.12118599995302 ], [ 77.574159999950012, 13.121205999637922 ], [ 77.575523999739687, 13.121696999781975 ], [ 77.57537099972798, 13.122028999855981 ], [ 77.574870000380045, 13.123027000335084 ], [ 77.574665999964026, 13.123398999951089 ], [ 77.575154000325824, 13.123613999618739 ], [ 77.574398000440169, 13.12495300019248 ], [ 77.574184000276986, 13.125304000031241 ], [ 77.571728000372048, 13.125002000336655 ], [ 77.571526000268719, 13.124981999964016 ], [ 77.571412999914685, 13.124995999861383 ], [ 77.570867999606449, 13.125275999713509 ], [ 77.571370000351365, 13.125376999598325 ], [ 77.572941000450143, 13.126027000050753 ], [ 77.572921999643313, 13.126036999642539 ], [ 77.571623999547754, 13.126028999853594 ], [ 77.571628999766645, 13.12647199987555 ], [ 77.572390000197288, 13.126466000033 ], [ 77.572459999675971, 13.126927999586544 ], [ 77.572503999690127, 13.127953000127629 ], [ 77.572522000017145, 13.128035999816611 ], [ 77.571352000425676, 13.130003000338666 ], [ 77.571298999630173, 13.130099000446544 ], [ 77.571277334885707, 13.130142812419074 ], [ 77.571856532640922, 13.130104561259905 ], [ 77.572379419784866, 13.130547523644752 ], [ 77.573391602334368, 13.131134985900752 ], [ 77.574219019692663, 13.131545015544045 ], [ 77.575252660119133, 13.131265751341072 ], [ 77.576288168019715, 13.131165740976884 ], [ 77.577202674314748, 13.131156577377753 ], [ 77.577356650808213, 13.13130443098389 ], [ 77.577882043170504, 13.131986389631292 ], [ 77.578567031519114, 13.133353969982197 ], [ 77.579065691632167, 13.134394744721801 ], [ 77.580384902447449, 13.137737779364866 ], [ 77.580440506571819, 13.137878682703203 ], [ 77.580921084738463, 13.139096491049163 ], [ 77.581331365499949, 13.138950114135387 ], [ 77.582236229796678, 13.139771658886396 ], [ 77.582400407446968, 13.139920717653906 ], [ 77.582413000016601, 13.13977800002583 ], [ 77.58244400033513, 13.139741000105595 ], [ 77.581093000085616, 13.13872900034691 ], [ 77.581305000198043, 13.138498999941534 ], [ 77.581465999605342, 13.138332000368218 ], [ 77.581553999953357, 13.138216000084389 ], [ 77.581586999614004, 13.13813800044611 ], [ 77.581603000075248, 13.138048999688774 ], [ 77.581690999626574, 13.13805000036219 ], [ 77.581686999998013, 13.138097000108738 ], [ 77.581711000027326, 13.138098000358573 ], [ 77.581976999561476, 13.138120000242861 ], [ 77.582437000398002, 13.138137999916603 ], [ 77.582837999840436, 13.138159000214001 ], [ 77.582890999799318, 13.13815799963576 ], [ 77.583205000401477, 13.137352999688085 ], [ 77.583256000214178, 13.137221999858014 ], [ 77.583354000128082, 13.136972000030394 ], [ 77.583373000121185, 13.136918999831982 ], [ 77.583430000166729, 13.136765999833868 ], [ 77.583487000114687, 13.136610000439191 ], [ 77.583500999796101, 13.136555999802885 ], [ 77.583550000067305, 13.136376999915289 ], [ 77.583567000155426, 13.136317000145789 ], [ 77.583592000459575, 13.136224999895243 ], [ 77.583611999632069, 13.136135000419728 ], [ 77.583632999824701, 13.136041999619168 ], [ 77.5837410001282, 13.135493999670105 ], [ 77.583751999569941, 13.135441000381061 ], [ 77.583774999637981, 13.135323999679409 ], [ 77.583798999839829, 13.135297999798683 ], [ 77.583968999545775, 13.135113000086017 ], [ 77.583987000410588, 13.1350070001362 ], [ 77.584001000269026, 13.134917000436038 ], [ 77.584031999930559, 13.13472400030774 ], [ 77.584076999968673, 13.134528000098527 ], [ 77.584092999763982, 13.134470999843396 ], [ 77.584097000159247, 13.134455999700531 ], [ 77.584103999919563, 13.134428999837066 ], [ 77.584124999587189, 13.134388999802786 ], [ 77.584189999753448, 13.13426600006235 ], [ 77.58425899975316, 13.134134999970541 ], [ 77.584280999537995, 13.134094999816526 ], [ 77.584290413440257, 13.134077069013397 ], [ 77.584331619660418, 13.133961897880647 ], [ 77.584332830467332, 13.133958507777292 ], [ 77.584367143639568, 13.133933620895204 ], [ 77.58441899969047, 13.133837000003618 ], [ 77.584494999843628, 13.133698000099228 ], [ 77.584505999698351, 13.133677999567091 ], [ 77.5845090000781, 13.133672000431282 ], [ 77.584580000429511, 13.133542000173859 ], [ 77.584602000122658, 13.133502000010136 ], [ 77.584671000459522, 13.133376000369276 ], [ 77.584708000422978, 13.133307000117755 ], [ 77.584735000318119, 13.133253999891075 ], [ 77.584756000404795, 13.133212999734408 ], [ 77.584818999716575, 13.133090000173796 ], [ 77.584840000046313, 13.133046999814258 ], [ 77.584937999662372, 13.132961999957278 ], [ 77.584980999845129, 13.132925000350982 ], [ 77.585100000432092, 13.132821999840967 ], [ 77.585166000037219, 13.132763999986253 ], [ 77.585166000303587, 13.132655000055415 ], [ 77.585165999964261, 13.132622999607351 ], [ 77.585166999594975, 13.132458000356104 ], [ 77.585166999679274, 13.132385000368981 ], [ 77.585193000315385, 13.132292999995011 ], [ 77.58523100029285, 13.132230000193889 ], [ 77.58536199996135, 13.132296999668279 ], [ 77.585537999702609, 13.131626999717973 ], [ 77.585412999939408, 13.131584000140226 ], [ 77.585691000291718, 13.130524999653032 ], [ 77.585672000258285, 13.130493999721425 ], [ 77.585966000125865, 13.129284999822312 ], [ 77.58604099974842, 13.129245999843645 ], [ 77.58613799999091, 13.129221999630463 ], [ 77.585989000098706, 13.128706999853657 ], [ 77.585682000021706, 13.127644000151941 ], [ 77.585556999819332, 13.127084999871826 ], [ 77.585526999875142, 13.126853000218604 ], [ 77.585510000437338, 13.126525999608276 ], [ 77.585505000318136, 13.126428000417365 ], [ 77.585511000310746, 13.126269000266761 ], [ 77.585523999569133, 13.125933999983271 ], [ 77.5858870000217, 13.122919999712323 ], [ 77.586206999753173, 13.120499000091058 ], [ 77.586507999895417, 13.118055999846012 ], [ 77.586854000009268, 13.115473000103481 ], [ 77.586968999625782, 13.114524999566402 ], [ 77.586998592858961, 13.11452962361062 ], [ 77.58710157236473, 13.114049044301821 ], [ 77.587255017568012, 13.113573200926274 ], [ 77.587441451718803, 13.113167041964466 ], [ 77.587859723016351, 13.111690320795349 ], [ 77.588173799354223, 13.111174438304337 ], [ 77.58921095782901, 13.108911125406689 ], [ 77.590741220747475, 13.105997463263545 ], [ 77.591937051160826, 13.103170824285009 ], [ 77.592486803144254, 13.102107574657452 ], [ 77.593536013500184, 13.100029788121624 ], [ 77.593467083962338, 13.09989189556614 ], [ 77.593441000272932, 13.099865000439838 ], [ 77.593332000103445, 13.099655000442764 ], [ 77.593269000421387, 13.099509999922507 ], [ 77.593152314681035, 13.099257065163071 ], [ 77.59297793118094, 13.098898757970918 ], [ 77.592606530266991, 13.098013292634041 ], [ 77.592398251583688, 13.097378169275975 ], [ 77.592387378164744, 13.097345010764053 ], [ 77.592382961531527, 13.097300454702381 ], [ 77.592367987364909, 13.097224344688795 ], [ 77.59233099964969, 13.097122999962764 ] ] ] } }
]
}
