{
"type": "FeatureCollection",
"name": "wards_in_police_area.writing_20260805_172659",
"crs": { "type": "name", "properties": { "name": "urn:ogc:def:crs:OGC:1.3:CRS84" } },
"features": [
{ "type": "Feature", "properties": { "KGISWardID": 3133, "KGISWardCode": "1803001", "KGISWardName": " ", "SHAPE.STArea()": 126812.91676872, "SHAPE.STLength()": 2165.9194588670762, "OBJECTID": 18404, "KGISWardNo": "1", "KGISTownCode": "1803", "LGD_WardCode": 25398, "created_user": "SA", "created_date": 1634898537000, "last_edited_user": "SURESHBV1", "last_edited_date": 1692254014000, "_overlap_percent": 99.999999999999943, "_police_station": "Koratagere PS", "_police_feature_index": "149", "_admin_layer": "Ward", "_geometry_clipped": true }, "geometry": { "type": "Polygon", "coordinates": [ [ [ 77.235213572102793, 13.518304358450679 ], [ 77.232545747469885, 13.516243356857926 ], [ 77.232181226598655, 13.515991215593552 ], [ 77.231410944393559, 13.515077181476114 ], [ 77.231254121175908, 13.515522535658784 ], [ 77.231136190100031, 13.515724111550131 ], [ 77.230956946416953, 13.51602412378697 ], [ 77.230725006532339, 13.515934430131807 ], [ 77.230620560513771, 13.516081927832616 ], [ 77.230553702502533, 13.516168265258305 ], [ 77.230191648165004, 13.515813071545159 ], [ 77.229963237343185, 13.516216451717057 ], [ 77.229667109619299, 13.516074550856315 ], [ 77.229514822735581, 13.516491931349989 ], [ 77.229581983804437, 13.516546169608445 ], [ 77.229804978666479, 13.516726255465517 ], [ 77.229842804980564, 13.516756802577518 ], [ 77.22994035343288, 13.516835579925628 ], [ 77.229959135210308, 13.516856732694631 ], [ 77.230043941137964, 13.516952241966953 ], [ 77.230218706671778, 13.51714906633873 ], [ 77.230217121914819, 13.517149555758801 ], [ 77.229802975089115, 13.517277344847018 ], [ 77.229803206229803, 13.517570165725779 ], [ 77.229861231171554, 13.517578679759374 ], [ 77.229885316131103, 13.517582212577306 ], [ 77.230098980596992, 13.51769937430614 ], [ 77.230496231446722, 13.51791594507336 ], [ 77.230653019780121, 13.518001422343081 ], [ 77.230896592633101, 13.518154280904824 ], [ 77.231174462513152, 13.518300531696482 ], [ 77.231885691402852, 13.518674868615552 ], [ 77.231961631152402, 13.51854481043663 ], [ 77.232016495009148, 13.518450847278782 ], [ 77.232056674848636, 13.518378839250301 ], [ 77.232081156071814, 13.518334966219969 ], [ 77.232289267880418, 13.517961999589231 ], [ 77.232359771234371, 13.517834776580452 ], [ 77.232372458154742, 13.517811882308015 ], [ 77.232426720651276, 13.517713965707559 ], [ 77.232480504459147, 13.517616910904318 ], [ 77.232492321294458, 13.517595587648742 ], [ 77.232513830827159, 13.517612028786315 ], [ 77.232825353808209, 13.517850142284004 ], [ 77.232853620583825, 13.517871747852267 ], [ 77.233201211856709, 13.518137430223099 ], [ 77.23326702042587, 13.518184147693553 ], [ 77.234105493044353, 13.518779391734855 ], [ 77.234669901188184, 13.519142073007814 ], [ 77.235120230571425, 13.519431646583071 ], [ 77.235237976270128, 13.519502676022164 ], [ 77.235269548755028, 13.519521723415972 ], [ 77.235443601425359, 13.519626720300002 ], [ 77.23552589611883, 13.519669790122219 ], [ 77.235628247165891, 13.519723357953296 ], [ 77.235653233809074, 13.519695222967162 ], [ 77.235654653663261, 13.519692499434186 ], [ 77.235688449156896, 13.519627701008742 ], [ 77.235835337279426, 13.519346055371228 ], [ 77.235877852265673, 13.519277101938023 ], [ 77.235992445081607, 13.519326034986074 ], [ 77.235992957362484, 13.519199688407868 ], [ 77.235993052457985, 13.519176520610905 ], [ 77.236265813741397, 13.518996645495472 ], [ 77.235213572102793, 13.518304358450679 ] ] ] } },
{ "type": "Feature", "properties": { "KGISWardID": 3121, "KGISWardCode": "1803003", "KGISWardName": " ", "SHAPE.STArea()": 98370.489860469999, "SHAPE.STLength()": 2572.534382942481, "OBJECTID": 18406, "KGISWardNo": "3", "KGISTownCode": "1803", "LGD_WardCode": 25400, "created_user": "SA", "created_date": 1634898537000, "last_edited_user": "SURESHBV1", "last_edited_date": 1692254014000, "_overlap_percent": 100.00000000000003, "_police_station": "Koratagere PS", "_police_feature_index": "149", "_admin_layer": "Ward", "_geometry_clipped": true }, "geometry": { "type": "Polygon", "coordinates": [ [ [ 77.234745468595293, 13.520623767017137 ], [ 77.235113318371944, 13.520678342422652 ], [ 77.235279808660124, 13.520724637322871 ], [ 77.235293446618641, 13.520657981254999 ], [ 77.235297606639122, 13.520637649754249 ], [ 77.2353362576997, 13.520448746678133 ], [ 77.235393610194137, 13.520168439215544 ], [ 77.235151230534996, 13.520118756553662 ], [ 77.235115675665583, 13.520111470059529 ], [ 77.234950997367548, 13.520077714577617 ], [ 77.234661297856036, 13.520008576071879 ], [ 77.234686120060786, 13.51988879766599 ], [ 77.234522704988862, 13.519833021161352 ], [ 77.234486787050315, 13.519820761582857 ], [ 77.234474460812564, 13.51981655411454 ], [ 77.234485201049381, 13.519782187619803 ], [ 77.234492684330803, 13.519758242710576 ], [ 77.234497237949199, 13.519743670075524 ], [ 77.234483414826968, 13.519738778374453 ], [ 77.234130766367869, 13.519613973356233 ], [ 77.234083426440122, 13.519597218935429 ], [ 77.234055201015892, 13.519649836419958 ], [ 77.23402002244957, 13.519715413300263 ], [ 77.234009030707341, 13.519752032039287 ], [ 77.233975046938681, 13.519865248777393 ], [ 77.233969481192446, 13.51988379009668 ], [ 77.23395768690439, 13.519923081672037 ], [ 77.233947093836804, 13.519997720222765 ], [ 77.233935997267082, 13.520075904548285 ], [ 77.233903069687116, 13.520071881794841 ], [ 77.233867263096471, 13.520067508822109 ], [ 77.233836648725998, 13.520063769033767 ], [ 77.23356082637433, 13.520030079943904 ], [ 77.23353684356988, 13.520024356241263 ], [ 77.233536646911588, 13.519995027430317 ], [ 77.233536482336007, 13.519970429681578 ], [ 77.233537675979392, 13.519932130892146 ], [ 77.233539339413099, 13.519878740186499 ], [ 77.233497882875639, 13.519847106585898 ], [ 77.233252209552418, 13.519659651260099 ], [ 77.232818508745396, 13.519387912290108 ], [ 77.232802981212885, 13.519380872424472 ], [ 77.232752773575669, 13.519352080892284 ], [ 77.232250722900602, 13.519064181854828 ], [ 77.232218011677674, 13.519035579373828 ], [ 77.232195910930614, 13.519016256434485 ], [ 77.232179740713818, 13.51898531970566 ], [ 77.23216289333719, 13.518947216079335 ], [ 77.232163030879576, 13.518928665347563 ], [ 77.232163144315606, 13.518913376897865 ], [ 77.232163706891583, 13.518837828370135 ], [ 77.232145999162441, 13.5188275268504 ], [ 77.232022813903569, 13.518755862933425 ], [ 77.231936894666745, 13.51870587890641 ], [ 77.231920302102537, 13.518696226165092 ], [ 77.231902140846103, 13.518685019626426 ], [ 77.231885691402852, 13.518674868615552 ], [ 77.231174462513152, 13.518300531696482 ], [ 77.230896592633101, 13.518154280904824 ], [ 77.230653019780121, 13.518001422343081 ], [ 77.230496231446722, 13.51791594507336 ], [ 77.230098980596992, 13.51769937430614 ], [ 77.229885316131103, 13.517582212577306 ], [ 77.229861231171554, 13.517578679759374 ], [ 77.229803206229803, 13.517570165725779 ], [ 77.229802975089115, 13.517277344847018 ], [ 77.229582104543212, 13.517345496534762 ], [ 77.2295795925493, 13.517372988084896 ], [ 77.228869476009464, 13.517008101721951 ], [ 77.228903377644912, 13.516449538877064 ], [ 77.228337260145238, 13.516340331617062 ], [ 77.228014838784446, 13.516278133522922 ], [ 77.228000689003593, 13.51640918072002 ], [ 77.227894884468313, 13.517389041333232 ], [ 77.228203024084422, 13.517407248923718 ], [ 77.228360999594344, 13.51741658347887 ], [ 77.228350603637651, 13.517702476244461 ], [ 77.228344861272504, 13.518208928796804 ], [ 77.228943716214175, 13.518170045788931 ], [ 77.228963091025392, 13.517668693171542 ], [ 77.229024894604606, 13.517684625928185 ], [ 77.22931209842659, 13.517758667985436 ], [ 77.229534910991859, 13.517863826381395 ], [ 77.22970879096647, 13.517700302973902 ], [ 77.229857973305613, 13.51783126905185 ], [ 77.229767620912483, 13.518658508380376 ], [ 77.229763966015554, 13.518748680745471 ], [ 77.229755697042179, 13.518952687202058 ], [ 77.229807414972726, 13.5189567410729 ], [ 77.229961091968264, 13.518968788363058 ], [ 77.229880004596964, 13.519313791092692 ], [ 77.229877740486003, 13.519318983585421 ], [ 77.229894198982151, 13.519403765610164 ], [ 77.229914733265915, 13.519509536779138 ], [ 77.229883044557113, 13.519591125040685 ], [ 77.22986081756892, 13.519648355958633 ], [ 77.229850681281292, 13.519674456972417 ], [ 77.229836439571827, 13.519711125351852 ], [ 77.229824337816879, 13.519741961676784 ], [ 77.229821721714558, 13.519748628399739 ], [ 77.230193537816618, 13.519691887962933 ], [ 77.230555760899591, 13.519620211586528 ], [ 77.230631349718294, 13.519605254557911 ], [ 77.230740429047486, 13.519579599321423 ], [ 77.231014536602132, 13.51951512678913 ], [ 77.231031682424671, 13.519611201419997 ], [ 77.231032972431279, 13.519618432440392 ], [ 77.231037652035894, 13.51964465536404 ], [ 77.231042610536733, 13.519676632766741 ], [ 77.231133748642051, 13.519669371401902 ], [ 77.23114524125937, 13.519668455718607 ], [ 77.231340868315357, 13.519664248892189 ], [ 77.231850693094572, 13.519653285866811 ], [ 77.231920698956657, 13.519651780719594 ], [ 77.231935757601761, 13.519701293144513 ], [ 77.232140935132605, 13.520375931557844 ], [ 77.232166227934215, 13.520376350309423 ], [ 77.23247915513673, 13.52038152340721 ], [ 77.232766269137386, 13.520406552956134 ], [ 77.232861828416688, 13.520435108009647 ], [ 77.232924424294723, 13.520466108572007 ], [ 77.232950211332181, 13.520480224411756 ], [ 77.232968682577507, 13.520495838645873 ], [ 77.232988605925499, 13.520510005881667 ], [ 77.233128868877372, 13.520680110671764 ], [ 77.233149275933073, 13.520704858569539 ], [ 77.233216160989798, 13.520766920634788 ], [ 77.233220226672415, 13.520769646727237 ], [ 77.233278703759652, 13.520808858062612 ], [ 77.233484964041466, 13.520812821770917 ], [ 77.233856660361539, 13.520659714039963 ], [ 77.233935928217363, 13.520630180325448 ], [ 77.23402490721702, 13.520611020211778 ], [ 77.234102723274745, 13.520594263921474 ], [ 77.234461887703901, 13.520592492284871 ], [ 77.234726511986821, 13.52062167629771 ], [ 77.234745468595293, 13.520623767017137 ] ] ] } },
{ "type": "Feature", "properties": { "KGISWardID": 3120, "KGISWardCode": "1803002", "KGISWardName": " ", "SHAPE.STArea()": 59089.016771545001, "SHAPE.STLength()": 1451.090545488596, "OBJECTID": 18405, "KGISWardNo": "2", "KGISTownCode": "1803", "LGD_WardCode": 25399, "created_user": "SA", "created_date": 1634898537000, "last_edited_user": "SURESHBV1", "last_edited_date": 1692254014000, "_overlap_percent": 100.0, "_police_station": "Koratagere PS", "_police_feature_index": "149", "_admin_layer": "Ward", "_geometry_clipped": true }, "geometry": { "type": "Polygon", "coordinates": [ [ [ 77.236226129665212, 13.520019537069286 ], [ 77.235818182951036, 13.519821796100118 ], [ 77.235793155935895, 13.519809664452197 ], [ 77.235733120591163, 13.519778244177639 ], [ 77.235628247165891, 13.519723357953296 ], [ 77.23552589611883, 13.519669790122219 ], [ 77.235443601425359, 13.519626720300002 ], [ 77.235269548755028, 13.519521723415972 ], [ 77.235237976270128, 13.519502676022164 ], [ 77.235120230571425, 13.519431646583071 ], [ 77.234669901188184, 13.519142073007814 ], [ 77.234105493044353, 13.518779391734855 ], [ 77.23326702042587, 13.518184147693553 ], [ 77.233201211856709, 13.518137430223099 ], [ 77.232853620583825, 13.517871747852267 ], [ 77.232825353808209, 13.517850142284004 ], [ 77.232513830827159, 13.517612028786315 ], [ 77.232492321294458, 13.517595587648742 ], [ 77.232480504459147, 13.517616910904318 ], [ 77.232426720651276, 13.517713965707559 ], [ 77.232372458154742, 13.517811882308015 ], [ 77.232359771234371, 13.517834776580452 ], [ 77.232289267880418, 13.517961999589231 ], [ 77.232081156071814, 13.518334966219969 ], [ 77.232056674848636, 13.518378839250301 ], [ 77.232016495009148, 13.518450847278782 ], [ 77.231961631152402, 13.51854481043663 ], [ 77.231885691402852, 13.518674868615552 ], [ 77.231902140846103, 13.518685019626426 ], [ 77.231920302102537, 13.518696226165092 ], [ 77.231936894666745, 13.51870587890641 ], [ 77.232022813903569, 13.518755862933425 ], [ 77.232145999162441, 13.5188275268504 ], [ 77.232163706891583, 13.518837828370135 ], [ 77.232163144315606, 13.518913376897865 ], [ 77.232163030879576, 13.518928665347563 ], [ 77.23216289333719, 13.518947216079335 ], [ 77.232179740713818, 13.51898531970566 ], [ 77.232195910930614, 13.519016256434485 ], [ 77.232218011677674, 13.519035579373828 ], [ 77.232250722900602, 13.519064181854828 ], [ 77.232752773575669, 13.519352080892284 ], [ 77.232802981212885, 13.519380872424472 ], [ 77.232818508745396, 13.519387912290108 ], [ 77.233252209552418, 13.519659651260099 ], [ 77.233497882875639, 13.519847106585898 ], [ 77.233539339413099, 13.519878740186499 ], [ 77.233537675979392, 13.519932130892146 ], [ 77.233536482336007, 13.519970429681578 ], [ 77.233536646911588, 13.519995027430317 ], [ 77.23353684356988, 13.520024356241263 ], [ 77.23356082637433, 13.520030079943904 ], [ 77.233836648725998, 13.520063769033767 ], [ 77.233867263096471, 13.520067508822109 ], [ 77.233903069687116, 13.520071881794841 ], [ 77.233935997267082, 13.520075904548285 ], [ 77.233947093836804, 13.519997720222765 ], [ 77.23395768690439, 13.519923081672037 ], [ 77.233969481192446, 13.51988379009668 ], [ 77.233975046938681, 13.519865248777393 ], [ 77.234009030707341, 13.519752032039287 ], [ 77.23402002244957, 13.519715413300263 ], [ 77.234055201015892, 13.519649836419958 ], [ 77.234083426440122, 13.519597218935429 ], [ 77.234130766367869, 13.519613973356233 ], [ 77.234483414826968, 13.519738778374453 ], [ 77.234497237949199, 13.519743670075524 ], [ 77.234492684330803, 13.519758242710576 ], [ 77.234485201049381, 13.519782187619803 ], [ 77.234474460812564, 13.51981655411454 ], [ 77.234486787050315, 13.519820761582857 ], [ 77.234522704988862, 13.519833021161352 ], [ 77.234686120060786, 13.51988879766599 ], [ 77.234661297856036, 13.520008576071879 ], [ 77.234950997367548, 13.520077714577617 ], [ 77.235115675665583, 13.520111470059529 ], [ 77.235151230534996, 13.520118756553662 ], [ 77.235393610194137, 13.520168439215544 ], [ 77.2353362576997, 13.520448746678133 ], [ 77.235297606639122, 13.520637649754249 ], [ 77.235293446618641, 13.520657981254999 ], [ 77.235279808660124, 13.520724637322871 ], [ 77.235290803634996, 13.520727694577182 ], [ 77.235363697322896, 13.520747964222936 ], [ 77.235455632003578, 13.520773527983563 ], [ 77.23590429723194, 13.520884280346186 ], [ 77.236160345152399, 13.520953433174602 ], [ 77.23631834829807, 13.520996106442301 ], [ 77.236374391669187, 13.520897175632305 ], [ 77.236416373744817, 13.520823066299924 ], [ 77.236464328448292, 13.520738414414508 ], [ 77.236462943968107, 13.520675256710229 ], [ 77.236462203831834, 13.520641464423635 ], [ 77.236461728807441, 13.520608471276885 ], [ 77.236461576590727, 13.520597800013594 ], [ 77.236461189453109, 13.520570860317035 ], [ 77.236459310742831, 13.520440386638599 ], [ 77.236463624180772, 13.520126341105229 ], [ 77.236226129665212, 13.520019537069286 ] ] ] } },
{ "type": "Feature", "properties": { "KGISWardID": 3128, "KGISWardCode": "1803011", "KGISWardName": " ", "SHAPE.STArea()": 32931.47878741, "SHAPE.STLength()": 955.30671055460607, "OBJECTID": 18414, "KGISWardNo": "11", "KGISTownCode": "1803", "LGD_WardCode": 25408, "created_user": "SA", "created_date": 1634898537000, "last_edited_user": "SURESHBV1", "last_edited_date": 1692254014000, "_overlap_percent": 99.999999999999929, "_police_station": "Koratagere PS", "_police_feature_index": "149", "_admin_layer": "Ward", "_geometry_clipped": true }, "geometry": { "type": "Polygon", "coordinates": [ [ [ 77.237967457646562, 13.521678987192773 ], [ 77.238445350831213, 13.521683543231665 ], [ 77.238764242067006, 13.521686582857603 ], [ 77.239019882192622, 13.521689019488802 ], [ 77.239117460052455, 13.521692648449797 ], [ 77.239142043658063, 13.521693561672789 ], [ 77.239233039339638, 13.52169694585392 ], [ 77.239323648870212, 13.521700316287406 ], [ 77.239446910998652, 13.521712454205618 ], [ 77.239472583715951, 13.521714982352293 ], [ 77.239497334867366, 13.521559104101097 ], [ 77.239504248489141, 13.521514572616381 ], [ 77.239526633879521, 13.521461300288529 ], [ 77.239523321438128, 13.521456471184001 ], [ 77.239518408013453, 13.521449307906494 ], [ 77.239084328958739, 13.521290667742951 ], [ 77.239054188557745, 13.521279652090003 ], [ 77.238943709913272, 13.521239274558672 ], [ 77.23849295542874, 13.521090755613937 ], [ 77.238293184289603, 13.521024933427986 ], [ 77.238146046148046, 13.520993962837517 ], [ 77.238067370779433, 13.520994314760827 ], [ 77.237984444746829, 13.520994684782606 ], [ 77.23798539255624, 13.520919556872194 ], [ 77.237985648002265, 13.520899343400874 ], [ 77.237992982862352, 13.520318172965267 ], [ 77.2379934870048, 13.52028839520106 ], [ 77.236874530463524, 13.520170487412699 ], [ 77.236728294432965, 13.520154776239094 ], [ 77.23653147903488, 13.520133631604098 ], [ 77.236475276437801, 13.520127593335324 ], [ 77.236463624180772, 13.520126341105229 ], [ 77.236459310742831, 13.520440386638599 ], [ 77.236461189453109, 13.520570860317035 ], [ 77.236461576590727, 13.520597800013594 ], [ 77.236461728807441, 13.520608471276885 ], [ 77.236462203831834, 13.520641464423635 ], [ 77.236462943968107, 13.520675256710229 ], [ 77.236464328448292, 13.520738414414508 ], [ 77.236416373744817, 13.520823066299924 ], [ 77.236374391669187, 13.520897175632305 ], [ 77.23631834829807, 13.520996106442301 ], [ 77.236331045992273, 13.5209995360871 ], [ 77.236349917040627, 13.521000768102615 ], [ 77.236354412565433, 13.521001061374783 ], [ 77.236393857704542, 13.521003637595671 ], [ 77.236414245013265, 13.521004560576984 ], [ 77.236510189318309, 13.521008910923026 ], [ 77.236607597958567, 13.521013325859014 ], [ 77.236812965059244, 13.521022635141792 ], [ 77.236812059923565, 13.52110326484382 ], [ 77.236810163971711, 13.52127226268488 ], [ 77.236824238415792, 13.521414589424865 ], [ 77.236866312197137, 13.521517130902119 ], [ 77.236892331566182, 13.521580544643902 ], [ 77.236893192457558, 13.521582643281711 ], [ 77.236895914036694, 13.52158927681012 ], [ 77.236921045681768, 13.521645637616816 ], [ 77.237074529751169, 13.52158937574303 ], [ 77.237173594652788, 13.521574622558308 ], [ 77.237213793380107, 13.521601725094373 ], [ 77.237269491677424, 13.521639274958554 ], [ 77.237285203767996, 13.521647262556357 ], [ 77.237295998825545, 13.521651948009218 ], [ 77.237305309640234, 13.521654733771314 ], [ 77.23731314606809, 13.521656576684846 ], [ 77.237321475445782, 13.521658893205268 ], [ 77.237330777327955, 13.521660722116085 ], [ 77.237342522579695, 13.521662530090666 ], [ 77.237354267831506, 13.521664338064666 ], [ 77.237367958100393, 13.521665171722756 ], [ 77.237378717444173, 13.521666031577913 ], [ 77.237393869645047, 13.521666375057583 ], [ 77.237811426292339, 13.521675556874419 ], [ 77.237871764981406, 13.52167688339784 ], [ 77.237967457646562, 13.521678987192773 ] ] ] } },
{ "type": "Feature", "properties": { "KGISWardID": 3122, "KGISWardCode": "1803004", "KGISWardName": " ", "SHAPE.STArea()": 87055.872794680006, "SHAPE.STLength()": 1635.5334044023864, "OBJECTID": 18407, "KGISWardNo": "4", "KGISTownCode": "1803", "LGD_WardCode": 25401, "created_user": "SA", "created_date": 1634898537000, "last_edited_user": "SURESHBV1", "last_edited_date": 1692254014000, "_overlap_percent": 100.0, "_police_station": "Koratagere PS", "_police_feature_index": "149", "_admin_layer": "Ward", "_geometry_clipped": true }, "geometry": { "type": "Polygon", "coordinates": [ [ [ 77.230863018540887, 13.522668037145406 ], [ 77.230805044957478, 13.522493554242084 ], [ 77.230793635921941, 13.522459218054973 ], [ 77.230754533787703, 13.522263461975587 ], [ 77.230734864574643, 13.52216499175533 ], [ 77.23071084425429, 13.522044737876822 ], [ 77.230702918613005, 13.522017039353564 ], [ 77.230642743702987, 13.521806733880545 ], [ 77.230613608938839, 13.521704910615648 ], [ 77.230747652334912, 13.521667854087461 ], [ 77.230935079876176, 13.521590872357814 ], [ 77.231093443704196, 13.521541644006854 ], [ 77.231358277681508, 13.521511788901357 ], [ 77.231683449125853, 13.521502959574825 ], [ 77.231751569316884, 13.521501109759953 ], [ 77.232345307928298, 13.521523787837371 ], [ 77.232370221101547, 13.521526862962778 ], [ 77.232533178370517, 13.521546977194122 ], [ 77.232665112843847, 13.521545800440176 ], [ 77.232779233442756, 13.52152087455903 ], [ 77.23286788989958, 13.52149043689224 ], [ 77.232994019931951, 13.521454547712423 ], [ 77.233021076801805, 13.521446848774975 ], [ 77.233016589549337, 13.521403537679227 ], [ 77.233004639310906, 13.521288146402071 ], [ 77.232993689779761, 13.521182427570098 ], [ 77.232994949018845, 13.521160181884939 ], [ 77.23299905821257, 13.521137049627518 ], [ 77.233007024193498, 13.521129111658221 ], [ 77.233028835952823, 13.521107378418217 ], [ 77.233170787730714, 13.521001392565934 ], [ 77.233198570373787, 13.520983184378746 ], [ 77.233233685114399, 13.520960172198491 ], [ 77.233340546539836, 13.520890138960148 ], [ 77.2334383864237, 13.520837758853187 ], [ 77.233484964041466, 13.520812821770917 ], [ 77.233278703759652, 13.520808858062612 ], [ 77.233220226672415, 13.520769646727237 ], [ 77.233216160989798, 13.520766920634788 ], [ 77.233149275933073, 13.520704858569539 ], [ 77.233128868877372, 13.520680110671764 ], [ 77.232988605925499, 13.520510005881667 ], [ 77.232968682577507, 13.520495838645873 ], [ 77.232950211332181, 13.520480224411756 ], [ 77.232924424294723, 13.520466108572007 ], [ 77.232861828416688, 13.520435108009647 ], [ 77.232766269137386, 13.520406552956134 ], [ 77.23247915513673, 13.52038152340721 ], [ 77.232166227934215, 13.520376350309423 ], [ 77.232140935132605, 13.520375931557844 ], [ 77.231935757601761, 13.519701293144513 ], [ 77.231920698956657, 13.519651780719594 ], [ 77.231850693094572, 13.519653285866811 ], [ 77.231340868315357, 13.519664248892189 ], [ 77.23114524125937, 13.519668455718607 ], [ 77.231133748642051, 13.519669371401902 ], [ 77.231042610536733, 13.519676632766741 ], [ 77.231037652035894, 13.51964465536404 ], [ 77.231032972431279, 13.519618432440392 ], [ 77.231031682424671, 13.519611201419997 ], [ 77.231014536602132, 13.51951512678913 ], [ 77.230740429047486, 13.519579599321423 ], [ 77.230631349718294, 13.519605254557911 ], [ 77.230555760899591, 13.519620211586528 ], [ 77.230193537816618, 13.519691887962933 ], [ 77.229821721714558, 13.519748628399739 ], [ 77.229824337816879, 13.519741961676784 ], [ 77.229836439571827, 13.519711125351852 ], [ 77.229850681281292, 13.519674456972417 ], [ 77.22986081756892, 13.519648355958633 ], [ 77.229883044557113, 13.519591125040685 ], [ 77.229914733265915, 13.519509536779138 ], [ 77.229894198982151, 13.519403765610164 ], [ 77.229877740486003, 13.519318983585421 ], [ 77.229704165562623, 13.51971701768095 ], [ 77.229490772796822, 13.519629261795275 ], [ 77.229397771549472, 13.519775091394303 ], [ 77.229581186076345, 13.519873869234734 ], [ 77.229738939197105, 13.519959392552217 ], [ 77.229802758854234, 13.519994028282067 ], [ 77.229513235963395, 13.521200728989683 ], [ 77.229412276900078, 13.52161434174457 ], [ 77.22936015997341, 13.52182785537436 ], [ 77.229305467610274, 13.522051920934526 ], [ 77.229253937721978, 13.522263032931953 ], [ 77.229249599167488, 13.522280808751185 ], [ 77.229308827051838, 13.522356264029527 ], [ 77.229327584913761, 13.522380156775194 ], [ 77.229755498277939, 13.522580830910769 ], [ 77.229878906365556, 13.522385476532877 ], [ 77.230573346802842, 13.522833546985245 ], [ 77.230667298686512, 13.522755007366957 ], [ 77.23073686468453, 13.522738984257332 ], [ 77.230863018540887, 13.522668037145406 ] ] ] } },
{ "type": "Feature", "properties": { "KGISWardID": 3131, "KGISWardCode": "1803013", "KGISWardName": " ", "SHAPE.STArea()": 113173.04154960001, "SHAPE.STLength()": 2505.8418730190579, "OBJECTID": 18416, "KGISWardNo": "13", "KGISTownCode": "1803", "LGD_WardCode": 1922503, "created_user": "SA", "created_date": 1634898537000, "last_edited_user": "SURESHBV1", "last_edited_date": 1692254014000, "_overlap_percent": 100.00000000000007, "_police_station": "Koratagere PS", "_police_feature_index": "149", "_admin_layer": "Ward", "_geometry_clipped": true }, "geometry": { "type": "Polygon", "coordinates": [ [ [ 77.242959161575314, 13.523082744190383 ], [ 77.24312013075297, 13.522897777712993 ], [ 77.243021045461632, 13.52291477171544 ], [ 77.242733096001203, 13.522897423784976 ], [ 77.242650771490588, 13.522778080225137 ], [ 77.2416815073165, 13.522874898952537 ], [ 77.241664986989434, 13.522730580685632 ], [ 77.241604540918374, 13.522202544738908 ], [ 77.241598295301046, 13.522148438934614 ], [ 77.241067855317567, 13.522150308051097 ], [ 77.241059833168464, 13.522150333792668 ], [ 77.240676728564154, 13.522151456673203 ], [ 77.240621332560906, 13.521730367439964 ], [ 77.24069550331032, 13.521728244157144 ], [ 77.240994552202309, 13.521719647396962 ], [ 77.240659978133252, 13.521024544976061 ], [ 77.240335711077265, 13.520923747558651 ], [ 77.240340146515535, 13.520905067186959 ], [ 77.240353870411781, 13.520847265706873 ], [ 77.240391579470298, 13.52068853353153 ], [ 77.24079781769403, 13.520808972776122 ], [ 77.240953046922641, 13.520681468383621 ], [ 77.240426334699961, 13.520244537541846 ], [ 77.239482787670312, 13.519679183445891 ], [ 77.239072687715762, 13.519535687021628 ], [ 77.238732568570725, 13.519416677358487 ], [ 77.238594556149621, 13.519405754239154 ], [ 77.237648989224908, 13.519544959139958 ], [ 77.237394897649622, 13.519547230133066 ], [ 77.23693450655901, 13.519436584946801 ], [ 77.236265813741397, 13.518996645495472 ], [ 77.235993052457985, 13.519176520610905 ], [ 77.235992957362484, 13.519199688407868 ], [ 77.235992445081607, 13.519326034986074 ], [ 77.235877852265673, 13.519277101938023 ], [ 77.235835337279426, 13.519346055371228 ], [ 77.235688449156896, 13.519627701008742 ], [ 77.235654653663261, 13.519692499434186 ], [ 77.235653233809074, 13.519695222967162 ], [ 77.235628247165891, 13.519723357953296 ], [ 77.235733120591163, 13.519778244177639 ], [ 77.235793155935895, 13.519809664452197 ], [ 77.235818182951036, 13.519821796100118 ], [ 77.236226129665212, 13.520019537069286 ], [ 77.236463624180772, 13.520126341105229 ], [ 77.236475276437801, 13.520127593335324 ], [ 77.23653147903488, 13.520133631604098 ], [ 77.236728294432965, 13.520154776239094 ], [ 77.236874530463524, 13.520170487412699 ], [ 77.2379934870048, 13.52028839520106 ], [ 77.237992982862352, 13.520318172965267 ], [ 77.237985648002265, 13.520899343400874 ], [ 77.23798539255624, 13.520919556872194 ], [ 77.237984444746829, 13.520994684782606 ], [ 77.238067370779433, 13.520994314760827 ], [ 77.238146046148046, 13.520993962837517 ], [ 77.238293184289603, 13.521024933427986 ], [ 77.23849295542874, 13.521090755613937 ], [ 77.238943709913272, 13.521239274558672 ], [ 77.239054188557745, 13.521279652090003 ], [ 77.239084328958739, 13.521290667742951 ], [ 77.239518408013453, 13.521449307906494 ], [ 77.239523321438128, 13.521456471184001 ], [ 77.239526633879521, 13.521461300288529 ], [ 77.239504248489141, 13.521514572616381 ], [ 77.239497334867366, 13.521559104101097 ], [ 77.239472583715951, 13.521714982352293 ], [ 77.23944366009907, 13.522156054590353 ], [ 77.239437414437887, 13.522272065121456 ], [ 77.239403115689527, 13.522393108576921 ], [ 77.239346649743865, 13.522495223528441 ], [ 77.23929070608618, 13.522561128636356 ], [ 77.239342037322146, 13.522551600705055 ], [ 77.239406466647026, 13.522543373347409 ], [ 77.23962405978935, 13.522508681219348 ], [ 77.23963879084053, 13.522508028924307 ], [ 77.240409661245238, 13.52246228812354 ], [ 77.240433988383401, 13.5225181423867 ], [ 77.240437518533213, 13.522524819224952 ], [ 77.240742862332496, 13.523102293261928 ], [ 77.240785377668061, 13.52317402017821 ], [ 77.240807113420829, 13.523210691249565 ], [ 77.241093765079597, 13.523694297288104 ], [ 77.241316175417538, 13.523648314954198 ], [ 77.241589333659149, 13.523594227017472 ], [ 77.241881230793993, 13.523558140817128 ], [ 77.242092253301195, 13.523548599577557 ], [ 77.242128785561917, 13.523544607245471 ], [ 77.242145372910457, 13.523541589671908 ], [ 77.242154639087232, 13.523539593708852 ], [ 77.24216633074569, 13.523535663969277 ], [ 77.242179968332366, 13.523530759868999 ], [ 77.242195564349757, 13.523526316234568 ], [ 77.242209685952119, 13.523520929784864 ], [ 77.242219916612044, 13.523517491143668 ], [ 77.242232567348125, 13.523511639858443 ], [ 77.242398484443441, 13.523434126006329 ], [ 77.242614242824175, 13.523304045030359 ], [ 77.242879612957879, 13.523133305805221 ], [ 77.242959161575314, 13.523082744190383 ] ] ] } },
{ "type": "Feature", "properties": { "KGISWardID": 3123, "KGISWardCode": "1803006", "KGISWardName": " ", "SHAPE.STArea()": 21168.861396, "SHAPE.STLength()": 811.19337468575122, "OBJECTID": 18409, "KGISWardNo": "6", "KGISTownCode": "1803", "LGD_WardCode": 25403, "created_user": "SA", "created_date": 1634898537000, "last_edited_user": "SURESHBV1", "last_edited_date": 1692254014000, "_overlap_percent": 99.999999999999972, "_police_station": "Koratagere PS", "_police_feature_index": "149", "_admin_layer": "Ward", "_geometry_clipped": true }, "geometry": { "type": "Polygon", "coordinates": [ [ [ 77.2353724099126, 13.521516919393182 ], [ 77.235564020534753, 13.521521902178748 ], [ 77.235847486547783, 13.52152510833413 ], [ 77.236067297916307, 13.521531481610976 ], [ 77.236077359335155, 13.521513561552752 ], [ 77.23631834829807, 13.520996106442301 ], [ 77.236160345152399, 13.520953433174602 ], [ 77.23590429723194, 13.520884280346186 ], [ 77.235455632003578, 13.520773527983563 ], [ 77.235363697322896, 13.520747964222936 ], [ 77.235290803634996, 13.520727694577182 ], [ 77.235279808660124, 13.520724637322871 ], [ 77.235113318371944, 13.520678342422652 ], [ 77.234745468595293, 13.520623767017137 ], [ 77.234726511986821, 13.52062167629771 ], [ 77.234661608678849, 13.52095997667738 ], [ 77.234583125775245, 13.521347753009112 ], [ 77.234582138140979, 13.521372865243816 ], [ 77.234584770976028, 13.521393164114283 ], [ 77.234594710677257, 13.521411005877971 ], [ 77.234602163372955, 13.521424089702586 ], [ 77.234608415739785, 13.52143957340899 ], [ 77.234606702080129, 13.521648786261617 ], [ 77.234589764152346, 13.52192866423232 ], [ 77.23454855798478, 13.522809437233839 ], [ 77.234888152539042, 13.522918024582182 ], [ 77.23494740370603, 13.522936971185731 ], [ 77.235031409249274, 13.522963832898434 ], [ 77.235041958073197, 13.522777654860851 ], [ 77.235039286147341, 13.522753172603208 ], [ 77.23503480352754, 13.52273109748733 ], [ 77.234971914001321, 13.522603151942503 ], [ 77.234951721341147, 13.522533998547397 ], [ 77.234942824863495, 13.522497019709816 ], [ 77.234941190702287, 13.522452804009408 ], [ 77.23494277193916, 13.522425892797944 ], [ 77.234951655426443, 13.522395928119 ], [ 77.235005329777366, 13.522256183249942 ], [ 77.235024217159065, 13.522185485411388 ], [ 77.235027087890813, 13.522165735605412 ], [ 77.235028791607135, 13.522124628366715 ], [ 77.235025980345725, 13.522085204220884 ], [ 77.235010636450909, 13.521880925679671 ], [ 77.235003932642556, 13.521686132973382 ], [ 77.235003419856639, 13.521631148783456 ], [ 77.235011848086913, 13.521617924079708 ], [ 77.235033939788352, 13.521609293357153 ], [ 77.235033872558759, 13.521606540633517 ], [ 77.235065923017075, 13.521596798090959 ], [ 77.235298216938546, 13.521526188907716 ], [ 77.2353724099126, 13.521516919393182 ] ] ] } },
{ "type": "Feature", "properties": { "KGISWardID": 3132, "KGISWardCode": "1803005", "KGISWardName": " ", "SHAPE.STArea()": 61747.599998714999, "SHAPE.STLength()": 1693.7888868619989, "OBJECTID": 18408, "KGISWardNo": "5", "KGISTownCode": "1803", "LGD_WardCode": 25402, "created_user": "SA", "created_date": 1634898537000, "last_edited_user": "SURESHBV1", "last_edited_date": 1692254014000, "_overlap_percent": 100.00000000000003, "_police_station": "Koratagere PS", "_police_feature_index": "149", "_admin_layer": "Ward", "_geometry_clipped": true }, "geometry": { "type": "Polygon", "coordinates": [ [ [ 77.23076177998081, 13.522733245596662 ], [ 77.230826165001886, 13.52275956890947 ], [ 77.231040455562706, 13.523140191977541 ], [ 77.231337678349249, 13.523570880517738 ], [ 77.23148707677359, 13.523542651376617 ], [ 77.231414662883836, 13.52331019109903 ], [ 77.231563810674217, 13.5232550679284 ], [ 77.231522271244131, 13.523058194357013 ], [ 77.23178761136289, 13.523016977357479 ], [ 77.232398492559284, 13.522994104965841 ], [ 77.232410747158227, 13.522941438451893 ], [ 77.232391738611, 13.52221240524003 ], [ 77.23221624756404, 13.522180537331957 ], [ 77.232043844455546, 13.522001598452885 ], [ 77.233663254631281, 13.521657147303781 ], [ 77.233758886309971, 13.522086643198525 ], [ 77.233784411269497, 13.522739471417756 ], [ 77.23387473711945, 13.522696295500911 ], [ 77.233969822718521, 13.522673929877358 ], [ 77.234056198497214, 13.522661440800196 ], [ 77.234207736277696, 13.522639529946662 ], [ 77.234372754311465, 13.522648815365979 ], [ 77.2344647431769, 13.522687442521722 ], [ 77.23454855798478, 13.522809437233839 ], [ 77.234589764152346, 13.52192866423232 ], [ 77.234606702080129, 13.521648786261617 ], [ 77.234608415739785, 13.52143957340899 ], [ 77.234602163372955, 13.521424089702586 ], [ 77.234594710677257, 13.521411005877971 ], [ 77.234584770976028, 13.521393164114283 ], [ 77.234582138140979, 13.521372865243816 ], [ 77.234583125775245, 13.521347753009112 ], [ 77.234661608678849, 13.52095997667738 ], [ 77.234726511986821, 13.52062167629771 ], [ 77.234461887703901, 13.520592492284871 ], [ 77.234102723274745, 13.520594263921474 ], [ 77.23402490721702, 13.520611020211778 ], [ 77.233935928217363, 13.520630180325448 ], [ 77.233856660361539, 13.520659714039963 ], [ 77.233484964041466, 13.520812821770917 ], [ 77.2334383864237, 13.520837758853187 ], [ 77.233340546539836, 13.520890138960148 ], [ 77.233233685114399, 13.520960172198491 ], [ 77.233198570373787, 13.520983184378746 ], [ 77.233170787730714, 13.521001392565934 ], [ 77.233028835952823, 13.521107378418217 ], [ 77.233007024193498, 13.521129111658221 ], [ 77.23299905821257, 13.521137049627518 ], [ 77.232994949018845, 13.521160181884939 ], [ 77.232993689779761, 13.521182427570098 ], [ 77.233004639310906, 13.521288146402071 ], [ 77.233016589549337, 13.521403537679227 ], [ 77.233021076801805, 13.521446848774975 ], [ 77.232994019931951, 13.521454547712423 ], [ 77.23286788989958, 13.52149043689224 ], [ 77.232779233442756, 13.52152087455903 ], [ 77.232665112843847, 13.521545800440176 ], [ 77.232533178370517, 13.521546977194122 ], [ 77.232370221101547, 13.521526862962778 ], [ 77.232345307928298, 13.521523787837371 ], [ 77.231751569316884, 13.521501109759953 ], [ 77.231683449125853, 13.521502959574825 ], [ 77.231358277681508, 13.521511788901357 ], [ 77.231093443704196, 13.521541644006854 ], [ 77.230935079876176, 13.521590872357814 ], [ 77.230747652334912, 13.521667854087461 ], [ 77.230613608938839, 13.521704910615648 ], [ 77.230642743702987, 13.521806733880545 ], [ 77.230702918613005, 13.522017039353564 ], [ 77.23071084425429, 13.522044737876822 ], [ 77.230734864574643, 13.52216499175533 ], [ 77.230754533787703, 13.522263461975587 ], [ 77.230793635921941, 13.522459218054973 ], [ 77.230805044957478, 13.522493554242084 ], [ 77.230863018540887, 13.522668037145406 ], [ 77.23073686468453, 13.522738984257332 ], [ 77.23076177998081, 13.522733245596662 ] ] ] } },
{ "type": "Feature", "properties": { "KGISWardID": 3126, "KGISWardCode": "1803009", "KGISWardName": " ", "SHAPE.STArea()": 25504.594796735, "SHAPE.STLength()": 671.41858573236414, "OBJECTID": 18412, "KGISWardNo": "9", "KGISTownCode": "1803", "LGD_WardCode": 25406, "created_user": "SA", "created_date": 1634898537000, "last_edited_user": "SURESHBV1", "last_edited_date": 1692254014000, "_overlap_percent": 99.999999999999986, "_police_station": "Koratagere PS", "_police_feature_index": "149", "_admin_layer": "Ward", "_geometry_clipped": true }, "geometry": { "type": "Polygon", "coordinates": [ [ [ 77.237347900390589, 13.523103540022587 ], [ 77.237344486299008, 13.523039258340972 ], [ 77.237314602460472, 13.522965930418604 ], [ 77.237310726388984, 13.522956419260566 ], [ 77.237296187728433, 13.522927930777783 ], [ 77.237265178221634, 13.522867169563977 ], [ 77.237246408583403, 13.522741102993949 ], [ 77.237245786310069, 13.522713918730366 ], [ 77.237245015449545, 13.522680216200516 ], [ 77.237243623862611, 13.522619494754732 ], [ 77.237195606012705, 13.522422680691507 ], [ 77.237192831114172, 13.52241192082832 ], [ 77.237186882709082, 13.522388854961855 ], [ 77.237178568554683, 13.522356615939932 ], [ 77.237131347431756, 13.522173510723244 ], [ 77.23710460844022, 13.522105835677158 ], [ 77.23703131141275, 13.521920331238546 ], [ 77.237020417218162, 13.521892758950115 ], [ 77.236989086265467, 13.521813463744149 ], [ 77.23693622712085, 13.521679684870481 ], [ 77.236921045681768, 13.521645637616816 ], [ 77.236895914036694, 13.52158927681012 ], [ 77.236893192457558, 13.521582643281711 ], [ 77.236892331566182, 13.521580544643902 ], [ 77.236866312197137, 13.521517130902119 ], [ 77.236824238415792, 13.521414589424865 ], [ 77.236810163971711, 13.52127226268488 ], [ 77.236812059923565, 13.52110326484382 ], [ 77.236812965059244, 13.521022635141792 ], [ 77.236607597958567, 13.521013325859014 ], [ 77.236510189318309, 13.521008910923026 ], [ 77.236414245013265, 13.521004560576984 ], [ 77.236393857704542, 13.521003637595671 ], [ 77.236354412565433, 13.521001061374783 ], [ 77.236349917040627, 13.521000768102615 ], [ 77.236331045992273, 13.5209995360871 ], [ 77.23631834829807, 13.520996106442301 ], [ 77.236077359335155, 13.521513561552752 ], [ 77.236067297916307, 13.521531481610976 ], [ 77.236026741569532, 13.521603716727229 ], [ 77.236003603750277, 13.521644927767417 ], [ 77.235984513553916, 13.521714837684177 ], [ 77.235972271712114, 13.521759676101972 ], [ 77.235967007556937, 13.521778952104983 ], [ 77.235920943807642, 13.521913289628563 ], [ 77.235919382043164, 13.521929508151265 ], [ 77.23591569442533, 13.521967802965838 ], [ 77.235916734029814, 13.521981138301911 ], [ 77.235919773096555, 13.522020119416473 ], [ 77.235940618772275, 13.522097378641536 ], [ 77.23599499924336, 13.522298933576741 ], [ 77.236014332802526, 13.522443054101579 ], [ 77.236097524058991, 13.522725785596997 ], [ 77.236107973296882, 13.522761298380166 ], [ 77.236201173442481, 13.523078041992013 ], [ 77.23622859079218, 13.523154588226419 ], [ 77.236243733625429, 13.523196864202305 ], [ 77.236435668723431, 13.523180373277798 ], [ 77.236775947594083, 13.523151136606508 ], [ 77.237126711625564, 13.523120998834562 ], [ 77.237168070631668, 13.523117445710406 ], [ 77.237168322486454, 13.523117714544215 ], [ 77.237347900390589, 13.523103540022587 ] ] ] } },
{ "type": "Feature", "properties": { "KGISWardID": 3129, "KGISWardCode": "1803012", "KGISWardName": " ", "SHAPE.STArea()": 18646.049586190002, "SHAPE.STLength()": 544.95960297589079, "OBJECTID": 18415, "KGISWardNo": "12", "KGISTownCode": "1803", "LGD_WardCode": 25409, "created_user": "SA", "created_date": 1634898537000, "last_edited_user": "SURESHBV1", "last_edited_date": 1692254014000, "_overlap_percent": 100.00000000000004, "_police_station": "Koratagere PS", "_police_feature_index": "149", "_admin_layer": "Ward", "_geometry_clipped": true }, "geometry": { "type": "Polygon", "coordinates": [ [ [ 77.239346649743865, 13.522495223528441 ], [ 77.239403115689527, 13.522393108576921 ], [ 77.239437414437887, 13.522272065121456 ], [ 77.23944366009907, 13.522156054590353 ], [ 77.239472583715951, 13.521714982352293 ], [ 77.239446910998652, 13.521712454205618 ], [ 77.239323648870212, 13.521700316287406 ], [ 77.239233039339638, 13.52169694585392 ], [ 77.239142043658063, 13.521693561672789 ], [ 77.239117460052455, 13.521692648449797 ], [ 77.239019882192622, 13.521689019488802 ], [ 77.238764242067006, 13.521686582857603 ], [ 77.238445350831213, 13.521683543231665 ], [ 77.237967457646562, 13.521678987192773 ], [ 77.237967918544484, 13.521689477672172 ], [ 77.237967945157877, 13.521690053037835 ], [ 77.237968247424547, 13.521696906976127 ], [ 77.237968235694709, 13.521701089921036 ], [ 77.237968205076072, 13.521712842628904 ], [ 77.237968156397983, 13.521731067198463 ], [ 77.237968123653673, 13.521743482276094 ], [ 77.237968074406325, 13.521762436972693 ], [ 77.237968073862604, 13.521762477640287 ], [ 77.237966928338096, 13.521910573430452 ], [ 77.237959973117967, 13.52280951335713 ], [ 77.237975988580359, 13.522808739431154 ], [ 77.238807947850191, 13.522768458972273 ], [ 77.238872606580372, 13.522810770726785 ], [ 77.238935472020685, 13.522851909344425 ], [ 77.239096191744963, 13.522722113896211 ], [ 77.239280186895343, 13.522573520051427 ], [ 77.23929070608618, 13.522561128636356 ], [ 77.239346649743865, 13.522495223528441 ] ] ] } },
{ "type": "Feature", "properties": { "KGISWardID": 3127, "KGISWardCode": "1803010", "KGISWardName": " ", "SHAPE.STArea()": 52747.658301155003, "SHAPE.STLength()": 1760.6430454350591, "OBJECTID": 18413, "KGISWardNo": "10", "KGISTownCode": "1803", "LGD_WardCode": 25407, "created_user": "SA", "created_date": 1634898537000, "last_edited_user": "SURESHBV1", "last_edited_date": 1692254014000, "_overlap_percent": 100.00000000000003, "_police_station": "Koratagere PS", "_police_feature_index": "149", "_admin_layer": "Ward", "_geometry_clipped": true }, "geometry": { "type": "Polygon", "coordinates": [ [ [ 77.240807113420829, 13.523210691249565 ], [ 77.240785377668061, 13.52317402017821 ], [ 77.240742862332496, 13.523102293261928 ], [ 77.240437518533213, 13.522524819224952 ], [ 77.240433988383401, 13.5225181423867 ], [ 77.240409661245238, 13.52246228812354 ], [ 77.23963879084053, 13.522508028924307 ], [ 77.23962405978935, 13.522508681219348 ], [ 77.239406466647026, 13.522543373347409 ], [ 77.239342037322146, 13.522551600705055 ], [ 77.23929070608618, 13.522561128636356 ], [ 77.239280186895343, 13.522573520051427 ], [ 77.239096191744963, 13.522722113896211 ], [ 77.238935472020685, 13.522851909344425 ], [ 77.238872606580372, 13.522810770726785 ], [ 77.238807947850191, 13.522768458972273 ], [ 77.237975988580359, 13.522808739431154 ], [ 77.237959973117967, 13.52280951335713 ], [ 77.237966928338096, 13.521910573430452 ], [ 77.237968073862604, 13.521762477640287 ], [ 77.237968074406325, 13.521762436972693 ], [ 77.237968123653673, 13.521743482276094 ], [ 77.237968156397983, 13.521731067198463 ], [ 77.237968205076072, 13.521712842628904 ], [ 77.237968235694709, 13.521701089921036 ], [ 77.237968247424547, 13.521696906976127 ], [ 77.237967945157877, 13.521690053037835 ], [ 77.237967918544484, 13.521689477672172 ], [ 77.237967457646562, 13.521678987192773 ], [ 77.237871764981406, 13.52167688339784 ], [ 77.237811426292339, 13.521675556874419 ], [ 77.237393869645047, 13.521666375057583 ], [ 77.237378717444173, 13.521666031577913 ], [ 77.237367958100393, 13.521665171722756 ], [ 77.237354267831506, 13.521664338064666 ], [ 77.237342522579695, 13.521662530090666 ], [ 77.237330777327955, 13.521660722116085 ], [ 77.237321475445782, 13.521658893205268 ], [ 77.23731314606809, 13.521656576684846 ], [ 77.237305309640234, 13.521654733771314 ], [ 77.237295998825545, 13.521651948009218 ], [ 77.237285203767996, 13.521647262556357 ], [ 77.237269491677424, 13.521639274958554 ], [ 77.237213793380107, 13.521601725094373 ], [ 77.237173594652788, 13.521574622558308 ], [ 77.237074529751169, 13.52158937574303 ], [ 77.236921045681768, 13.521645637616816 ], [ 77.23693622712085, 13.521679684870481 ], [ 77.236989086265467, 13.521813463744149 ], [ 77.237020417218162, 13.521892758950115 ], [ 77.23703131141275, 13.521920331238546 ], [ 77.23710460844022, 13.522105835677158 ], [ 77.237131347431756, 13.522173510723244 ], [ 77.237178568554683, 13.522356615939932 ], [ 77.237186882709082, 13.522388854961855 ], [ 77.237192831114172, 13.52241192082832 ], [ 77.237195606012705, 13.522422680691507 ], [ 77.237243623862611, 13.522619494754732 ], [ 77.237245015449545, 13.522680216200516 ], [ 77.237245786310069, 13.522713918730366 ], [ 77.237246408583403, 13.522741102993949 ], [ 77.237265178221634, 13.522867169563977 ], [ 77.237296187728433, 13.522927930777783 ], [ 77.237310726388984, 13.522956419260566 ], [ 77.237314602460472, 13.522965930418604 ], [ 77.237344486299008, 13.523039258340972 ], [ 77.237347900390589, 13.523103540022587 ], [ 77.237350459622434, 13.523151731415791 ], [ 77.237351245103156, 13.52316652292315 ], [ 77.237357086101397, 13.523276493257255 ], [ 77.237360459778927, 13.523340005416628 ], [ 77.237361088269679, 13.523351829946524 ], [ 77.237771095092711, 13.523346630064877 ], [ 77.237792466045391, 13.523346358564144 ], [ 77.237781545993073, 13.523767847736957 ], [ 77.237734819069004, 13.523773232711648 ], [ 77.237709369813771, 13.523776165682809 ], [ 77.237655600454133, 13.523782362707665 ], [ 77.237656239060215, 13.523927582608339 ], [ 77.237741119878791, 13.523929347482701 ], [ 77.238388641971639, 13.523942809430801 ], [ 77.238518133851585, 13.523941651241694 ], [ 77.238740783583424, 13.523188942001257 ], [ 77.239018542717758, 13.522875161747312 ], [ 77.239290240743372, 13.523050618627943 ], [ 77.239829730358053, 13.523519173606834 ], [ 77.239918549763146, 13.523571036887764 ], [ 77.240484909423699, 13.523901745322986 ], [ 77.240706824947409, 13.524031325793118 ], [ 77.24129392901942, 13.524495864083217 ], [ 77.241419842477086, 13.52463459961692 ], [ 77.241457194960972, 13.524709575894903 ], [ 77.241498917982042, 13.524859823839153 ], [ 77.241481230912584, 13.524928120191523 ], [ 77.241610505246598, 13.524943361060405 ], [ 77.241686709137255, 13.524952345327632 ], [ 77.24157426873056, 13.524676937838187 ], [ 77.241499538593246, 13.524480863265387 ], [ 77.241416978034295, 13.524274797035424 ], [ 77.241357245374573, 13.524170188345972 ], [ 77.241331361334133, 13.524124858116663 ], [ 77.241322586428396, 13.524109478571711 ], [ 77.241299439646511, 13.524068885870669 ], [ 77.24115986644631, 13.523824039107467 ], [ 77.241150600555926, 13.523803951600264 ], [ 77.24113133975834, 13.523767882810988 ], [ 77.241103743367518, 13.52371620372095 ], [ 77.241093765079597, 13.523694297288104 ], [ 77.240807113420829, 13.523210691249565 ] ] ] } },
{ "type": "Feature", "properties": { "KGISWardID": 3124, "KGISWardCode": "1803007", "KGISWardName": " ", "SHAPE.STArea()": 49383.09749511, "SHAPE.STLength()": 1295.9806702256199, "OBJECTID": 18410, "KGISWardNo": "7", "KGISTownCode": "1803", "LGD_WardCode": 25404, "created_user": "SA", "created_date": 1634898537000, "last_edited_user": "SURESHBV1", "last_edited_date": 1692254014000, "_overlap_percent": 100.00000000000009, "_police_station": "Koratagere PS", "_police_feature_index": "149", "_admin_layer": "Ward", "_geometry_clipped": true }, "geometry": { "type": "Polygon", "coordinates": [ [ [ 77.236579845136177, 13.524774290574481 ], [ 77.236377419649017, 13.524782375213826 ], [ 77.236329541935589, 13.524757699674117 ], [ 77.236296223256147, 13.524722134656635 ], [ 77.236125179935698, 13.524067382130694 ], [ 77.236099258482781, 13.524038922983539 ], [ 77.236044118645182, 13.524021485160766 ], [ 77.23601776126047, 13.523946409571467 ], [ 77.235913356812958, 13.523559191697412 ], [ 77.235823250197981, 13.523120084982381 ], [ 77.23622859079218, 13.523154588226419 ], [ 77.236201173442481, 13.523078041992013 ], [ 77.236107973296882, 13.522761298380166 ], [ 77.236097524058991, 13.522725785596997 ], [ 77.236014332802526, 13.522443054101579 ], [ 77.23599499924336, 13.522298933576741 ], [ 77.235940618772275, 13.522097378641536 ], [ 77.235919773096555, 13.522020119416473 ], [ 77.235916734029814, 13.521981138301911 ], [ 77.23591569442533, 13.521967802965838 ], [ 77.235919382043164, 13.521929508151265 ], [ 77.235920943807642, 13.521913289628563 ], [ 77.235967007556937, 13.521778952104983 ], [ 77.235972271712114, 13.521759676101972 ], [ 77.235984513553916, 13.521714837684177 ], [ 77.236003603750277, 13.521644927767417 ], [ 77.236026741569532, 13.521603716727229 ], [ 77.236067297916307, 13.521531481610976 ], [ 77.235847486547783, 13.52152510833413 ], [ 77.235564020534753, 13.521521902178748 ], [ 77.2353724099126, 13.521516919393182 ], [ 77.235298216938546, 13.521526188907716 ], [ 77.235065923017075, 13.521596798090959 ], [ 77.235033872558759, 13.521606540633517 ], [ 77.235033939788352, 13.521609293357153 ], [ 77.235011848086913, 13.521617924079708 ], [ 77.235003419856639, 13.521631148783456 ], [ 77.235003932642556, 13.521686132973382 ], [ 77.235010636450909, 13.521880925679671 ], [ 77.235025980345725, 13.522085204220884 ], [ 77.235028791607135, 13.522124628366715 ], [ 77.235027087890813, 13.522165735605412 ], [ 77.235024217159065, 13.522185485411388 ], [ 77.235005329777366, 13.522256183249942 ], [ 77.234951655426443, 13.522395928119 ], [ 77.23494277193916, 13.522425892797944 ], [ 77.234941190702287, 13.522452804009408 ], [ 77.234942824863495, 13.522497019709816 ], [ 77.234951721341147, 13.522533998547397 ], [ 77.234971914001321, 13.522603151942503 ], [ 77.23503480352754, 13.52273109748733 ], [ 77.235039286147341, 13.522753172603208 ], [ 77.235041958073197, 13.522777654860851 ], [ 77.235031409249274, 13.522963832898434 ], [ 77.235106468167757, 13.522962897864373 ], [ 77.235033988282026, 13.523444100837731 ], [ 77.235040531298253, 13.523503605281814 ], [ 77.235058018155073, 13.523662646702759 ], [ 77.235111644629157, 13.523842886833991 ], [ 77.234886225848413, 13.523857161066736 ], [ 77.235115582961882, 13.524542475004441 ], [ 77.235222307264351, 13.524523591328252 ], [ 77.235265844476459, 13.524606881079832 ], [ 77.235557260953968, 13.525396239121603 ], [ 77.236069339407067, 13.525938565619036 ], [ 77.236177526414409, 13.52593238047082 ], [ 77.236335325781155, 13.525903289792488 ], [ 77.236319356297557, 13.525772088163341 ], [ 77.236288722614617, 13.525520400064133 ], [ 77.236277876638184, 13.52544191122098 ], [ 77.23628588142526, 13.525371841896865 ], [ 77.236290088700926, 13.525335011724129 ], [ 77.236301867046265, 13.525282070173386 ], [ 77.236301885645545, 13.525281985067185 ], [ 77.236318229456174, 13.525208524948603 ], [ 77.23633157121661, 13.525186444213446 ], [ 77.236393321608446, 13.525084245408165 ], [ 77.236466892196219, 13.524981977104893 ], [ 77.236520018371152, 13.524914558763985 ], [ 77.236550146120592, 13.52487005927005 ], [ 77.236594609721081, 13.524790765292765 ], [ 77.236601407917689, 13.524772986415588 ], [ 77.236579845136177, 13.524774290574481 ] ] ] } },
{ "type": "Feature", "properties": { "KGISWardID": 3125, "KGISWardCode": "1803008", "KGISWardName": " ", "SHAPE.STArea()": 45437.871633235001, "SHAPE.STLength()": 1574.2695813824525, "OBJECTID": 18411, "KGISWardNo": "8", "KGISTownCode": "1803", "LGD_WardCode": 25405, "created_user": "SA", "created_date": 1634898537000, "last_edited_user": "SURESHBV1", "last_edited_date": 1692254014000, "_overlap_percent": 100.00000000000004, "_police_station": "Koratagere PS", "_police_feature_index": "149", "_admin_layer": "Ward", "_geometry_clipped": true }, "geometry": { "type": "Polygon", "coordinates": [ [ [ 77.237656239060215, 13.523927582608339 ], [ 77.237655600454133, 13.523782362707665 ], [ 77.237709369813771, 13.523776165682809 ], [ 77.237734819069004, 13.523773232711648 ], [ 77.237781545993073, 13.523767847736957 ], [ 77.237792466045391, 13.523346358564144 ], [ 77.237771095092711, 13.523346630064877 ], [ 77.237361088269679, 13.523351829946524 ], [ 77.237360459778927, 13.523340005416628 ], [ 77.237357086101397, 13.523276493257255 ], [ 77.237351245103156, 13.52316652292315 ], [ 77.237350459622434, 13.523151731415791 ], [ 77.237347900390589, 13.523103540022587 ], [ 77.237168322486454, 13.523117714544215 ], [ 77.237168070631668, 13.523117445710406 ], [ 77.237126711625564, 13.523120998834562 ], [ 77.236775947594083, 13.523151136606508 ], [ 77.236435668723431, 13.523180373277798 ], [ 77.236243733625429, 13.523196864202305 ], [ 77.23622859079218, 13.523154588226419 ], [ 77.235823250197981, 13.523120084982381 ], [ 77.235913356812958, 13.523559191697412 ], [ 77.23601776126047, 13.523946409571467 ], [ 77.236044118645182, 13.524021485160766 ], [ 77.236099258482781, 13.524038922983539 ], [ 77.236125179935698, 13.524067382130694 ], [ 77.236296223256147, 13.524722134656635 ], [ 77.236329541935589, 13.524757699674117 ], [ 77.236377419649017, 13.524782375213826 ], [ 77.236579845136177, 13.524774290574481 ], [ 77.236601407917689, 13.524772986415588 ], [ 77.236594609721081, 13.524790765292765 ], [ 77.236550146120592, 13.52487005927005 ], [ 77.236520018371152, 13.524914558763985 ], [ 77.236466892196219, 13.524981977104893 ], [ 77.236393321608446, 13.525084245408165 ], [ 77.23633157121661, 13.525186444213446 ], [ 77.236318229456174, 13.525208524948603 ], [ 77.236301885645545, 13.525281985067185 ], [ 77.236301867046265, 13.525282070173386 ], [ 77.236290088700926, 13.525335011724129 ], [ 77.23628588142526, 13.525371841896865 ], [ 77.236277876638184, 13.52544191122098 ], [ 77.236288722614617, 13.525520400064133 ], [ 77.236319356297557, 13.525772088163341 ], [ 77.236335325781155, 13.525903289792488 ], [ 77.236177526414409, 13.52593238047082 ], [ 77.236069339407067, 13.525938565619036 ], [ 77.23603313176983, 13.52682257610436 ], [ 77.236318691738333, 13.526824757270717 ], [ 77.236498994879852, 13.526762623328834 ], [ 77.236632511695845, 13.526874371170836 ], [ 77.236733486148424, 13.526982000173927 ], [ 77.237113907118456, 13.527017339116473 ], [ 77.237099855778197, 13.527182084692472 ], [ 77.237097787496836, 13.527299707062326 ], [ 77.23739805858456, 13.5273308635728 ], [ 77.237452030227786, 13.526999483897818 ], [ 77.23770503140112, 13.526981368399612 ], [ 77.237719366750369, 13.526962051005922 ], [ 77.237745467286942, 13.526926874750814 ], [ 77.23771623286855, 13.526855827325877 ], [ 77.237530676730145, 13.526898634647893 ], [ 77.237400361100896, 13.526909369222128 ], [ 77.237386425572979, 13.526911082386663 ], [ 77.237234536016956, 13.526930058293527 ], [ 77.237120108311885, 13.526944632004701 ], [ 77.236995650437066, 13.526960803472569 ], [ 77.236930804192767, 13.52696922930015 ], [ 77.236922644677392, 13.52697028899429 ], [ 77.23677898137008, 13.526945713576881 ], [ 77.236720511070118, 13.526900828606921 ], [ 77.236560159166203, 13.526737294943311 ], [ 77.236444955848171, 13.525913489571657 ], [ 77.236569359817352, 13.525838075101115 ], [ 77.237001358747122, 13.525576192236159 ], [ 77.237444886580761, 13.524374531330778 ], [ 77.237572904415572, 13.524244175052118 ], [ 77.237622681894933, 13.524055067548341 ], [ 77.237656239060215, 13.523927582608339 ] ] ] } },
{ "type": "Feature", "properties": { "KGISWardID": 3134, "KGISWardCode": "1803014", "KGISWardName": " ", "SHAPE.STArea()": 177738.325002475, "SHAPE.STLength()": 2112.8128356957504, "OBJECTID": 18417, "KGISWardNo": "14", "KGISTownCode": "1803", "LGD_WardCode": 1922504, "created_user": "SA", "created_date": 1634898537000, "last_edited_user": "SURESHBV1", "last_edited_date": 1692254014000, "_overlap_percent": 100.00000000000003, "_police_station": "Koratagere PS", "_police_feature_index": "149", "_admin_layer": "Ward", "_geometry_clipped": true }, "geometry": { "type": "Polygon", "coordinates": [ [ [ 77.244350634197929, 13.524858097987755 ], [ 77.244423331490339, 13.524521147609539 ], [ 77.24471453071456, 13.523741214995901 ], [ 77.244732701797844, 13.523518364855313 ], [ 77.244744667873874, 13.523371614779794 ], [ 77.244754057013395, 13.523256468169569 ], [ 77.244742195291906, 13.523140500108378 ], [ 77.244731825895954, 13.523039115616481 ], [ 77.243881921966349, 13.522947977199809 ], [ 77.243462626985945, 13.522839035467371 ], [ 77.24312013075297, 13.522897777712993 ], [ 77.242959161575314, 13.523082744190383 ], [ 77.242879612957879, 13.523133305805221 ], [ 77.242614242824175, 13.523304045030359 ], [ 77.242398484443441, 13.523434126006329 ], [ 77.242232567348125, 13.523511639858443 ], [ 77.242219916612044, 13.523517491143668 ], [ 77.242209685952119, 13.523520929784864 ], [ 77.242195564349757, 13.523526316234568 ], [ 77.242179968332366, 13.523530759868999 ], [ 77.24216633074569, 13.523535663969277 ], [ 77.242154639087232, 13.523539593708852 ], [ 77.242145372910457, 13.523541589671908 ], [ 77.242128785561917, 13.523544607245471 ], [ 77.242092253301195, 13.523548599577557 ], [ 77.241881230793993, 13.523558140817128 ], [ 77.241589333659149, 13.523594227017472 ], [ 77.241316175417538, 13.523648314954198 ], [ 77.241093765079597, 13.523694297288104 ], [ 77.241103743367518, 13.52371620372095 ], [ 77.24113133975834, 13.523767882810988 ], [ 77.241150600555926, 13.523803951600264 ], [ 77.24115986644631, 13.523824039107467 ], [ 77.241299439646511, 13.524068885870669 ], [ 77.241322586428396, 13.524109478571711 ], [ 77.241331361334133, 13.524124858116663 ], [ 77.241357245374573, 13.524170188345972 ], [ 77.241416978034295, 13.524274797035424 ], [ 77.241499538593246, 13.524480863265387 ], [ 77.24157426873056, 13.524676937838187 ], [ 77.241686709137255, 13.524952345327632 ], [ 77.241693173122329, 13.524968178382629 ], [ 77.24170558407782, 13.524998576834367 ], [ 77.24171551210442, 13.525022895420836 ], [ 77.241715667097125, 13.525023273550341 ], [ 77.241754741186583, 13.525118979508548 ], [ 77.241922589789766, 13.525530099414549 ], [ 77.241927719212228, 13.52554266158522 ], [ 77.241997981314398, 13.525714756986485 ], [ 77.242437829363112, 13.52681080544556 ], [ 77.24250605554127, 13.526995085982353 ], [ 77.242527253228829, 13.527052338713693 ], [ 77.2426329273666, 13.527337761159814 ], [ 77.243960491397914, 13.526878545227474 ], [ 77.24402890298893, 13.526877931707633 ], [ 77.244099891424582, 13.526891639909234 ], [ 77.244124435589626, 13.52690337457866 ], [ 77.244237900683103, 13.527017115723481 ], [ 77.24443860422538, 13.527314167245423 ], [ 77.244671091580841, 13.527873922509425 ], [ 77.244855253631613, 13.528230892225475 ], [ 77.244925233022059, 13.528397620524213 ], [ 77.244987345446845, 13.528507040917255 ], [ 77.245090971800082, 13.528613697805795 ], [ 77.245213852430666, 13.528689100309785 ], [ 77.245502119569082, 13.528849643149362 ], [ 77.245501546457845, 13.528632966715652 ], [ 77.24549611757125, 13.528370289418206 ], [ 77.245631062574475, 13.5283773860577 ], [ 77.245867831938085, 13.528389839683145 ], [ 77.24584791407564, 13.528063081865129 ], [ 77.245929024453005, 13.527169610855141 ], [ 77.245972923500005, 13.526379625636503 ], [ 77.246065952916837, 13.526155033799853 ], [ 77.246132534441983, 13.526031756434991 ], [ 77.245663233851204, 13.525736016346801 ], [ 77.244362009335575, 13.525017648054627 ], [ 77.244279525850999, 13.524972111071291 ], [ 77.244350634197929, 13.524858097987755 ] ] ] } },
{ "type": "Feature", "properties": { "KGISWardID": 3130, "KGISWardCode": "1803015", "KGISWardName": " ", "SHAPE.STArea()": 246229.093877465, "SHAPE.STLength()": 3042.0648602382762, "OBJECTID": 18418, "KGISWardNo": "15", "KGISTownCode": "1803", "LGD_WardCode": 1922505, "created_user": "SA", "created_date": 1634898537000, "last_edited_user": "SURESHBV1", "last_edited_date": 1692254014000, "_overlap_percent": 100.00000000000007, "_police_station": "Koratagere PS", "_police_feature_index": "149", "_admin_layer": "Ward", "_geometry_clipped": true }, "geometry": { "type": "Polygon", "coordinates": [ [ [ 77.243715856447622, 13.531164840046653 ], [ 77.243756542459749, 13.531166913053671 ], [ 77.24393398774474, 13.531175952352909 ], [ 77.243799270744802, 13.530152772270117 ], [ 77.244575175030803, 13.529990388653871 ], [ 77.245504937916422, 13.529914344424249 ], [ 77.245504653071208, 13.529806837975173 ], [ 77.245503862568967, 13.529508184240315 ], [ 77.245502205068007, 13.528881813670534 ], [ 77.245502119569082, 13.528849643149362 ], [ 77.245213852430666, 13.528689100309785 ], [ 77.245090971800082, 13.528613697805795 ], [ 77.244987345446845, 13.528507040917255 ], [ 77.244925233022059, 13.528397620524213 ], [ 77.244855253631613, 13.528230892225475 ], [ 77.244671091580841, 13.527873922509425 ], [ 77.24443860422538, 13.527314167245423 ], [ 77.244237900683103, 13.527017115723481 ], [ 77.244124435589626, 13.52690337457866 ], [ 77.244099891424582, 13.526891639909234 ], [ 77.24402890298893, 13.526877931707633 ], [ 77.243960491397914, 13.526878545227474 ], [ 77.2426329273666, 13.527337761159814 ], [ 77.242527253228829, 13.527052338713693 ], [ 77.24250605554127, 13.526995085982353 ], [ 77.242437829363112, 13.52681080544556 ], [ 77.241997981314398, 13.525714756986485 ], [ 77.241927719212228, 13.52554266158522 ], [ 77.241922589789766, 13.525530099414549 ], [ 77.241754741186583, 13.525118979508548 ], [ 77.241715667097125, 13.525023273550341 ], [ 77.24171551210442, 13.525022895420836 ], [ 77.24170558407782, 13.524998576834367 ], [ 77.241693173122329, 13.524968178382629 ], [ 77.241686709137255, 13.524952345327632 ], [ 77.241610505246598, 13.524943361060405 ], [ 77.241481230912584, 13.524928120191523 ], [ 77.240923105300794, 13.524984081554638 ], [ 77.240894462350894, 13.52506598593693 ], [ 77.240848831494787, 13.525196468946058 ], [ 77.240792530405372, 13.525357462260148 ], [ 77.240928465806419, 13.525392107664553 ], [ 77.24072140384564, 13.525982102836595 ], [ 77.240468058191965, 13.525934164633249 ], [ 77.24031953222206, 13.526512877125045 ], [ 77.240058788721953, 13.526457831917199 ], [ 77.23999378253751, 13.526953312894058 ], [ 77.240203486935172, 13.527037504817683 ], [ 77.240085117561435, 13.527705603073912 ], [ 77.239617183900805, 13.527643848898979 ], [ 77.239577966157398, 13.527640322522526 ], [ 77.239413635203434, 13.527625544564565 ], [ 77.239395554401497, 13.528269292741452 ], [ 77.239614481611184, 13.528333080162865 ], [ 77.239715038584038, 13.528362378825801 ], [ 77.239826642820944, 13.528526201804915 ], [ 77.239968661571083, 13.528734669293359 ], [ 77.240060357039312, 13.528839650762158 ], [ 77.240214351559047, 13.528980488217236 ], [ 77.240281760935744, 13.52905145450104 ], [ 77.240394499843063, 13.529170140443949 ], [ 77.240390619262641, 13.529277762253008 ], [ 77.240338522171527, 13.529455149285511 ], [ 77.240302565690087, 13.529529586644841 ], [ 77.240220088549805, 13.529604022208167 ], [ 77.240130934988159, 13.529621560895075 ], [ 77.240826572610686, 13.530116621843428 ], [ 77.240952934048664, 13.530125919459607 ], [ 77.240976053908696, 13.530443957125806 ], [ 77.2410060892404, 13.530520194359422 ], [ 77.240918443001405, 13.530554451184953 ], [ 77.240707764652086, 13.530642021772188 ], [ 77.240571279195564, 13.531117980649762 ], [ 77.240808661473437, 13.531189967844821 ], [ 77.240869209480863, 13.53103783694629 ], [ 77.241507251529512, 13.531233062506963 ], [ 77.241593202966484, 13.530983199419712 ], [ 77.241533250246974, 13.530974508039442 ], [ 77.241640190633163, 13.53068498612266 ], [ 77.241398672098512, 13.530693597533544 ], [ 77.241369643264846, 13.530180510944607 ], [ 77.241620736164919, 13.53013615724476 ], [ 77.241776649330632, 13.529809494424468 ], [ 77.241859628055067, 13.529600450712799 ], [ 77.242128254908991, 13.529583698486396 ], [ 77.242545000538655, 13.529728193694703 ], [ 77.24241157966901, 13.530092793128546 ], [ 77.242568809162648, 13.530380543583231 ], [ 77.242253947877956, 13.530481518260386 ], [ 77.242726375172737, 13.531430868964053 ], [ 77.243338029875162, 13.53132212571105 ], [ 77.243600586477442, 13.53127544691589 ], [ 77.243639246953833, 13.531208294271652 ], [ 77.243645366053272, 13.531204823731844 ], [ 77.243715856447622, 13.531164840046653 ] ] ] } }
]
}
