{
"type": "FeatureCollection",
"name": "police_station_boundary.writing_20260805_172659",
"crs": { "type": "name", "properties": { "name": "urn:ogc:def:crs:OGC:1.3:CRS84" } },
"features": [
{ "type": "Feature", "properties": { "Shape.STArea()": 462668828.66038281, "Shape.STLength()": 149317.21502499253, "OBJECTID": 59, "KGISPS_BOUNDID": 59, "PS_BOUNDName": "Yeregera PS", "PS_BOUNDCode": "PSB - 59", "KGISPS_SUB_DIVID": 140, "_source_layer": "Police Station Boundary", "_source_layer_url": "https://kgis.ksrsac.in/kgismaps/rest/services/Home/Home_Department/MapServer/82", "_police_station": "Yeregera PS" }, "geometry": { "type": "Polygon", "coordinates": [ [ [ 77.411479429011152, 16.215213135193267 ], [ 77.411402551671785, 16.215186900275345 ], [ 77.411080767332663, 16.215076486512135 ], [ 77.410815664166009, 16.214985518726387 ], [ 77.410678831378604, 16.214938565257025 ], [ 77.410604416896618, 16.215190042166405 ], [ 77.410595940378045, 16.215218688608871 ], [ 77.409864150729746, 16.21518279134969 ], [ 77.409261896232579, 16.215038988200686 ], [ 77.408068894394617, 16.214754116702341 ], [ 77.407743692920292, 16.214588467867252 ], [ 77.407433096935151, 16.214442290615736 ], [ 77.406944283856021, 16.214336899244572 ], [ 77.40659863286352, 16.214264487003803 ], [ 77.406040850369081, 16.213933094972639 ], [ 77.406224665510678, 16.21359513996606 ], [ 77.406353726767051, 16.213090676709243 ], [ 77.406283713101288, 16.21288057350435 ], [ 77.406031136442706, 16.212780384766162 ], [ 77.40530821784273, 16.213033237579822 ], [ 77.405166455776381, 16.213102544368557 ], [ 77.404146931669317, 16.213184831046124 ], [ 77.403645936390561, 16.213225265804919 ], [ 77.403272510763315, 16.213255403135641 ], [ 77.403220035391612, 16.213225783013602 ], [ 77.403046025758897, 16.213127564630589 ], [ 77.402829533898284, 16.213005363433748 ], [ 77.402230126289538, 16.212768625226065 ], [ 77.401572696464029, 16.212718229419046 ], [ 77.401335710374312, 16.212676080993109 ], [ 77.401330430867404, 16.212276520041144 ], [ 77.401324053359374, 16.212177281645104 ], [ 77.401345531219164, 16.211918601450336 ], [ 77.401424723582224, 16.211780998200858 ], [ 77.40244474282116, 16.208296206281279 ], [ 77.402378655364117, 16.208068562315123 ], [ 77.40207632748745, 16.205918430493924 ], [ 77.402039743761406, 16.205761610162941 ], [ 77.402030496043423, 16.205680476618973 ], [ 77.401995483299515, 16.205373281509665 ], [ 77.401948912616064, 16.205209327438389 ], [ 77.399517836915336, 16.204798728660236 ], [ 77.39938340276413, 16.204776021608392 ], [ 77.39924754707576, 16.204730638366382 ], [ 77.398620126379498, 16.204630540880743 ], [ 77.396727705931411, 16.204304176827559 ], [ 77.396586409964698, 16.204213718085974 ], [ 77.396305732488898, 16.204179490273411 ], [ 77.396098699214704, 16.204154241568531 ], [ 77.395978751574702, 16.204139613697198 ], [ 77.39587306216707, 16.204076928252427 ], [ 77.39597571865275, 16.203989134070174 ], [ 77.396617157941648, 16.203691763940018 ], [ 77.396940314115312, 16.203570611543405 ], [ 77.396970859802266, 16.203502271498138 ], [ 77.397067224775, 16.203286672131139 ], [ 77.397139820613205, 16.203117638708715 ], [ 77.39701024528722, 16.203107597937116 ], [ 77.396845259647051, 16.203094640518405 ], [ 77.396533010780828, 16.202856495028566 ], [ 77.396159895751083, 16.202508814980987 ], [ 77.396097497294448, 16.202114153270646 ], [ 77.395964065069478, 16.201119253592957 ], [ 77.395938451857916, 16.201368897618728 ], [ 77.395480099885319, 16.201443347493544 ], [ 77.394400033025278, 16.202139851529484 ], [ 77.394398181133354, 16.20213963211523 ], [ 77.393550211562157, 16.202039636869863 ], [ 77.393266043422884, 16.201489187974914 ], [ 77.393025802892069, 16.200938238155011 ], [ 77.39287925189258, 16.200602147656546 ], [ 77.392423378979871, 16.199810869236746 ], [ 77.392352702047006, 16.199699981720762 ], [ 77.392144352756347, 16.19635205245087 ], [ 77.392014611277162, 16.195876181333119 ], [ 77.391928754353117, 16.195739978890796 ], [ 77.391594004499325, 16.195093736144969 ], [ 77.391364320814205, 16.195026245378163 ], [ 77.39136094612995, 16.195025254438367 ], [ 77.391405574992959, 16.194591782887269 ], [ 77.391536022561056, 16.193882494119237 ], [ 77.391565517753563, 16.193722118271477 ], [ 77.391805027642206, 16.193046872544205 ], [ 77.391924461650021, 16.192759752623477 ], [ 77.391999400122472, 16.192579603897176 ], [ 77.391942341305807, 16.192322951599106 ], [ 77.391724459080962, 16.192294259901583 ], [ 77.391713614242917, 16.192049524743762 ], [ 77.391709091451801, 16.191947461243686 ], [ 77.391465092146831, 16.19199863434158 ], [ 77.390875272047197, 16.191331634050982 ], [ 77.391075396202964, 16.190727442090122 ], [ 77.391901703213165, 16.190209169725005 ], [ 77.392140435490944, 16.190068451863777 ], [ 77.39211199672971, 16.188681883734773 ], [ 77.391263911733276, 16.187421246000447 ], [ 77.391193338322722, 16.187317443033272 ], [ 77.391139140673502, 16.187197589272699 ], [ 77.39100956691496, 16.185776526261051 ], [ 77.390998481834359, 16.185662447729101 ], [ 77.393477107043282, 16.1853816327102 ], [ 77.394238553755798, 16.184984072835785 ], [ 77.393432423294186, 16.184242538956042 ], [ 77.393412278753104, 16.184175227303449 ], [ 77.392283011914543, 16.183078015915388 ], [ 77.392086989577848, 16.182887555513734 ], [ 77.391844656163599, 16.18203425257423 ], [ 77.390792369922238, 16.182312717643835 ], [ 77.390746023968433, 16.182540752776585 ], [ 77.389784023704749, 16.182773836038859 ], [ 77.389502952177423, 16.182841934748698 ], [ 77.38792201815582, 16.183224967643955 ], [ 77.387740796318894, 16.183273973078144 ], [ 77.387650267356989, 16.183298453591895 ], [ 77.38705385604311, 16.183459733361158 ], [ 77.386900158836454, 16.183501296170391 ], [ 77.386750852143891, 16.18354167045177 ], [ 77.386620781313837, 16.183576843064106 ], [ 77.386239673058768, 16.183679899600438 ], [ 77.385253254486699, 16.183946635796016 ], [ 77.385039603863234, 16.183987860928411 ], [ 77.384869969708291, 16.184018764448066 ], [ 77.384762483062588, 16.184034058064274 ], [ 77.384147237546586, 16.184121594208722 ], [ 77.384040617708052, 16.184136763928503 ], [ 77.383920730077705, 16.184153820437388 ], [ 77.383890853091089, 16.184107971151196 ], [ 77.383852808562722, 16.184049588978244 ], [ 77.383838627699447, 16.184027827040715 ], [ 77.383636055111282, 16.183716963754147 ], [ 77.383571367205207, 16.183617693301898 ], [ 77.383525963979594, 16.183509323876255 ], [ 77.383272086190672, 16.182950541478483 ], [ 77.382896929388963, 16.182124814155053 ], [ 77.382747978807572, 16.181796971572336 ], [ 77.382674830658885, 16.181635968558378 ], [ 77.382507487274907, 16.181370278007314 ], [ 77.382837167260718, 16.181073412300993 ], [ 77.384395689125157, 16.180389311146261 ], [ 77.385086204605969, 16.18031108250365 ], [ 77.38470197347398, 16.17953832222873 ], [ 77.384691544780182, 16.179487642323263 ], [ 77.384663153545773, 16.17934966978466 ], [ 77.384626998252429, 16.179173969633663 ], [ 77.384603168526525, 16.178801624172827 ], [ 77.384597300078795, 16.178709932046196 ], [ 77.384374429327551, 16.177758026033317 ], [ 77.384273096879369, 16.177235314976297 ], [ 77.384180302818578, 16.176507337670074 ], [ 77.384606698469696, 16.176351268048897 ], [ 77.384909053981147, 16.176240860434262 ], [ 77.386025691689781, 16.175988704187379 ], [ 77.38738587855201, 16.17570529794758 ], [ 77.387208291986255, 16.174996845232997 ], [ 77.387103725638141, 16.174830932526405 ], [ 77.387066294777512, 16.174794572315594 ], [ 77.386773646849349, 16.174510288057924 ], [ 77.38611828200186, 16.17452511782221 ], [ 77.385941069756669, 16.174529126468226 ], [ 77.385792964288441, 16.174351282819838 ], [ 77.385710255102097, 16.174251966406626 ], [ 77.385631184902593, 16.174205021191362 ], [ 77.385552667391977, 16.174158403986862 ], [ 77.385473483313064, 16.174110454540514 ], [ 77.38487102241065, 16.17374563780897 ], [ 77.384484366609612, 16.173511496852154 ], [ 77.384384085006289, 16.173449906894046 ], [ 77.384074429322737, 16.173258200960806 ], [ 77.383897701282962, 16.173148788956137 ], [ 77.383813803688767, 16.173096849067647 ], [ 77.383249000553533, 16.172864917647125 ], [ 77.383150140554932, 16.172790320748955 ], [ 77.382956802140171, 16.172862002950552 ], [ 77.382802381840122, 16.172879196417732 ], [ 77.38267000209207, 16.172893936904018 ], [ 77.382558672069649, 16.172983783750279 ], [ 77.382673880414842, 16.17325122367782 ], [ 77.382753339709126, 16.173435987168446 ], [ 77.382885709870578, 16.173692330192662 ], [ 77.381891198602546, 16.173947023798711 ], [ 77.381713532847854, 16.173993517263732 ], [ 77.381667917623588, 16.173847254190179 ], [ 77.381036098440589, 16.171734508740997 ], [ 77.381015161429005, 16.171637779706362 ], [ 77.381092584447089, 16.171532698535355 ], [ 77.381369975406798, 16.171163269327646 ], [ 77.381591633670809, 16.170803423305099 ], [ 77.380675283860839, 16.170114594230977 ], [ 77.380577854016664, 16.16997246336258 ], [ 77.380512837141367, 16.169877617683014 ], [ 77.38050101234785, 16.169860367466182 ], [ 77.380422392614008, 16.169745676186221 ], [ 77.380461341049696, 16.169658184209013 ], [ 77.380592470948102, 16.16936362086474 ], [ 77.380871176123435, 16.169227511989138 ], [ 77.380881982890628, 16.168939384435102 ], [ 77.381054229883816, 16.168718554056074 ], [ 77.381137689890181, 16.168611551730901 ], [ 77.381065096140958, 16.168325948294676 ], [ 77.381037336731339, 16.168087672587344 ], [ 77.380850022564218, 16.167283191570551 ], [ 77.380875059060685, 16.167180286670806 ], [ 77.380948180875961, 16.166879740737375 ], [ 77.380970115236096, 16.166789584478714 ], [ 77.381001310294408, 16.166661366183362 ], [ 77.380909912422325, 16.166508006706874 ], [ 77.380839916808895, 16.166390560331799 ], [ 77.380432828397744, 16.16570748932741 ], [ 77.378899175639532, 16.165633482596864 ], [ 77.378742588906249, 16.165642957566075 ], [ 77.378540289082935, 16.165657629995533 ], [ 77.377398811306989, 16.165744830113763 ], [ 77.37736923968275, 16.16574708914726 ], [ 77.377924285120145, 16.164938124350094 ], [ 77.377792747981161, 16.16492916193593 ], [ 77.377603673755459, 16.164916279333088 ], [ 77.377097994924355, 16.164881823990385 ], [ 77.376444058740887, 16.164837264726998 ], [ 77.375065303946911, 16.164585164246432 ], [ 77.374988751787839, 16.164604972055084 ], [ 77.374005672614601, 16.164675601210558 ], [ 77.373137954144198, 16.164776766145319 ], [ 77.372917457577785, 16.164803662599635 ], [ 77.372520305163164, 16.164852106906977 ], [ 77.371081546117864, 16.165167118967997 ], [ 77.370675424955436, 16.165304038294138 ], [ 77.370312115364342, 16.165765234123921 ], [ 77.370095478470404, 16.16615258071101 ], [ 77.370017996055381, 16.16687361602207 ], [ 77.369531093718962, 16.167363581247766 ], [ 77.368136725835896, 16.168039082102965 ], [ 77.368045383784505, 16.171879441106302 ], [ 77.366454594006029, 16.171704767515259 ], [ 77.366224199163511, 16.171692270959717 ], [ 77.365993834245032, 16.171679775624426 ], [ 77.365765827237425, 16.172735071262831 ], [ 77.364392158321522, 16.172566953112693 ], [ 77.364306027200385, 16.173469322147984 ], [ 77.364192460917678, 16.174063565006623 ], [ 77.361716976258933, 16.174565158439879 ], [ 77.362249085630708, 16.176532659261976 ], [ 77.362481285307055, 16.177735610445335 ], [ 77.362337734435386, 16.178520286515052 ], [ 77.362440533550341, 16.179309095234643 ], [ 77.361138940022627, 16.1812343516387 ], [ 77.360805806925811, 16.181865213031209 ], [ 77.360394532771295, 16.183074565906161 ], [ 77.360348565309266, 16.183470271440285 ], [ 77.360065511305237, 16.183623195734736 ], [ 77.35986649738156, 16.183497506954321 ], [ 77.359542082440939, 16.183665341864756 ], [ 77.359070016121279, 16.184490841470275 ], [ 77.359418719968147, 16.184921754873084 ], [ 77.358226234960114, 16.185081555935358 ], [ 77.357568131451814, 16.185792426121569 ], [ 77.357096018044629, 16.185618625087212 ], [ 77.357724955558623, 16.182956538626975 ], [ 77.358062313156623, 16.181442188299457 ], [ 77.358332691977139, 16.180059536633305 ], [ 77.3582694002029, 16.179316364370706 ], [ 77.358145584352954, 16.178069991185694 ], [ 77.358400256784819, 16.176480137759153 ], [ 77.358838246594146, 16.174806790575865 ], [ 77.359090717490332, 16.174200124317512 ], [ 77.359378622768318, 16.173473393045771 ], [ 77.359096847463178, 16.173533801075116 ], [ 77.352879224825784, 16.167919079142571 ], [ 77.352883572692818, 16.166918211125672 ], [ 77.351766402105198, 16.167150178152138 ], [ 77.351669709312745, 16.16682486204045 ], [ 77.35111872214145, 16.166122313751195 ], [ 77.346091675828944, 16.163640943587321 ], [ 77.345510828088194, 16.159926889649078 ], [ 77.345324965394482, 16.1596663770585 ], [ 77.345417466898724, 16.159348299298138 ], [ 77.345087711335594, 16.157985340934545 ], [ 77.34501343088094, 16.157595667820772 ], [ 77.333618281830312, 16.158549764510798 ], [ 77.333691103876859, 16.163735858159992 ], [ 77.332969608054427, 16.16726503408999 ], [ 77.331952701663084, 16.167434888626623 ], [ 77.331803005536131, 16.167433695072912 ], [ 77.331800653318425, 16.167434305341416 ], [ 77.331472254722968, 16.167519638747912 ], [ 77.331335566560952, 16.167555157076425 ], [ 77.330432394847108, 16.167789840751606 ], [ 77.329904699536215, 16.167851719751948 ], [ 77.329907867796578, 16.167709491261515 ], [ 77.329822203481314, 16.167237239071245 ], [ 77.329717271776218, 16.167123586681292 ], [ 77.329575834618552, 16.166688785158371 ], [ 77.328435587157159, 16.166885937411095 ], [ 77.328424556397792, 16.166888855910209 ], [ 77.327673852606523, 16.167087482804277 ], [ 77.327280717621903, 16.167265180712555 ], [ 77.326979645455424, 16.167321194241538 ], [ 77.326942535163298, 16.167328099047413 ], [ 77.326752854693709, 16.167338585476667 ], [ 77.326220727548218, 16.166443166002939 ], [ 77.325831567810937, 16.165799723253027 ], [ 77.325385099565125, 16.165069859997736 ], [ 77.325241332132407, 16.164860102494252 ], [ 77.325009410792276, 16.16496946887203 ], [ 77.324937766023311, 16.164998215193883 ], [ 77.324916772408628, 16.165006639215822 ], [ 77.32477824833633, 16.165062221444998 ], [ 77.324562898090946, 16.164784221444652 ], [ 77.32420421912073, 16.164224271302849 ], [ 77.32400476860056, 16.163900245987076 ], [ 77.323761204469477, 16.163536154034137 ], [ 77.323175052874319, 16.162844004814701 ], [ 77.323094160459604, 16.162757278207437 ], [ 77.322723038584598, 16.162240675173205 ], [ 77.322681128292317, 16.162188789742768 ], [ 77.322129696021548, 16.161506094884352 ], [ 77.321874438500942, 16.161197652030612 ], [ 77.321877386540933, 16.161196676729894 ], [ 77.322083470422882, 16.161128461929003 ], [ 77.322577937545901, 16.160964790846901 ], [ 77.322665607476779, 16.160941946838353 ], [ 77.322844015135601, 16.16089546006895 ], [ 77.322913115616828, 16.160877850501443 ], [ 77.324501248978279, 16.160473109422114 ], [ 77.325318508229088, 16.160323595103442 ], [ 77.325707026714667, 16.160148985295617 ], [ 77.325658419963332, 16.159934879770788 ], [ 77.325218000876447, 16.157994865520319 ], [ 77.325065460173434, 16.157322924132984 ], [ 77.324977591307928, 16.156916554663624 ], [ 77.324823287864135, 16.156202940419124 ], [ 77.324844303326003, 16.156200938507666 ], [ 77.325892555498967, 16.156101081085222 ], [ 77.325879298999482, 16.156032800988946 ], [ 77.325485379420485, 16.154003824871573 ], [ 77.322352463973104, 16.154628685221468 ], [ 77.322347907480449, 16.154586035880968 ], [ 77.322315428768235, 16.154282038523423 ], [ 77.322314176909458, 16.154270326089151 ], [ 77.322307892460572, 16.154269978156279 ], [ 77.322143416574562, 16.154260879473355 ], [ 77.322022843288622, 16.153879402476868 ], [ 77.321877325358614, 16.153329713814454 ], [ 77.321716778633046, 16.152716545361329 ], [ 77.321679518870397, 16.152580606362925 ], [ 77.321577202606846, 16.152160822722749 ], [ 77.32153289699869, 16.151979043509428 ], [ 77.321236199108483, 16.151946331170848 ], [ 77.321075701318549, 16.151981133828944 ], [ 77.32100641731752, 16.151996157130306 ], [ 77.320232129885156, 16.152164051474241 ], [ 77.319005554598675, 16.152430013237989 ], [ 77.318870524071045, 16.152459290984687 ], [ 77.318587603815416, 16.152520637702942 ], [ 77.318571748295469, 16.152526335501019 ], [ 77.318382320834885, 16.152594424326622 ], [ 77.318334643092513, 16.15260526917357 ], [ 77.318098169931005, 16.152659047809987 ], [ 77.317867968725281, 16.152778787370128 ], [ 77.318276233510517, 16.15405800459304 ], [ 77.318290403986637, 16.154117765537656 ], [ 77.317099763509134, 16.154616849195467 ], [ 77.316308847572714, 16.154888483816165 ], [ 77.315684577801861, 16.155006573062227 ], [ 77.314320508132852, 16.155561585240974 ], [ 77.314124793254479, 16.155197633459174 ], [ 77.314053833426584, 16.155206324699488 ], [ 77.313425908211045, 16.155276328545014 ], [ 77.312602073941278, 16.155418368920532 ], [ 77.312563380700936, 16.155425038866152 ], [ 77.31248029123087, 16.155407569626291 ], [ 77.312352674505178, 16.15538073860618 ], [ 77.312238444933513, 16.155406728592229 ], [ 77.311544629934289, 16.155493827489067 ], [ 77.310873156555971, 16.155505181674151 ], [ 77.310209066085577, 16.155488350590005 ], [ 77.309653554236647, 16.155412929387246 ], [ 77.309314200999907, 16.155366854009028 ], [ 77.309304963430819, 16.15536559998586 ], [ 77.306988086900319, 16.155109631421436 ], [ 77.306637955315423, 16.155114935724111 ], [ 77.3053087319159, 16.155135064518806 ], [ 77.305269138324334, 16.155134569864682 ], [ 77.303625234104587, 16.155114021839342 ], [ 77.303493163706506, 16.155131633234177 ], [ 77.302550064762499, 16.155257396678955 ], [ 77.302899430081936, 16.157247701435214 ], [ 77.302919193937285, 16.157360279814153 ], [ 77.303020430482988, 16.15769412918177 ], [ 77.303235542155164, 16.158403513202646 ], [ 77.303331355124769, 16.158719483806983 ], [ 77.303360602597451, 16.158815925828435 ], [ 77.303428988636171, 16.15904144408627 ], [ 77.303485628773871, 16.159018175651941 ], [ 77.303709553076786, 16.15924752977687 ], [ 77.303768922179103, 16.159320071383348 ], [ 77.304133891367115, 16.159766018797086 ], [ 77.304333509488245, 16.160148681103831 ], [ 77.30462702539684, 16.160445879884101 ], [ 77.304706761390378, 16.160526614970795 ], [ 77.304781709549147, 16.160602506300577 ], [ 77.305014922437763, 16.160859216169129 ], [ 77.305115325789401, 16.160969737498604 ], [ 77.305395610189194, 16.161278261443545 ], [ 77.305607013243389, 16.161700896554553 ], [ 77.305788412883558, 16.162160907681876 ], [ 77.305855375334446, 16.162350271341332 ], [ 77.305862825259737, 16.162349611556497 ], [ 77.305989103397721, 16.16266983941124 ], [ 77.306394406115885, 16.16346181640202 ], [ 77.306558910941419, 16.163783263734359 ], [ 77.306595894767639, 16.163880542631951 ], [ 77.306605766248268, 16.163906506998746 ], [ 77.306701483038168, 16.164125759387929 ], [ 77.30670353760064, 16.164137998123365 ], [ 77.306709538398422, 16.164173726867027 ], [ 77.30670300146376, 16.164322274905107 ], [ 77.306715771771351, 16.164517012531814 ], [ 77.306770088294286, 16.164723022436291 ], [ 77.306812107157882, 16.164834557508737 ], [ 77.306899754997801, 16.165195109159093 ], [ 77.306974605274419, 16.165355197691316 ], [ 77.307058351086198, 16.16553050967574 ], [ 77.307123329512123, 16.165666526432872 ], [ 77.307210336299818, 16.165904426923749 ], [ 77.307295067803324, 16.166136104077239 ], [ 77.30736933320307, 16.166339153759015 ], [ 77.307991318077612, 16.16760093744541 ], [ 77.308018125669378, 16.167664821751398 ], [ 77.308787995170007, 16.167679190960701 ], [ 77.308823522924285, 16.167736491379667 ], [ 77.308869232508087, 16.167810211781134 ], [ 77.309033162409648, 16.167993029858568 ], [ 77.309075351220059, 16.168040076591851 ], [ 77.309152582456022, 16.168126209098855 ], [ 77.309897828487024, 16.168773579637634 ], [ 77.310190870511846, 16.169527011938754 ], [ 77.310283107254492, 16.16970576938601 ], [ 77.310312346667004, 16.169762439400579 ], [ 77.31047191850746, 16.170071703671269 ], [ 77.310494872120429, 16.170160908355484 ], [ 77.310497508269819, 16.170167903677768 ], [ 77.310540119260423, 16.170280933505907 ], [ 77.310860092501159, 16.171129673327375 ], [ 77.310912230018914, 16.171267973387078 ], [ 77.310944615165596, 16.171353870262511 ], [ 77.310954042500398, 16.171385923532917 ], [ 77.310985301786161, 16.171492201617088 ], [ 77.31101136850674, 16.171578247507775 ], [ 77.311250203985097, 16.172366562738194 ], [ 77.311323017536864, 16.172622192153813 ], [ 77.311333676930317, 16.172659614467872 ], [ 77.31148354944024, 16.173385374795039 ], [ 77.311487439324083, 16.173404587617156 ], [ 77.311526695192683, 16.173598472676805 ], [ 77.311363356956917, 16.173747494591112 ], [ 77.310983972214331, 16.173917878359006 ], [ 77.310893590432713, 16.173974161021537 ], [ 77.310715383624796, 16.174085134688163 ], [ 77.310619540145453, 16.174106105704286 ], [ 77.310460273798427, 16.174182786308815 ], [ 77.309411587642572, 16.174483793727841 ], [ 77.30861352159981, 16.174585154639793 ], [ 77.308221246766578, 16.174658350255989 ], [ 77.308211386991132, 16.174659300119867 ], [ 77.306674523744292, 16.174807614210408 ], [ 77.306673389277393, 16.174792191863983 ], [ 77.306649895820257, 16.174472854985787 ], [ 77.306333204977335, 16.174496501571618 ], [ 77.306336109998369, 16.174448957364962 ], [ 77.304601641442019, 16.174459292490667 ], [ 77.303636109295851, 16.174485406836212 ], [ 77.303633355289463, 16.174698073837529 ], [ 77.303602437399007, 16.174700381698443 ], [ 77.303600580960733, 16.17635313352897 ], [ 77.303687422627831, 16.17720586278277 ], [ 77.303812836635203, 16.178437333014539 ], [ 77.302519270940749, 16.178400007562253 ], [ 77.302400672925714, 16.178412041152537 ], [ 77.301679592326451, 16.178442652791706 ], [ 77.301749877473043, 16.176235580537181 ], [ 77.301754808488795, 16.176080824312272 ], [ 77.30193833265902, 16.174906256100314 ], [ 77.301983993933774, 16.174614015122405 ], [ 77.301944183533777, 16.174514314216125 ], [ 77.30050556536527, 16.174322699033354 ], [ 77.300170379066174, 16.174257441596399 ], [ 77.299787398749743, 16.174182879376353 ], [ 77.29917756454293, 16.174161659192155 ], [ 77.299071700948318, 16.174182094731826 ], [ 77.29860262578633, 16.17427264702885 ], [ 77.29835457905854, 16.174320531908712 ], [ 77.29832941278687, 16.174610963107696 ], [ 77.29713920846153, 16.174546034978778 ], [ 77.296783225855819, 16.174526613406975 ], [ 77.295878093964831, 16.174521435652007 ], [ 77.295389396736525, 16.174559511464494 ], [ 77.295332811380405, 16.174569056770945 ], [ 77.295020164017302, 16.174654384753314 ], [ 77.294446785224906, 16.174810877709287 ], [ 77.29414451300579, 16.174686411968185 ], [ 77.293918748452725, 16.17467882877235 ], [ 77.292620152961987, 16.174635216278006 ], [ 77.292419013316646, 16.1746380507163 ], [ 77.290680006536164, 16.174662521067773 ], [ 77.290442837315481, 16.174665856356157 ], [ 77.289449566700611, 16.17471709508483 ], [ 77.289351346719528, 16.174732052092935 ], [ 77.288373783736276, 16.174880911298036 ], [ 77.288236755493273, 16.174901778955363 ], [ 77.287670661829239, 16.174956300693665 ], [ 77.28746866933966, 16.174948074645961 ], [ 77.28658820376819, 16.174860121327541 ], [ 77.286394401362173, 16.174840763767712 ], [ 77.286160457418177, 16.174813721170466 ], [ 77.285909138871617, 16.174784669721365 ], [ 77.285109426614923, 16.174674816216434 ], [ 77.283712048554307, 16.174593066907065 ], [ 77.283705189696818, 16.174592664441573 ], [ 77.283177602183017, 16.174491759028744 ], [ 77.282190365396445, 16.174466671548497 ], [ 77.282189326319056, 16.174466467683054 ], [ 77.281531719328228, 16.174337148280625 ], [ 77.280942961262156, 16.174294654052122 ], [ 77.280850941823971, 16.174288012255271 ], [ 77.278991611880087, 16.1740630305084 ], [ 77.278689632727279, 16.174026490645858 ], [ 77.278830977115476, 16.17347185225222 ], [ 77.278867196960263, 16.172917199831367 ], [ 77.279108194778857, 16.171880051340885 ], [ 77.279123394960223, 16.171771483711805 ], [ 77.278300459326587, 16.171789201882575 ], [ 77.277771169911588, 16.171831015877846 ], [ 77.277705007544498, 16.171836243113663 ], [ 77.27736361249255, 16.171868910166431 ], [ 77.276530097212799, 16.171948664216725 ], [ 77.275080651508077, 16.171979878455819 ], [ 77.275101618001528, 16.173283437386605 ], [ 77.275101666819353, 16.173286475971164 ], [ 77.275077727145671, 16.173599520568573 ], [ 77.273551537577987, 16.173762445045142 ], [ 77.272039709750558, 16.173932145537041 ], [ 77.271960378067647, 16.174131759238655 ], [ 77.271941010009883, 16.17413290384361 ], [ 77.271838305669561, 16.174138973142423 ], [ 77.271712617310229, 16.173990282260096 ], [ 77.271670513691191, 16.173940472686652 ], [ 77.271509769243892, 16.173850258706807 ], [ 77.270917786488369, 16.173513941469619 ], [ 77.270485163478426, 16.172795486569299 ], [ 77.270326222229485, 16.172531533039209 ], [ 77.270320943761845, 16.172523563357387 ], [ 77.26958280132385, 16.171408546916538 ], [ 77.270782658019101, 16.171137713989371 ], [ 77.271502584061238, 16.170972986261269 ], [ 77.270315702398108, 16.168488395248822 ], [ 77.269118887588263, 16.168663957819088 ], [ 77.2689406308522, 16.168690729862284 ], [ 77.268335193213844, 16.168781663844197 ], [ 77.268194089729008, 16.168807952500774 ], [ 77.267874618629691, 16.168867474725332 ], [ 77.267547387558565, 16.168927589619109 ], [ 77.267368786826438, 16.168960398035157 ], [ 77.267190741094424, 16.168993106438176 ], [ 77.266940096821529, 16.169039148461387 ], [ 77.267168004644432, 16.169906866765739 ], [ 77.266378528649014, 16.169874131650655 ], [ 77.2655197427449, 16.169860504516681 ], [ 77.265057119178209, 16.16988520481404 ], [ 77.264224791810619, 16.16983948293705 ], [ 77.263866241050764, 16.169819786373861 ], [ 77.262463177822184, 16.169617571785434 ], [ 77.26201507383297, 16.16975121801411 ], [ 77.260589721317785, 16.169429828797313 ], [ 77.259377674928714, 16.169139254588931 ], [ 77.25828545398349, 16.168770084076566 ], [ 77.256901442804676, 16.1684103137354 ], [ 77.25679283455878, 16.168410685035923 ], [ 77.256631474396059, 16.16841123716657 ], [ 77.25536802178253, 16.168082816854504 ], [ 77.254671674133945, 16.167866262354284 ], [ 77.254644143718124, 16.167857700409609 ], [ 77.254661734077487, 16.167315774792488 ], [ 77.254635351818635, 16.165854610537387 ], [ 77.254634203162269, 16.165791004837775 ], [ 77.254622952938661, 16.165380829503764 ], [ 77.254624285744853, 16.165262042089569 ], [ 77.254631093569401, 16.16465546898484 ], [ 77.254638583768468, 16.164434291823987 ], [ 77.253089104977803, 16.164337963098461 ], [ 77.252635981401227, 16.164309790230881 ], [ 77.252283438091695, 16.164287866280002 ], [ 77.252149177328747, 16.16427952265208 ], [ 77.25205480004378, 16.164273650642706 ], [ 77.251375873816613, 16.164231436045988 ], [ 77.250833509643158, 16.164197711121783 ], [ 77.250369298950986, 16.1641688465314 ], [ 77.248546110188983, 16.16404337907543 ], [ 77.248196644321538, 16.163998141417945 ], [ 77.248188185983864, 16.163997049064729 ], [ 77.248255661767644, 16.163850035825934 ], [ 77.248713369181857, 16.162300381616479 ], [ 77.248750249425896, 16.162080578304543 ], [ 77.248778461780105, 16.162017446347086 ], [ 77.249482725282746, 16.160441063154902 ], [ 77.249977657419549, 16.159285593303245 ], [ 77.25005194615359, 16.159087436608754 ], [ 77.250208031999904, 16.158512808799326 ], [ 77.250294070758912, 16.158358957000289 ], [ 77.250799536500935, 16.157455145812825 ], [ 77.250894849024803, 16.157195219352626 ], [ 77.250901673595664, 16.155713594953131 ], [ 77.250903061660509, 16.155413072632463 ], [ 77.251337319312839, 16.154479971868781 ], [ 77.251404251510365, 16.154336142192314 ], [ 77.251431061444393, 16.15416675299965 ], [ 77.25148080678413, 16.153852432696944 ], [ 77.253209886641045, 16.151886352145151 ], [ 77.253419081993826, 16.151865123509442 ], [ 77.253458091689978, 16.151551498509374 ], [ 77.253642525500183, 16.151557774705953 ], [ 77.253828999966345, 16.149664403177994 ], [ 77.254033713134419, 16.148662525687591 ], [ 77.254081148784792, 16.148430377111811 ], [ 77.254269507387917, 16.147926363248519 ], [ 77.254621533435824, 16.147126684376651 ], [ 77.254746690803799, 16.146587469245766 ], [ 77.254782015427693, 16.14643801446503 ], [ 77.255059882334862, 16.145456804590889 ], [ 77.255061585423661, 16.145450785059243 ], [ 77.255656764729352, 16.14546280654055 ], [ 77.25601442316767, 16.145466407193084 ], [ 77.257453283486399, 16.145480876516157 ], [ 77.257450764183929, 16.14414197102187 ], [ 77.257554834173789, 16.143365864770608 ], [ 77.257584773638754, 16.14314257966635 ], [ 77.257620364551599, 16.142133493680074 ], [ 77.257692066923966, 16.1410722430827 ], [ 77.257683026219482, 16.139788094747971 ], [ 77.25769883430749, 16.139451981526861 ], [ 77.257776512916564, 16.137458598297012 ], [ 77.257688173851747, 16.136668340432262 ], [ 77.257609416579569, 16.13619845100817 ], [ 77.257554574102912, 16.135624152407964 ], [ 77.257452534369165, 16.1345555434532 ], [ 77.257265512226397, 16.133598163001267 ], [ 77.257203207533422, 16.133279170917159 ], [ 77.256973108082462, 16.132158649484033 ], [ 77.256926683440341, 16.131717804774087 ], [ 77.256881191596591, 16.131285842634728 ], [ 77.256862347511571, 16.131106910249446 ], [ 77.256831970201588, 16.131018596828241 ], [ 77.25664751188863, 16.131056633945271 ], [ 77.256458409538183, 16.13110146599136 ], [ 77.256365024879145, 16.131123314451507 ], [ 77.255947640965545, 16.131222371648484 ], [ 77.255416470501984, 16.131348431925282 ], [ 77.255197730385191, 16.131400341315121 ], [ 77.254452283660953, 16.131581261601699 ], [ 77.254350291441014, 16.131606018047634 ], [ 77.254107882527009, 16.13167230814226 ], [ 77.253755069831683, 16.131768785982999 ], [ 77.252496022440155, 16.131909253147025 ], [ 77.252135591183006, 16.131949462543904 ], [ 77.251711417411528, 16.131997382261186 ], [ 77.250768411877658, 16.132103910517635 ], [ 77.250664871974593, 16.132115605278543 ], [ 77.250572811583623, 16.132105300303412 ], [ 77.249995798693291, 16.132128126969235 ], [ 77.24863597632779, 16.13218189791893 ], [ 77.248060877395858, 16.132336246970951 ], [ 77.247986616554755, 16.131926871853381 ], [ 77.247880280645148, 16.131340722117205 ], [ 77.247782507380634, 16.130832562503393 ], [ 77.247711798545438, 16.130333272935978 ], [ 77.247527284575526, 16.129243671009707 ], [ 77.247495175452045, 16.129054049759873 ], [ 77.247089760809033, 16.127186123461446 ], [ 77.246858691354063, 16.126121483669742 ], [ 77.246669923821074, 16.125421444887465 ], [ 77.246638377423082, 16.125304459276059 ], [ 77.246493742864814, 16.124386999798404 ], [ 77.246317440315579, 16.123485182247013 ], [ 77.245927845834331, 16.121492300656662 ], [ 77.245763383335813, 16.12091872234722 ], [ 77.245756691227314, 16.120903343967093 ], [ 77.245229537620702, 16.1196922346783 ], [ 77.245224901069051, 16.11967762786086 ], [ 77.245088309437008, 16.119247292054698 ], [ 77.244353977595054, 16.117606493634042 ], [ 77.244332000340194, 16.117557387874541 ], [ 77.244313897198424, 16.117516937887981 ], [ 77.244306688722688, 16.117500830365213 ], [ 77.244286156855253, 16.117434578351695 ], [ 77.244053264716854, 16.116683082560368 ], [ 77.243461917663922, 16.114774908631055 ], [ 77.243204174231167, 16.114301120975909 ], [ 77.243123422849877, 16.114152683155357 ], [ 77.242834352747096, 16.113187888102214 ], [ 77.242649147626935, 16.112494534283446 ], [ 77.242629264244513, 16.112420096286002 ], [ 77.24233819971279, 16.111080868374408 ], [ 77.242345789676406, 16.110389878419976 ], [ 77.242346153670212, 16.110356825772044 ], [ 77.242111256422262, 16.110329903961588 ], [ 77.242146399485264, 16.10957291894751 ], [ 77.242170164598605, 16.109061018237622 ], [ 77.242171333836907, 16.109035830628336 ], [ 77.242171808685669, 16.109025610416619 ], [ 77.24198609549029, 16.109026364567725 ], [ 77.24175115984643, 16.107154000688372 ], [ 77.241692433895039, 16.106685962548433 ], [ 77.241481559484555, 16.105477728784475 ], [ 77.241336065137205, 16.104168352544942 ], [ 77.24127800288565, 16.103645822135483 ], [ 77.241269352374147, 16.103567962921066 ], [ 77.24125303504367, 16.103421114109334 ], [ 77.241250559781648, 16.103398836778396 ], [ 77.241060772110401, 16.102284477552782 ], [ 77.240928614769913, 16.101020314861355 ], [ 77.240927909818453, 16.101000389577688 ], [ 77.240914221174322, 16.100614042652158 ], [ 77.240897937095014, 16.100154393110603 ], [ 77.240851265872507, 16.099726054061886 ], [ 77.240737537681582, 16.09942237180697 ], [ 77.240733366225186, 16.099394079044412 ], [ 77.240634017435639, 16.09872024123262 ], [ 77.240560852110107, 16.098282289851397 ], [ 77.240551187834086, 16.098225277280733 ], [ 77.240542866603846, 16.098176190089962 ], [ 77.240533229970168, 16.098119057972273 ], [ 77.240495843519483, 16.09789738440087 ], [ 77.240524106207758, 16.097681078088115 ], [ 77.240549956829355, 16.09698673232819 ], [ 77.240415250187965, 16.095492173047166 ], [ 77.240397811446996, 16.095371707229031 ], [ 77.240200464744873, 16.094008696102097 ], [ 77.240000351312361, 16.092626525069623 ], [ 77.239922225695096, 16.091418765961272 ], [ 77.239915965365626, 16.091321987696311 ], [ 77.239995073189277, 16.091312010244881 ], [ 77.240002134637592, 16.091311229735052 ], [ 77.241368596292233, 16.091160043369918 ], [ 77.241953287402552, 16.091034135337793 ], [ 77.243055038806446, 16.090796900546668 ], [ 77.243219315774695, 16.090790301301151 ], [ 77.243771747771021, 16.090613526316258 ], [ 77.243888776992975, 16.090549356536101 ], [ 77.244402471720321, 16.090267661616085 ], [ 77.244539492485856, 16.090182291895864 ], [ 77.246699498399011, 16.08883649857674 ], [ 77.247752568953885, 16.088381353591302 ], [ 77.247839293599554, 16.088350790616744 ], [ 77.247891657528598, 16.088327290706836 ], [ 77.248622155272358, 16.087999460036702 ], [ 77.248887243648738, 16.087926230750114 ], [ 77.248951805844627, 16.08790839602781 ], [ 77.248890857891041, 16.087782590854001 ], [ 77.24883999717791, 16.087677605015319 ], [ 77.24881673555376, 16.087639877238786 ], [ 77.248217574421631, 16.086668114947869 ], [ 77.248307748281363, 16.086431684653313 ], [ 77.248159331765166, 16.085602975175114 ], [ 77.248075960499918, 16.085137446848439 ], [ 77.248063934925156, 16.085070304887392 ], [ 77.248049011789945, 16.084986975722071 ], [ 77.247958796326998, 16.084689148240631 ], [ 77.24789728874957, 16.084486096991448 ], [ 77.247751175773359, 16.083932108079825 ], [ 77.247717809056383, 16.083272009769296 ], [ 77.247712816595481, 16.08317323840782 ], [ 77.247562810641966, 16.081112337664436 ], [ 77.247527647230882, 16.080629226815219 ], [ 77.247355266416747, 16.079903420972272 ], [ 77.247287251062772, 16.079617043604376 ], [ 77.247248035671774, 16.079197029052164 ], [ 77.247223240136975, 16.078993703475568 ], [ 77.247142285115146, 16.078329856584261 ], [ 77.247132938560355, 16.078253236295737 ], [ 77.246949492822253, 16.077440740398107 ], [ 77.246843924394625, 16.077074081601207 ], [ 77.246714987508554, 16.076592118787769 ], [ 77.246666162705296, 16.076409611381795 ], [ 77.246536350045801, 16.075924371713494 ], [ 77.246276890329213, 16.074819615936214 ], [ 77.246194742647546, 16.074469833441004 ], [ 77.245777037517229, 16.072457070104761 ], [ 77.245741320611415, 16.07228496056279 ], [ 77.245570779810819, 16.071242349386726 ], [ 77.245563705993618, 16.071199100810233 ], [ 77.245524127612711, 16.070425552436358 ], [ 77.245492093777827, 16.069775088549118 ], [ 77.245398468474619, 16.068780860145111 ], [ 77.245329205989592, 16.068045350755764 ], [ 77.245353881195555, 16.067003847528124 ], [ 77.245406841019459, 16.066019834457069 ], [ 77.245412229995111, 16.06591589812701 ], [ 77.245427180886495, 16.0656393497583 ], [ 77.245463045809743, 16.064975944087468 ], [ 77.245668523450178, 16.063069635536039 ], [ 77.245702174211658, 16.061943382555938 ], [ 77.245644987481427, 16.061217244852287 ], [ 77.245752081461745, 16.06121371727988 ], [ 77.245996411754689, 16.061205669940609 ], [ 77.248357031199532, 16.060622552099115 ], [ 77.248669743387069, 16.060564531500621 ], [ 77.248737879749484, 16.060551894835768 ], [ 77.249756132747081, 16.05996927743773 ], [ 77.249990465126544, 16.059835193135498 ], [ 77.251092135271506, 16.059132359709654 ], [ 77.252254541782975, 16.058390778112916 ], [ 77.252420280484571, 16.058293435110013 ], [ 77.25310587636271, 16.057890769016112 ], [ 77.253993260379801, 16.057466035178631 ], [ 77.254347691690839, 16.057296391423851 ], [ 77.254911668785297, 16.057057839470122 ], [ 77.255666413284075, 16.05662646749192 ], [ 77.25661870280554, 16.0560821847507 ], [ 77.257001684277611, 16.055914728822206 ], [ 77.258151706599861, 16.055411886137929 ], [ 77.258655167576023, 16.055191746854916 ], [ 77.258771614015458, 16.05514082948697 ], [ 77.258898824161562, 16.055086583182018 ], [ 77.259408329694082, 16.05486931110519 ], [ 77.260312365120171, 16.054515910690949 ], [ 77.260484026416378, 16.054448805509871 ], [ 77.261256251414309, 16.054003972906134 ], [ 77.261369760944504, 16.053938586941971 ], [ 77.262529830968532, 16.053346924138044 ], [ 77.262724067166559, 16.053231941594799 ], [ 77.262837364251439, 16.053164874098957 ], [ 77.262860514049137, 16.0531511701071 ], [ 77.262973613355243, 16.053084219375446 ], [ 77.263319976278268, 16.052908952481658 ], [ 77.263705668975419, 16.052644771580887 ], [ 77.263734039096377, 16.05262533965951 ], [ 77.264872624437757, 16.051888914212075 ], [ 77.265122578508965, 16.051781689215879 ], [ 77.265517237147961, 16.051612389683662 ], [ 77.267394607393072, 16.050954032184272 ], [ 77.267503178086685, 16.050915957672011 ], [ 77.267705720554375, 16.05084492923741 ], [ 77.267872592253056, 16.0507864096266 ], [ 77.267947385350496, 16.050754525121171 ], [ 77.268031769053621, 16.050718551283108 ], [ 77.268129811199302, 16.050676761026633 ], [ 77.26843439996307, 16.050546916533193 ], [ 77.269302333362447, 16.050176919700299 ], [ 77.26976101914596, 16.049948464616278 ], [ 77.270601522653507, 16.0495298347236 ], [ 77.270604848653363, 16.049504290168393 ], [ 77.270646463686646, 16.049487183422421 ], [ 77.270629250045147, 16.049316921758567 ], [ 77.270591160439722, 16.048940200582017 ], [ 77.270635755742973, 16.048047248389263 ], [ 77.270592476298987, 16.047060689748719 ], [ 77.270716498271781, 16.046543306025743 ], [ 77.270733936257329, 16.046412527409029 ], [ 77.27073530539775, 16.04640226617288 ], [ 77.27076391133366, 16.046279979793397 ], [ 77.271038966658736, 16.044765827044902 ], [ 77.271103024615698, 16.044086780964815 ], [ 77.271159582308243, 16.043487260370114 ], [ 77.271405155443418, 16.042251879462906 ], [ 77.271524495197312, 16.041651563289005 ], [ 77.27171652800385, 16.040685499133733 ], [ 77.271729823455928, 16.04061863163005 ], [ 77.27208686338048, 16.038335176823811 ], [ 77.272252603403004, 16.038147610097898 ], [ 77.272328881777739, 16.037870444401836 ], [ 77.272407048278794, 16.035982723699103 ], [ 77.272502181498126, 16.035407194059761 ], [ 77.272639769135708, 16.034574830374144 ], [ 77.272890673209972, 16.032871274220316 ], [ 77.272963166796117, 16.031924868384895 ], [ 77.272972286684194, 16.031805901773097 ], [ 77.272983723180133, 16.031656511028732 ], [ 77.273055985461639, 16.031564230946682 ], [ 77.273441764846424, 16.029898239667265 ], [ 77.273442428209179, 16.029896683249024 ], [ 77.273457900843013, 16.029629107065393 ], [ 77.27349355518507, 16.029097658526016 ], [ 77.273504023301555, 16.028990022015044 ], [ 77.273694415077401, 16.027771269908921 ], [ 77.27378608157106, 16.026123026885976 ], [ 77.27379059620219, 16.025913599695837 ], [ 77.273850326227574, 16.025286730206442 ], [ 77.273897093141812, 16.024795773085025 ], [ 77.273951747310264, 16.023765000541641 ], [ 77.273942001904913, 16.023692260147673 ], [ 77.273933075799334, 16.023625623686279 ], [ 77.273894937861442, 16.022773913777851 ], [ 77.273902188414084, 16.022675149638708 ], [ 77.273886253562765, 16.022020115405041 ], [ 77.273854716994663, 16.021552013883678 ], [ 77.273838001551326, 16.021303860184176 ], [ 77.273824653816163, 16.020839641210028 ], [ 77.273815427058025, 16.020517338430658 ], [ 77.273799460771926, 16.019959740416187 ], [ 77.273846725132529, 16.018904080473519 ], [ 77.273876115278952, 16.018247544790349 ], [ 77.273894869305806, 16.017828680209114 ], [ 77.273839558119292, 16.016588604464339 ], [ 77.273893840433388, 16.016576050666689 ], [ 77.27395997452092, 16.016560766671894 ], [ 77.273886722483624, 16.016250406216983 ], [ 77.273845151074383, 16.016074329578288 ], [ 77.27375831714393, 16.015744952035693 ], [ 77.273715912641791, 16.015067761007018 ], [ 77.273848642414208, 16.014402845035313 ], [ 77.273869767495839, 16.014172306465145 ], [ 77.273862144463081, 16.013706089576353 ], [ 77.273844867128872, 16.01292251506257 ], [ 77.27383854053366, 16.01282807219582 ], [ 77.27383632305019, 16.012794918028824 ], [ 77.27374148912763, 16.011377365286389 ], [ 77.273733563961514, 16.011258785148119 ], [ 77.273723444898508, 16.01102242512831 ], [ 77.273706632703608, 16.010629687630676 ], [ 77.273667619321856, 16.009718322067371 ], [ 77.273696942884854, 16.009195118977964 ], [ 77.273715080265717, 16.00887150873444 ], [ 77.273662002276254, 16.008421540589961 ], [ 77.273624664676845, 16.008105006280491 ], [ 77.273615160936956, 16.006890002063646 ], [ 77.273613832518393, 16.006720079453117 ], [ 77.273616050047579, 16.006713815054976 ], [ 77.273876938177352, 16.00597704637422 ], [ 77.273915495199361, 16.005469861794044 ], [ 77.273959921252427, 16.00531653677232 ], [ 77.274144226566378, 16.004680445406347 ], [ 77.274148137798704, 16.004666947349712 ], [ 77.27451829181328, 16.003855730164066 ], [ 77.275032275451011, 16.003163924306829 ], [ 77.275239182554614, 16.00285708308693 ], [ 77.275240299145253, 16.002818684407949 ], [ 77.275265997389369, 16.001934827083279 ], [ 77.275298323046087, 16.001831863711196 ], [ 77.275461288061436, 16.001312969925984 ], [ 77.275782115494508, 16.000263070664385 ], [ 77.275901097472854, 15.999873675521155 ], [ 77.276035914486272, 15.999432491341384 ], [ 77.275991351032616, 15.999251519081387 ], [ 77.275879506437022, 15.998797543118494 ], [ 77.275858619752853, 15.998713730735858 ], [ 77.27553506887385, 15.997416150321184 ], [ 77.275513275168947, 15.99732875 ], [ 77.275440804042148, 15.996371867054597 ], [ 77.275343630586178, 15.995088870423826 ], [ 77.275273195022535, 15.994054342528955 ], [ 77.275251636266617, 15.993847515684786 ], [ 77.27517584188378, 15.993120460956858 ], [ 77.275077399074917, 15.992402392931082 ], [ 77.275204856711269, 15.992035028252991 ], [ 77.275232399254847, 15.991878808556304 ], [ 77.275295568767561, 15.991570242407972 ], [ 77.275281347599943, 15.991098109650416 ], [ 77.275161780845011, 15.990231056759006 ], [ 77.27510052157136, 15.988834650068441 ], [ 77.275093716399965, 15.98809987007945 ], [ 77.275093628686221, 15.988091538639136 ], [ 77.275201426829568, 15.987252960639911 ], [ 77.275232948646178, 15.987048260341862 ], [ 77.275153418703539, 15.987065256462543 ], [ 77.274878790051346, 15.987123937569073 ], [ 77.273708364541534, 15.987374025193917 ], [ 77.272472451841807, 15.987401414883907 ], [ 77.272461312375171, 15.987354956960965 ], [ 77.272254021385109, 15.986490257113109 ], [ 77.271999099877817, 15.986193012059497 ], [ 77.271925695974119, 15.986107422172445 ], [ 77.271635904942798, 15.984605972560789 ], [ 77.27142516052912, 15.98354563949259 ], [ 77.271210305352696, 15.98246464976123 ], [ 77.271119023651423, 15.982080948946852 ], [ 77.270874261464314, 15.981052086341256 ], [ 77.270596541913875, 15.979993826340925 ], [ 77.270407564241381, 15.979273708348268 ], [ 77.270308794885693, 15.978897339487462 ], [ 77.270195570303812, 15.978465885182493 ], [ 77.269648470618762, 15.977342761805714 ], [ 77.269007179804362, 15.976026259806115 ], [ 77.268358586335566, 15.974736321481926 ], [ 77.268332265308203, 15.974683971974999 ], [ 77.268217404809931, 15.974515163371759 ], [ 77.268164256556844, 15.974437053311734 ], [ 77.267997137658796, 15.974154853940231 ], [ 77.267872915298312, 15.973945089731743 ], [ 77.267735625851842, 15.973713260268417 ], [ 77.267425875937619, 15.973190208300515 ], [ 77.267181663927303, 15.972664719522422 ], [ 77.266981576153427, 15.972234175718697 ], [ 77.266973206224435, 15.972214905930576 ], [ 77.26681644237064, 15.971869908211628 ], [ 77.26673099340816, 15.971681856954319 ], [ 77.266721258615775, 15.971658810699523 ], [ 77.266704859249529, 15.971649922897136 ], [ 77.266548974580388, 15.971565432290173 ], [ 77.26646178629862, 15.971518172233825 ], [ 77.266273665069221, 15.97129757092388 ], [ 77.266268276752982, 15.971285480940114 ], [ 77.2662240958322, 15.971186399043573 ], [ 77.265948101009357, 15.970486052373843 ], [ 77.2659001743028, 15.970396152626979 ], [ 77.265824714997876, 15.970127359978262 ], [ 77.265725025258561, 15.969772253918515 ], [ 77.265718666494351, 15.969749603882537 ], [ 77.265626634755577, 15.969421775051371 ], [ 77.26560869871382, 15.969357882011028 ], [ 77.265421181803603, 15.968689916722271 ], [ 77.265377853499828, 15.968283000858397 ], [ 77.265352566086563, 15.968045514129738 ], [ 77.265348316428799, 15.968022391047002 ], [ 77.265273192462928, 15.967613366935744 ], [ 77.265227953188045, 15.967421637139354 ], [ 77.265168505489711, 15.967169665507232 ], [ 77.265120705683699, 15.966967049953579 ], [ 77.265080590004146, 15.966797073397666 ], [ 77.265057579370207, 15.966541830750133 ], [ 77.264951706654983, 15.966330297772791 ], [ 77.264941133757802, 15.966309159226023 ], [ 77.26486700855861, 15.966147476355594 ], [ 77.264752046395174, 15.965896696751333 ], [ 77.264671240814806, 15.965715595953053 ], [ 77.26463965880707, 15.965644799500682 ], [ 77.264514041314101, 15.965363240462455 ], [ 77.26431631453859, 15.964687995828463 ], [ 77.2642581837151, 15.964526456909114 ], [ 77.264102057305109, 15.964092518793022 ], [ 77.263843161066163, 15.963378705637664 ], [ 77.263774434219854, 15.963189208907426 ], [ 77.263652158432109, 15.96285205308612 ], [ 77.263589702341065, 15.962658355245173 ], [ 77.263581656258793, 15.96254923545326 ], [ 77.263581515149653, 15.962547315316902 ], [ 77.263574631753542, 15.962454071219963 ], [ 77.263568264411447, 15.962367774581283 ], [ 77.263566468374535, 15.962343402351459 ], [ 77.263563912962965, 15.962308793982457 ], [ 77.263539347678034, 15.961975906391906 ], [ 77.26344178657078, 15.961716118622931 ], [ 77.263238321089034, 15.961479161240741 ], [ 77.261856785511895, 15.957516820670874 ], [ 77.261831189442489, 15.957231638647391 ], [ 77.26773684313271, 15.955670839118435 ], [ 77.276547184306295, 15.953119944837416 ], [ 77.28253926782115, 15.951002990325271 ], [ 77.288950333458104, 15.951075499982856 ], [ 77.293542504186533, 15.953637927591027 ], [ 77.296694522384314, 15.954898839962606 ], [ 77.29732818927377, 15.954989857072182 ], [ 77.301111734639292, 15.95446175686161 ], [ 77.301255135967352, 15.954433366567791 ], [ 77.301312547691239, 15.95443311979929 ], [ 77.30594740773563, 15.952343441082801 ], [ 77.310337870719991, 15.952573380809538 ], [ 77.32194575448743, 15.953233054871779 ], [ 77.322653477522266, 15.952903625315999 ], [ 77.323257854750253, 15.952865992572326 ], [ 77.323463501104754, 15.952881829474439 ], [ 77.323945873941511, 15.95282619349752 ], [ 77.324527015422248, 15.952769401846348 ], [ 77.325106066990671, 15.952643268378853 ], [ 77.326470789795735, 15.952681594929697 ], [ 77.327390791854342, 15.952817890605978 ], [ 77.32836564701465, 15.952683338439867 ], [ 77.330088504019557, 15.952857397289891 ], [ 77.331899874089373, 15.953135288472211 ], [ 77.333830724913184, 15.952905366250921 ], [ 77.33403537579494, 15.952880994999715 ], [ 77.334626764210029, 15.952863901791426 ], [ 77.335715435143584, 15.952888661059697 ], [ 77.33781049411094, 15.953409762137293 ], [ 77.338491332946887, 15.953425014424925 ], [ 77.342614861682691, 15.953517343907068 ], [ 77.345957027264248, 15.953510043064096 ], [ 77.348147395404851, 15.953467972709545 ], [ 77.350489349866251, 15.95340764107314 ], [ 77.352827840735202, 15.953275299748794 ], [ 77.353663308574255, 15.953328113760412 ], [ 77.35535374345622, 15.953365289883601 ], [ 77.356865803881192, 15.953352818595748 ], [ 77.35726144033346, 15.954826825627489 ], [ 77.358278099575855, 15.955237913789874 ], [ 77.358623484517551, 15.955444458068357 ], [ 77.359679091012254, 15.955714471567457 ], [ 77.36217798856589, 15.956028438021388 ], [ 77.363085189111871, 15.956878249163029 ], [ 77.363983380422582, 15.957940942756943 ], [ 77.364051067682183, 15.958257115874947 ], [ 77.363520627848104, 15.959030672188289 ], [ 77.360328106336468, 15.961485760948998 ], [ 77.359601624444053, 15.962420905501492 ], [ 77.359621438922773, 15.96319417387849 ], [ 77.362188985391526, 15.965490716008601 ], [ 77.362787207968765, 15.966110820251302 ], [ 77.363060602294766, 15.966663035453927 ], [ 77.363508404347598, 15.967834400297548 ], [ 77.363672796028908, 15.969067173634516 ], [ 77.363275474756193, 15.970556939335703 ], [ 77.362771818039562, 15.972071389808541 ], [ 77.362510514163091, 15.972893521621973 ], [ 77.362601212984046, 15.974391760287515 ], [ 77.362807513213838, 15.97496480064121 ], [ 77.362303062348616, 15.97504418642302 ], [ 77.362201265644828, 15.975056318561034 ], [ 77.359813547871994, 15.975340868560002 ], [ 77.359031955432812, 15.975568135079692 ], [ 77.359051727352522, 15.975811234242375 ], [ 77.358643076796739, 15.975983282220026 ], [ 77.358028272791756, 15.976119558103738 ], [ 77.357254220627851, 15.976291127021913 ], [ 77.357121040511842, 15.976628617915042 ], [ 77.356772880320946, 15.976689086924569 ], [ 77.356279606656187, 15.976774756363424 ], [ 77.35462478830371, 15.977028147317567 ], [ 77.354578923478442, 15.977038163090183 ], [ 77.351662602541609, 15.977675020878397 ], [ 77.350042379840858, 15.97808188202985 ], [ 77.349713440024559, 15.978112496978657 ], [ 77.348354243741355, 15.978238992805261 ], [ 77.347706663853558, 15.978404920202168 ], [ 77.34725071718492, 15.978521744129942 ], [ 77.345912107320217, 15.978991383770355 ], [ 77.345018973453847, 15.979138986496075 ], [ 77.343565393843548, 15.979619641159751 ], [ 77.342764290541837, 15.979884536405189 ], [ 77.342778595546505, 15.97995131868853 ], [ 77.342806244653232, 15.980080394798053 ], [ 77.342843889180457, 15.980256141716161 ], [ 77.342844744392536, 15.98026013173831 ], [ 77.342860497246775, 15.980333671905925 ], [ 77.342873104689147, 15.980392529096084 ], [ 77.342884992206578, 15.980448026263272 ], [ 77.34289322964716, 15.980486484473268 ], [ 77.342910578465805, 15.980567473820788 ], [ 77.342925612412429, 15.980637656654283 ], [ 77.342916169391572, 15.980701220505859 ], [ 77.342909088894118, 15.980748885018841 ], [ 77.342898997271973, 15.98081681934724 ], [ 77.342884422306767, 15.980914934444582 ], [ 77.342872915524467, 15.980992387030314 ], [ 77.342864269251606, 15.981050590474073 ], [ 77.342780605208389, 15.98161377213145 ], [ 77.342703832744036, 15.982130566028349 ], [ 77.341772202811597, 15.983528473665917 ], [ 77.341549109601587, 15.983755623017968 ], [ 77.341025671811821, 15.984843596486648 ], [ 77.340718094463369, 15.986064836920704 ], [ 77.34069647856974, 15.986242646067371 ], [ 77.340587377461091, 15.987140145183126 ], [ 77.340585136689185, 15.987158578129513 ], [ 77.340619469374957, 15.987818722922505 ], [ 77.340906034420456, 15.98887621918589 ], [ 77.341468214749099, 15.991053341320521 ], [ 77.341461119575527, 15.991666930280271 ], [ 77.341461707741601, 15.991858176715231 ], [ 77.341773932479668, 15.994164188963792 ], [ 77.341798274138, 15.994340314635817 ], [ 77.341977515674174, 15.995637217972639 ], [ 77.341997134402646, 15.995779162628654 ], [ 77.342011876800953, 15.995885827685049 ], [ 77.342016932738886, 15.995922410728305 ], [ 77.342283625242715, 15.996914833065196 ], [ 77.342463291732827, 15.997583405578933 ], [ 77.34249329922315, 15.99767065179687 ], [ 77.342790430051238, 15.99853454079884 ], [ 77.342829863665017, 15.998649191628802 ], [ 77.343298199406348, 16.000250287358636 ], [ 77.343676600623283, 16.001543907066292 ], [ 77.343703484482219, 16.001635811520092 ], [ 77.343977320261985, 16.002573552903073 ], [ 77.3439929396027, 16.00262703867822 ], [ 77.344030689823285, 16.002756317150116 ], [ 77.34470434173447, 16.002751774443375 ], [ 77.345309227625563, 16.002824107882983 ], [ 77.346039324683758, 16.002911410500484 ], [ 77.346402966158237, 16.002954892831614 ], [ 77.346742631159898, 16.002980553309015 ], [ 77.347456590759535, 16.003034487917734 ], [ 77.348176826808341, 16.003088894407668 ], [ 77.348474062132098, 16.003111347357216 ], [ 77.350072779929562, 16.003439426756959 ], [ 77.350210510325866, 16.003445995749537 ], [ 77.350979366493505, 16.003482669783327 ], [ 77.351287876523969, 16.003497384211034 ], [ 77.351911201738545, 16.00352711305063 ], [ 77.35191714127734, 16.003528251315114 ], [ 77.352053893404189, 16.003554735133324 ], [ 77.352061784083759, 16.003556273906124 ], [ 77.352134489786579, 16.003570440402186 ], [ 77.352201173351034, 16.003583433385387 ], [ 77.352303066168858, 16.003573482996039 ], [ 77.352868890263068, 16.003694398329188 ], [ 77.353202870478043, 16.003706797333503 ], [ 77.353423044043097, 16.003689618540434 ], [ 77.354075121240044, 16.003638739818399 ], [ 77.354157631645947, 16.003632302019369 ], [ 77.354212765482629, 16.003628000012082 ], [ 77.355743116064488, 16.003485101315789 ], [ 77.355947754529041, 16.003477869587687 ], [ 77.356539743905245, 16.003456948662066 ], [ 77.35697255509757, 16.003391839631654 ], [ 77.35732701353767, 16.003339335740446 ], [ 77.358372992916514, 16.003184394866359 ], [ 77.359123293484146, 16.00304008903035 ], [ 77.359604646933576, 16.002947508954747 ], [ 77.36057445672003, 16.002760978511652 ], [ 77.360711606009474, 16.002755696537243 ], [ 77.360875031445204, 16.002749403800657 ], [ 77.360972251665984, 16.00462110701249 ], [ 77.36149255995285, 16.005851436187651 ], [ 77.362211131352439, 16.006475302313412 ], [ 77.364184798068621, 16.00769894008447 ], [ 77.364973017434025, 16.008841514904702 ], [ 77.365389776239908, 16.011737556499305 ], [ 77.365605205104487, 16.012985029320312 ], [ 77.366079653081115, 16.013016501133997 ], [ 77.366138552128845, 16.013025918196611 ], [ 77.366244442217294, 16.013042848237571 ], [ 77.366543161272574, 16.01323122069099 ], [ 77.367232926938215, 16.013093087848528 ], [ 77.367328313060227, 16.013073985281217 ], [ 77.368532113446747, 16.013033404584458 ], [ 77.369105640853519, 16.013019792389354 ], [ 77.369196111503982, 16.013021958263948 ], [ 77.370083575634311, 16.013002870439649 ], [ 77.370128037583655, 16.01299956451302 ], [ 77.37021363642944, 16.012993198937075 ], [ 77.370329996740395, 16.012984547717895 ], [ 77.370960707462856, 16.012947608856912 ], [ 77.371088339940442, 16.012928156569956 ], [ 77.372262064065097, 16.01284087191566 ], [ 77.373161599647418, 16.012663984058552 ], [ 77.373627900186634, 16.012572287623257 ], [ 77.373835427353882, 16.012531477822492 ], [ 77.374002973970462, 16.012399241036324 ], [ 77.375397863911473, 16.011298304405262 ], [ 77.375411214806988, 16.011287804855417 ], [ 77.37725874926879, 16.009834736971865 ], [ 77.377349640018366, 16.009788518214581 ], [ 77.378436792835217, 16.009235689465278 ], [ 77.379510252691972, 16.008567337734924 ], [ 77.379653841751832, 16.008477935359146 ], [ 77.380702712956193, 16.007986552122457 ], [ 77.380992025513905, 16.007846476101754 ], [ 77.381522834038108, 16.008505974914243 ], [ 77.3831525714088, 16.010080469051871 ], [ 77.383163380420598, 16.010090912189337 ], [ 77.383699406494188, 16.010727889901283 ], [ 77.384360658472502, 16.011513672154347 ], [ 77.384504239531779, 16.011443157959135 ], [ 77.384513121650386, 16.011471361934145 ], [ 77.384806855156128, 16.01240404517894 ], [ 77.385177106814879, 16.013192901516522 ], [ 77.385200692967999, 16.013243155029201 ], [ 77.385321526479672, 16.013500599139139 ], [ 77.385686151418881, 16.013786897945593 ], [ 77.386757891920681, 16.013496094800203 ], [ 77.388052193894424, 16.013340902223508 ], [ 77.389264267970148, 16.012628131964917 ], [ 77.389583993438933, 16.012347642853602 ], [ 77.389700734912608, 16.012294722762881 ], [ 77.389836896201473, 16.012232998958563 ], [ 77.389881099122334, 16.012212962383103 ], [ 77.390041897274884, 16.01214217525856 ], [ 77.390161769460178, 16.012061415291857 ], [ 77.390770428749335, 16.011647410489793 ], [ 77.390800658811955, 16.011656963846988 ], [ 77.391115476831459, 16.01175646533342 ], [ 77.391306145143943, 16.011451458023796 ], [ 77.392003403440455, 16.010584396138686 ], [ 77.392525273762644, 16.010284358514916 ], [ 77.392737661750061, 16.010171080194702 ], [ 77.39278797064398, 16.010144244957971 ], [ 77.392816877478111, 16.010128831071583 ], [ 77.393155982900765, 16.010056979293168 ], [ 77.393729733370037, 16.009869586935253 ], [ 77.394823918924942, 16.009512204451006 ], [ 77.395157173078161, 16.009403357104894 ], [ 77.39566707928293, 16.00921908343102 ], [ 77.395680395773965, 16.009214268934358 ], [ 77.396619492355057, 16.008797954162414 ], [ 77.396889612679928, 16.008663691102285 ], [ 77.397092703519618, 16.008574339936267 ], [ 77.3977797907623, 16.008272046905205 ], [ 77.398992005286729, 16.007599884677827 ], [ 77.399212430582807, 16.007544619809359 ], [ 77.399977197777631, 16.007293617178533 ], [ 77.400225072705894, 16.007217917546743 ], [ 77.400315321302443, 16.007190353281327 ], [ 77.400457563757001, 16.007146752903502 ], [ 77.400475657087085, 16.00714121714417 ], [ 77.401012547119393, 16.006976941550093 ], [ 77.402431481329543, 16.006471155006114 ], [ 77.402552611294354, 16.006427975689977 ], [ 77.404060302984277, 16.006038318657055 ], [ 77.404030533078256, 16.005582334268599 ], [ 77.403887256275326, 16.00424620343038 ], [ 77.403694111475758, 16.002955166964973 ], [ 77.403575651822877, 16.002163324791862 ], [ 77.403417678625871, 16.001185961162676 ], [ 77.403022776344855, 15.999520741365265 ], [ 77.403068036797649, 15.999511867132323 ], [ 77.403759224503773, 15.999367443229223 ], [ 77.404288538288554, 15.999284215380776 ], [ 77.404302032979189, 15.999282271148722 ], [ 77.405789180527691, 15.999068266149173 ], [ 77.406842535224726, 15.998880736284852 ], [ 77.407134391370406, 15.998828779072127 ], [ 77.408169230383308, 15.998651950246327 ], [ 77.408864345588796, 15.998532589083325 ], [ 77.409106120500212, 15.998478054491311 ], [ 77.410726587894118, 15.998065724674532 ], [ 77.410805323578984, 15.998040193770763 ], [ 77.412055080100956, 15.997634934684575 ], [ 77.412224368713098, 15.997569637841991 ], [ 77.413429844272002, 15.997104632870151 ], [ 77.41378572315692, 15.996989975744549 ], [ 77.414799085441331, 15.996608929549083 ], [ 77.416944197421671, 15.995785757943098 ], [ 77.417053016592973, 15.995743998283805 ], [ 77.419167337851917, 15.994764398658379 ], [ 77.419269427345725, 15.994718166294865 ], [ 77.42026609596634, 15.994266814339653 ], [ 77.421483834741892, 15.993670831529631 ], [ 77.421715772178786, 15.993557315487607 ], [ 77.422662007977635, 15.993190150907129 ], [ 77.423454430085428, 15.992884719027998 ], [ 77.423507118080579, 15.992868589808179 ], [ 77.425505070289972, 15.992256894113906 ], [ 77.427265726707518, 15.991777296577331 ], [ 77.427287301183156, 15.991772076313527 ], [ 77.428350815394353, 15.991514679597621 ], [ 77.42999218306278, 15.99114230791184 ], [ 77.430183641489762, 15.991098873262709 ], [ 77.431193593687553, 15.990863504614087 ], [ 77.433415617892507, 15.990528627441179 ], [ 77.433659619597904, 15.990697808824793 ], [ 77.433823932643833, 15.990811738695124 ], [ 77.433830348317414, 15.990916338493674 ], [ 77.433762539935131, 15.991755131210189 ], [ 77.432753141133588, 15.992795065686746 ], [ 77.432731634094878, 15.992837722202635 ], [ 77.432420245380086, 15.993455324381653 ], [ 77.431787718733503, 15.994709851656085 ], [ 77.431767100456398, 15.995095254832574 ], [ 77.431764382037187, 15.995146064517455 ], [ 77.43178706552537, 15.995588502633698 ], [ 77.431787265673407, 15.995595550987241 ], [ 77.431874937919659, 15.997077192925607 ], [ 77.431888308860451, 15.997303175326939 ], [ 77.431931583925959, 15.998034491601983 ], [ 77.431938398064176, 15.998149653424788 ], [ 77.431917274795595, 15.99820825055532 ], [ 77.431764645196168, 15.998631655202795 ], [ 77.431061089615895, 16.000449113005409 ], [ 77.431020219359041, 16.000554691746867 ], [ 77.430989792581471, 16.000671404357966 ], [ 77.430811750461984, 16.001354367714203 ], [ 77.430661428024834, 16.001793557235818 ], [ 77.430560426610839, 16.002318427396034 ], [ 77.430343030661589, 16.003152341782577 ], [ 77.429609206060363, 16.00477711595417 ], [ 77.429606452631248, 16.004784132693299 ], [ 77.4294971952433, 16.00506257276809 ], [ 77.42945768345048, 16.005543286151077 ], [ 77.42941850127508, 16.006020057210083 ], [ 77.429409073128625, 16.006134742632167 ], [ 77.429404873444881, 16.006182723556815 ], [ 77.429327587692228, 16.00706576348734 ], [ 77.429292829539705, 16.007462916769889 ], [ 77.429308470750584, 16.008251018471984 ], [ 77.429611630149282, 16.010183285431729 ], [ 77.429921852776076, 16.012792127990995 ], [ 77.430082915036749, 16.013374198495573 ], [ 77.430125468032585, 16.013527981993487 ], [ 77.430370441376539, 16.014952252508763 ], [ 77.43058199125403, 16.015939634435032 ], [ 77.430615235529672, 16.015943497276258 ], [ 77.432424712369183, 16.016153736571717 ], [ 77.43244146108961, 16.016320989777249 ], [ 77.432445381129824, 16.016353360056524 ], [ 77.432988993229728, 16.016413729222911 ], [ 77.433050202852016, 16.016420525718377 ], [ 77.43314321412582, 16.01689912878631 ], [ 77.434108649402162, 16.016904606316622 ], [ 77.434799599901723, 16.017052544051374 ], [ 77.434802025160351, 16.017064909497318 ], [ 77.435218440657721, 16.019188533936831 ], [ 77.435318991089986, 16.020537735578021 ], [ 77.435327525640176, 16.020625575494325 ], [ 77.435585745662792, 16.023283252285367 ], [ 77.435716710384469, 16.026187560498268 ], [ 77.435911060733673, 16.028046810203154 ], [ 77.43603862995613, 16.030085973880183 ], [ 77.436073407797366, 16.030478852143723 ], [ 77.436252165253137, 16.032479358310361 ], [ 77.436255501607349, 16.032514551613151 ], [ 77.436263296963062, 16.032596766458589 ], [ 77.436266024877568, 16.032625242201682 ], [ 77.436269116794421, 16.032657537651968 ], [ 77.437155589825949, 16.032601386042369 ], [ 77.438108289425486, 16.032544710721993 ], [ 77.439662876311957, 16.032348381852632 ], [ 77.441546987300441, 16.032186545029695 ], [ 77.443753992946611, 16.03213038230102 ], [ 77.443536630635023, 16.034955091897015 ], [ 77.443334949434956, 16.039189278106939 ], [ 77.443362943584646, 16.039337827040441 ], [ 77.443384975614279, 16.039343120523071 ], [ 77.443387160614208, 16.039466332431676 ], [ 77.443390628971002, 16.039631443630153 ], [ 77.443052921721176, 16.041563097022859 ], [ 77.443052668548361, 16.041564550668372 ], [ 77.443048059106246, 16.041692924029125 ], [ 77.443054645686118, 16.042142520972074 ], [ 77.443029535930705, 16.042574671820706 ], [ 77.442937563012833, 16.04301002946718 ], [ 77.442670155275408, 16.044471316963094 ], [ 77.442568585378964, 16.044904109239667 ], [ 77.442537722989826, 16.045230860220308 ], [ 77.442426147913991, 16.045963531695151 ], [ 77.442415359353674, 16.046169852188157 ], [ 77.442344107119553, 16.046254022676205 ], [ 77.442319879363282, 16.046357629804689 ], [ 77.442006623546703, 16.047697236559511 ], [ 77.441841048016784, 16.048367795933011 ], [ 77.441729916653557, 16.048817856957093 ], [ 77.441408215240429, 16.050120685634603 ], [ 77.441373784369972, 16.050260119780713 ], [ 77.441319445642932, 16.050480183289292 ], [ 77.441283335938593, 16.050810120583375 ], [ 77.441254070740328, 16.051077518604416 ], [ 77.441492528299833, 16.05164890441382 ], [ 77.441552827821454, 16.051793390443407 ], [ 77.44180184301625, 16.052260395765174 ], [ 77.442118747386715, 16.052691134329038 ], [ 77.442119684159763, 16.052866905724983 ], [ 77.442451185727364, 16.053269065356108 ], [ 77.443067710605675, 16.054698913815081 ], [ 77.443094338217861, 16.054760666464755 ], [ 77.443147920479191, 16.054872000984364 ], [ 77.443613278858052, 16.055838919966032 ], [ 77.443844077892848, 16.056318466270955 ], [ 77.444171294316405, 16.056648353472387 ], [ 77.444254846499533, 16.056732587720465 ], [ 77.444457074253236, 16.057382512910106 ], [ 77.445268204703069, 16.058328186398775 ], [ 77.445845661933831, 16.058833767433814 ], [ 77.447397377624682, 16.060192324013276 ], [ 77.448464873902253, 16.061625173312237 ], [ 77.449096507903747, 16.062053110746145 ], [ 77.449678627834587, 16.062698965105085 ], [ 77.450440479778436, 16.06349382450902 ], [ 77.450511303651069, 16.063568864473211 ], [ 77.450532993807172, 16.063583998034719 ], [ 77.450687797993595, 16.06369148419175 ], [ 77.450823345914074, 16.063728473479237 ], [ 77.450937950019011, 16.063762524614436 ], [ 77.451072899545778, 16.063767360204015 ], [ 77.451387264548913, 16.063778621133721 ], [ 77.451390967570049, 16.063778754866824 ], [ 77.452370333613274, 16.063815213107439 ], [ 77.45241346887768, 16.063838115959118 ], [ 77.452391672653846, 16.063867162984263 ], [ 77.451495576777219, 16.065061393287937 ], [ 77.450712557364184, 16.065642949979789 ], [ 77.45025429310202, 16.065983303789441 ], [ 77.449134157027473, 16.066510311617467 ], [ 77.448784302396447, 16.066751151206834 ], [ 77.448257091513355, 16.067114078854395 ], [ 77.448064449767941, 16.067246691623911 ], [ 77.446287192693944, 16.068883671972852 ], [ 77.446120864204033, 16.069036870259296 ], [ 77.446063638617517, 16.069089579101458 ], [ 77.445860114925978, 16.069342134641534 ], [ 77.445152715062122, 16.070219955711249 ], [ 77.444893960059872, 16.070428214557438 ], [ 77.444553122941542, 16.070479044017542 ], [ 77.444444826077898, 16.070495193714336 ], [ 77.444211359869428, 16.070565815458412 ], [ 77.44379748227945, 16.070807668093376 ], [ 77.443769389783327, 16.070824083714577 ], [ 77.443263450422023, 16.071119730095084 ], [ 77.44309817624891, 16.071216337726664 ], [ 77.442026646369058, 16.071842668818018 ], [ 77.441768251612714, 16.071927016207788 ], [ 77.441554007234174, 16.072170998216453 ], [ 77.441507378204008, 16.072232922019701 ], [ 77.441211591032669, 16.07237609084574 ], [ 77.439356039808089, 16.0730895736361 ], [ 77.43871065189424, 16.073275922678345 ], [ 77.438588517383394, 16.073213880978408 ], [ 77.438473717577438, 16.073155565859679 ], [ 77.438405406484875, 16.073120866023185 ], [ 77.438380706076671, 16.07322406211334 ], [ 77.438364991558757, 16.073289720564194 ], [ 77.438391978998709, 16.07332113631692 ], [ 77.442025257099857, 16.077745621289203 ], [ 77.44190073704047, 16.077779621091636 ], [ 77.438815148956962, 16.078622117223546 ], [ 77.438251011343525, 16.078776145854235 ], [ 77.437291563296071, 16.07919441592497 ], [ 77.43618859833127, 16.079247207058447 ], [ 77.435830899701401, 16.079460808713517 ], [ 77.435564581174233, 16.079619841689656 ], [ 77.434628977428972, 16.080178535262512 ], [ 77.434565679366997, 16.080216456399906 ], [ 77.434403445591926, 16.080324342931814 ], [ 77.43435426143067, 16.080348559558562 ], [ 77.434273521466253, 16.08038831244022 ], [ 77.433806180039582, 16.08061841325021 ], [ 77.432826449149687, 16.08068189818168 ], [ 77.432679246112698, 16.080686465552983 ], [ 77.432421138386715, 16.080594525136519 ], [ 77.432114141371258, 16.080485169438742 ], [ 77.431918761829294, 16.080583207293522 ], [ 77.431587213121944, 16.08074909341407 ], [ 77.431552360921913, 16.080774243113513 ], [ 77.431156353026083, 16.08106001055857 ], [ 77.430972220134237, 16.08117852138351 ], [ 77.430492274905973, 16.081417541219693 ], [ 77.429219346543277, 16.081981902912801 ], [ 77.428746303296904, 16.082145955624075 ], [ 77.428601453156219, 16.082196190072416 ], [ 77.426528347653289, 16.082915134138592 ], [ 77.424958326754691, 16.083030882787522 ], [ 77.425066296279596, 16.083258220422358 ], [ 77.425260163869552, 16.083666422153769 ], [ 77.425442898365247, 16.084051181667235 ], [ 77.426015295453055, 16.085256388313319 ], [ 77.426662425823807, 16.086657346691734 ], [ 77.426945930557736, 16.087461350522727 ], [ 77.427453858733216, 16.089018765147642 ], [ 77.427604088079974, 16.089513007248264 ], [ 77.427930327889499, 16.092359950631955 ], [ 77.428570293705405, 16.09401054905824 ], [ 77.429648795540558, 16.099248240599344 ], [ 77.429726981015065, 16.100409712796612 ], [ 77.429871406347701, 16.102555120717987 ], [ 77.429815874137446, 16.102767502743262 ], [ 77.429763840001044, 16.102966505339317 ], [ 77.427280396097629, 16.103405750001873 ], [ 77.424969293723052, 16.103309816371745 ], [ 77.42480024764204, 16.105219440889513 ], [ 77.42409227844449, 16.106812322074287 ], [ 77.423836692600389, 16.107517767441177 ], [ 77.423279524821041, 16.109055601059129 ], [ 77.423260282057257, 16.109108712963284 ], [ 77.423202201079562, 16.109269020156049 ], [ 77.423345513513723, 16.109310285887151 ], [ 77.423008807740857, 16.109540812803019 ], [ 77.422951282014267, 16.109778096604106 ], [ 77.422796500199027, 16.109986233088687 ], [ 77.4223344932647, 16.110082312019298 ], [ 77.422275504161888, 16.110530834948406 ], [ 77.421971123040322, 16.111775980356793 ], [ 77.42215617697029, 16.112355224726972 ], [ 77.422207846619784, 16.11274644839709 ], [ 77.422440064967375, 16.113916845277515 ], [ 77.424452707017551, 16.114081541291306 ], [ 77.425610378262661, 16.114074568428691 ], [ 77.427894984656334, 16.114129209012695 ], [ 77.427922120968617, 16.114762171778686 ], [ 77.427872391665758, 16.114998402802417 ], [ 77.427572600585606, 16.115460814154556 ], [ 77.42760110957019, 16.115630993571834 ], [ 77.427679482385017, 16.116243835149699 ], [ 77.427632399424354, 16.117592961442202 ], [ 77.427643102400864, 16.117766060613846 ], [ 77.42778198163704, 16.120012236709428 ], [ 77.427860947397136, 16.120014207114014 ], [ 77.427875164782364, 16.120416816666935 ], [ 77.430522871777484, 16.119993750028204 ], [ 77.431437474857958, 16.119945177029905 ], [ 77.433143267489214, 16.119931080460873 ], [ 77.433854907208641, 16.119726510166295 ], [ 77.434361943354773, 16.119717217743702 ], [ 77.434751112746142, 16.119734486779272 ], [ 77.435174665883693, 16.119626215378826 ], [ 77.436073403003192, 16.119451204141104 ], [ 77.436343844464972, 16.119378234942861 ], [ 77.436371628773969, 16.119724176021261 ], [ 77.435703790268079, 16.119815593037906 ], [ 77.435771384375727, 16.120442099384881 ], [ 77.431959053108287, 16.122238758714975 ], [ 77.431284916324415, 16.125554760103721 ], [ 77.431224181764776, 16.125779819865127 ], [ 77.431852327906853, 16.127233693856105 ], [ 77.431789693731147, 16.127541213059882 ], [ 77.432107178786239, 16.127698892418159 ], [ 77.431945480122167, 16.128274581449453 ], [ 77.434310888869064, 16.128141999952181 ], [ 77.434490916007405, 16.128817642661552 ], [ 77.434492630603856, 16.128920413659042 ], [ 77.434411577285559, 16.129499091763748 ], [ 77.434478106147822, 16.130144803489156 ], [ 77.434516006373812, 16.130240617564866 ], [ 77.434655295746495, 16.130286232783867 ], [ 77.436190798726997, 16.130532724821368 ], [ 77.437978391738412, 16.130284383777401 ], [ 77.438982667005149, 16.130828285937277 ], [ 77.439168449023413, 16.131046470969657 ], [ 77.440076153459387, 16.131010316543481 ], [ 77.440749243549547, 16.131020508464427 ], [ 77.442583120353291, 16.131124282953785 ], [ 77.443086767704571, 16.131131926147262 ], [ 77.443660398332113, 16.131193833993404 ], [ 77.443709936158285, 16.13100623982184 ], [ 77.44373977007875, 16.130898867700868 ], [ 77.443986847245739, 16.129495008531954 ], [ 77.444041561723893, 16.128966256614 ], [ 77.444267520346713, 16.127760210478009 ], [ 77.444268563492898, 16.127691283459548 ], [ 77.444342371900476, 16.127682264144749 ], [ 77.444629470356304, 16.12762950234611 ], [ 77.445076319351713, 16.12757471802761 ], [ 77.446523705298205, 16.127468824150952 ], [ 77.447146213489873, 16.127423278522524 ], [ 77.447903944662869, 16.125584904419991 ], [ 77.448038276101414, 16.125258990984587 ], [ 77.448163869445779, 16.124237521150153 ], [ 77.449956677162874, 16.123584289090893 ], [ 77.450435870619643, 16.124877635046762 ], [ 77.4510673508304, 16.126581968653859 ], [ 77.451181357451389, 16.126848278712647 ], [ 77.451755208981965, 16.128188740907717 ], [ 77.45189334061314, 16.128511401534571 ], [ 77.452149926762587, 16.128467923440084 ], [ 77.452239495783076, 16.12869081882749 ], [ 77.452410362776973, 16.128657136263808 ], [ 77.452677557640982, 16.128578889377941 ], [ 77.452722867204258, 16.128579580496183 ], [ 77.453042947277567, 16.129780729307729 ], [ 77.453196447306311, 16.129687895550273 ], [ 77.453839560089875, 16.129298952099923 ], [ 77.4542327860905, 16.129198702240444 ], [ 77.454918812219844, 16.129010003246162 ], [ 77.456892190594786, 16.128340414999006 ], [ 77.457009186709001, 16.128368056445854 ], [ 77.457163637923713, 16.128407932635294 ], [ 77.457294684250087, 16.12844115173024 ], [ 77.457998548935279, 16.128621872890534 ], [ 77.458808764608605, 16.128829896701692 ], [ 77.458948527403706, 16.128808122952154 ], [ 77.459041087617436, 16.128793704494232 ], [ 77.45914936282071, 16.128856523042383 ], [ 77.461440501492689, 16.13018575816173 ], [ 77.461802681277931, 16.130395876891932 ], [ 77.462172210289182, 16.131093114619521 ], [ 77.462556061702273, 16.131701500721597 ], [ 77.462601240038609, 16.131773106245184 ], [ 77.463304786834598, 16.13286732787066 ], [ 77.463961036561656, 16.133523865873421 ], [ 77.464070815985522, 16.133633692546162 ], [ 77.464217772653157, 16.133797839532264 ], [ 77.464765451974785, 16.134944598860933 ], [ 77.464768056740866, 16.135026923334937 ], [ 77.464800606648481, 16.135018209345301 ], [ 77.465168542842832, 16.134919707911134 ], [ 77.465394495346843, 16.13485921560418 ], [ 77.465583185758504, 16.134819958367501 ], [ 77.465617963235914, 16.134801557516521 ], [ 77.466257224045108, 16.134474996238193 ], [ 77.466386832212692, 16.133695341478191 ], [ 77.467118339995992, 16.133869362441278 ], [ 77.468106742327777, 16.134002397800632 ], [ 77.468325294163577, 16.133838250596284 ], [ 77.468431373195855, 16.133758577469212 ], [ 77.468611044117608, 16.133358207877496 ], [ 77.468661569686319, 16.133245618872994 ], [ 77.468952495671957, 16.133222105874182 ], [ 77.469417477295181, 16.133184522576563 ], [ 77.469498590923465, 16.133793225068519 ], [ 77.470171017703152, 16.133736879586586 ], [ 77.47061844993712, 16.133958514224183 ], [ 77.470892692959353, 16.134267279108656 ], [ 77.470861207984385, 16.134579266751615 ], [ 77.470858866963923, 16.134602468417981 ], [ 77.47095789562691, 16.13473217557835 ], [ 77.471002353966341, 16.134693860141887 ], [ 77.471226233925137, 16.134500911274419 ], [ 77.47128418860251, 16.13413096005657 ], [ 77.471266556789217, 16.133899516747224 ], [ 77.471261988353589, 16.133851580233923 ], [ 77.471246613697573, 16.133690272971958 ], [ 77.473171154256505, 16.133972429842366 ], [ 77.473287991599577, 16.133989558824648 ], [ 77.473406880195029, 16.133929246403326 ], [ 77.473691070927487, 16.133785072732802 ], [ 77.473789362779357, 16.133768682428826 ], [ 77.473996864453298, 16.133723250555978 ], [ 77.474141371695524, 16.133695867008516 ], [ 77.474343212676231, 16.133686542681698 ], [ 77.474917788201964, 16.133665561774553 ], [ 77.477612300052215, 16.133567147897249 ], [ 77.47778691166711, 16.133560671485924 ], [ 77.477908589979606, 16.133553410073997 ], [ 77.478635853308873, 16.133510011001171 ], [ 77.478819538168196, 16.133384446086968 ], [ 77.478947771086297, 16.133289109247883 ], [ 77.479809909719805, 16.132648132608438 ], [ 77.481180164481117, 16.132349873270901 ], [ 77.48167396858959, 16.131978825207089 ], [ 77.483130579782198, 16.130846352616867 ], [ 77.488138284864704, 16.127869088303662 ], [ 77.48830186846908, 16.127660420346256 ], [ 77.488491938039687, 16.127591662315982 ], [ 77.490776275813118, 16.126349783085889 ], [ 77.490539142401502, 16.125878673108044 ], [ 77.490737879544454, 16.125765433764698 ], [ 77.491136171434633, 16.127386013111838 ], [ 77.491202118741441, 16.127735809241145 ], [ 77.491573018888545, 16.12998247132257 ], [ 77.491650405043885, 16.130451219364087 ], [ 77.49158901702306, 16.132288368076757 ], [ 77.49152179685062, 16.133569240836643 ], [ 77.4917221920077, 16.134498152775663 ], [ 77.491747210756543, 16.134613595937857 ], [ 77.491832426469941, 16.1348996457866 ], [ 77.4918563856464, 16.134999332357484 ], [ 77.49176337520619, 16.135035980819186 ], [ 77.490986025993763, 16.135342276255852 ], [ 77.490997613801156, 16.135429585055228 ], [ 77.491048775816793, 16.135802250777157 ], [ 77.491056868560563, 16.135876038223568 ], [ 77.491079212460463, 16.137631850502419 ], [ 77.491062979005278, 16.137724969285415 ], [ 77.490979548748129, 16.138260235175242 ], [ 77.490987929972462, 16.140146955293925 ], [ 77.491652425310534, 16.145469936525714 ], [ 77.491666851416085, 16.145585486154811 ], [ 77.491713999806279, 16.145685117175955 ], [ 77.491048014819071, 16.147615617901593 ], [ 77.489892781510292, 16.148816158546971 ], [ 77.489800878572225, 16.148911664971532 ], [ 77.489881309862511, 16.149011208138329 ], [ 77.49094732683848, 16.150330513476234 ], [ 77.491004165078053, 16.150400856356388 ], [ 77.491022330385618, 16.150502252683932 ], [ 77.491578887163058, 16.153608748726345 ], [ 77.491522353299558, 16.154881303266031 ], [ 77.491517945556851, 16.154980530970803 ], [ 77.491497162843672, 16.155087790031221 ], [ 77.490860018654132, 16.158376205375632 ], [ 77.490327272669845, 16.160558023155101 ], [ 77.48932205396946, 16.161723958713822 ], [ 77.487827654723603, 16.16196762858111 ], [ 77.486483893791601, 16.162677312482863 ], [ 77.486355381486902, 16.162745193943255 ], [ 77.486281853742682, 16.162787978803738 ], [ 77.486017940791285, 16.162941498656288 ], [ 77.485820936453081, 16.164128860112832 ], [ 77.485639060175245, 16.164652791387631 ], [ 77.485579265862796, 16.164747985276783 ], [ 77.485671933843733, 16.164783908583615 ], [ 77.486100426003858, 16.165186010511498 ], [ 77.48619880567216, 16.165278467815213 ], [ 77.486134627266182, 16.165289098824228 ], [ 77.486461545660262, 16.165332748843323 ], [ 77.486536662554656, 16.165372846800668 ], [ 77.48680627609528, 16.166640273329669 ], [ 77.48734494990947, 16.16837531719537 ], [ 77.487378963118388, 16.168484923752192 ], [ 77.487466699807968, 16.168767553994403 ], [ 77.487765045479705, 16.170869446439454 ], [ 77.488596763473893, 16.171135151836189 ], [ 77.489080258517248, 16.172993778281842 ], [ 77.489194898468099, 16.173454600896424 ], [ 77.489313894652909, 16.173932934361911 ], [ 77.489181429582672, 16.174270628181734 ], [ 77.48931374869008, 16.174744082281013 ], [ 77.489377448899177, 16.174992748972731 ], [ 77.489391725111076, 16.175048480852148 ], [ 77.489422168421314, 16.175167321410097 ], [ 77.489561412672842, 16.175710890519984 ], [ 77.48975590105583, 16.176059156846904 ], [ 77.489662133047105, 16.17653811500881 ], [ 77.489742916407934, 16.176753273137926 ], [ 77.48992260524615, 16.177046987721422 ], [ 77.490100970438064, 16.178413199669315 ], [ 77.49015312016769, 16.178853971292934 ], [ 77.490179750585355, 16.179419348449542 ], [ 77.490376021215653, 16.179906592434278 ], [ 77.490324613328809, 16.180358129091232 ], [ 77.49030405255111, 16.180538338867674 ], [ 77.489455577089629, 16.180280121586026 ], [ 77.489440083093726, 16.180339199984314 ], [ 77.489389032446482, 16.180535183373316 ], [ 77.489392560837217, 16.181067877978911 ], [ 77.4893424701649, 16.181835716110715 ], [ 77.487659610759565, 16.18144470419265 ], [ 77.48759753381394, 16.181430301091119 ], [ 77.487578089220122, 16.18142605814819 ], [ 77.486749226234892, 16.181246173448841 ], [ 77.486540955639512, 16.181204343789368 ], [ 77.485936927946952, 16.181231273149198 ], [ 77.486012982001483, 16.181478073964936 ], [ 77.486138940043745, 16.182030721150582 ], [ 77.486252817191314, 16.182529171281328 ], [ 77.486043603174394, 16.183239448142338 ], [ 77.485629932367942, 16.183485199434031 ], [ 77.485469445868276, 16.183543601718011 ], [ 77.485432655868607, 16.1835570005458 ], [ 77.485119826617307, 16.183739404942109 ], [ 77.48510959962978, 16.183767653339505 ], [ 77.485034723823702, 16.18380392902807 ], [ 77.484755529137104, 16.183939108068969 ], [ 77.484713293627095, 16.183959572838894 ], [ 77.484677076837698, 16.183971057075976 ], [ 77.484265227198236, 16.184092807350098 ], [ 77.484281172833619, 16.184235135162989 ], [ 77.484212297081626, 16.184259171183545 ], [ 77.484148188612082, 16.184282085578605 ], [ 77.484003065749633, 16.184334142310739 ], [ 77.483707278103566, 16.184440245193738 ], [ 77.483698443449896, 16.184741846744544 ], [ 77.482621029565664, 16.184775695789618 ], [ 77.482263491310789, 16.184794499101255 ], [ 77.481885585207067, 16.184882688483327 ], [ 77.481675991687808, 16.184931600491101 ], [ 77.481585319671183, 16.184952759325228 ], [ 77.481558051659164, 16.185303022417703 ], [ 77.480815307405976, 16.185398418101794 ], [ 77.480520958448238, 16.18545299278691 ], [ 77.480088314097088, 16.18562011287036 ], [ 77.479676851994853, 16.185675295820921 ], [ 77.479597830533152, 16.185685915497725 ], [ 77.478317512243066, 16.185385367398002 ], [ 77.477721812117736, 16.185440588830563 ], [ 77.477760662349695, 16.185684718990565 ], [ 77.478017428752537, 16.186658018031068 ], [ 77.478036534903865, 16.186730730982212 ], [ 77.478052906275522, 16.187336487255649 ], [ 77.476757444842406, 16.18768166773453 ], [ 77.476324302899783, 16.187825496948026 ], [ 77.476033777416959, 16.187921971073436 ], [ 77.475246164928308, 16.187981525990057 ], [ 77.47487024417633, 16.188009841225817 ], [ 77.4730989384108, 16.187979895350502 ], [ 77.472277788404995, 16.187867662347777 ], [ 77.472062960108317, 16.187838315772151 ], [ 77.471565978490091, 16.187879721094514 ], [ 77.471187959374404, 16.188119643900574 ], [ 77.471068238310622, 16.188146284270331 ], [ 77.470945554221743, 16.188142991691549 ], [ 77.470674852093325, 16.188135724332692 ], [ 77.468306383005199, 16.188072130480236 ], [ 77.468244110392376, 16.188073083997388 ], [ 77.466248867914246, 16.188103609830108 ], [ 77.465641915289311, 16.187126272753822 ], [ 77.465628351743121, 16.187054958996718 ], [ 77.465619709468172, 16.187061345407027 ], [ 77.465563991450523, 16.187197873612643 ], [ 77.465392679499217, 16.187439826059393 ], [ 77.465415176165749, 16.187598456231893 ], [ 77.465219879571492, 16.187640208902945 ], [ 77.465007922443448, 16.187807991703867 ], [ 77.464713455937115, 16.188162445337255 ], [ 77.464237826541506, 16.188356950005854 ], [ 77.463979342774337, 16.188329644159293 ], [ 77.463807412084392, 16.188264763973514 ], [ 77.463604108402521, 16.188188035368633 ], [ 77.461628746871142, 16.189283767721992 ], [ 77.461420385008637, 16.189399956338583 ], [ 77.462074199537398, 16.19066700401865 ], [ 77.460151418606685, 16.19294124998833 ], [ 77.460156201332396, 16.193527045088302 ], [ 77.459798160957135, 16.193725181146071 ], [ 77.459221501980679, 16.194044296363561 ], [ 77.459069761461535, 16.194874570509384 ], [ 77.458818342196608, 16.196643265692117 ], [ 77.458046177169976, 16.197366648633636 ], [ 77.457615770110607, 16.198174124034598 ], [ 77.457604077514588, 16.198196043717857 ], [ 77.457547505716164, 16.198302097310748 ], [ 77.457423230601577, 16.200266437182968 ], [ 77.457410045809155, 16.200474845996681 ], [ 77.45739039903097, 16.200785383689908 ], [ 77.458262667815802, 16.200844505681435 ], [ 77.458304723295939, 16.200862739272193 ], [ 77.458301075958531, 16.201663565751069 ], [ 77.458300600941044, 16.201767847458868 ], [ 77.458300008901006, 16.201897754011345 ], [ 77.458140391241642, 16.202095527365078 ], [ 77.458127016779528, 16.202112098145133 ], [ 77.458232554665983, 16.202674317900993 ], [ 77.457565237032, 16.203534795226862 ], [ 77.457429365026044, 16.20355907333364 ], [ 77.457313103378439, 16.203579843593214 ], [ 77.457192777998188, 16.203585467914273 ], [ 77.457123976895346, 16.203613010308139 ], [ 77.45589272369574, 16.204153061702588 ], [ 77.455723098617582, 16.204127947266677 ], [ 77.455525395464761, 16.204098458299057 ], [ 77.455354968310075, 16.204073267918968 ], [ 77.454768919698765, 16.203937863498513 ], [ 77.453877868238536, 16.203838380389257 ], [ 77.453632738169759, 16.203811011186918 ], [ 77.453325312612861, 16.203789241106843 ], [ 77.452733471815463, 16.203845011311309 ], [ 77.452553113778407, 16.203893361491961 ], [ 77.452465156120269, 16.203906701293498 ], [ 77.452287659823568, 16.2039605871839 ], [ 77.451521619225829, 16.204054502102061 ], [ 77.451374064436919, 16.204072593503323 ], [ 77.449940312126373, 16.203968296479342 ], [ 77.449864473704338, 16.203963309737212 ], [ 77.449869121897422, 16.204061889813264 ], [ 77.450034941018458, 16.204640255231027 ], [ 77.450004948679094, 16.204756581438357 ], [ 77.449983944090107, 16.20487909377724 ], [ 77.450001500629838, 16.204994486571419 ], [ 77.450201619492233, 16.206517803436007 ], [ 77.45025722644526, 16.206651032162675 ], [ 77.450362239612119, 16.207517464853041 ], [ 77.45033613891691, 16.207613494640441 ], [ 77.450256803977766, 16.20790539167384 ], [ 77.449319551914485, 16.207961691112079 ], [ 77.449068475961155, 16.207934225902473 ], [ 77.448587155079551, 16.208049231191112 ], [ 77.446995000599685, 16.208275826867002 ], [ 77.446860932146279, 16.208284117151702 ], [ 77.446732327017941, 16.208285799815084 ], [ 77.445678357268008, 16.208374734139909 ], [ 77.445540616937095, 16.208362770923515 ], [ 77.445415775892627, 16.208387364706219 ], [ 77.445257233951963, 16.208431179973349 ], [ 77.443206707035372, 16.208442937107005 ], [ 77.442531942774536, 16.208446799619235 ], [ 77.441016787244848, 16.208627252435466 ], [ 77.440547370698994, 16.20868345397421 ], [ 77.440349975041343, 16.208661596068463 ], [ 77.440254476200664, 16.208653947743418 ], [ 77.440084404193072, 16.208640744656524 ], [ 77.439975718420953, 16.208999068118786 ], [ 77.439417583728357, 16.210111458131355 ], [ 77.438856280127155, 16.210225099781901 ], [ 77.438530236520208, 16.210145355181083 ], [ 77.438130251233858, 16.21033172876507 ], [ 77.437695015696463, 16.210503116467017 ], [ 77.43735391105939, 16.210620245476399 ], [ 77.436624445121396, 16.210870728922846 ], [ 77.435194845757138, 16.210775129612781 ], [ 77.434731028193823, 16.210706961181494 ], [ 77.43455690157198, 16.210736856655526 ], [ 77.434393061634211, 16.210764985451117 ], [ 77.433412256803564, 16.210832473925631 ], [ 77.433144342379975, 16.21085090873872 ], [ 77.431998388539228, 16.210966358950404 ], [ 77.431427984699425, 16.211017533878376 ], [ 77.431264802272764, 16.211177678369634 ], [ 77.431009173154962, 16.211256054984162 ], [ 77.430886265435873, 16.211313265830537 ], [ 77.430743792226195, 16.211322213401068 ], [ 77.430461651678442, 16.211326253342605 ], [ 77.430299468466274, 16.211346348478468 ], [ 77.429309684889034, 16.21166403428802 ], [ 77.426113353745805, 16.211874954319644 ], [ 77.425989714335017, 16.21188311260099 ], [ 77.425886818376483, 16.211911060684205 ], [ 77.424204741079208, 16.212109608416139 ], [ 77.423673750366333, 16.212207535782166 ], [ 77.422869597413808, 16.212355838968715 ], [ 77.422523546919777, 16.212469680440112 ], [ 77.4224264513701, 16.212533354556161 ], [ 77.422025806564903, 16.212647366660871 ], [ 77.42155153191608, 16.21282059443643 ], [ 77.421510324715115, 16.213009204400194 ], [ 77.421484970218941, 16.213017097944455 ], [ 77.421345920936446, 16.213060386772618 ], [ 77.421213257473241, 16.213041641856755 ], [ 77.420208182956443, 16.212968205902257 ], [ 77.420091077490952, 16.212973921412395 ], [ 77.419893065915829, 16.212973206989968 ], [ 77.419798381432543, 16.213001063188582 ], [ 77.419585546928971, 16.213027811834621 ], [ 77.41937287665445, 16.213085400183679 ], [ 77.418817794795643, 16.213108384918542 ], [ 77.418015626308886, 16.213211246116973 ], [ 77.415244393934856, 16.213566574152974 ], [ 77.415117753566832, 16.213620045797509 ], [ 77.415098398811622, 16.21362906366241 ], [ 77.415095774352693, 16.213630285934666 ], [ 77.415019377908621, 16.213665877812272 ], [ 77.414517771650736, 16.213937235514688 ], [ 77.41416607589926, 16.21412749423467 ], [ 77.414022529074472, 16.214218877526616 ], [ 77.41388702173343, 16.214234437669379 ], [ 77.41232617426445, 16.214733643462488 ], [ 77.412175432725348, 16.21480523389997 ], [ 77.411479429011152, 16.215213135193267 ] ], [ [ 77.385900335154233, 16.166921566499912 ], [ 77.38589082779211, 16.167347562404149 ], [ 77.385883252712276, 16.167686980247204 ], [ 77.385923244876892, 16.167905220043572 ], [ 77.386067315923356, 16.168351575547966 ], [ 77.386172647770195, 16.168676790175038 ], [ 77.386299868618266, 16.168980786804298 ], [ 77.386433643667061, 16.169300444516487 ], [ 77.386984102377284, 16.169967303617899 ], [ 77.387455774025469, 16.170538708877384 ], [ 77.387639050862745, 16.170716101773145 ], [ 77.387951132352072, 16.1710181604385 ], [ 77.388470419415626, 16.171324990973979 ], [ 77.389333150866392, 16.1713688718106 ], [ 77.389771052915876, 16.17136392354919 ], [ 77.389975410142796, 16.170529303725178 ], [ 77.390151226275023, 16.170479120959261 ], [ 77.391373015591711, 16.170130383506113 ], [ 77.392611840125809, 16.168738274362017 ], [ 77.392516696268785, 16.167242473956893 ], [ 77.3910547948676, 16.166927368695429 ], [ 77.389084478254262, 16.166543657257151 ], [ 77.387829247827057, 16.166515412380715 ], [ 77.386497928657008, 16.16647103830314 ], [ 77.385900335154233, 16.166921566499912 ] ] ] } }
]
}
