{
"type": "FeatureCollection",
"name": "villages_in_police_area.writing_20260805_172659",
"crs": { "type": "name", "properties": { "name": "urn:ogc:def:crs:OGC:1.3:CRS84" } },
"features": [
{ "type": "Feature", "properties": { "OBJECTID": 27653, "KGISVillageID": 6689, "KGISVillageCode": "2956205475803083", "KGISVillageName": "Shahara Hubli", "KGISHobliID": 371, "UniqueVillageCode": "2956205475803083_2", "Bhucode": "090301002028", "CensusVillageCode": "2956205475803083", "BhoomiVillageCode": null, "created_user": "SA", "created_date": 1556019584000.0, "last_edited_user": "SURESHBV2", "last_edited_date": 1724225687000.0, "LGDGPCode": " ", "LGDGPCode_Secondary": null, "Category": "Cadastral data available and has no bhoomi data", "SHAPE.STArea()": 3093201.0907068802, "SHAPE.STLength()": 14511.200604992842, "LGD_VillageCode": 938702.0, "_overlap_percent": 7.8580489475872985, "_police_station": "Kamaripeth PS", "_police_feature_index": "235", "_admin_layer": "Village", "_geometry_clipped": true }, "geometry": { "type": "Polygon", "coordinates": [ [ [ 75.136307100015912, 15.346657832394033 ], [ 75.136429409427322, 15.346442407226249 ], [ 75.13659166406535, 15.346494366517907 ], [ 75.136659012059411, 15.346603779278645 ], [ 75.136693227934074, 15.346659320248545 ], [ 75.136851776275037, 15.346891037880974 ], [ 75.137014782672992, 15.347129269356394 ], [ 75.137117489464828, 15.347272863889227 ], [ 75.137166356300852, 15.347341184168664 ], [ 75.137150721898237, 15.347401952094529 ], [ 75.137192710106234, 15.347461198035067 ], [ 75.13793815653419, 15.348624373491948 ], [ 75.138389393431027, 15.347938045876182 ], [ 75.138428406913775, 15.347537826832804 ], [ 75.138624665878822, 15.347347135774539 ], [ 75.139135141890407, 15.347156248795182 ], [ 75.139291972133989, 15.346736898704439 ], [ 75.139350884247619, 15.346566766801766 ], [ 75.139938797850959, 15.344868917483527 ], [ 75.140409530654622, 15.343992004201944 ], [ 75.140212779546587, 15.343439477576256 ], [ 75.140428430666404, 15.342886691592344 ], [ 75.140604982091929, 15.342600726985175 ], [ 75.140671941169103, 15.342190580928655 ], [ 75.140658521730089, 15.342188161897624 ], [ 75.140136792161542, 15.342258329528988 ], [ 75.139632972384533, 15.342206265811214 ], [ 75.138967015439519, 15.341840023824894 ], [ 75.136194290636894, 15.341657025182544 ], [ 75.136073429049333, 15.340553477594662 ], [ 75.136040079263637, 15.340263854428157 ], [ 75.136015741812329, 15.340247953567415 ], [ 75.136038725557299, 15.340446632200106 ], [ 75.136044571802898, 15.340497166552993 ], [ 75.136165082572475, 15.3415915821311 ], [ 75.136232271046609, 15.342011026845302 ], [ 75.136284234742888, 15.342034308969453 ], [ 75.136867072514562, 15.342295451284038 ], [ 75.136922964858869, 15.342419761456323 ], [ 75.137037695290019, 15.342674934619785 ], [ 75.137027759099269, 15.342690690928817 ], [ 75.136920813719726, 15.342860270429354 ], [ 75.136850659921876, 15.34297151059541 ], [ 75.136520805797247, 15.343352749940699 ], [ 75.136094856967617, 15.343844642425029 ], [ 75.135973962866359, 15.343910166142173 ], [ 75.135719284609081, 15.344048200820135 ], [ 75.135709838857423, 15.344116726878179 ], [ 75.135656088096468, 15.344506673217168 ], [ 75.135844875894747, 15.344542518659049 ], [ 75.136239629742462, 15.344583799348564 ], [ 75.136272195547136, 15.344759137348579 ], [ 75.136536553866151, 15.344810972836004 ], [ 75.136427825077831, 15.345134615139921 ], [ 75.136339779090562, 15.345419300036772 ], [ 75.136281268440371, 15.34540298707045 ], [ 75.136079371820713, 15.345346695802622 ], [ 75.135995237333717, 15.345323272326636 ], [ 75.136018541600123, 15.345409945269576 ], [ 75.13605856786802, 15.34555881503425 ], [ 75.136042092174648, 15.346207884262718 ], [ 75.135953954299822, 15.346313421186167 ], [ 75.13605280885541, 15.34632803077317 ], [ 75.136287931454845, 15.34668263497449 ], [ 75.136307100015912, 15.346657832394033 ] ] ] } },
{ "type": "Feature", "properties": { "OBJECTID": 27648, "KGISVillageID": 6683, "KGISVillageCode": "0906010008", "KGISVillageName": "Mariyana Thimmasagara", "KGISHobliID": 371, "UniqueVillageCode": "0906010008_1", "Bhucode": "090301002022", "CensusVillageCode": "2956205475803083", "BhoomiVillageCode": "0906010008", "created_user": "SA", "created_date": 1556019584000.0, "last_edited_user": "SURESHBV2", "last_edited_date": 1724225687000.0, "LGDGPCode": " ", "LGDGPCode_Secondary": null, "Category": "Cadastral data available and has bhoomi linkage", "SHAPE.STArea()": 4609015.9880566504, "SHAPE.STLength()": 13086.804059235561, "LGD_VillageCode": 938709.0, "_overlap_percent": 4.291202236580693, "_police_station": "Kamaripeth PS", "_police_feature_index": "235", "_admin_layer": "Village", "_geometry_clipped": true }, "geometry": { "type": "MultiPolygon", "coordinates": [ [ [ [ 75.136042092174648, 15.346207884262718 ], [ 75.13605856786802, 15.34555881503425 ], [ 75.136018541600123, 15.345409945269576 ], [ 75.135995237333717, 15.345323272326636 ], [ 75.136079371820713, 15.345346695802622 ], [ 75.136281268440371, 15.34540298707045 ], [ 75.136339779090562, 15.345419300036772 ], [ 75.136427825077831, 15.345134615139921 ], [ 75.136536553866151, 15.344810972836004 ], [ 75.136272195547136, 15.344759137348579 ], [ 75.136239629742462, 15.344583799348564 ], [ 75.135844875894747, 15.344542518659049 ], [ 75.135656088096468, 15.344506673217168 ], [ 75.135709838857423, 15.344116726878179 ], [ 75.135719284609081, 15.344048200820135 ], [ 75.135973962866359, 15.343910166142173 ], [ 75.136094856967617, 15.343844642425029 ], [ 75.136520805797247, 15.343352749940699 ], [ 75.136850659921876, 15.34297151059541 ], [ 75.136920813719726, 15.342860270429354 ], [ 75.137027759099269, 15.342690690928817 ], [ 75.137037695290019, 15.342674934619785 ], [ 75.136922964858869, 15.342419761456323 ], [ 75.136867072514562, 15.342295451284038 ], [ 75.136284234742888, 15.342034308969453 ], [ 75.136232271046609, 15.342011026845302 ], [ 75.136165082572475, 15.3415915821311 ], [ 75.136044571802898, 15.340497166552993 ], [ 75.136038725557299, 15.340446632200106 ], [ 75.136015741812329, 15.340247953567415 ], [ 75.135732268369239, 15.340062746345648 ], [ 75.135367390455059, 15.339998895755603 ], [ 75.135111980630171, 15.339793655856633 ], [ 75.135043590907514, 15.339296526287123 ], [ 75.134861118720366, 15.339168824915678 ], [ 75.134473480920278, 15.339291966703376 ], [ 75.134235859248037, 15.339670683540559 ], [ 75.134326268649758, 15.340320763675987 ], [ 75.134134405663886, 15.340621943095838 ], [ 75.133824400449271, 15.340994875173187 ], [ 75.133219232788861, 15.341855420640551 ], [ 75.133411424922031, 15.342070351662434 ], [ 75.1336927704658, 15.343088066670303 ], [ 75.133560281390217, 15.343833637781781 ], [ 75.133322141658994, 15.344556166921492 ], [ 75.135294737649943, 15.347028792205661 ], [ 75.135599834886676, 15.346261086335787 ], [ 75.135953954299822, 15.346313421186167 ], [ 75.136042092174648, 15.346207884262718 ] ] ], [ [ [ 75.137166356300852, 15.347341184168664 ], [ 75.137117489464828, 15.347272863889227 ], [ 75.137014782672992, 15.347129269356394 ], [ 75.136851776275037, 15.346891037880974 ], [ 75.136693227934074, 15.346659320248545 ], [ 75.136659012059411, 15.346603779278645 ], [ 75.13659166406535, 15.346494366517907 ], [ 75.136429409427322, 15.346442407226249 ], [ 75.136307100015912, 15.346657832394033 ], [ 75.136287931454845, 15.34668263497449 ], [ 75.136337257772396, 15.346757027310574 ], [ 75.136453930482901, 15.346551575007917 ], [ 75.136616879010859, 15.346604498522732 ], [ 75.136684350878937, 15.346715206763607 ], [ 75.136718630562115, 15.346771406773462 ], [ 75.137040847862153, 15.347246918314321 ], [ 75.137150721898237, 15.347401952094529 ], [ 75.137166356300852, 15.347341184168664 ] ] ] ] } }
]
}
