{
"type": "FeatureCollection",
"name": "hoblis_in_police_area.writing_20260805_172659",
"crs": { "type": "name", "properties": { "name": "urn:ogc:def:crs:OGC:1.3:CRS84" } },
"features": [
{ "type": "Feature", "properties": { "OBJECTID": 388, "KGISHobliID": 574, "KGISHobliCode": "200141", "KGISHobliName": "Kasaba ", "BhuCodeHobli": null, "SHAPE.STArea()": 89716967.367870346, "SHAPE.STLength()": 77128.595071578398, "KGISTalukCode": "2001", "created_user": null, "created_date": null, "last_edited_user": "SURESHBV1", "last_edited_date": 1669289844000.0, "_overlap_percent": 0.44411044219843587, "_police_station": "Banaswadi PS", "_police_feature_index": "724", "_admin_layer": "Hobli", "_geometry_clipped": true }, "geometry": { "type": "Polygon", "coordinates": [ [ [ 77.630805125528255, 13.001676646919201 ], [ 77.633297134168245, 13.002218019529092 ], [ 77.634198712091546, 13.002545641664399 ], [ 77.634251792568818, 13.0025840134916 ], [ 77.635832182168997, 13.003708229676329 ], [ 77.635876533726943, 13.003749200309379 ], [ 77.635912986518775, 13.003782878475553 ], [ 77.636195288454203, 13.004043839380238 ], [ 77.636829806795845, 13.004567556392471 ], [ 77.63685068130782, 13.004584807077684 ], [ 77.63696370310727, 13.004379323608248 ], [ 77.637262424044494, 13.004717322031667 ], [ 77.637381705812359, 13.004433064761262 ], [ 77.637384350532756, 13.004426761022849 ], [ 77.637325547408764, 13.004356343870471 ], [ 77.637272387019522, 13.004292706314265 ], [ 77.637179878560147, 13.004182017315319 ], [ 77.637172778684629, 13.004184505179257 ], [ 77.637061287561579, 13.004223518962403 ], [ 77.636648172903151, 13.003923954333027 ], [ 77.636531375806328, 13.003779766922928 ], [ 77.636379420975473, 13.003592360875055 ], [ 77.636360597335596, 13.003256847541291 ], [ 77.635997611765916, 13.002173982757515 ], [ 77.635887930648977, 13.001410048430968 ], [ 77.635659145694504, 12.999744634597862 ], [ 77.635479823700948, 12.999013241850472 ], [ 77.635358131340794, 12.998467982450007 ], [ 77.634776450602644, 12.99686722416523 ], [ 77.634373319229283, 12.995845807087157 ], [ 77.634253221389997, 12.995872738419296 ], [ 77.634191926699813, 12.99573447137486 ], [ 77.63410517959575, 12.995387249631779 ], [ 77.63369822124541, 12.993990972248863 ], [ 77.633649589272309, 12.993868171113959 ], [ 77.633591292374561, 12.993721285864192 ], [ 77.631893530807162, 12.994052407147722 ], [ 77.632030046553311, 12.995002107850373 ], [ 77.632609617235616, 12.995200237119374 ], [ 77.63325646897097, 12.998175541708624 ], [ 77.63310416666765, 12.998191188809374 ], [ 77.633028877941072, 12.998211994586386 ], [ 77.632586967746619, 12.998334113857531 ], [ 77.632605656368028, 12.998425720541089 ], [ 77.632667164690034, 12.998727218119479 ], [ 77.632242970867452, 12.998813744605544 ], [ 77.632151356461506, 12.998510820280259 ], [ 77.632050061888819, 12.998529794496042 ], [ 77.632020245571425, 12.99835310280856 ], [ 77.631651014986701, 12.998473969636738 ], [ 77.631383469141667, 12.998529268409296 ], [ 77.631198059484461, 12.998514415797237 ], [ 77.630388058059708, 12.998675602894009 ], [ 77.629826229412444, 12.998793638089829 ], [ 77.629168826255807, 12.999008166848048 ], [ 77.628727696141638, 12.999152119399144 ], [ 77.628599505592064, 12.99917613022923 ], [ 77.629475364090581, 13.000729390037293 ], [ 77.629811829262948, 13.00135216695921 ], [ 77.629712553501648, 13.001492220340431 ], [ 77.629711851417639, 13.001497075312532 ], [ 77.630805125528255, 13.001676646919201 ] ] ] } },
{ "type": "Feature", "properties": { "OBJECTID": 409, "KGISHobliID": 1152, "KGISHobliCode": "200408", "KGISHobliName": "Mahadevapura", "BhuCodeHobli": null, "SHAPE.STArea()": 13620065.732134545, "SHAPE.STLength()": 24808.229979750999, "KGISTalukCode": "2004", "created_user": null, "created_date": null, "last_edited_user": "SURESHBV", "last_edited_date": 1655543835000.0, "_overlap_percent": 6.3723568120113123, "_police_station": "Banaswadi PS", "_police_feature_index": "724", "_admin_layer": "Hobli", "_geometry_clipped": true }, "geometry": { "type": "Polygon", "coordinates": [ [ [ 77.633649589272309, 12.993868171113959 ], [ 77.63369822124541, 12.993990972248863 ], [ 77.63410517959575, 12.995387249631779 ], [ 77.634191926699813, 12.99573447137486 ], [ 77.634253221389997, 12.995872738419296 ], [ 77.634373319229283, 12.995845807087157 ], [ 77.634776450602644, 12.99686722416523 ], [ 77.635358131340794, 12.998467982450007 ], [ 77.635479823700948, 12.999013241850472 ], [ 77.635659145694504, 12.999744634597862 ], [ 77.635887930648977, 13.001410048430968 ], [ 77.635997611765916, 13.002173982757515 ], [ 77.636360597335596, 13.003256847541291 ], [ 77.636379420975473, 13.003592360875055 ], [ 77.636531375806328, 13.003779766922928 ], [ 77.636648172903151, 13.003923954333027 ], [ 77.637061287561579, 13.004223518962403 ], [ 77.637172778684629, 13.004184505179257 ], [ 77.637179878560147, 13.004182017315319 ], [ 77.637272387019522, 13.004292706314265 ], [ 77.637325547408764, 13.004356343870471 ], [ 77.637597096931671, 13.004381037223439 ], [ 77.6379827878025, 13.00435981340406 ], [ 77.638539447185721, 13.004233748643212 ], [ 77.639115376013649, 13.004092321361862 ], [ 77.6398724887691, 13.003851453220816 ], [ 77.640472105708128, 13.003677238038334 ], [ 77.641167505141482, 13.003426473506627 ], [ 77.641930590575768, 13.003094717568535 ], [ 77.642671077173489, 13.002775814914335 ], [ 77.643251463181755, 13.002512796808308 ], [ 77.643723507021164, 13.002240267300314 ], [ 77.644261774062954, 13.001887599264826 ], [ 77.644686913127416, 13.001684423340517 ], [ 77.644998775675262, 13.001551693922636 ], [ 77.645105093494735, 13.001499545806402 ], [ 77.641634898614186, 12.997539297359818 ], [ 77.641567535651674, 12.997462915372166 ], [ 77.642102728587105, 12.996695700464942 ], [ 77.642149796699911, 12.996627466293599 ], [ 77.642682921548101, 12.995860924100965 ], [ 77.642706659659879, 12.99581890014781 ], [ 77.641299713832723, 12.995813179740054 ], [ 77.64119849581536, 12.995461646579649 ], [ 77.640668132000968, 12.995729969470728 ], [ 77.640659469441673, 12.995683892773906 ], [ 77.640468303913536, 12.994946105120958 ], [ 77.63958276949387, 12.995030355302179 ], [ 77.637935447444718, 12.9951870731434 ], [ 77.637922394152568, 12.994825286388165 ], [ 77.637919523532986, 12.994777850656376 ], [ 77.637901131799893, 12.994235994521308 ], [ 77.638056806129313, 12.994201664550477 ], [ 77.63796235033908, 12.993817547800086 ], [ 77.637889604477252, 12.993635347293329 ], [ 77.637471390442954, 12.993671214581502 ], [ 77.637439801892327, 12.993406160106758 ], [ 77.637413892496156, 12.993242681036149 ], [ 77.637405021511228, 12.993165981676738 ], [ 77.637386033379272, 12.993005105475035 ], [ 77.634764057520854, 12.993492553848327 ], [ 77.634280297768626, 12.993586906364254 ], [ 77.633591292374561, 12.993721285864192 ], [ 77.633649589272309, 12.993868171113959 ] ] ] } },
{ "type": "Feature", "properties": { "OBJECTID": 384, "KGISHobliID": 1137, "KGISHobliCode": "200101", "KGISHobliName": "Kasaba-1", "BhuCodeHobli": null, "SHAPE.STArea()": 15474792.836377695, "SHAPE.STLength()": 22218.06415823301, "KGISTalukCode": "2001", "created_user": null, "created_date": null, "last_edited_user": "SURESHBV2", "last_edited_date": 1716027397000.0, "_overlap_percent": 22.293866220479476, "_police_station": "Banaswadi PS", "_police_feature_index": "724", "_admin_layer": "Hobli", "_geometry_clipped": true }, "geometry": { "type": "Polygon", "coordinates": [ [ [ 77.63667161639701, 13.026271557805559 ], [ 77.636698505393781, 13.025855680339895 ], [ 77.636723302001542, 13.025797085239237 ], [ 77.636997832554883, 13.025799628398538 ], [ 77.637003626461848, 13.025656154063288 ], [ 77.636968416371687, 13.025217877328723 ], [ 77.637007688411671, 13.02495458076266 ], [ 77.637256320164013, 13.023287655114332 ], [ 77.637359271581175, 13.022651321111127 ], [ 77.637651889848499, 13.022629193358137 ], [ 77.638382954022475, 13.022245653494412 ], [ 77.639709911509186, 13.021766589744677 ], [ 77.641141536674809, 13.021307975152768 ], [ 77.642123826258498, 13.021046531696603 ], [ 77.642024618046989, 13.020912267848491 ], [ 77.642025064567406, 13.020830557919433 ], [ 77.641942595568509, 13.020731488804197 ], [ 77.641927245730528, 13.020713048770782 ], [ 77.641604213170297, 13.020334749386917 ], [ 77.641546893069972, 13.020267616458735 ], [ 77.64145411738123, 13.020100493247705 ], [ 77.641308863126568, 13.019559790927255 ], [ 77.641256723569029, 13.019365701586565 ], [ 77.641144196876482, 13.019198761355108 ], [ 77.641072278706446, 13.018913435682041 ], [ 77.641105738872312, 13.018694948571246 ], [ 77.641190920019511, 13.018002459926278 ], [ 77.641188700664259, 13.017896147662032 ], [ 77.641188699108412, 13.017892871040516 ], [ 77.641188694589587, 13.017886185011799 ], [ 77.641188687482881, 13.01787421230366 ], [ 77.641185776503974, 13.017279401727343 ], [ 77.641185147565352, 13.017142496723315 ], [ 77.641275175523134, 13.016873996456946 ], [ 77.640856547359988, 13.014868970897107 ], [ 77.640851386790317, 13.014615429504268 ], [ 77.640847429133601, 13.014422036099905 ], [ 77.640705799546936, 13.013738384517925 ], [ 77.640646928134956, 13.013222050131441 ], [ 77.64063343473191, 13.013109423979214 ], [ 77.640507738524875, 13.01310119744646 ], [ 77.639205512098343, 13.013016000699459 ], [ 77.638927898340384, 13.012997848091683 ], [ 77.638921216136794, 13.012998383153283 ], [ 77.638868730174892, 13.012724163412745 ], [ 77.638758431202177, 13.012298512612695 ], [ 77.638741527965649, 13.012233934071176 ], [ 77.63873734415111, 13.012219559227111 ], [ 77.63881098841216, 13.012113665450711 ], [ 77.638727809018988, 13.012019111520736 ], [ 77.638726914324522, 13.012016751900443 ], [ 77.638540445221807, 13.011566352934986 ], [ 77.638515027159187, 13.011333799902733 ], [ 77.638508290674949, 13.011289757947985 ], [ 77.638342404381589, 13.010746223330059 ], [ 77.638320640412061, 13.009827592686015 ], [ 77.638404771414272, 13.009539757122516 ], [ 77.638441582549902, 13.00941333435545 ], [ 77.638248378891959, 13.009117576483691 ], [ 77.638168548730121, 13.008355297515299 ], [ 77.638172460841844, 13.007859442481617 ], [ 77.638177705521315, 13.007314388951787 ], [ 77.638237266861196, 13.006331115379906 ], [ 77.638254297987203, 13.006045823335938 ], [ 77.638180275406839, 13.005684354348933 ], [ 77.638183965364078, 13.005568502218731 ], [ 77.637436144851662, 13.005139065148015 ], [ 77.637322621877587, 13.005073752900568 ], [ 77.637262424044494, 13.004717322031667 ], [ 77.63696370310727, 13.004379323608248 ], [ 77.63685068130782, 13.004584807077684 ], [ 77.636829806795845, 13.004567556392471 ], [ 77.636195288454203, 13.004043839380238 ], [ 77.635912986518775, 13.003782878475553 ], [ 77.635876533726943, 13.003749200309379 ], [ 77.635832182168997, 13.003708229676329 ], [ 77.634251792568818, 13.0025840134916 ], [ 77.634198712091546, 13.002545641664399 ], [ 77.633297134168245, 13.002218019529092 ], [ 77.630805125528255, 13.001676646919201 ], [ 77.629711851417639, 13.001497075312532 ], [ 77.629536700345071, 13.00270826023289 ], [ 77.629467617071114, 13.003381225591749 ], [ 77.629467873852875, 13.003521253349479 ], [ 77.629724996095618, 13.004326561733448 ], [ 77.630104843474228, 13.00521189441892 ], [ 77.630145094332846, 13.005331469112873 ], [ 77.629691712296619, 13.005381280372024 ], [ 77.627424508652993, 13.006317436578835 ], [ 77.625720032104752, 13.007021220209719 ], [ 77.622657829471535, 13.008266852269402 ], [ 77.622634537866816, 13.008242243863663 ], [ 77.62262579283373, 13.008366496626175 ], [ 77.621883107763296, 13.008723251814059 ], [ 77.621448194888586, 13.00909097110417 ], [ 77.620925382425128, 13.009712161249595 ], [ 77.62081511993037, 13.009957923881574 ], [ 77.620745308938652, 13.010164156269543 ], [ 77.620654638701453, 13.010577255694603 ], [ 77.620635351569561, 13.010988504580325 ], [ 77.620704002344155, 13.011493723468908 ], [ 77.620850964342168, 13.011943945954847 ], [ 77.621105560292705, 13.012499231639707 ], [ 77.621377964951762, 13.013105153906746 ], [ 77.621538397856995, 13.013467156457676 ], [ 77.621816046341621, 13.014078671171141 ], [ 77.622032509437645, 13.014566584605877 ], [ 77.622158718201874, 13.014849883756902 ], [ 77.622323831250355, 13.015218613648143 ], [ 77.622591494126951, 13.015811030220132 ], [ 77.622612133414663, 13.015857121399964 ], [ 77.622686131620952, 13.016023557697039 ], [ 77.622700602881807, 13.016056106751519 ], [ 77.622721278914327, 13.016102095457192 ], [ 77.622747212688139, 13.01609673604271 ], [ 77.623133848137243, 13.016016836496297 ], [ 77.625171248612872, 13.015040101769655 ], [ 77.626981875333129, 13.014482015489374 ], [ 77.627654793348356, 13.014644828514349 ], [ 77.628274773851672, 13.014778973514053 ], [ 77.628612914890255, 13.015059391625178 ], [ 77.62877320700369, 13.015234048851838 ], [ 77.629269403566596, 13.016343483233948 ], [ 77.629559660266423, 13.016994877770294 ], [ 77.629710887895143, 13.017465422912698 ], [ 77.629816271947789, 13.018014201093603 ], [ 77.629917356481471, 13.018677587647053 ], [ 77.63005184234035, 13.019871359753825 ], [ 77.630013466770748, 13.020392829001432 ], [ 77.629930268375617, 13.020748457232228 ], [ 77.62986885025407, 13.021010986806061 ], [ 77.629857548566875, 13.021787940891896 ], [ 77.629879647334647, 13.022033914486276 ], [ 77.630012534037888, 13.022152079625414 ], [ 77.630537340279375, 13.02244792757452 ], [ 77.630762637276163, 13.022775498267805 ], [ 77.630929458914451, 13.02310605187472 ], [ 77.631046279146503, 13.023549456280996 ], [ 77.631051468246611, 13.023809943712024 ], [ 77.631220890909574, 13.024617329753738 ], [ 77.63143069948778, 13.025269269689728 ], [ 77.631549821133035, 13.025639415366472 ], [ 77.63199772709919, 13.026846731909231 ], [ 77.632251244865657, 13.027306673303963 ], [ 77.632506642150148, 13.027673067278497 ], [ 77.632620894666417, 13.027822508568136 ], [ 77.632762007749889, 13.027753751639146 ], [ 77.633887227936995, 13.027262378688032 ], [ 77.634973907532441, 13.026884319274449 ], [ 77.635815444881473, 13.026631839042018 ], [ 77.63666111464218, 13.026433983015657 ], [ 77.63667161639701, 13.026271557805559 ] ] ] } },
{ "type": "Feature", "properties": { "OBJECTID": 407, "KGISHobliID": 1151, "KGISHobliCode": "200401", "KGISHobliName": "K R Pura-1", "BhuCodeHobli": null, "SHAPE.STArea()": 20780363.088695802, "SHAPE.STLength()": 33217.59788518423, "KGISTalukCode": "2004", "created_user": null, "created_date": null, "last_edited_user": "SURESHBV2", "last_edited_date": 1716027272000.0, "_overlap_percent": 13.910848230009048, "_police_station": "Banaswadi PS", "_police_feature_index": "724", "_admin_layer": "Hobli", "_geometry_clipped": true }, "geometry": { "type": "Polygon", "coordinates": [ [ [ 77.644998775675262, 13.001551693922636 ], [ 77.644686913127416, 13.001684423340517 ], [ 77.644261774062954, 13.001887599264826 ], [ 77.643723507021164, 13.002240267300314 ], [ 77.643251463181755, 13.002512796808308 ], [ 77.642671077173489, 13.002775814914335 ], [ 77.641930590575768, 13.003094717568535 ], [ 77.641167505141482, 13.003426473506627 ], [ 77.640472105708128, 13.003677238038334 ], [ 77.6398724887691, 13.003851453220816 ], [ 77.639115376013649, 13.004092321361862 ], [ 77.638539447185721, 13.004233748643212 ], [ 77.6379827878025, 13.00435981340406 ], [ 77.637597096931671, 13.004381037223439 ], [ 77.637325547408764, 13.004356343870471 ], [ 77.637384350532756, 13.004426761022849 ], [ 77.637381705812359, 13.004433064761262 ], [ 77.637262424044494, 13.004717322031667 ], [ 77.637322621877587, 13.005073752900568 ], [ 77.637436144851662, 13.005139065148015 ], [ 77.638183965364078, 13.005568502218731 ], [ 77.638180275406839, 13.005684354348933 ], [ 77.638254297987203, 13.006045823335938 ], [ 77.638237266861196, 13.006331115379906 ], [ 77.638177705521315, 13.007314388951787 ], [ 77.638172460841844, 13.007859442481617 ], [ 77.638168548730121, 13.008355297515299 ], [ 77.638248378891959, 13.009117576483691 ], [ 77.638441582549902, 13.00941333435545 ], [ 77.638404771414272, 13.009539757122516 ], [ 77.638320640412061, 13.009827592686015 ], [ 77.638342404381589, 13.010746223330059 ], [ 77.638508290674949, 13.011289757947985 ], [ 77.638515027159187, 13.011333799902733 ], [ 77.638540445221807, 13.011566352934986 ], [ 77.638726914324522, 13.012016751900443 ], [ 77.638727809018988, 13.012019111520736 ], [ 77.63881098841216, 13.012113665450711 ], [ 77.63873734415111, 13.012219559227111 ], [ 77.638741527965649, 13.012233934071176 ], [ 77.638758431202177, 13.012298512612695 ], [ 77.638868730174892, 13.012724163412745 ], [ 77.638921216136794, 13.012998383153283 ], [ 77.638927898340384, 13.012997848091683 ], [ 77.639205512098343, 13.013016000699459 ], [ 77.640507738524875, 13.01310119744646 ], [ 77.64063343473191, 13.013109423979214 ], [ 77.640646928134956, 13.013222050131441 ], [ 77.640705799546936, 13.013738384517925 ], [ 77.640847429133601, 13.014422036099905 ], [ 77.640851386790317, 13.014615429504268 ], [ 77.640856547359988, 13.014868970897107 ], [ 77.641275175523134, 13.016873996456946 ], [ 77.641185147565352, 13.017142496723315 ], [ 77.641185776503974, 13.017279401727343 ], [ 77.641188687482881, 13.01787421230366 ], [ 77.641188694589587, 13.017886185011799 ], [ 77.641188699108412, 13.017892871040516 ], [ 77.641188700664259, 13.017896147662032 ], [ 77.641190920019511, 13.018002459926278 ], [ 77.641127177734049, 13.018520659104714 ], [ 77.641105738872312, 13.018694948571246 ], [ 77.641072278706446, 13.018913435682041 ], [ 77.641144196876482, 13.019198761355108 ], [ 77.641256723569029, 13.019365701586565 ], [ 77.641308863126568, 13.019559790927255 ], [ 77.64145411738123, 13.020100493247705 ], [ 77.641546893069972, 13.020267616458735 ], [ 77.641604213170297, 13.020334749386917 ], [ 77.641927245730528, 13.020713048770782 ], [ 77.641942595568509, 13.020731488804197 ], [ 77.642025064567406, 13.020830557919433 ], [ 77.642024618046989, 13.020912267848491 ], [ 77.642123826258498, 13.021046531696603 ], [ 77.641141536674809, 13.021307975152768 ], [ 77.639709911509186, 13.021766589744677 ], [ 77.638382954022475, 13.022245653494412 ], [ 77.637651889848499, 13.022629193358137 ], [ 77.637359271581175, 13.022651321111127 ], [ 77.637256320164013, 13.023287655114332 ], [ 77.637007688411671, 13.02495458076266 ], [ 77.636968416371687, 13.025217877328723 ], [ 77.637003626461848, 13.025656154063288 ], [ 77.636997832554883, 13.025799628398538 ], [ 77.636723302001542, 13.025797085239237 ], [ 77.636698505393781, 13.025855680339895 ], [ 77.63667161639701, 13.026271557805559 ], [ 77.63666111464218, 13.026433983015657 ], [ 77.636986143651029, 13.026357938026075 ], [ 77.637150438473142, 13.026320129498155 ], [ 77.639011595035441, 13.025992891206576 ], [ 77.639649648508865, 13.025884758228864 ], [ 77.639936983735382, 13.025774551499191 ], [ 77.640115360993661, 13.025707237178162 ], [ 77.640555990435402, 13.025499481252089 ], [ 77.64311948500611, 13.024394907855873 ], [ 77.644487524611961, 13.023781317639772 ], [ 77.646411847354031, 13.022953129953361 ], [ 77.647913605057724, 13.022298635227786 ], [ 77.65127054430188, 13.020816621972321 ], [ 77.652745270571472, 13.020168026462613 ], [ 77.654675792520436, 13.019441355314537 ], [ 77.655392849102299, 13.01915427721806 ], [ 77.655581439477501, 13.019051595471389 ], [ 77.655617750723223, 13.019028860113076 ], [ 77.65506319731584, 13.018037780393458 ], [ 77.654953072388778, 13.016853353862148 ], [ 77.654357479946128, 13.015606598591795 ], [ 77.654281713633793, 13.015101748814084 ], [ 77.65445726776295, 13.015077756971264 ], [ 77.654235351441145, 13.014125013176104 ], [ 77.654617531781312, 13.0140954867873 ], [ 77.654482445704772, 13.0131491716608 ], [ 77.654197396288751, 13.013188680534661 ], [ 77.654177645284278, 13.012910793870853 ], [ 77.652392542886645, 13.012409153736495 ], [ 77.651348555885249, 13.012345367379243 ], [ 77.651259525900358, 13.012454873848847 ], [ 77.649823915581251, 13.013157936073291 ], [ 77.649727011458566, 13.013214427346607 ], [ 77.646686606900914, 13.011545487459259 ], [ 77.646432330372278, 13.011329725535795 ], [ 77.646798624865355, 13.010653761629744 ], [ 77.647329873575515, 13.009950387864368 ], [ 77.648000379850785, 13.009047201278504 ], [ 77.647946201082661, 13.00818672793498 ], [ 77.648640796479327, 13.007235874753801 ], [ 77.649171146397904, 13.006219386623371 ], [ 77.649252569088162, 13.005946392425017 ], [ 77.648978951525905, 13.005171880853414 ], [ 77.648944546689165, 13.005074492676718 ], [ 77.648316459588202, 13.005158738401404 ], [ 77.648224468304235, 13.00505936047103 ], [ 77.648223028432852, 13.005059543199346 ], [ 77.648223295885614, 13.005058094129973 ], [ 77.645105093494735, 13.001499545806402 ], [ 77.644998775675262, 13.001551693922636 ] ] ] } }
]
}
