{
"type": "FeatureCollection",
"name": "wards_in_police_area.writing_20260805_172659",
"crs": { "type": "name", "properties": { "name": "urn:ogc:def:crs:OGC:1.3:CRS84" } },
"features": [
{ "type": "Feature", "properties": { "KGISWardID": 4975, "KGISWardCode": "2003050", "KGISWardName": "Benniganahalli", "SHAPE.STArea()": 4894790.9911809396, "SHAPE.STLength()": 11220.358976852745, "OBJECTID": 18893, "KGISWardNo": "50", "KGISTownCode": "2003", "LGD_WardCode": 1302722, "created_user": "SA", "created_date": 1634898537000, "last_edited_user": "SURESHBV1", "last_edited_date": 1692254014000, "_overlap_percent": 14.678291882962155, "_police_station": "Banaswadi PS", "_police_feature_index": "724", "_admin_layer": "Ward", "_geometry_clipped": true }, "geometry": { "type": "MultiPolygon", "coordinates": [ [ [ [ 77.641085000011628, 12.998201999559921 ], [ 77.640689999810803, 12.99881300002964 ], [ 77.640094999838709, 12.999975000180672 ], [ 77.63962499999171, 13.000792999884057 ], [ 77.63957099997792, 13.000892000191609 ], [ 77.639261999839434, 13.001337000098125 ], [ 77.638821999728904, 13.001940000186872 ], [ 77.638714999866522, 13.002148000201746 ], [ 77.638632999774842, 13.002377000399653 ], [ 77.638528999891335, 13.002667999956866 ], [ 77.638060000449059, 13.002920000090532 ], [ 77.637716999943279, 13.003094999960675 ], [ 77.637392000145809, 13.003260000112945 ], [ 77.637089999827538, 13.00342300004381 ], [ 77.636758000161819, 13.003617999597976 ], [ 77.636420000276487, 13.003820999812 ], [ 77.636290000205918, 13.0039109998034 ], [ 77.636861999884729, 13.004378000190245 ], [ 77.637183000243908, 13.004736999617251 ], [ 77.637464000116964, 13.00504999989864 ], [ 77.637583000440159, 13.005181999930381 ], [ 77.637719000416411, 13.005279999981195 ], [ 77.638445000077496, 13.005653000086486 ], [ 77.638123000180428, 13.005484999834838 ], [ 77.638075000405479, 13.005459000081206 ], [ 77.638372000344077, 13.005416999985307 ], [ 77.638700000430703, 13.005440999554077 ], [ 77.639130000234772, 13.005538999690017 ], [ 77.639330999564478, 13.005603000167939 ], [ 77.639722999753957, 13.005722999703734 ], [ 77.640278000389628, 13.005895000152579 ], [ 77.640534000062829, 13.005952000406539 ], [ 77.640988999827883, 13.006042999717691 ], [ 77.641611000241468, 13.006074000396334 ], [ 77.641934999573778, 13.006098000246533 ], [ 77.642228000080422, 13.006141999599285 ], [ 77.642543000182116, 13.006193999991382 ], [ 77.642831000010688, 13.006244000258668 ], [ 77.643143999622382, 13.006267000304051 ], [ 77.643448999633847, 13.006290000163498 ], [ 77.643629999597607, 13.006303999697126 ], [ 77.644122999970293, 13.006335999658805 ], [ 77.644499999582195, 13.006387999839024 ], [ 77.644848999573554, 13.006411000283698 ], [ 77.645061000396808, 13.006407999658695 ], [ 77.645167000117027, 13.006407000223444 ], [ 77.645481000413298, 13.006366000288697 ], [ 77.645828999579692, 13.006965999764486 ], [ 77.645947000295322, 13.007152000410379 ], [ 77.646076000319383, 13.007287000314889 ], [ 77.646186999632135, 13.007412999794473 ], [ 77.646295000251399, 13.007474999602518 ], [ 77.646335999813687, 13.007512000135984 ], [ 77.646478999612029, 13.007696000025266 ], [ 77.646628999900329, 13.007895999831053 ], [ 77.64669399966975, 13.007980000446986 ], [ 77.646738999986823, 13.008010000288488 ], [ 77.646767000265129, 13.007968000175012 ], [ 77.647101999967546, 13.007794000431517 ], [ 77.647228999752443, 13.007747999790459 ], [ 77.647506000024265, 13.007645999680991 ], [ 77.647978999773756, 13.007472999907224 ], [ 77.648042000155584, 13.007450999598532 ], [ 77.648014999625502, 13.00757299990881 ], [ 77.648178000300277, 13.007561000217208 ], [ 77.648402000163784, 13.007543999814949 ], [ 77.648416500305089, 13.007542920743205 ], [ 77.648640796479327, 13.007235874753801 ], [ 77.649171146397904, 13.006219386623371 ], [ 77.649252569088162, 13.005946392425017 ], [ 77.648978951525905, 13.005171880853414 ], [ 77.648944546689165, 13.005074492676718 ], [ 77.648316459588202, 13.005158738401404 ], [ 77.648224468304235, 13.00505936047103 ], [ 77.648223028432852, 13.005059543199346 ], [ 77.648223295885614, 13.005058094129973 ], [ 77.641634898614186, 12.997539297359818 ], [ 77.641580261063638, 12.997477344551394 ], [ 77.641085000011628, 12.998201999559921 ] ] ], [ [ [ 77.64266725634215, 12.995883447983235 ], [ 77.642682921548101, 12.995860924100965 ], [ 77.642706659659879, 12.99581890014781 ], [ 77.642597389865088, 12.995818455874996 ], [ 77.64266725634215, 12.995883447983235 ] ] ], [ [ [ 77.64068199957434, 12.995726999871453 ], [ 77.640739358331118, 12.995693934480579 ], [ 77.640681311943922, 12.995723301443419 ], [ 77.64068199957434, 12.995726999871453 ] ] ], [ [ [ 77.637978999850148, 12.994216999837851 ], [ 77.637967353573231, 12.99422139101182 ], [ 77.638056806129313, 12.994201664550477 ], [ 77.638053881254194, 12.99418977016555 ], [ 77.637978999850148, 12.994216999837851 ] ] ], [ [ [ 77.637889999968024, 12.993702000112288 ], [ 77.637952000115433, 12.993883999912116 ], [ 77.638009000301565, 12.994049999679465 ], [ 77.6380475376763, 12.994163973181388 ], [ 77.63796235033908, 12.993817547800086 ], [ 77.637889604477252, 12.993635347293329 ], [ 77.637867299117502, 12.993637260267789 ], [ 77.637889999968024, 12.993702000112288 ] ] ], [ [ [ 77.637394000348337, 12.993179999729973 ], [ 77.637412999956496, 12.993440000155411 ], [ 77.637340999747863, 12.993452999664372 ], [ 77.637353000455718, 12.993592000404588 ], [ 77.637360999845527, 12.993684999725444 ], [ 77.637433999544129, 12.993676000263774 ], [ 77.637464999740061, 12.993672000408861 ], [ 77.637471386914882, 12.993671184978032 ], [ 77.637439801892327, 12.993406160106758 ], [ 77.637413892496156, 12.993242681036149 ], [ 77.637405021511228, 12.993165981676738 ], [ 77.637403047642891, 12.993149258154897 ], [ 77.637394000348337, 12.993179999729973 ] ] ] ] } },
{ "type": "Feature", "properties": { "KGISWardID": 4994, "KGISWardCode": "2003059", "KGISWardName": "Maruthi Seva Nagar", "SHAPE.STArea()": 2378011.2340616002, "SHAPE.STLength()": 7700.1350248830977, "OBJECTID": 18902, "KGISWardNo": "59", "KGISTownCode": "2003", "LGD_WardCode": 1302731, "created_user": "SA", "created_date": 1634898537000, "last_edited_user": "SURESHBV1", "last_edited_date": 1692254014000, "_overlap_percent": 43.003624432606053, "_police_station": "Banaswadi PS", "_police_feature_index": "724", "_admin_layer": "Ward", "_geometry_clipped": true }, "geometry": { "type": "MultiPolygon", "coordinates": [ [ [ [ 77.631245999762172, 13.004745999857535 ], [ 77.63179000015522, 13.004584999685095 ], [ 77.632626000169566, 13.00437400008224 ], [ 77.632681999559267, 13.00427800041559 ], [ 77.632656999619243, 13.004144000428663 ], [ 77.632578999564103, 13.00415999977259 ], [ 77.632482999627882, 13.004179000343003 ], [ 77.632455999550999, 13.004183999993526 ], [ 77.632449000390253, 13.004155000234634 ], [ 77.632279000411629, 13.004194000381986 ], [ 77.632206999758097, 13.004210000191286 ], [ 77.632189000131135, 13.004155999974047 ], [ 77.632062999587831, 13.004196000000572 ], [ 77.632027000035961, 13.004207000089849 ], [ 77.631995999570975, 13.004113999691377 ], [ 77.631909999546451, 13.004146999921966 ], [ 77.631780000055159, 13.004196999554578 ], [ 77.631745000115458, 13.004119000118539 ], [ 77.631712000128118, 13.00404499965391 ], [ 77.631614000272151, 13.004087000193524 ], [ 77.631606000108803, 13.004069999680812 ], [ 77.631585000071638, 13.00407199960164 ], [ 77.631416000027528, 13.003786000417472 ], [ 77.631239000327426, 13.003501000028063 ], [ 77.631105999681765, 13.003277999660247 ], [ 77.631053999608866, 13.00325400025174 ], [ 77.630972999678477, 13.003219999607134 ], [ 77.630838000430842, 13.00316400001587 ], [ 77.630683000255345, 13.003086000016292 ], [ 77.63059300043389, 13.002980000214347 ], [ 77.630650999628173, 13.00250699967185 ], [ 77.630737000183132, 13.002002000207733 ], [ 77.630797000214812, 13.001565000146909 ], [ 77.631669999945757, 13.001728000062558 ], [ 77.63189900029883, 13.001774000222193 ], [ 77.63225599988759, 13.001846000220512 ], [ 77.632665000083009, 13.001927999592855 ], [ 77.63311099978138, 13.002018000168247 ], [ 77.633449000219954, 13.002099000287746 ], [ 77.633521999665405, 13.002117999868204 ], [ 77.633703000110316, 13.002165000337513 ], [ 77.633899999878025, 13.002217000353793 ], [ 77.633942999914382, 13.002228000158068 ], [ 77.634105000164766, 13.002280000189037 ], [ 77.634272000272816, 13.00233199994398 ], [ 77.634474000154015, 13.002429999882624 ], [ 77.634619999752076, 13.00251900019582 ], [ 77.634922000071271, 13.002766999698419 ], [ 77.635044999972848, 13.002860000442608 ], [ 77.635216999970268, 13.003005999626406 ], [ 77.635490000287902, 13.003238999885159 ], [ 77.636242999687894, 13.003881000026473 ], [ 77.636290000205918, 13.0039109998034 ], [ 77.636420000276487, 13.003820999812 ], [ 77.636758000161819, 13.003617999597976 ], [ 77.637089999827538, 13.00342300004381 ], [ 77.637392000145809, 13.003260000112945 ], [ 77.637716999943279, 13.003094999960675 ], [ 77.638060000449059, 13.002920000090532 ], [ 77.638528999891335, 13.002667999956866 ], [ 77.638632999774842, 13.002377000399653 ], [ 77.638714999866522, 13.002148000201746 ], [ 77.638821999728904, 13.001940000186872 ], [ 77.639261999839434, 13.001337000098125 ], [ 77.63957099997792, 13.000892000191609 ], [ 77.63962499999171, 13.000792999884057 ], [ 77.640094999838709, 12.999975000180672 ], [ 77.640689999810803, 12.99881300002964 ], [ 77.641085000011628, 12.998201999559921 ], [ 77.641580261063638, 12.997477344551394 ], [ 77.641567535651674, 12.997462915372166 ], [ 77.642102728587105, 12.996695700464942 ], [ 77.642149796699911, 12.996627466293599 ], [ 77.64266725634215, 12.995883447983235 ], [ 77.642597389865088, 12.995818455874996 ], [ 77.641299713832723, 12.995813179740054 ], [ 77.64119849581536, 12.995461646579649 ], [ 77.640739358331118, 12.995693934480579 ], [ 77.64068199957434, 12.995726999871453 ], [ 77.640681311943922, 12.995723301443419 ], [ 77.640668132000968, 12.995729969470728 ], [ 77.640659469441673, 12.995683892773906 ], [ 77.640468303913536, 12.994946105120958 ], [ 77.63958276949387, 12.995030355302179 ], [ 77.637935447444718, 12.9951870731434 ], [ 77.637922394152568, 12.994825286388165 ], [ 77.637919523532986, 12.994777850656376 ], [ 77.637901131799893, 12.994235994521308 ], [ 77.637967353573231, 12.99422139101182 ], [ 77.637978999850148, 12.994216999837851 ], [ 77.638053881254194, 12.99418977016555 ], [ 77.6380475376763, 12.994163973181388 ], [ 77.638009000301565, 12.994049999679465 ], [ 77.637952000115433, 12.993883999912116 ], [ 77.637889999968024, 12.993702000112288 ], [ 77.637867299117502, 12.993637260267789 ], [ 77.637471390442954, 12.993671214581502 ], [ 77.637471386914882, 12.993671184978032 ], [ 77.637464999740061, 12.993672000408861 ], [ 77.637433999544129, 12.993676000263774 ], [ 77.637360999845527, 12.993684999725444 ], [ 77.637353000455718, 12.993592000404588 ], [ 77.637340999747863, 12.993452999664372 ], [ 77.637412999956496, 12.993440000155411 ], [ 77.637394000348337, 12.993179999729973 ], [ 77.637403047642891, 12.993149258154897 ], [ 77.637386033379272, 12.993005105475035 ], [ 77.634764057520854, 12.993492553848327 ], [ 77.634280297768626, 12.993586906364254 ], [ 77.631893530807162, 12.994052407147722 ], [ 77.632030046553311, 12.995002107850373 ], [ 77.632609617235616, 12.995200237119374 ], [ 77.63325646897097, 12.998175541708624 ], [ 77.63310416666765, 12.998191188809374 ], [ 77.633028877941072, 12.998211994586386 ], [ 77.632586967746619, 12.998334113857531 ], [ 77.632605656368028, 12.998425720541089 ], [ 77.632667164690034, 12.998727218119479 ], [ 77.632242970867452, 12.998813744605544 ], [ 77.632151356461506, 12.998510820280259 ], [ 77.632050061888819, 12.998529794496042 ], [ 77.632020245571425, 12.99835310280856 ], [ 77.631651014986701, 12.998473969636738 ], [ 77.631383469141667, 12.998529268409296 ], [ 77.631198059484461, 12.998514415797237 ], [ 77.630388058059708, 12.998675602894009 ], [ 77.629826229412444, 12.998793638089829 ], [ 77.629168826255807, 12.999008166848048 ], [ 77.628727696141638, 12.999152119399144 ], [ 77.628599505592064, 12.99917613022923 ], [ 77.629475364090581, 13.000729390037293 ], [ 77.629811829262948, 13.00135216695921 ], [ 77.629712553501648, 13.001492220340431 ], [ 77.629536700345071, 13.00270826023289 ], [ 77.629467617071114, 13.003381225591749 ], [ 77.629467873852875, 13.003521253349479 ], [ 77.629724996095618, 13.004326561733448 ], [ 77.630092731644368, 13.005183664662797 ], [ 77.631245999762172, 13.004745999857535 ] ] ], [ [ [ 77.622694999916945, 13.00826300012236 ], [ 77.622868807843005, 13.008181031226552 ], [ 77.622687042060107, 13.008254969274958 ], [ 77.622694999916945, 13.00826300012236 ] ] ] ] } },
{ "type": "Feature", "properties": { "KGISWardID": 4931, "KGISWardCode": "2003028", "KGISWardName": "Kammanahalli", "SHAPE.STArea()": 1015052.999443855, "SHAPE.STLength()": 4907.7415679848909, "OBJECTID": 18871, "KGISWardNo": "28", "KGISTownCode": "2003", "LGD_WardCode": 1302700, "created_user": "SA", "created_date": 1634898537000, "last_edited_user": "SURESHBV1", "last_edited_date": 1692254014000, "_overlap_percent": 99.999999999999943, "_police_station": "Banaswadi PS", "_police_feature_index": "724", "_admin_layer": "Ward", "_geometry_clipped": true }, "geometry": { "type": "Polygon", "coordinates": [ [ [ 77.639552999929421, 13.01198400016164 ], [ 77.639579000192086, 13.01170599965111 ], [ 77.639609999985709, 13.011426999685035 ], [ 77.639975000343043, 13.011363000355725 ], [ 77.64010399957877, 13.011349999860858 ], [ 77.640134999928037, 13.011351999697677 ], [ 77.6402269998881, 13.011371000305125 ], [ 77.640288000452571, 13.011381999751221 ], [ 77.640489999618055, 13.011425000374215 ], [ 77.640499000373566, 13.011428000175686 ], [ 77.64075099974967, 13.011467999912734 ], [ 77.640785000351755, 13.011473000031996 ], [ 77.6411320000649, 13.011526999566504 ], [ 77.641413999742767, 13.011601999839554 ], [ 77.641680999611594, 13.011686999643398 ], [ 77.641948000082863, 13.011761000220137 ], [ 77.641969000027046, 13.011674000130064 ], [ 77.642006000403413, 13.01155500027035 ], [ 77.642036000162918, 13.011449000306042 ], [ 77.642042999757606, 13.01115800034272 ], [ 77.642044000292117, 13.011137999685111 ], [ 77.642047999690661, 13.010999999619688 ], [ 77.642058999690761, 13.010742999967135 ], [ 77.642069999689966, 13.010640000433071 ], [ 77.642038000326494, 13.01051899960483 ], [ 77.641919999948399, 13.010064000145817 ], [ 77.641907000091265, 13.009868999646285 ], [ 77.641896000310339, 13.009482999685927 ], [ 77.641896999634341, 13.009389999677524 ], [ 77.641890999792253, 13.009079999827057 ], [ 77.641890999751993, 13.008888999959575 ], [ 77.641889000077654, 13.008686999860174 ], [ 77.641878999795793, 13.008175000385782 ], [ 77.641741000281172, 13.00808699975172 ], [ 77.641635999909255, 13.008020999592459 ], [ 77.641465999752285, 13.007913999982625 ], [ 77.641377000191795, 13.007849000341354 ], [ 77.641197999607101, 13.007740999944 ], [ 77.640775999695137, 13.007435000086559 ], [ 77.640607000062474, 13.007303999730331 ], [ 77.640502000425641, 13.007221999726037 ], [ 77.640389000368074, 13.007134000291272 ], [ 77.640205999740729, 13.007000000062009 ], [ 77.63968800029869, 13.006587000189548 ], [ 77.639581000402998, 13.006489000001068 ], [ 77.639472999565228, 13.006394000200872 ], [ 77.63928499958908, 13.006230000080167 ], [ 77.639096000192112, 13.006070000276118 ], [ 77.638445000077496, 13.005653000086486 ], [ 77.637719000416411, 13.005279999981195 ], [ 77.637583000440159, 13.005181999930381 ], [ 77.637464000116964, 13.00504999989864 ], [ 77.637183000243908, 13.004736999617251 ], [ 77.636861999884729, 13.004378000190245 ], [ 77.636290000205918, 13.0039109998034 ], [ 77.636242999687894, 13.003881000026473 ], [ 77.635490000287902, 13.003238999885159 ], [ 77.635216999970268, 13.003005999626406 ], [ 77.635044999972848, 13.002860000442608 ], [ 77.634922000071271, 13.002766999698419 ], [ 77.634619999752076, 13.00251900019582 ], [ 77.634474000154015, 13.002429999882624 ], [ 77.634272000272816, 13.00233199994398 ], [ 77.634105000164766, 13.002280000189037 ], [ 77.633942999914382, 13.002228000158068 ], [ 77.633899999878025, 13.002217000353793 ], [ 77.633703000110316, 13.002165000337513 ], [ 77.633521999665405, 13.002117999868204 ], [ 77.633449000219954, 13.002099000287746 ], [ 77.63311099978138, 13.002018000168247 ], [ 77.632665000083009, 13.001927999592855 ], [ 77.63225599988759, 13.001846000220512 ], [ 77.63189900029883, 13.001774000222193 ], [ 77.631669999945757, 13.001728000062558 ], [ 77.630797000214812, 13.001565000146909 ], [ 77.630737000183132, 13.002002000207733 ], [ 77.630650999628173, 13.00250699967185 ], [ 77.63059300043389, 13.002980000214347 ], [ 77.630683000255345, 13.003086000016292 ], [ 77.630838000430842, 13.00316400001587 ], [ 77.630972999678477, 13.003219999607134 ], [ 77.631053999608866, 13.00325400025174 ], [ 77.631105999681765, 13.003277999660247 ], [ 77.631239000327426, 13.003501000028063 ], [ 77.631416000027528, 13.003786000417472 ], [ 77.631585000071638, 13.00407199960164 ], [ 77.631606000108803, 13.004069999680812 ], [ 77.631614000272151, 13.004087000193524 ], [ 77.631712000128118, 13.00404499965391 ], [ 77.631745000115458, 13.004119000118539 ], [ 77.631780000055159, 13.004196999554578 ], [ 77.631909999546451, 13.004146999921966 ], [ 77.631995999570975, 13.004113999691377 ], [ 77.632027000035961, 13.004207000089849 ], [ 77.632062999587831, 13.004196000000572 ], [ 77.632189000131135, 13.004155999974047 ], [ 77.632206999758097, 13.004210000191286 ], [ 77.632279000411629, 13.004194000381986 ], [ 77.632449000390253, 13.004155000234634 ], [ 77.632455999550999, 13.004183999993526 ], [ 77.632482999627882, 13.004179000343003 ], [ 77.632578999564103, 13.00415999977259 ], [ 77.632656999619243, 13.004144000428663 ], [ 77.632681999559267, 13.00427800041559 ], [ 77.632626000169566, 13.00437400008224 ], [ 77.632633999920216, 13.004444999952765 ], [ 77.632659000256865, 13.004571000255581 ], [ 77.632682999940485, 13.004690000258673 ], [ 77.632665000023636, 13.004692999719321 ], [ 77.632574000352861, 13.004708999997201 ], [ 77.632574000268221, 13.004711000143182 ], [ 77.632577000315123, 13.004724999629362 ], [ 77.632583999684201, 13.004760999883944 ], [ 77.632589999791392, 13.004788999758727 ], [ 77.632598000358072, 13.004831000226474 ], [ 77.632606000082191, 13.004870999653447 ], [ 77.632553999938153, 13.004881000392844 ], [ 77.632536000422888, 13.004884999915758 ], [ 77.632482000133976, 13.004895000156903 ], [ 77.632414999766937, 13.004907999698329 ], [ 77.632397000255196, 13.004912000115704 ], [ 77.632337999568691, 13.004922999638929 ], [ 77.632279999825585, 13.004934999908626 ], [ 77.632261999890744, 13.004938000248845 ], [ 77.632195000411031, 13.004950999728417 ], [ 77.632134999599202, 13.004963000393419 ], [ 77.632116999649114, 13.004965999820968 ], [ 77.632056999738168, 13.004977999556646 ], [ 77.632003000311968, 13.004987999696079 ], [ 77.631984999861217, 13.004992000096509 ], [ 77.631943000394728, 13.005000000310712 ], [ 77.631918000348364, 13.005005000413258 ], [ 77.631866000112879, 13.005015000121798 ], [ 77.631846000438898, 13.005019000014126 ], [ 77.631909999700682, 13.005321999920138 ], [ 77.631891000124185, 13.005325000443142 ], [ 77.631883000204624, 13.005362000278089 ], [ 77.631960000141063, 13.005684999810802 ], [ 77.631956999819565, 13.005738999856931 ], [ 77.631975999661051, 13.005864999694621 ], [ 77.631979999705734, 13.005890999858277 ], [ 77.631395999664946, 13.006981999592 ], [ 77.631382999714987, 13.007109999900859 ], [ 77.631407999932449, 13.007377999932061 ], [ 77.631417999693042, 13.00749099982594 ], [ 77.631704000167048, 13.007685000047699 ], [ 77.631671000239322, 13.007687999879902 ], [ 77.631609999661009, 13.00771900033139 ], [ 77.632122999659501, 13.008092000230647 ], [ 77.632308000424104, 13.008224999996383 ], [ 77.632426000156187, 13.008403999893451 ], [ 77.632442999542008, 13.008532000167847 ], [ 77.632471000242461, 13.008832999785122 ], [ 77.632500000034213, 13.009001000397637 ], [ 77.632515999864495, 13.009096000275079 ], [ 77.632581999550808, 13.00947600022295 ], [ 77.632593000420954, 13.009595000155606 ], [ 77.632600999673272, 13.009713999834988 ], [ 77.632593999590995, 13.009760000127974 ], [ 77.632584999978477, 13.009825000406808 ], [ 77.632578000001516, 13.009880000445886 ], [ 77.632488000403043, 13.010556999817947 ], [ 77.632487999666949, 13.010588000258899 ], [ 77.632483999598236, 13.010652000314304 ], [ 77.63245099968124, 13.01093100038948 ], [ 77.632397000190849, 13.011327999909685 ], [ 77.63237099988558, 13.011548999738098 ], [ 77.63234500023276, 13.011717000247771 ], [ 77.632481000323637, 13.011733000434507 ], [ 77.632452999886723, 13.011942999893886 ], [ 77.632453000430047, 13.012173000233775 ], [ 77.632461000186467, 13.012384000207652 ], [ 77.632483000112515, 13.012877000358355 ], [ 77.632489000051976, 13.012932000330697 ], [ 77.632753000457157, 13.012921999834536 ], [ 77.633051999915168, 13.012902999899904 ], [ 77.633092999834588, 13.012900999916933 ], [ 77.633326000350721, 13.012888999991482 ], [ 77.633433999631322, 13.012880000243726 ], [ 77.633602000229132, 13.012866999699684 ], [ 77.63373400001251, 13.012855999858656 ], [ 77.633914000358345, 13.012842000034752 ], [ 77.634045000449774, 13.012831000256281 ], [ 77.634255999676512, 13.012813000329283 ], [ 77.635388999974097, 13.012705000108086 ], [ 77.63546599966638, 13.013122000184314 ], [ 77.63554100036373, 13.013447999685077 ], [ 77.635588000227244, 13.01368500017194 ], [ 77.635614000148365, 13.013797000287282 ], [ 77.635642000160914, 13.013915000358494 ], [ 77.63569599969739, 13.014147999822313 ], [ 77.635709000162109, 13.014185000342387 ], [ 77.635785999959964, 13.014395000145182 ], [ 77.636188999944309, 13.014278000097384 ], [ 77.636656999876223, 13.01421299980065 ], [ 77.636681000038905, 13.014210000364189 ], [ 77.636846999985394, 13.01418900020856 ], [ 77.6368879995659, 13.014184000291186 ], [ 77.637184999888845, 13.014145999931051 ], [ 77.637226999558067, 13.014139999659616 ], [ 77.637578000005746, 13.01410099973895 ], [ 77.637926999977708, 13.014068000247013 ], [ 77.638597000357606, 13.013997999983467 ], [ 77.638803999569248, 13.013983000092358 ], [ 77.638970999842471, 13.013973000033436 ], [ 77.639309999759192, 13.013964000040376 ], [ 77.639372000257353, 13.013638000238872 ], [ 77.639395999997888, 13.013453000108468 ], [ 77.639405999818791, 13.013318000386818 ], [ 77.639477000136338, 13.012674999761691 ], [ 77.639552999929421, 13.01198400016164 ] ] ] } },
{ "type": "Feature", "properties": { "KGISWardID": 4974, "KGISWardCode": "2003049", "KGISWardName": "Lingarajapura", "SHAPE.STArea()": 883429.53525859001, "SHAPE.STLength()": 4419.5901878758832, "OBJECTID": 18892, "KGISWardNo": "49", "KGISTownCode": "2003", "LGD_WardCode": 1302721, "created_user": "SA", "created_date": 1634898537000, "last_edited_user": "SURESHBV1", "last_edited_date": 1692254014000, "_overlap_percent": 99.42169887431767, "_police_station": "Banaswadi PS", "_police_feature_index": "724", "_admin_layer": "Ward", "_geometry_clipped": true }, "geometry": { "type": "Polygon", "coordinates": [ [ [ 77.620764000208553, 13.010167000171098 ], [ 77.62066799960111, 13.01082000030191 ], [ 77.620697000308169, 13.011284999587151 ], [ 77.620932999892005, 13.011973000053148 ], [ 77.622079999721933, 13.014553000332608 ], [ 77.622487999792853, 13.014400999627675 ], [ 77.622644999659158, 13.01434700010571 ], [ 77.622695999599586, 13.014330999738 ], [ 77.622796000168861, 13.014299000227746 ], [ 77.62285699965085, 13.014279000453444 ], [ 77.62290099971888, 13.014268999961265 ], [ 77.622994999587718, 13.014248999695335 ], [ 77.623259000112498, 13.014192000358721 ], [ 77.623430000395942, 13.014147999586719 ], [ 77.623445000030074, 13.014144000188551 ], [ 77.62354000010113, 13.014121000226273 ], [ 77.623814999713872, 13.014055999572729 ], [ 77.623895000086435, 13.01403699981322 ], [ 77.62405400038314, 13.013956999840284 ], [ 77.624160000339813, 13.013903999842443 ], [ 77.624229000079936, 13.013868999856287 ], [ 77.624472000199034, 13.013691000146526 ], [ 77.624640000220566, 13.01357499995126 ], [ 77.624751999713951, 13.013520000311575 ], [ 77.625003999640484, 13.013396000043182 ], [ 77.62525300008781, 13.013289999712951 ], [ 77.625099000098899, 13.012964000419345 ], [ 77.625096999895604, 13.012957000250333 ], [ 77.625111000291867, 13.012951999969962 ], [ 77.625093999553897, 13.012908999801665 ], [ 77.625066999789539, 13.012842999693222 ], [ 77.625056000326978, 13.012825000331988 ], [ 77.625554999781443, 13.012629999811303 ], [ 77.625915000039399, 13.012498999795486 ], [ 77.626165999540447, 13.012941999912368 ], [ 77.626219999799417, 13.013042000033968 ], [ 77.627237000122278, 13.012597000433688 ], [ 77.627291999944035, 13.012583999632875 ], [ 77.627416999878264, 13.012562999978082 ], [ 77.627566999860861, 13.012544000063604 ], [ 77.627660999912877, 13.012529999638884 ], [ 77.627798999734722, 13.012515999608302 ], [ 77.627857999631317, 13.012515999796692 ], [ 77.628221000324899, 13.012540999832177 ], [ 77.628608999551432, 13.012562000411315 ], [ 77.628699999571552, 13.012611000416401 ], [ 77.628798999900653, 13.012660999760151 ], [ 77.628831000418231, 13.012676999978362 ], [ 77.629018999797438, 13.012722000028567 ], [ 77.629133000117122, 13.012748999919465 ], [ 77.629260999701046, 13.012773000331054 ], [ 77.62948700039577, 13.012814000168374 ], [ 77.629549000051313, 13.012825000169801 ], [ 77.629860000355151, 13.012878999640289 ], [ 77.630104999729497, 13.012921999702588 ], [ 77.630304999943547, 13.012929999869488 ], [ 77.630654999873698, 13.012948000307711 ], [ 77.63073099987902, 13.01295200020615 ], [ 77.63085799988238, 13.012956000323769 ], [ 77.630947999844636, 13.012961000029948 ], [ 77.63106100003985, 13.012959999883858 ], [ 77.631294000132513, 13.012958999859638 ], [ 77.63138300018997, 13.012959000159984 ], [ 77.631741000286823, 13.012954000270252 ], [ 77.632010999564542, 13.012946000314145 ], [ 77.632231000231926, 13.012940000034586 ], [ 77.632489000051976, 13.012932000330697 ], [ 77.632483000112515, 13.012877000358355 ], [ 77.632461000186467, 13.012384000207652 ], [ 77.632453000430047, 13.012173000233775 ], [ 77.632452999886723, 13.011942999893886 ], [ 77.632481000323637, 13.011733000434507 ], [ 77.63234500023276, 13.011717000247771 ], [ 77.63237099988558, 13.011548999738098 ], [ 77.632397000190849, 13.011327999909685 ], [ 77.63245099968124, 13.01093100038948 ], [ 77.632483999598236, 13.010652000314304 ], [ 77.632487999666949, 13.010588000258899 ], [ 77.632488000403043, 13.010556999817947 ], [ 77.632578000001516, 13.009880000445886 ], [ 77.632584999978477, 13.009825000406808 ], [ 77.632593999590995, 13.009760000127974 ], [ 77.632600999673272, 13.009713999834988 ], [ 77.632593000420954, 13.009595000155606 ], [ 77.632581999550808, 13.00947600022295 ], [ 77.632515999864495, 13.009096000275079 ], [ 77.632500000034213, 13.009001000397637 ], [ 77.632471000242461, 13.008832999785122 ], [ 77.632442999542008, 13.008532000167847 ], [ 77.632426000156187, 13.008403999893451 ], [ 77.632308000424104, 13.008224999996383 ], [ 77.632122999659501, 13.008092000230647 ], [ 77.631609999661009, 13.00771900033139 ], [ 77.631671000239322, 13.007687999879902 ], [ 77.631704000167048, 13.007685000047699 ], [ 77.631417999693042, 13.00749099982594 ], [ 77.631407999932449, 13.007377999932061 ], [ 77.631382999714987, 13.007109999900859 ], [ 77.631395999664946, 13.006981999592 ], [ 77.631979999705734, 13.005890999858277 ], [ 77.631975999661051, 13.005864999694621 ], [ 77.631956999819565, 13.005738999856931 ], [ 77.631960000141063, 13.005684999810802 ], [ 77.631883000204624, 13.005362000278089 ], [ 77.631891000124185, 13.005325000443142 ], [ 77.631909999700682, 13.005321999920138 ], [ 77.631846000438898, 13.005019000014126 ], [ 77.631866000112879, 13.005015000121798 ], [ 77.631918000348364, 13.005005000413258 ], [ 77.631943000394728, 13.005000000310712 ], [ 77.631984999861217, 13.004992000096509 ], [ 77.632003000311968, 13.004987999696079 ], [ 77.632056999738168, 13.004977999556646 ], [ 77.632116999649114, 13.004965999820968 ], [ 77.632134999599202, 13.004963000393419 ], [ 77.632195000411031, 13.004950999728417 ], [ 77.632261999890744, 13.004938000248845 ], [ 77.632279999825585, 13.004934999908626 ], [ 77.632337999568691, 13.004922999638929 ], [ 77.632397000255196, 13.004912000115704 ], [ 77.632414999766937, 13.004907999698329 ], [ 77.632482000133976, 13.004895000156903 ], [ 77.632536000422888, 13.004884999915758 ], [ 77.632553999938153, 13.004881000392844 ], [ 77.632606000082191, 13.004870999653447 ], [ 77.632598000358072, 13.004831000226474 ], [ 77.632589999791392, 13.004788999758727 ], [ 77.632583999684201, 13.004760999883944 ], [ 77.632577000315123, 13.004724999629362 ], [ 77.632574000268221, 13.004711000143182 ], [ 77.632574000352861, 13.004708999997201 ], [ 77.632665000023636, 13.004692999719321 ], [ 77.632682999940485, 13.004690000258673 ], [ 77.632659000256865, 13.004571000255581 ], [ 77.632633999920216, 13.004444999952765 ], [ 77.632626000169566, 13.00437400008224 ], [ 77.63179000015522, 13.004584999685095 ], [ 77.631245999762172, 13.004745999857535 ], [ 77.630092731644368, 13.005183664662797 ], [ 77.630104843474228, 13.00521189441892 ], [ 77.630145094332846, 13.005331469112873 ], [ 77.629691712296619, 13.005381280372024 ], [ 77.627424508652993, 13.006317436578835 ], [ 77.625720032104752, 13.007021220209719 ], [ 77.622868807843005, 13.008181031226552 ], [ 77.622694999916945, 13.00826300012236 ], [ 77.622630954292219, 13.008293160657189 ], [ 77.62262579283373, 13.008366496626175 ], [ 77.621883107763296, 13.008723251814059 ], [ 77.621448194888586, 13.00909097110417 ], [ 77.620925382425128, 13.009712161249595 ], [ 77.62081511993037, 13.009957923881574 ], [ 77.620805309589414, 13.009986905134967 ], [ 77.620764000208553, 13.010167000171098 ] ] ] } },
{ "type": "Feature", "properties": { "KGISWardID": 4935, "KGISWardCode": "2003030", "KGISWardName": "Kadugondanahalli", "SHAPE.STArea()": 702012.17358390999, "SHAPE.STLength()": 3837.1931626574278, "OBJECTID": 18873, "KGISWardNo": "30", "KGISTownCode": "2003", "LGD_WardCode": 1302702, "created_user": "SA", "created_date": 1634898537000, "last_edited_user": "SURESHBV1", "last_edited_date": 1692254014000, "_overlap_percent": 0.53309710431578905, "_police_station": "Banaswadi PS", "_police_feature_index": "724", "_admin_layer": "Ward", "_geometry_clipped": true }, "geometry": { "type": "Polygon", "coordinates": [ [ [ 77.622079999721933, 13.014553000332608 ], [ 77.620932999892005, 13.011973000053148 ], [ 77.620697000308169, 13.011284999587151 ], [ 77.62066799960111, 13.01082000030191 ], [ 77.620764000208553, 13.010167000171098 ], [ 77.620805309589414, 13.009986905134967 ], [ 77.620745308938652, 13.010164156269543 ], [ 77.620654638701453, 13.010577255694603 ], [ 77.620635351569561, 13.010988504580325 ], [ 77.620704002344155, 13.011493723468908 ], [ 77.620850964342168, 13.011943945954847 ], [ 77.621105560292705, 13.012499231639707 ], [ 77.621377964951762, 13.013105153906746 ], [ 77.621538397856995, 13.013467156457676 ], [ 77.621816046341621, 13.014078671171141 ], [ 77.622032509437645, 13.014566584605877 ], [ 77.622158718201874, 13.014849883756902 ], [ 77.622323831250355, 13.015218613648143 ], [ 77.622591494126951, 13.015811030220132 ], [ 77.622612133414663, 13.015857121399964 ], [ 77.622686131620952, 13.016023557697039 ], [ 77.622700602881807, 13.016056106751519 ], [ 77.622721278914327, 13.016102095457192 ], [ 77.622747212688139, 13.01609673604271 ], [ 77.622764586376931, 13.016093145710119 ], [ 77.622079999721933, 13.014553000332608 ] ] ] } },
{ "type": "Feature", "properties": { "KGISWardID": 4930, "KGISWardCode": "2003027", "KGISWardName": "Banasavadi", "SHAPE.STArea()": 3434431.4052511952, "SHAPE.STLength()": 9030.0802852093693, "OBJECTID": 18870, "KGISWardNo": "27", "KGISTownCode": "2003", "LGD_WardCode": 1302699, "created_user": "SA", "created_date": 1634898537000, "last_edited_user": "SURESHBV1", "last_edited_date": 1692254014000, "_overlap_percent": 66.081578796849371, "_police_station": "Banaswadi PS", "_police_feature_index": "724", "_admin_layer": "Ward", "_geometry_clipped": true }, "geometry": { "type": "Polygon", "coordinates": [ [ [ 77.648402000163784, 13.007543999814949 ], [ 77.648178000300277, 13.007561000217208 ], [ 77.648014999625502, 13.00757299990881 ], [ 77.648042000155584, 13.007450999598532 ], [ 77.647978999773756, 13.007472999907224 ], [ 77.647506000024265, 13.007645999680991 ], [ 77.647228999752443, 13.007747999790459 ], [ 77.647101999967546, 13.007794000431517 ], [ 77.646767000265129, 13.007968000175012 ], [ 77.646738999986823, 13.008010000288488 ], [ 77.64669399966975, 13.007980000446986 ], [ 77.646628999900329, 13.007895999831053 ], [ 77.646478999612029, 13.007696000025266 ], [ 77.646335999813687, 13.007512000135984 ], [ 77.646295000251399, 13.007474999602518 ], [ 77.646186999632135, 13.007412999794473 ], [ 77.646076000319383, 13.007287000314889 ], [ 77.645947000295322, 13.007152000410379 ], [ 77.645828999579692, 13.006965999764486 ], [ 77.645481000413298, 13.006366000288697 ], [ 77.645167000117027, 13.006407000223444 ], [ 77.645061000396808, 13.006407999658695 ], [ 77.644848999573554, 13.006411000283698 ], [ 77.644499999582195, 13.006387999839024 ], [ 77.644122999970293, 13.006335999658805 ], [ 77.643629999597607, 13.006303999697126 ], [ 77.643448999633847, 13.006290000163498 ], [ 77.643143999622382, 13.006267000304051 ], [ 77.642831000010688, 13.006244000258668 ], [ 77.642543000182116, 13.006193999991382 ], [ 77.642228000080422, 13.006141999599285 ], [ 77.641934999573778, 13.006098000246533 ], [ 77.641611000241468, 13.006074000396334 ], [ 77.640988999827883, 13.006042999717691 ], [ 77.640534000062829, 13.005952000406539 ], [ 77.640278000389628, 13.005895000152579 ], [ 77.639722999753957, 13.005722999703734 ], [ 77.639330999564478, 13.005603000167939 ], [ 77.639130000234772, 13.005538999690017 ], [ 77.638700000430703, 13.005440999554077 ], [ 77.638372000344077, 13.005416999985307 ], [ 77.638075000405479, 13.005459000081206 ], [ 77.638123000180428, 13.005484999834838 ], [ 77.638445000077496, 13.005653000086486 ], [ 77.639096000192112, 13.006070000276118 ], [ 77.63928499958908, 13.006230000080167 ], [ 77.639472999565228, 13.006394000200872 ], [ 77.639581000402998, 13.006489000001068 ], [ 77.63968800029869, 13.006587000189548 ], [ 77.640205999740729, 13.007000000062009 ], [ 77.640389000368074, 13.007134000291272 ], [ 77.640502000425641, 13.007221999726037 ], [ 77.640607000062474, 13.007303999730331 ], [ 77.640775999695137, 13.007435000086559 ], [ 77.641197999607101, 13.007740999944 ], [ 77.641377000191795, 13.007849000341354 ], [ 77.641465999752285, 13.007913999982625 ], [ 77.641635999909255, 13.008020999592459 ], [ 77.641741000281172, 13.00808699975172 ], [ 77.641878999795793, 13.008175000385782 ], [ 77.641889000077654, 13.008686999860174 ], [ 77.641890999751993, 13.008888999959575 ], [ 77.641890999792253, 13.009079999827057 ], [ 77.641896999634341, 13.009389999677524 ], [ 77.641896000310339, 13.009482999685927 ], [ 77.641907000091265, 13.009868999646285 ], [ 77.641919999948399, 13.010064000145817 ], [ 77.642038000326494, 13.01051899960483 ], [ 77.642069999689966, 13.010640000433071 ], [ 77.642058999690761, 13.010742999967135 ], [ 77.642047999690661, 13.010999999619688 ], [ 77.642044000292117, 13.011137999685111 ], [ 77.642042999757606, 13.01115800034272 ], [ 77.642036000162918, 13.011449000306042 ], [ 77.642006000403413, 13.01155500027035 ], [ 77.641969000027046, 13.011674000130064 ], [ 77.641948000082863, 13.011761000220137 ], [ 77.641680999611594, 13.011686999643398 ], [ 77.641413999742767, 13.011601999839554 ], [ 77.6411320000649, 13.011526999566504 ], [ 77.640785000351755, 13.011473000031996 ], [ 77.64075099974967, 13.011467999912734 ], [ 77.640499000373566, 13.011428000175686 ], [ 77.640489999618055, 13.011425000374215 ], [ 77.640288000452571, 13.011381999751221 ], [ 77.6402269998881, 13.011371000305125 ], [ 77.640134999928037, 13.011351999697677 ], [ 77.64010399957877, 13.011349999860858 ], [ 77.639975000343043, 13.011363000355725 ], [ 77.639609999985709, 13.011426999685035 ], [ 77.639579000192086, 13.01170599965111 ], [ 77.639552999929421, 13.01198400016164 ], [ 77.639477000136338, 13.012674999761691 ], [ 77.639405999818791, 13.013318000386818 ], [ 77.639395999997888, 13.013453000108468 ], [ 77.639372000257353, 13.013638000238872 ], [ 77.639309999759192, 13.013964000040376 ], [ 77.639328000087957, 13.014695999616217 ], [ 77.639355999813915, 13.014975999863404 ], [ 77.639369000091463, 13.015301999578002 ], [ 77.639378000145527, 13.015752000424166 ], [ 77.639372999955455, 13.016042000275331 ], [ 77.639371999662856, 13.016068999618371 ], [ 77.639369000217243, 13.016357999808534 ], [ 77.639367999973572, 13.016745999814846 ], [ 77.639373000405783, 13.016993999821317 ], [ 77.639372000256557, 13.017159000259447 ], [ 77.639369000259322, 13.017340999609029 ], [ 77.639412000177316, 13.018292000238619 ], [ 77.639469999946428, 13.01942500016 ], [ 77.639480999561115, 13.019647999671797 ], [ 77.639497000172199, 13.019914999961955 ], [ 77.639550999892208, 13.020795000039492 ], [ 77.639572000399397, 13.021173000098702 ], [ 77.63958299960845, 13.021376000033838 ], [ 77.639609999648798, 13.021864999622931 ], [ 77.639706999703861, 13.021867000046818 ], [ 77.640080999804596, 13.021753000431653 ], [ 77.640133000052572, 13.022201999901656 ], [ 77.640169000165059, 13.022521000178969 ], [ 77.640230000310552, 13.023140000360154 ], [ 77.640334999622596, 13.024615999617771 ], [ 77.639935999683857, 13.024787000453363 ], [ 77.639871999993787, 13.024822999954138 ], [ 77.639935999571549, 13.025399000177709 ], [ 77.639967000216743, 13.025649999867477 ], [ 77.652239423361607, 13.020390501803078 ], [ 77.652745270571472, 13.020168026462613 ], [ 77.652854344937012, 13.02012696958964 ], [ 77.655578855137065, 13.018959347193109 ], [ 77.65506319731584, 13.018037780393458 ], [ 77.654953072388778, 13.016853353862148 ], [ 77.654357479946128, 13.015606598591795 ], [ 77.654281713633793, 13.015101748814084 ], [ 77.65445726776295, 13.015077756971264 ], [ 77.654235351441145, 13.014125013176104 ], [ 77.654617531781312, 13.0140954867873 ], [ 77.654482445704772, 13.0131491716608 ], [ 77.654197396288751, 13.013188680534661 ], [ 77.654177645284278, 13.012910793870853 ], [ 77.652392542886645, 13.012409153736495 ], [ 77.651348555885249, 13.012345367379243 ], [ 77.651259525900358, 13.012454873848847 ], [ 77.649823915581251, 13.013157936073291 ], [ 77.649727011458566, 13.013214427346607 ], [ 77.646686606900914, 13.011545487459259 ], [ 77.646432330372278, 13.011329725535795 ], [ 77.646798624865355, 13.010653761629744 ], [ 77.647329873575515, 13.009950387864368 ], [ 77.648000379850785, 13.009047201278504 ], [ 77.647946201082661, 13.00818672793498 ], [ 77.648416500305089, 13.007542920743205 ], [ 77.648402000163784, 13.007543999814949 ] ] ] } },
{ "type": "Feature", "properties": { "KGISWardID": 4934, "KGISWardCode": "2003029", "KGISWardName": "Kacharkanahalli", "SHAPE.STArea()": 1688159.9324973449, "SHAPE.STLength()": 5717.9835943905846, "OBJECTID": 18872, "KGISWardNo": "29", "KGISTownCode": "2003", "LGD_WardCode": 1302701, "created_user": "SA", "created_date": 1634898537000, "last_edited_user": "SURESHBV1", "last_edited_date": 1692254014000, "_overlap_percent": 93.323212209249888, "_police_station": "Banaswadi PS", "_police_feature_index": "724", "_admin_layer": "Ward", "_geometry_clipped": true }, "geometry": { "type": "Polygon", "coordinates": [ [ [ 77.629912000175366, 13.020991000079345 ], [ 77.629903999933504, 13.021265000220129 ], [ 77.629896000310637, 13.021478999557575 ], [ 77.6298959998486, 13.021502000349013 ], [ 77.629892999991242, 13.021728000420572 ], [ 77.62990100035239, 13.02184900039431 ], [ 77.629923999831433, 13.021940000429568 ], [ 77.629960000093703, 13.022009999780352 ], [ 77.630005999962506, 13.022066999673765 ], [ 77.630052000144772, 13.022104999965279 ], [ 77.630287999802135, 13.022269999976389 ], [ 77.630332000238724, 13.022295999747975 ], [ 77.63052300002191, 13.022387000032369 ], [ 77.63058299963825, 13.022420999638607 ], [ 77.630705000279193, 13.022547999944583 ], [ 77.630774999744318, 13.02263899969431 ], [ 77.630943999959158, 13.022916999823014 ], [ 77.631007000058034, 13.023034000152654 ], [ 77.631059999750832, 13.023231000293114 ], [ 77.631094999567708, 13.023379999916944 ], [ 77.6311970001898, 13.023858999855962 ], [ 77.631366999826128, 13.02466400027323 ], [ 77.631448000329641, 13.024935000314738 ], [ 77.631539000325716, 13.025233000051289 ], [ 77.631630999928106, 13.025528000182462 ], [ 77.6317570002727, 13.025887000035885 ], [ 77.63186799962277, 13.026184999612514 ], [ 77.631960999994504, 13.026409999647976 ], [ 77.631967999668305, 13.026427000219567 ], [ 77.632071000091784, 13.026697000275522 ], [ 77.632081999742354, 13.026721000451818 ], [ 77.632142999538843, 13.026852999921537 ], [ 77.632426000413219, 13.027260000008928 ], [ 77.632602999797868, 13.027521999664708 ], [ 77.632700000120082, 13.027678999795164 ], [ 77.634028000359507, 13.027109999994085 ], [ 77.635489999913929, 13.026602999704076 ], [ 77.637051999677226, 13.026254999661782 ], [ 77.638806000199196, 13.02588499973195 ], [ 77.639967000216743, 13.025649999867477 ], [ 77.639935999571549, 13.025399000177709 ], [ 77.639871999993787, 13.024822999954138 ], [ 77.639935999683857, 13.024787000453363 ], [ 77.640334999622596, 13.024615999617771 ], [ 77.640230000310552, 13.023140000360154 ], [ 77.640169000165059, 13.022521000178969 ], [ 77.640133000052572, 13.022201999901656 ], [ 77.640080999804596, 13.021753000431653 ], [ 77.639706999703861, 13.021867000046818 ], [ 77.639609999648798, 13.021864999622931 ], [ 77.63958299960845, 13.021376000033838 ], [ 77.639572000399397, 13.021173000098702 ], [ 77.639550999892208, 13.020795000039492 ], [ 77.639497000172199, 13.019914999961955 ], [ 77.639480999561115, 13.019647999671797 ], [ 77.639469999946428, 13.01942500016 ], [ 77.639412000177316, 13.018292000238619 ], [ 77.639369000259322, 13.017340999609029 ], [ 77.639372000256557, 13.017159000259447 ], [ 77.639373000405783, 13.016993999821317 ], [ 77.639367999973572, 13.016745999814846 ], [ 77.639369000217243, 13.016357999808534 ], [ 77.639371999662856, 13.016068999618371 ], [ 77.639372999955455, 13.016042000275331 ], [ 77.639378000145527, 13.015752000424166 ], [ 77.639369000091463, 13.015301999578002 ], [ 77.639355999813915, 13.014975999863404 ], [ 77.639328000087957, 13.014695999616217 ], [ 77.639309999759192, 13.013964000040376 ], [ 77.638970999842471, 13.013973000033436 ], [ 77.638803999569248, 13.013983000092358 ], [ 77.638597000357606, 13.013997999983467 ], [ 77.637926999977708, 13.014068000247013 ], [ 77.637578000005746, 13.01410099973895 ], [ 77.637226999558067, 13.014139999659616 ], [ 77.637184999888845, 13.014145999931051 ], [ 77.6368879995659, 13.014184000291186 ], [ 77.636846999985394, 13.01418900020856 ], [ 77.636681000038905, 13.014210000364189 ], [ 77.636656999876223, 13.01421299980065 ], [ 77.636188999944309, 13.014278000097384 ], [ 77.635785999959964, 13.014395000145182 ], [ 77.635709000162109, 13.014185000342387 ], [ 77.63569599969739, 13.014147999822313 ], [ 77.635642000160914, 13.013915000358494 ], [ 77.635614000148365, 13.013797000287282 ], [ 77.635588000227244, 13.01368500017194 ], [ 77.63554100036373, 13.013447999685077 ], [ 77.63546599966638, 13.013122000184314 ], [ 77.635388999974097, 13.012705000108086 ], [ 77.634255999676512, 13.012813000329283 ], [ 77.634045000449774, 13.012831000256281 ], [ 77.633914000358345, 13.012842000034752 ], [ 77.63373400001251, 13.012855999858656 ], [ 77.633602000229132, 13.012866999699684 ], [ 77.633433999631322, 13.012880000243726 ], [ 77.633326000350721, 13.012888999991482 ], [ 77.633092999834588, 13.012900999916933 ], [ 77.633051999915168, 13.012902999899904 ], [ 77.632753000457157, 13.012921999834536 ], [ 77.632489000051976, 13.012932000330697 ], [ 77.632231000231926, 13.012940000034586 ], [ 77.632010999564542, 13.012946000314145 ], [ 77.631741000286823, 13.012954000270252 ], [ 77.63138300018997, 13.012959000159984 ], [ 77.631294000132513, 13.012958999859638 ], [ 77.63106100003985, 13.012959999883858 ], [ 77.630947999844636, 13.012961000029948 ], [ 77.63085799988238, 13.012956000323769 ], [ 77.63073099987902, 13.01295200020615 ], [ 77.630654999873698, 13.012948000307711 ], [ 77.630304999943547, 13.012929999869488 ], [ 77.630104999729497, 13.012921999702588 ], [ 77.629860000355151, 13.012878999640289 ], [ 77.629549000051313, 13.012825000169801 ], [ 77.62948700039577, 13.012814000168374 ], [ 77.629260999701046, 13.012773000331054 ], [ 77.629133000117122, 13.012748999919465 ], [ 77.629018999797438, 13.012722000028567 ], [ 77.628831000418231, 13.012676999978362 ], [ 77.628798999900653, 13.012660999760151 ], [ 77.628699999571552, 13.012611000416401 ], [ 77.628608999551432, 13.012562000411315 ], [ 77.628221000324899, 13.012540999832177 ], [ 77.627857999631317, 13.012515999796692 ], [ 77.627798999734722, 13.012515999608302 ], [ 77.627660999912877, 13.012529999638884 ], [ 77.627566999860861, 13.012544000063604 ], [ 77.627416999878264, 13.012562999978082 ], [ 77.627291999944035, 13.012583999632875 ], [ 77.627237000122278, 13.012597000433688 ], [ 77.626219999799417, 13.013042000033968 ], [ 77.626264999822169, 13.013123999568331 ], [ 77.626342999928312, 13.013260999720595 ], [ 77.626499999875534, 13.013522999702111 ], [ 77.62662599961142, 13.013740000243656 ], [ 77.626807999711772, 13.01400900016221 ], [ 77.627101999844498, 13.014397999895552 ], [ 77.627187783395385, 13.014531835101456 ], [ 77.627654793348356, 13.014644828514349 ], [ 77.628274773851672, 13.014778973514053 ], [ 77.628612914890255, 13.015059391625178 ], [ 77.62877320700369, 13.015234048851838 ], [ 77.629269403566596, 13.016343483233948 ], [ 77.629559660266423, 13.016994877770294 ], [ 77.629710887895143, 13.017465422912698 ], [ 77.629816271947789, 13.018014201093603 ], [ 77.629917356481471, 13.018677587647053 ], [ 77.63005184234035, 13.019871359753825 ], [ 77.630013466770748, 13.020392829001432 ], [ 77.629930268375617, 13.020748457232228 ], [ 77.629873294343568, 13.020991990703733 ], [ 77.629912000175366, 13.020991000079345 ] ] ] } },
{ "type": "Feature", "properties": { "KGISWardID": 4923, "KGISWardCode": "2003024", "KGISWardName": "HBR Layout", "SHAPE.STArea()": 4742360.7455279352, "SHAPE.STLength()": 12515.051467968069, "OBJECTID": 18867, "KGISWardNo": "24", "KGISTownCode": "2003", "LGD_WardCode": 1302696, "created_user": "SA", "created_date": 1634898537000, "last_edited_user": "SURESHBV1", "last_edited_date": 1692254014000, "_overlap_percent": 2.275126772419882, "_police_station": "Banaswadi PS", "_police_feature_index": "724", "_admin_layer": "Ward", "_geometry_clipped": true }, "geometry": { "type": "MultiPolygon", "coordinates": [ [ [ [ 77.627101999844498, 13.014397999895552 ], [ 77.626807999711772, 13.01400900016221 ], [ 77.62662599961142, 13.013740000243656 ], [ 77.626499999875534, 13.013522999702111 ], [ 77.626342999928312, 13.013260999720595 ], [ 77.626264999822169, 13.013123999568331 ], [ 77.626219999799417, 13.013042000033968 ], [ 77.626165999540447, 13.012941999912368 ], [ 77.625915000039399, 13.012498999795486 ], [ 77.625554999781443, 13.012629999811303 ], [ 77.625056000326978, 13.012825000331988 ], [ 77.625066999789539, 13.012842999693222 ], [ 77.625093999553897, 13.012908999801665 ], [ 77.625111000291867, 13.012951999969962 ], [ 77.625096999895604, 13.012957000250333 ], [ 77.625099000098899, 13.012964000419345 ], [ 77.62525300008781, 13.013289999712951 ], [ 77.625003999640484, 13.013396000043182 ], [ 77.624751999713951, 13.013520000311575 ], [ 77.624640000220566, 13.01357499995126 ], [ 77.624472000199034, 13.013691000146526 ], [ 77.624229000079936, 13.013868999856287 ], [ 77.624160000339813, 13.013903999842443 ], [ 77.62405400038314, 13.013956999840284 ], [ 77.623895000086435, 13.01403699981322 ], [ 77.623814999713872, 13.014055999572729 ], [ 77.62354000010113, 13.014121000226273 ], [ 77.623445000030074, 13.014144000188551 ], [ 77.623430000395942, 13.014147999586719 ], [ 77.623259000112498, 13.014192000358721 ], [ 77.622994999587718, 13.014248999695335 ], [ 77.62290099971888, 13.014268999961265 ], [ 77.62285699965085, 13.014279000453444 ], [ 77.622796000168861, 13.014299000227746 ], [ 77.622695999599586, 13.014330999738 ], [ 77.622644999659158, 13.01434700010571 ], [ 77.622487999792853, 13.014400999627675 ], [ 77.622079999721933, 13.014553000332608 ], [ 77.622764586376931, 13.016093145710119 ], [ 77.623133848137243, 13.016016836496297 ], [ 77.625171248612872, 13.015040101769655 ], [ 77.626981875333129, 13.014482015489374 ], [ 77.627187783395385, 13.014531835101456 ], [ 77.627101999844498, 13.014397999895552 ] ] ], [ [ [ 77.637051999677226, 13.026254999661782 ], [ 77.635489999913929, 13.026602999704076 ], [ 77.634028000359507, 13.027109999994085 ], [ 77.632700000120082, 13.027678999795164 ], [ 77.632602999797868, 13.027521999664708 ], [ 77.632426000413219, 13.027260000008928 ], [ 77.632142999538843, 13.026852999921537 ], [ 77.632081999742354, 13.026721000451818 ], [ 77.632071000091784, 13.026697000275522 ], [ 77.631967999668305, 13.026427000219567 ], [ 77.631960999994504, 13.026409999647976 ], [ 77.63186799962277, 13.026184999612514 ], [ 77.6317570002727, 13.025887000035885 ], [ 77.631630999928106, 13.025528000182462 ], [ 77.631539000325716, 13.025233000051289 ], [ 77.631448000329641, 13.024935000314738 ], [ 77.631366999826128, 13.02466400027323 ], [ 77.6311970001898, 13.023858999855962 ], [ 77.631094999567708, 13.023379999916944 ], [ 77.631059999750832, 13.023231000293114 ], [ 77.631007000058034, 13.023034000152654 ], [ 77.630943999959158, 13.022916999823014 ], [ 77.630774999744318, 13.02263899969431 ], [ 77.630705000279193, 13.022547999944583 ], [ 77.63058299963825, 13.022420999638607 ], [ 77.63052300002191, 13.022387000032369 ], [ 77.630332000238724, 13.022295999747975 ], [ 77.630287999802135, 13.022269999976389 ], [ 77.630052000144772, 13.022104999965279 ], [ 77.630005999962506, 13.022066999673765 ], [ 77.629960000093703, 13.022009999780352 ], [ 77.629923999831433, 13.021940000429568 ], [ 77.62990100035239, 13.02184900039431 ], [ 77.629892999991242, 13.021728000420572 ], [ 77.6298959998486, 13.021502000349013 ], [ 77.629896000310637, 13.021478999557575 ], [ 77.629903999933504, 13.021265000220129 ], [ 77.629912000175366, 13.020991000079345 ], [ 77.629873294343568, 13.020991990703733 ], [ 77.62986885025407, 13.021010986806061 ], [ 77.629857548566875, 13.021787940891896 ], [ 77.629879647334647, 13.022033914486276 ], [ 77.630012534037888, 13.022152079625414 ], [ 77.630537340279375, 13.02244792757452 ], [ 77.630762637276163, 13.022775498267805 ], [ 77.630929458914451, 13.02310605187472 ], [ 77.631046279146503, 13.023549456280996 ], [ 77.631051468246611, 13.023809943712024 ], [ 77.631220890909574, 13.024617329753738 ], [ 77.63143069948778, 13.025269269689728 ], [ 77.631549821133035, 13.025639415366472 ], [ 77.63199772709919, 13.026846731909231 ], [ 77.632251244865657, 13.027306673303963 ], [ 77.632506642150148, 13.027673067278497 ], [ 77.632620894666417, 13.027822508568136 ], [ 77.632762007749889, 13.027753751639146 ], [ 77.633887227936995, 13.027262378688032 ], [ 77.634973907532441, 13.026884319274449 ], [ 77.635815444881473, 13.026631839042018 ], [ 77.636986143651029, 13.026357938026075 ], [ 77.637047603982154, 13.026343794399297 ], [ 77.637051999677226, 13.026254999661782 ] ] ] ] } },
{ "type": "Feature", "properties": { "KGISWardID": 4926, "KGISWardCode": "2003025", "KGISWardName": "Horamavu", "SHAPE.STArea()": 17064268.05482886, "SHAPE.STLength()": 34285.134061113211, "OBJECTID": 18868, "KGISWardNo": "25", "KGISTownCode": "2003", "LGD_WardCode": 1302697, "created_user": "SA", "created_date": 1634898537000, "last_edited_user": "SURESHBV1", "last_edited_date": 1692254014000, "_overlap_percent": 0.093530877700275211, "_police_station": "Banaswadi PS", "_police_feature_index": "724", "_admin_layer": "Ward", "_geometry_clipped": true }, "geometry": { "type": "MultiPolygon", "coordinates": [ [ [ [ 77.639967000216743, 13.025649999867477 ], [ 77.638806000199196, 13.02588499973195 ], [ 77.637051999677226, 13.026254999661782 ], [ 77.637047603982154, 13.026343794399297 ], [ 77.637150438473142, 13.026320129498155 ], [ 77.639011595035441, 13.025992891206576 ], [ 77.639649648508865, 13.025884758228864 ], [ 77.639936983735382, 13.025774551499191 ], [ 77.640115360993661, 13.025707237178162 ], [ 77.640555990435402, 13.025499481252089 ], [ 77.64311948500611, 13.024394907855873 ], [ 77.644487524611961, 13.023781317639772 ], [ 77.646411847354031, 13.022953129953361 ], [ 77.647913605057724, 13.022298635227786 ], [ 77.65127054430188, 13.020816621972321 ], [ 77.652239423361607, 13.020390501803078 ], [ 77.639967000216743, 13.025649999867477 ] ] ], [ [ [ 77.652854344937012, 13.02012696958964 ], [ 77.654675792520436, 13.019441355314537 ], [ 77.655563890509711, 13.019085799718653 ], [ 77.655633922525979, 13.019057761830245 ], [ 77.655578855137065, 13.018959347193109 ], [ 77.652854344937012, 13.02012696958964 ] ] ] ] } }
]
}
