{
"type": "FeatureCollection",
"name": "wards_in_police_area.writing_20260805_172659",
"crs": { "type": "name", "properties": { "name": "urn:ogc:def:crs:OGC:1.3:CRS84" } },
"features": [
{ "type": "Feature", "properties": { "KGISWardID": 5825, "KGISWardCode": "0307003", "KGISWardName": " ", "SHAPE.STArea()": 200262.330058555, "SHAPE.STLength()": 1944.0505930871195, "OBJECTID": 15221, "KGISWardNo": "3", "KGISTownCode": "0307", "LGD_WardCode": 1296185, "created_user": "SA", "created_date": 1634898537000, "last_edited_user": "SURESHBV1", "last_edited_date": 1692253949000, "_overlap_percent": 100.00000000000004, "_police_station": "Managoli PS", "_police_feature_index": "397", "_admin_layer": "Ward", "_geometry_clipped": true }, "geometry": { "type": "Polygon", "coordinates": [ [ [ 75.811820925984989, 16.653992570927645 ], [ 75.811790396649556, 16.653968263203137 ], [ 75.81177693133894, 16.653957541318579 ], [ 75.811765651631845, 16.653943892155706 ], [ 75.811736408086304, 16.653908503792955 ], [ 75.811696391811452, 16.653845808017266 ], [ 75.811610868565538, 16.653752548390326 ], [ 75.811380412719501, 16.653498796404271 ], [ 75.811322913105286, 16.653380978067421 ], [ 75.811246905251025, 16.653086209646471 ], [ 75.811081185765929, 16.652673714394165 ], [ 75.81106542046642, 16.652441074568419 ], [ 75.811056709659709, 16.652312561896057 ], [ 75.811055794888915, 16.652299065589144 ], [ 75.811054954100257, 16.652286660915227 ], [ 75.811051478949096, 16.652235383983886 ], [ 75.811042402149852, 16.652101446571745 ], [ 75.81089010113422, 16.652113716084529 ], [ 75.81042035238238, 16.652151560317044 ], [ 75.810315465690266, 16.652160010415336 ], [ 75.810164420619927, 16.652172178677258 ], [ 75.810158796864627, 16.652192579282925 ], [ 75.810080717998815, 16.652475796161237 ], [ 75.810050306738432, 16.652586108731484 ], [ 75.810045544933004, 16.652608129388849 ], [ 75.80998508539848, 16.652887704259506 ], [ 75.809929159856836, 16.652857702272886 ], [ 75.809909372395992, 16.652847086300508 ], [ 75.809846742355774, 16.652812817807337 ], [ 75.809501177450827, 16.652623741219564 ], [ 75.808775604847924, 16.652262309996175 ], [ 75.808590898703628, 16.652170301723341 ], [ 75.808498456560088, 16.652137360268853 ], [ 75.808297402347321, 16.652065714553469 ], [ 75.808040159434384, 16.651974047209531 ], [ 75.807784226851112, 16.65193611277822 ], [ 75.807541404670431, 16.651883121171718 ], [ 75.807529223591601, 16.651902654186024 ], [ 75.807508741329855, 16.651929139854623 ], [ 75.807492457863916, 16.651953808585247 ], [ 75.807445348461641, 16.651993288575888 ], [ 75.807440636551675, 16.651999310689884 ], [ 75.807382979087336, 16.652073008566763 ], [ 75.807334401936259, 16.652113104386824 ], [ 75.807277894866743, 16.652146044978672 ], [ 75.807235603205569, 16.652196730021725 ], [ 75.807226881439163, 16.652207148989927 ], [ 75.807219402548824, 16.652255959407196 ], [ 75.807219059357863, 16.652258197920073 ], [ 75.807176922177945, 16.652303686676557 ], [ 75.807128404550525, 16.652343018415912 ], [ 75.807067562326296, 16.652385099892225 ], [ 75.807041124560257, 16.652435722299618 ], [ 75.807011586237849, 16.652486206719779 ], [ 75.806988254910948, 16.652536590151882 ], [ 75.806872042683281, 16.652669162314048 ], [ 75.806820127925704, 16.652725797192954 ], [ 75.806782508164886, 16.652787830643479 ], [ 75.806772133907984, 16.652804462268396 ], [ 75.806742170664762, 16.652852476112638 ], [ 75.806666442970794, 16.652979121927853 ], [ 75.806627143633591, 16.653048750209969 ], [ 75.806589146182134, 16.653118924807 ], [ 75.80655245423209, 16.653189613164802 ], [ 75.806517080768259, 16.653260780884928 ], [ 75.806483031293084, 16.653332398117549 ], [ 75.806450308862907, 16.653404522701642 ], [ 75.806418919120162, 16.653477158231464 ], [ 75.806388872259504, 16.653550275742791 ], [ 75.806360171911919, 16.65362384629692 ], [ 75.806329386243362, 16.653738230164144 ], [ 75.806328950319738, 16.653739822740675 ], [ 75.806209687207868, 16.654175557949184 ], [ 75.806185219071111, 16.6542649566655 ], [ 75.806063449703501, 16.654709846394638 ], [ 75.806037577009221, 16.654803334419242 ], [ 75.806080082096571, 16.65502986257907 ], [ 75.80618852574402, 16.655607796895694 ], [ 75.80632951000473, 16.656359146198326 ], [ 75.806584821171171, 16.656312007717666 ], [ 75.80715266511902, 16.656156852044401 ], [ 75.808723188165061, 16.655673625775599 ], [ 75.809333278263551, 16.655561195414517 ], [ 75.809486309377206, 16.655621815327383 ], [ 75.810153040931908, 16.655258458642386 ], [ 75.811007017740621, 16.654812145401689 ], [ 75.811568691663396, 16.654466175131866 ], [ 75.811833920730365, 16.654297354301491 ], [ 75.812024996327864, 16.654218460552624 ], [ 75.812090325631587, 16.654191486088425 ], [ 75.811820925984989, 16.653992570927645 ] ] ] } },
{ "type": "Feature", "properties": { "KGISWardID": 5829, "KGISWardCode": "0307007", "KGISWardName": " ", "SHAPE.STArea()": 795096.05121747998, "SHAPE.STLength()": 5158.5831251835543, "OBJECTID": 15225, "KGISWardNo": "7", "KGISTownCode": "0307", "LGD_WardCode": 1296189, "created_user": "SA", "created_date": 1634898537000, "last_edited_user": "SURESHBV1", "last_edited_date": 1692253949000, "_overlap_percent": 99.999999999999986, "_police_station": "Managoli PS", "_police_feature_index": "397", "_admin_layer": "Ward", "_geometry_clipped": true }, "geometry": { "type": "Polygon", "coordinates": [ [ [ 75.80924788303804, 16.660585972354884 ], [ 75.810636641100913, 16.660632216603503 ], [ 75.812608577741599, 16.660762632399287 ], [ 75.812747123872342, 16.660771795431916 ], [ 75.812844867227568, 16.660554993984167 ], [ 75.813036579283064, 16.659901060970423 ], [ 75.813048824826879, 16.65985816860071 ], [ 75.813145721844563, 16.659190012810651 ], [ 75.813252370789115, 16.658512164063701 ], [ 75.813261658464455, 16.658439009587276 ], [ 75.813300832707341, 16.658130406254223 ], [ 75.81330983579106, 16.658060702204949 ], [ 75.813473066952469, 16.658114286383785 ], [ 75.813472404408074, 16.658299152686357 ], [ 75.813579950624629, 16.659250335416676 ], [ 75.813602479549573, 16.659449597619751 ], [ 75.813815473454909, 16.659216829659048 ], [ 75.814186243001316, 16.658808358569527 ], [ 75.814284315977346, 16.658700314336997 ], [ 75.814496120553301, 16.658466971896715 ], [ 75.814526934461441, 16.658433025698052 ], [ 75.814574389214158, 16.658344156840368 ], [ 75.814333052233948, 16.65775611835479 ], [ 75.81426512538502, 16.657423394402123 ], [ 75.814193772160024, 16.657152955907293 ], [ 75.814170573226278, 16.657065026228011 ], [ 75.814114810314052, 16.656839159650769 ], [ 75.813976210746333, 16.656277759363714 ], [ 75.813949833766813, 16.656002161819863 ], [ 75.813934681392041, 16.655843848415802 ], [ 75.813773918640763, 16.655668696321257 ], [ 75.813657644891791, 16.655440229648526 ], [ 75.813649295025911, 16.655394549952813 ], [ 75.813591554553341, 16.65507868784071 ], [ 75.813577925074881, 16.654939400201062 ], [ 75.813575998432015, 16.654919707073635 ], [ 75.813581181315186, 16.654678136164907 ], [ 75.813612842782959, 16.654538103171454 ], [ 75.81363916942361, 16.654459296560923 ], [ 75.813652042436544, 16.65442076124187 ], [ 75.813667194037478, 16.654189912242401 ], [ 75.813655974600948, 16.654176802585532 ], [ 75.813569177955998, 16.654185514218728 ], [ 75.813322253125136, 16.654216979772499 ], [ 75.813152353160717, 16.654213483548158 ], [ 75.812987798441085, 16.654215424933714 ], [ 75.812876978870946, 16.654216731629631 ], [ 75.812646792745767, 16.654220020112621 ], [ 75.812491602364474, 16.65422411367533 ], [ 75.812392350907373, 16.654226731555713 ], [ 75.812090325631587, 16.654191486088425 ], [ 75.812024996327864, 16.654218460552624 ], [ 75.811833920730365, 16.654297354301491 ], [ 75.811568691663396, 16.654466175131866 ], [ 75.811007017740621, 16.654812145401689 ], [ 75.810153040931908, 16.655258458642386 ], [ 75.809486309377206, 16.655621815327383 ], [ 75.809333278263551, 16.655561195414517 ], [ 75.808723188165061, 16.655673625775599 ], [ 75.80715266511902, 16.656156852044401 ], [ 75.806584821171171, 16.656312007717666 ], [ 75.80632951000473, 16.656359146198326 ], [ 75.806195580773263, 16.656624093116484 ], [ 75.805892637305362, 16.657395914430523 ], [ 75.805996720609684, 16.658271461626565 ], [ 75.806022636648763, 16.658489466139841 ], [ 75.806129813053403, 16.659391019238452 ], [ 75.806858820375112, 16.661205677417271 ], [ 75.806635404825556, 16.661530415773875 ], [ 75.806615607165725, 16.661559191929701 ], [ 75.806456014944217, 16.661791161216737 ], [ 75.806362402432939, 16.661935521753868 ], [ 75.805987387544363, 16.662517469892077 ], [ 75.805749595204759, 16.662865435893806 ], [ 75.805495646264916, 16.663237042003086 ], [ 75.805365741231043, 16.663428949590365 ], [ 75.804909711278498, 16.664032382979379 ], [ 75.804301850552235, 16.664858838729138 ], [ 75.803708568105009, 16.665673969976986 ], [ 75.80313233434147, 16.666475549975384 ], [ 75.802545811344245, 16.667280680940223 ], [ 75.802274967434897, 16.667658841635312 ], [ 75.802236990855107, 16.667711864654262 ], [ 75.802929009180886, 16.667760960427408 ], [ 75.803663099883849, 16.667850896558804 ], [ 75.804378023666615, 16.667939758304723 ], [ 75.804850064934243, 16.668000816738736 ], [ 75.806144459203949, 16.668160668227852 ], [ 75.806969374410897, 16.668249122841825 ], [ 75.807197355181756, 16.667611037181249 ], [ 75.807728118719538, 16.66618205261739 ], [ 75.80768315211786, 16.666172251428709 ], [ 75.807870251702852, 16.665527568596129 ], [ 75.808132705162137, 16.664568084900615 ], [ 75.808144112092876, 16.664526145158046 ], [ 75.808287046001695, 16.664004522374306 ], [ 75.808318953119596, 16.66388761926045 ], [ 75.808461938001273, 16.663509697770735 ], [ 75.808789037565575, 16.662454135059814 ], [ 75.808932470779666, 16.661992061231246 ], [ 75.809046826373731, 16.661497594430291 ], [ 75.809062005740742, 16.661403494320957 ], [ 75.80924788303804, 16.660585972354884 ] ] ] } },
{ "type": "Feature", "properties": { "KGISWardID": 2064, "KGISWardCode": "0302012", "KGISWardName": " ", "SHAPE.STArea()": 11078774.284688501, "SHAPE.STLength()": 22356.322593979843, "OBJECTID": 15134, "KGISWardNo": "12", "KGISTownCode": "0302", "LGD_WardCode": 26367, "created_user": "SA", "created_date": 1634898537000, "last_edited_user": "SURESHBV1", "last_edited_date": 1692253949000, "_overlap_percent": 0.012492921831518648, "_police_station": "Managoli PS", "_police_feature_index": "397", "_admin_layer": "Ward", "_geometry_clipped": true }, "geometry": { "type": "MultiPolygon", "coordinates": [ [ [ [ 75.895428475372839, 16.611935886081909 ], [ 75.895428486978204, 16.611935962863072 ], [ 75.895567386148315, 16.612850744298321 ], [ 75.895572598214969, 16.612885071689071 ], [ 75.895504753829954, 16.612898861909752 ], [ 75.895590154327778, 16.613333068952119 ], [ 75.89560936971354, 16.613430518355241 ], [ 75.895604815114908, 16.613407222849904 ], [ 75.895519214091024, 16.612969411042961 ], [ 75.895588144182199, 16.612957056947955 ], [ 75.895428456841785, 16.611935764038567 ], [ 75.895428475372839, 16.611935886081909 ] ] ], [ [ [ 75.895156655957891, 16.609759025279129 ], [ 75.895158880425427, 16.609768311368114 ], [ 75.895156655860987, 16.60975902408947 ], [ 75.895156655957891, 16.609759025279129 ] ] ], [ [ [ 75.894583111880834, 16.603615199206793 ], [ 75.894639393274034, 16.60380913940725 ], [ 75.894664996946759, 16.603890122345206 ], [ 75.89469235030522, 16.603976666657854 ], [ 75.894925932750994, 16.604715690721115 ], [ 75.894948778242536, 16.604847991557349 ], [ 75.894952816207407, 16.604871376061201 ], [ 75.894774510537829, 16.605635260955214 ], [ 75.894811267069471, 16.606257707648119 ], [ 75.894846839968878, 16.606860110957676 ], [ 75.89492632478057, 16.608206116243501 ], [ 75.894943556105048, 16.608406162007903 ], [ 75.894806340518954, 16.605638381609765 ], [ 75.894980389231193, 16.604842917502701 ], [ 75.894950281020485, 16.604681363487362 ], [ 75.894669951069815, 16.603830534228912 ], [ 75.894642677031698, 16.603747753395865 ], [ 75.894582542220078, 16.603549625748819 ], [ 75.894523819425942, 16.603092344425551 ], [ 75.894583111880834, 16.603615199206793 ] ] ], [ [ [ 75.894421721962729, 16.602297299438792 ], [ 75.894418364353726, 16.602271153341484 ], [ 75.894357462400208, 16.602053911973826 ], [ 75.894421721962729, 16.602297299438792 ] ] ], [ [ [ 75.894337757959349, 16.601983626905934 ], [ 75.894357441297998, 16.602053837420005 ], [ 75.894357450729416, 16.602053870343315 ], [ 75.894330776739409, 16.601958722425444 ], [ 75.894337757959349, 16.601983626905934 ] ] ] ] } },
{ "type": "Feature", "properties": { "KGISWardID": 5823, "KGISWardCode": "0307001", "KGISWardName": " ", "SHAPE.STArea()": 634418.23005844501, "SHAPE.STLength()": 3749.9726015374781, "OBJECTID": 15219, "KGISWardNo": "1", "KGISTownCode": "0307", "LGD_WardCode": 1296183, "created_user": "SA", "created_date": 1634898537000, "last_edited_user": "SURESHBV1", "last_edited_date": 1692253949000, "_overlap_percent": 99.999999999999972, "_police_station": "Managoli PS", "_police_feature_index": "397", "_admin_layer": "Ward", "_geometry_clipped": true }, "geometry": { "type": "Polygon", "coordinates": [ [ [ 75.813407398460726, 16.650467993292075 ], [ 75.813409924332944, 16.650455279850348 ], [ 75.813442074696766, 16.650191231336493 ], [ 75.813452000000467, 16.650109714058534 ], [ 75.813468153444148, 16.649904480546905 ], [ 75.813473888183026, 16.649831599377173 ], [ 75.813465048064458, 16.649759653061928 ], [ 75.813452828814718, 16.649660202295795 ], [ 75.81345086446386, 16.649644217137361 ], [ 75.813426676394315, 16.649645303581309 ], [ 75.813417552394981, 16.649511409874478 ], [ 75.813388844991422, 16.64909010739742 ], [ 75.813377221183643, 16.64891952838914 ], [ 75.813350545297595, 16.648477187560918 ], [ 75.813447232996566, 16.648402345305126 ], [ 75.813517461047937, 16.648347985405834 ], [ 75.81370014543937, 16.648281498660062 ], [ 75.813920131147256, 16.648235793611182 ], [ 75.814239628785302, 16.648255466174366 ], [ 75.814327301205054, 16.648260491246326 ], [ 75.814480705204801, 16.648269284217999 ], [ 75.815743709335976, 16.648341670676125 ], [ 75.816109984984962, 16.64836266139389 ], [ 75.816376950819432, 16.648353579696323 ], [ 75.816404938650777, 16.648352628009746 ], [ 75.816598622147822, 16.64834603996341 ], [ 75.816635164347872, 16.648325198412632 ], [ 75.81705135144793, 16.64802318809096 ], [ 75.818252783635373, 16.64689456103044 ], [ 75.818515229453226, 16.6466480178997 ], [ 75.818684935213042, 16.646492771816149 ], [ 75.818813608375606, 16.646369984197065 ], [ 75.819614723200601, 16.645605506867852 ], [ 75.819975791346238, 16.645231309337902 ], [ 75.82014029366718, 16.645063514767067 ], [ 75.820004741215783, 16.644977811388685 ], [ 75.819827639553054, 16.644442069762768 ], [ 75.819471538697414, 16.644679364948971 ], [ 75.81944364700162, 16.644697950994672 ], [ 75.818995375440281, 16.644996663898663 ], [ 75.818885905643896, 16.645087761616711 ], [ 75.818094336046173, 16.645465523692863 ], [ 75.817869436533186, 16.645420556011427 ], [ 75.817846658424529, 16.645395362577602 ], [ 75.81747950299831, 16.644989280554785 ], [ 75.817320989734725, 16.644813961940976 ], [ 75.817062317637266, 16.64452786409791 ], [ 75.81703311531669, 16.644516011342446 ], [ 75.816956135085576, 16.644484767144615 ], [ 75.816728995682553, 16.644392575940916 ], [ 75.816237661611055, 16.644402778385459 ], [ 75.81618282383468, 16.644368873355241 ], [ 75.816127296041984, 16.644334540763111 ], [ 75.815603122208032, 16.644010448923943 ], [ 75.815043074342938, 16.643563457380331 ], [ 75.814669436939226, 16.643361980806201 ], [ 75.814581447885047, 16.643312101433899 ], [ 75.814231950974857, 16.643189067233884 ], [ 75.814231342162714, 16.643190775299949 ], [ 75.813568295455866, 16.643181375779012 ], [ 75.813567838578237, 16.643179982837957 ], [ 75.813434882868279, 16.64317876859095 ], [ 75.813349105440594, 16.643187428943541 ], [ 75.812986465553251, 16.643224038406675 ], [ 75.812815316407196, 16.643241316443781 ], [ 75.812753142884475, 16.643248644828049 ], [ 75.812528673537855, 16.643270421432096 ], [ 75.811803599205646, 16.643340762552505 ], [ 75.811740846544438, 16.643346850025875 ], [ 75.810746747747018, 16.643442661595756 ], [ 75.810167323051587, 16.643498504061728 ], [ 75.810188216197531, 16.643536405690323 ], [ 75.81018692659022, 16.64354390775646 ], [ 75.810136784694038, 16.643645227579906 ], [ 75.810115451760964, 16.643688335186454 ], [ 75.8092755441278, 16.64538549803736 ], [ 75.808454846376023, 16.647718884155605 ], [ 75.80792363692413, 16.649301841894182 ], [ 75.807859645463481, 16.649492531420119 ], [ 75.807835387226845, 16.649564814865876 ], [ 75.807800755745802, 16.649668012658964 ], [ 75.807800258381505, 16.649669706715542 ], [ 75.807748873648904, 16.649789921673449 ], [ 75.807749685219989, 16.649794513991786 ], [ 75.808163205967958, 16.649842613779381 ], [ 75.808196384760251, 16.649858596700856 ], [ 75.80827396802286, 16.649884955218141 ], [ 75.808649202353564, 16.649913626332037 ], [ 75.808940400440036, 16.649945893959625 ], [ 75.808961943015817, 16.64994828123266 ], [ 75.809185191955763, 16.649989626628209 ], [ 75.809361589389312, 16.650118917003738 ], [ 75.809495227281687, 16.650217106056239 ], [ 75.809542261393702, 16.650251663355881 ], [ 75.809641173002518, 16.650292717929574 ], [ 75.809761460424909, 16.650342644940746 ], [ 75.810305497439913, 16.650512715971821 ], [ 75.810330087587843, 16.650519805081615 ], [ 75.810601709655629, 16.650598112408662 ], [ 75.810605058377689, 16.65059907735149 ], [ 75.810896442390529, 16.650687500435694 ], [ 75.810922525068221, 16.650695414330954 ], [ 75.811083563535306, 16.650760792640433 ], [ 75.811105941793386, 16.650743597741442 ], [ 75.811214306460982, 16.650651387376005 ], [ 75.811250075128754, 16.650620950245997 ], [ 75.811369476212263, 16.650500275017055 ], [ 75.811571268877074, 16.650589787892482 ], [ 75.811664864318573, 16.650606980089872 ], [ 75.811844982561468, 16.650640064196416 ], [ 75.81189772690648, 16.65064975193248 ], [ 75.811903779638968, 16.650766193324738 ], [ 75.812289380706773, 16.650781903028854 ], [ 75.812443903102164, 16.650720983578886 ], [ 75.812610832794618, 16.650737280651573 ], [ 75.812689646436425, 16.650745229067496 ], [ 75.812790863959762, 16.650755437112089 ], [ 75.81286419780271, 16.65071623192302 ], [ 75.8130356240883, 16.650711963370973 ], [ 75.813106587903036, 16.65072021357101 ], [ 75.813133350849256, 16.650723326568723 ], [ 75.813198037299244, 16.650724318551998 ], [ 75.813216507757346, 16.65072460227498 ], [ 75.813299271594403, 16.650598722098625 ], [ 75.813403505406413, 16.650487579995438 ], [ 75.813407398460726, 16.650467993292075 ] ] ] } },
{ "type": "Feature", "properties": { "KGISWardID": 5830, "KGISWardCode": "0307008", "KGISWardName": " ", "SHAPE.STArea()": 149943.32077902, "SHAPE.STLength()": 2430.6236413074466, "OBJECTID": 15226, "KGISWardNo": "8", "KGISTownCode": "0307", "LGD_WardCode": 1296190, "created_user": "SA", "created_date": 1634898537000, "last_edited_user": "SURESHBV1", "last_edited_date": 1692253949000, "_overlap_percent": 99.999999999999972, "_police_station": "Managoli PS", "_police_feature_index": "397", "_admin_layer": "Ward", "_geometry_clipped": true }, "geometry": { "type": "Polygon", "coordinates": [ [ [ 75.820312914898281, 16.648614108564519 ], [ 75.820044486817238, 16.64793424796186 ], [ 75.820003006335156, 16.647829188013617 ], [ 75.820325601829396, 16.647743163090343 ], [ 75.820780018165721, 16.647621984740493 ], [ 75.820807909780854, 16.647614547307164 ], [ 75.820809792324738, 16.647614045420941 ], [ 75.820847600534606, 16.64760396277897 ], [ 75.820809159604224, 16.647465436445152 ], [ 75.820691385129749, 16.647041025952849 ], [ 75.820591427859341, 16.646680818156923 ], [ 75.820525267363024, 16.64660214608254 ], [ 75.819941465899703, 16.646753669596535 ], [ 75.819710680327972, 16.64681356884341 ], [ 75.819707783377581, 16.646814320590646 ], [ 75.81968854015787, 16.64677156855608 ], [ 75.820369960748778, 16.646236704672088 ], [ 75.820495993435742, 16.646137777917314 ], [ 75.820606556840971, 16.646050993007783 ], [ 75.82067292941349, 16.645998894962325 ], [ 75.820716716433111, 16.645964525103963 ], [ 75.820252390900819, 16.645134388164077 ], [ 75.82014029366718, 16.645063514767067 ], [ 75.819975791346238, 16.645231309337902 ], [ 75.819614723200601, 16.645605506867852 ], [ 75.818813608375606, 16.646369984197065 ], [ 75.818684935213042, 16.646492771816149 ], [ 75.818515229453226, 16.6466480178997 ], [ 75.818252783635373, 16.64689456103044 ], [ 75.81705135144793, 16.64802318809096 ], [ 75.816635164347872, 16.648325198412632 ], [ 75.816598622147822, 16.64834603996341 ], [ 75.816404938650777, 16.648352628009746 ], [ 75.816376950819432, 16.648353579696323 ], [ 75.816109984984962, 16.64836266139389 ], [ 75.815743709335976, 16.648341670676125 ], [ 75.814480705204801, 16.648269284217999 ], [ 75.814327301205054, 16.648260491246326 ], [ 75.814239628785302, 16.648255466174366 ], [ 75.813920131147256, 16.648235793611182 ], [ 75.81370014543937, 16.648281498660062 ], [ 75.813517461047937, 16.648347985405834 ], [ 75.813447232996566, 16.648402345305126 ], [ 75.813350545297595, 16.648477187560918 ], [ 75.813377221183643, 16.64891952838914 ], [ 75.813388844991422, 16.64909010739742 ], [ 75.813417552394981, 16.649511409874478 ], [ 75.813426676394315, 16.649645303581309 ], [ 75.81345086446386, 16.649644217137361 ], [ 75.81345926246054, 16.649643839813862 ], [ 75.813777881950315, 16.649629528557689 ], [ 75.813916096683897, 16.649560104789042 ], [ 75.813999072249786, 16.649559858730555 ], [ 75.814305648546565, 16.649558950992006 ], [ 75.8145771678914, 16.649660873551959 ], [ 75.814845353154013, 16.649754583272053 ], [ 75.815130540414046, 16.649793530306791 ], [ 75.815383130462621, 16.649726214137893 ], [ 75.815756527371136, 16.64957568694231 ], [ 75.816097130358287, 16.649363700314357 ], [ 75.816582768140464, 16.649264185946844 ], [ 75.816750548167676, 16.649229805080676 ], [ 75.817386631439476, 16.649132405443083 ], [ 75.817575470976706, 16.649084306380782 ], [ 75.817707698245044, 16.649031116249564 ], [ 75.817813231753547, 16.648988662144529 ], [ 75.817951553995798, 16.648962287579362 ], [ 75.818124123610815, 16.64893864776182 ], [ 75.818291202066817, 16.648926672704999 ], [ 75.818362843453485, 16.64891397761237 ], [ 75.818809159450609, 16.648834890616094 ], [ 75.819909125737496, 16.64867379279541 ], [ 75.820116252850568, 16.648662881873253 ], [ 75.820319960350645, 16.648642068399834 ], [ 75.820312914898281, 16.648614108564519 ] ] ] } },
{ "type": "Feature", "properties": { "KGISWardID": 5831, "KGISWardCode": "0307009", "KGISWardName": " ", "SHAPE.STArea()": 164126.12413844501, "SHAPE.STLength()": 2031.7253595587354, "OBJECTID": 15227, "KGISWardNo": "9", "KGISTownCode": "0307", "LGD_WardCode": 1296191, "created_user": "SA", "created_date": 1634898537000, "last_edited_user": "SURESHBV1", "last_edited_date": 1692253949000, "_overlap_percent": 100.00000000000004, "_police_station": "Managoli PS", "_police_feature_index": "397", "_admin_layer": "Ward", "_geometry_clipped": true }, "geometry": { "type": "Polygon", "coordinates": [ [ [ 75.820969875153196, 16.651236217560431 ], [ 75.820865970794216, 16.650816518829767 ], [ 75.820581442029507, 16.649667210764491 ], [ 75.820481555366655, 16.649279860231943 ], [ 75.820330220956961, 16.648682790448749 ], [ 75.820319960350645, 16.648642068399834 ], [ 75.820116252850568, 16.648662881873253 ], [ 75.819909125737496, 16.64867379279541 ], [ 75.818809159450609, 16.648834890616094 ], [ 75.818362843453485, 16.64891397761237 ], [ 75.818291202066817, 16.648926672704999 ], [ 75.818124123610815, 16.64893864776182 ], [ 75.817951553995798, 16.648962287579362 ], [ 75.817813231753547, 16.648988662144529 ], [ 75.817707698245044, 16.649031116249564 ], [ 75.817575470976706, 16.649084306380782 ], [ 75.817386631439476, 16.649132405443083 ], [ 75.816750548167676, 16.649229805080676 ], [ 75.816582768140464, 16.649264185946844 ], [ 75.816097130358287, 16.649363700314357 ], [ 75.815756527371136, 16.64957568694231 ], [ 75.815383130462621, 16.649726214137893 ], [ 75.815130540414046, 16.649793530306791 ], [ 75.814845353154013, 16.649754583272053 ], [ 75.8145771678914, 16.649660873551959 ], [ 75.814305648546565, 16.649558950992006 ], [ 75.813999072249786, 16.649559858730555 ], [ 75.813916096683897, 16.649560104789042 ], [ 75.813777881950315, 16.649629528557689 ], [ 75.81345926246054, 16.649643839813862 ], [ 75.81345086446386, 16.649644217137361 ], [ 75.813452828814718, 16.649660202295795 ], [ 75.813465048064458, 16.649759653061928 ], [ 75.813473888183026, 16.649831599377173 ], [ 75.813468153444148, 16.649904480546905 ], [ 75.813452000000467, 16.650109714058534 ], [ 75.813442074696766, 16.650191231336493 ], [ 75.813457222137998, 16.650192655246475 ], [ 75.813563122098486, 16.650201530277439 ], [ 75.81366524063084, 16.650223995895693 ], [ 75.813825503051035, 16.650248710048782 ], [ 75.814051406367312, 16.650271979635026 ], [ 75.814167221538312, 16.650294237582234 ], [ 75.814341068847099, 16.650326688797016 ], [ 75.814460992583463, 16.650381484720306 ], [ 75.81453083130566, 16.650518253884737 ], [ 75.814591409830129, 16.650616887323793 ], [ 75.814730150462424, 16.650655154424648 ], [ 75.814862555679014, 16.650664450738645 ], [ 75.814910863847402, 16.650757482851457 ], [ 75.814916141978472, 16.65084419757013 ], [ 75.814945982715884, 16.650891076341431 ], [ 75.814953927154008, 16.651031796351155 ], [ 75.814976985284005, 16.651074569999547 ], [ 75.815098410062717, 16.651087046762374 ], [ 75.815135237107469, 16.651115438425865 ], [ 75.815167609767954, 16.651140395562404 ], [ 75.815186480229912, 16.651168515207498 ], [ 75.815198731212035, 16.651186769396777 ], [ 75.815216491977765, 16.651213232920234 ], [ 75.815264233388987, 16.651284369977272 ], [ 75.815302902875501, 16.651341987670843 ], [ 75.815332800775096, 16.651339830020497 ], [ 75.81548885383549, 16.651328569367035 ], [ 75.815568247285114, 16.651268490762991 ], [ 75.81567669796074, 16.651181998642279 ], [ 75.815721651583473, 16.651149831624412 ], [ 75.815827915231807, 16.651209933051934 ], [ 75.815896182263671, 16.651271273105436 ], [ 75.815897603403101, 16.651371306672807 ], [ 75.815897581324947, 16.651446054559955 ], [ 75.8162282105462, 16.651360720013745 ], [ 75.816399341465484, 16.651465275862268 ], [ 75.816584279314682, 16.651451314601754 ], [ 75.816680092767641, 16.651444081204968 ], [ 75.817065846216551, 16.651378184660924 ], [ 75.817107438380347, 16.651371079695988 ], [ 75.817150136192296, 16.65136378596948 ], [ 75.817486365907172, 16.65132036871508 ], [ 75.817680777968263, 16.651298508758249 ], [ 75.817803772620863, 16.651284679434241 ], [ 75.817920355580355, 16.65128568224009 ], [ 75.818231500095962, 16.651288361684546 ], [ 75.818489524561954, 16.651290583211669 ], [ 75.818705785033771, 16.651295860879337 ], [ 75.819057220022017, 16.651304436221967 ], [ 75.819265639820969, 16.65130952190605 ], [ 75.819415698440267, 16.651313369109452 ], [ 75.819761878130848, 16.651322243324955 ], [ 75.820106268557737, 16.651331071609469 ], [ 75.82028920485952, 16.651333409716187 ], [ 75.820531025365852, 16.651336499974452 ], [ 75.820671367548854, 16.651338293968593 ], [ 75.820871604041102, 16.65133340958285 ], [ 75.820946804634431, 16.651335700732254 ], [ 75.820969875153196, 16.651236217560431 ] ] ] } },
{ "type": "Feature", "properties": { "KGISWardID": 5832, "KGISWardCode": "0307010", "KGISWardName": " ", "SHAPE.STArea()": 20966.798456065, "SHAPE.STLength()": 665.36451255387908, "OBJECTID": 15228, "KGISWardNo": "10", "KGISTownCode": "0307", "LGD_WardCode": 1296192, "created_user": "SA", "created_date": 1634898537000, "last_edited_user": "SURESHBV1", "last_edited_date": 1692253949000, "_overlap_percent": 99.999999999999972, "_police_station": "Managoli PS", "_police_feature_index": "397", "_admin_layer": "Ward", "_geometry_clipped": true }, "geometry": { "type": "Polygon", "coordinates": [ [ [ 75.815186480229912, 16.651168515207498 ], [ 75.815167609767954, 16.651140395562404 ], [ 75.815135237107469, 16.651115438425865 ], [ 75.815098410062717, 16.651087046762374 ], [ 75.814976985284005, 16.651074569999547 ], [ 75.814953927154008, 16.651031796351155 ], [ 75.814945982715884, 16.650891076341431 ], [ 75.814916141978472, 16.65084419757013 ], [ 75.814910863847402, 16.650757482851457 ], [ 75.814862555679014, 16.650664450738645 ], [ 75.814730150462424, 16.650655154424648 ], [ 75.814591409830129, 16.650616887323793 ], [ 75.81453083130566, 16.650518253884737 ], [ 75.814460992583463, 16.650381484720306 ], [ 75.814341068847099, 16.650326688797016 ], [ 75.814167221538312, 16.650294237582234 ], [ 75.814051406367312, 16.650271979635026 ], [ 75.813825503051035, 16.650248710048782 ], [ 75.81366524063084, 16.650223995895693 ], [ 75.813563122098486, 16.650201530277439 ], [ 75.813457222137998, 16.650192655246475 ], [ 75.813442074696766, 16.650191231336493 ], [ 75.813409924332944, 16.650455279850348 ], [ 75.813407398460726, 16.650467993292075 ], [ 75.813403505406413, 16.650487579995438 ], [ 75.813397729559739, 16.650511621314202 ], [ 75.813396713161737, 16.65051585107437 ], [ 75.813388801223368, 16.650726075276058 ], [ 75.813417148676336, 16.650823137027057 ], [ 75.81346431743286, 16.650904289376353 ], [ 75.813533823549591, 16.651002137879306 ], [ 75.813557799133974, 16.65110106434166 ], [ 75.813538256885948, 16.651298717391445 ], [ 75.813529635592644, 16.651654297418439 ], [ 75.813531814122982, 16.651665701625934 ], [ 75.813559345892756, 16.651658547662635 ], [ 75.813769415978911, 16.651655743072624 ], [ 75.813797978062297, 16.651752921415852 ], [ 75.813943053555633, 16.651771248335109 ], [ 75.814053425888019, 16.651744981442313 ], [ 75.814136139587092, 16.651736683396472 ], [ 75.814141168203648, 16.651645641859236 ], [ 75.814237109258713, 16.651636817299835 ], [ 75.814247611881171, 16.651624772160485 ], [ 75.814257900809864, 16.651612971914947 ], [ 75.814324388777578, 16.651605298824613 ], [ 75.81433171844715, 16.651546237578788 ], [ 75.814334465100799, 16.651524094590734 ], [ 75.814622204385557, 16.651512443143169 ], [ 75.814682982716221, 16.651499423148199 ], [ 75.814699539204639, 16.651495876258046 ], [ 75.81465763822824, 16.651271999859297 ], [ 75.814645066138411, 16.651204828265854 ], [ 75.814687019546142, 16.651212626010949 ], [ 75.814793661187736, 16.651232447423418 ], [ 75.814832506777179, 16.651259006219718 ], [ 75.814853072149987, 16.65127306707458 ], [ 75.814865113015983, 16.651280440858233 ], [ 75.814915623926098, 16.651311372111959 ], [ 75.815100008933825, 16.651248496625943 ], [ 75.815198731212035, 16.651186769396777 ], [ 75.815186480229912, 16.651168515207498 ] ] ] } },
{ "type": "Feature", "properties": { "KGISWardID": 5824, "KGISWardCode": "0307002", "KGISWardName": " ", "SHAPE.STArea()": 26376.840796054999, "SHAPE.STLength()": 830.52321099135406, "OBJECTID": 15220, "KGISWardNo": "2", "KGISTownCode": "0307", "LGD_WardCode": 1296184, "created_user": "SA", "created_date": 1634898537000, "last_edited_user": "SURESHBV1", "last_edited_date": 1692253949000, "_overlap_percent": 100.00000000000004, "_police_station": "Managoli PS", "_police_feature_index": "397", "_admin_layer": "Ward", "_geometry_clipped": true }, "geometry": { "type": "Polygon", "coordinates": [ [ [ 75.813531814122982, 16.651665701625934 ], [ 75.813529635592644, 16.651654297418439 ], [ 75.813538256885948, 16.651298717391445 ], [ 75.813557799133974, 16.65110106434166 ], [ 75.813533823549591, 16.651002137879306 ], [ 75.81346431743286, 16.650904289376353 ], [ 75.813417148676336, 16.650823137027057 ], [ 75.813388801223368, 16.650726075276058 ], [ 75.813396713161737, 16.65051585107437 ], [ 75.813397729559739, 16.650511621314202 ], [ 75.813403505406413, 16.650487579995438 ], [ 75.813299271594403, 16.650598722098625 ], [ 75.813216507757346, 16.65072460227498 ], [ 75.813198037299244, 16.650724318551998 ], [ 75.813133350849256, 16.650723326568723 ], [ 75.813106587903036, 16.65072021357101 ], [ 75.8130356240883, 16.650711963370973 ], [ 75.81286419780271, 16.65071623192302 ], [ 75.812790863959762, 16.650755437112089 ], [ 75.812689646436425, 16.650745229067496 ], [ 75.812610832794618, 16.650737280651573 ], [ 75.812443903102164, 16.650720983578886 ], [ 75.812289380706773, 16.650781903028854 ], [ 75.811903779638968, 16.650766193324738 ], [ 75.81189772690648, 16.65064975193248 ], [ 75.811844982561468, 16.650640064196416 ], [ 75.811664864318573, 16.650606980089872 ], [ 75.811571268877074, 16.650589787892482 ], [ 75.811414860677004, 16.651179716133885 ], [ 75.811255453626501, 16.651711224588198 ], [ 75.811337437918567, 16.651730534991373 ], [ 75.811520032221452, 16.651773541804829 ], [ 75.811722228530869, 16.651777105590192 ], [ 75.811756261450199, 16.651589658010128 ], [ 75.811763535931462, 16.651549587266892 ], [ 75.811767634388119, 16.651528410712505 ], [ 75.811770299406447, 16.651514643688341 ], [ 75.811995264542603, 16.651560399353926 ], [ 75.812223285451367, 16.651624797679414 ], [ 75.812261380646945, 16.651631108727688 ], [ 75.812422146348041, 16.651657740046325 ], [ 75.812483888263785, 16.651649701972083 ], [ 75.812626711293419, 16.651631109442921 ], [ 75.812634429700509, 16.651696369451091 ], [ 75.812826468038594, 16.651699922247182 ], [ 75.812822183602194, 16.651944000777604 ], [ 75.812828924464327, 16.651942647421095 ], [ 75.812861853877877, 16.651946685383923 ], [ 75.812892503560576, 16.651950443025903 ], [ 75.81312044080282, 16.651978391438753 ], [ 75.81339335668865, 16.651996388333099 ], [ 75.813539150713694, 16.651999192596953 ], [ 75.813573964044906, 16.65188641544357 ], [ 75.813531814122982, 16.651665701625934 ] ] ] } },
{ "type": "Feature", "properties": { "KGISWardID": 5826, "KGISWardCode": "0307004", "KGISWardName": " ", "SHAPE.STArea()": 113861.81795332499, "SHAPE.STLength()": 1926.1548318194996, "OBJECTID": 15222, "KGISWardNo": "4", "KGISTownCode": "0307", "LGD_WardCode": 1296186, "created_user": "SA", "created_date": 1634898537000, "last_edited_user": "SURESHBV1", "last_edited_date": 1692253949000, "_overlap_percent": 99.999999999999986, "_police_station": "Managoli PS", "_police_feature_index": "397", "_admin_layer": "Ward", "_geometry_clipped": true }, "geometry": { "type": "Polygon", "coordinates": [ [ [ 75.811177459101231, 16.652305234403414 ], [ 75.811444250734738, 16.652267838230852 ], [ 75.811560276058003, 16.65224825120232 ], [ 75.811556771952056, 16.652194805919891 ], [ 75.811548612446558, 16.652070362327471 ], [ 75.811708349062556, 16.652062083820805 ], [ 75.811729237088201, 16.652098014712355 ], [ 75.811776970774787, 16.652097211417914 ], [ 75.811841158466251, 16.652296004568083 ], [ 75.811877961248086, 16.6523275913265 ], [ 75.8119300537481, 16.652372297214953 ], [ 75.811936748957407, 16.652384362595271 ], [ 75.811957130555129, 16.652460984907908 ], [ 75.812063357557662, 16.65246039815959 ], [ 75.812070836601634, 16.6524624315953 ], [ 75.81225686356693, 16.652469378199132 ], [ 75.812336377584387, 16.652498722214201 ], [ 75.812361557467355, 16.652590475199098 ], [ 75.812423087451549, 16.652595708248899 ], [ 75.812613509980935, 16.652611900566608 ], [ 75.81267450437177, 16.652617088636561 ], [ 75.812679658428749, 16.652403752266714 ], [ 75.812673269234494, 16.652359532769193 ], [ 75.812674393789251, 16.652332025126043 ], [ 75.812657275934384, 16.652332780075749 ], [ 75.812585096687826, 16.652335962629035 ], [ 75.812534888632484, 16.652196251408757 ], [ 75.812715808461448, 16.652166883192155 ], [ 75.81278040816278, 16.652115171409111 ], [ 75.81280241498763, 16.652039031172425 ], [ 75.812822183602194, 16.651944000777604 ], [ 75.812826468038594, 16.651699922247182 ], [ 75.812634429700509, 16.651696369451091 ], [ 75.812626711293419, 16.651631109442921 ], [ 75.812483888263785, 16.651649701972083 ], [ 75.812422146348041, 16.651657740046325 ], [ 75.812261380646945, 16.651631108727688 ], [ 75.812223285451367, 16.651624797679414 ], [ 75.811995264542603, 16.651560399353926 ], [ 75.811770299406447, 16.651514643688341 ], [ 75.811767634388119, 16.651528410712505 ], [ 75.811763535931462, 16.651549587266892 ], [ 75.811756261450199, 16.651589658010128 ], [ 75.811722228530869, 16.651777105590192 ], [ 75.811520032221452, 16.651773541804829 ], [ 75.811337437918567, 16.651730534991373 ], [ 75.811255453626501, 16.651711224588198 ], [ 75.811414860677004, 16.651179716133885 ], [ 75.811571268877074, 16.650589787892482 ], [ 75.811369476212263, 16.650500275017055 ], [ 75.811250075128754, 16.650620950245997 ], [ 75.811214306460982, 16.650651387376005 ], [ 75.811105941793386, 16.650743597741442 ], [ 75.811083563535306, 16.650760792640433 ], [ 75.810922525068221, 16.650695414330954 ], [ 75.810896442390529, 16.650687500435694 ], [ 75.810605058377689, 16.65059907735149 ], [ 75.810601709655629, 16.650598112408662 ], [ 75.810330087587843, 16.650519805081615 ], [ 75.810305497439913, 16.650512715971821 ], [ 75.809761460424909, 16.650342644940746 ], [ 75.809641173002518, 16.650292717929574 ], [ 75.809542261393702, 16.650251663355881 ], [ 75.809495227281687, 16.650217106056239 ], [ 75.809361589389312, 16.650118917003738 ], [ 75.809185191955763, 16.649989626628209 ], [ 75.808961943015817, 16.64994828123266 ], [ 75.808940400440036, 16.649945893959625 ], [ 75.808649202353564, 16.649913626332037 ], [ 75.80827396802286, 16.649884955218141 ], [ 75.808196384760251, 16.649858596700856 ], [ 75.808163205967958, 16.649842613779381 ], [ 75.807749685219989, 16.649794513991786 ], [ 75.80775275282933, 16.649811864350294 ], [ 75.807681780358322, 16.649896314633146 ], [ 75.807426407531821, 16.650200184736935 ], [ 75.807396419433374, 16.650235867620239 ], [ 75.807361787540103, 16.650312409040833 ], [ 75.807262876180971, 16.650531022325634 ], [ 75.807233705076854, 16.650594555093264 ], [ 75.807167385660648, 16.650738991368684 ], [ 75.807059665747332, 16.650973587434255 ], [ 75.807055149438469, 16.650983548922547 ], [ 75.806929517880079, 16.651260707435185 ], [ 75.806892790879829, 16.651341730386942 ], [ 75.806862537770726, 16.651408471677943 ], [ 75.806850440082314, 16.65143494364813 ], [ 75.806861627830486, 16.651463701412304 ], [ 75.806888780322168, 16.651537008644912 ], [ 75.806923472761099, 16.651683349587756 ], [ 75.807035429841562, 16.651717308657986 ], [ 75.807355647541939, 16.651814434014511 ], [ 75.807416491016909, 16.651835380289203 ], [ 75.807491326690766, 16.651863982420807 ], [ 75.807541404670431, 16.651883121171718 ], [ 75.807784226851112, 16.65193611277822 ], [ 75.808040159434384, 16.651974047209531 ], [ 75.808297402347321, 16.652065714553469 ], [ 75.808498456560088, 16.652137360268853 ], [ 75.808590898703628, 16.652170301723341 ], [ 75.808775604847924, 16.652262309996175 ], [ 75.809501177450827, 16.652623741219564 ], [ 75.809846742355774, 16.652812817807337 ], [ 75.809909372395992, 16.652847086300508 ], [ 75.809929159856836, 16.652857702272886 ], [ 75.80998508539848, 16.652887704259506 ], [ 75.810045544933004, 16.652608129388849 ], [ 75.810050306738432, 16.652586108731484 ], [ 75.810080717998815, 16.652475796161237 ], [ 75.810158796864627, 16.652192579282925 ], [ 75.810164420619927, 16.652172178677258 ], [ 75.810315465690266, 16.652160010415336 ], [ 75.81042035238238, 16.652151560317044 ], [ 75.81089010113422, 16.652113716084529 ], [ 75.811042402149852, 16.652101446571745 ], [ 75.811051478949096, 16.652235383983886 ], [ 75.811054954100257, 16.652286660915227 ], [ 75.811055794888915, 16.652299065589144 ], [ 75.811056709659709, 16.652312561896057 ], [ 75.811177459101231, 16.652305234403414 ] ] ] } },
{ "type": "Feature", "properties": { "KGISWardID": 5833, "KGISWardCode": "0307011", "KGISWardName": " ", "SHAPE.STArea()": 116967.609170115, "SHAPE.STLength()": 2104.5543828861187, "OBJECTID": 15229, "KGISWardNo": "11", "KGISTownCode": "0307", "LGD_WardCode": 1296193, "created_user": "SA", "created_date": 1634898537000, "last_edited_user": "SURESHBV1", "last_edited_date": 1692253949000, "_overlap_percent": 100.00000000000007, "_police_station": "Managoli PS", "_police_feature_index": "397", "_admin_layer": "Ward", "_geometry_clipped": true }, "geometry": { "type": "Polygon", "coordinates": [ [ [ 75.820496204644598, 16.652795389800971 ], [ 75.820936305221153, 16.651380975626221 ], [ 75.82094665731627, 16.651336336762284 ], [ 75.820946804634431, 16.651335700732254 ], [ 75.820871604041102, 16.65133340958285 ], [ 75.820671367548854, 16.651338293968593 ], [ 75.820531025365852, 16.651336499974452 ], [ 75.82028920485952, 16.651333409716187 ], [ 75.820106268557737, 16.651331071609469 ], [ 75.819761878130848, 16.651322243324955 ], [ 75.819415698440267, 16.651313369109452 ], [ 75.819265639820969, 16.65130952190605 ], [ 75.819057220022017, 16.651304436221967 ], [ 75.818705785033771, 16.651295860879337 ], [ 75.818489524561954, 16.651290583211669 ], [ 75.818231500095962, 16.651288361684546 ], [ 75.817920355580355, 16.65128568224009 ], [ 75.817803772620863, 16.651284679434241 ], [ 75.817680777968263, 16.651298508758249 ], [ 75.817486365907172, 16.65132036871508 ], [ 75.817150136192296, 16.65136378596948 ], [ 75.817107438380347, 16.651371079695988 ], [ 75.817065846216551, 16.651378184660924 ], [ 75.816680092767641, 16.651444081204968 ], [ 75.816584279314682, 16.651451314601754 ], [ 75.816399341465484, 16.651465275862268 ], [ 75.8162282105462, 16.651360720013745 ], [ 75.815897581324947, 16.651446054559955 ], [ 75.815897603403101, 16.651371306672807 ], [ 75.815896182263671, 16.651271273105436 ], [ 75.815827915231807, 16.651209933051934 ], [ 75.815721651583473, 16.651149831624412 ], [ 75.81567669796074, 16.651181998642279 ], [ 75.815568247285114, 16.651268490762991 ], [ 75.81548885383549, 16.651328569367035 ], [ 75.815332800775096, 16.651339830020497 ], [ 75.815302902875501, 16.651341987670843 ], [ 75.815264233388987, 16.651284369977272 ], [ 75.815216491977765, 16.651213232920234 ], [ 75.815198731212035, 16.651186769396777 ], [ 75.815100008933825, 16.651248496625943 ], [ 75.814915623926098, 16.651311372111959 ], [ 75.814865113015983, 16.651280440858233 ], [ 75.814853072149987, 16.65127306707458 ], [ 75.814832506777179, 16.651259006219718 ], [ 75.814793661187736, 16.651232447423418 ], [ 75.814687019546142, 16.651212626010949 ], [ 75.814645066138411, 16.651204828265854 ], [ 75.81465763822824, 16.651271999859297 ], [ 75.814699539204639, 16.651495876258046 ], [ 75.814682982716221, 16.651499423148199 ], [ 75.814622204385557, 16.651512443143169 ], [ 75.814334465100799, 16.651524094590734 ], [ 75.81433171844715, 16.651546237578788 ], [ 75.814324388777578, 16.651605298824613 ], [ 75.814257900809864, 16.651612971914947 ], [ 75.814247611881171, 16.651624772160485 ], [ 75.814237109258713, 16.651636817299835 ], [ 75.814141168203648, 16.651645641859236 ], [ 75.814136139587092, 16.651736683396472 ], [ 75.814053425888019, 16.651744981442313 ], [ 75.813943053555633, 16.651771248335109 ], [ 75.813797978062297, 16.651752921415852 ], [ 75.813769415978911, 16.651655743072624 ], [ 75.813559345892756, 16.651658547662635 ], [ 75.813531814122982, 16.651665701625934 ], [ 75.813573964044906, 16.65188641544357 ], [ 75.813589221161507, 16.651887577678419 ], [ 75.813838463574982, 16.651937575737346 ], [ 75.814004374422623, 16.651971019169501 ], [ 75.814024794838218, 16.652104383062056 ], [ 75.814033203274505, 16.652353762867158 ], [ 75.814023593204013, 16.6525114259858 ], [ 75.81402114315317, 16.652521217701658 ], [ 75.814055864647656, 16.652509287216926 ], [ 75.814327800623403, 16.652553718787878 ], [ 75.814376287150566, 16.652656721315104 ], [ 75.814454283865388, 16.652670857678437 ], [ 75.814510656728771, 16.652866685009862 ], [ 75.814808774608707, 16.652847111285212 ], [ 75.814722970207541, 16.65262436195648 ], [ 75.814847181048449, 16.652610270146017 ], [ 75.814894577810236, 16.652635322851051 ], [ 75.815026590655322, 16.652641978420814 ], [ 75.815045699913327, 16.652642941913772 ], [ 75.81504984345645, 16.65264315070295 ], [ 75.815235100963278, 16.652658569980584 ], [ 75.815243962326846, 16.652659307989101 ], [ 75.815294654738636, 16.652612019606817 ], [ 75.815400902207983, 16.652617600239783 ], [ 75.815398872816658, 16.652815227898106 ], [ 75.815530236890297, 16.652840490837473 ], [ 75.815724808030097, 16.652884582074829 ], [ 75.815761726098245, 16.652892948062448 ], [ 75.815787509804267, 16.652898790742249 ], [ 75.815796310864812, 16.652866008429086 ], [ 75.815826588365752, 16.652753228005786 ], [ 75.815839333989388, 16.652756938125691 ], [ 75.815933262565039, 16.65278427972229 ], [ 75.816338002176565, 16.652902094145023 ], [ 75.816331998820743, 16.652919724099149 ], [ 75.816297022436061, 16.653022436367554 ], [ 75.816355207426611, 16.653139119723892 ], [ 75.816394328311219, 16.653225431770544 ], [ 75.816431296828398, 16.653306995012656 ], [ 75.816685412778654, 16.653320004127956 ], [ 75.816841213326398, 16.65331939142845 ], [ 75.816948925280926, 16.653287897117618 ], [ 75.816956506450978, 16.653126651639461 ], [ 75.817005126840172, 16.653125503769651 ], [ 75.817188003125167, 16.653119016311912 ], [ 75.817186321738234, 16.653101958962012 ], [ 75.817155161349163, 16.652785858561945 ], [ 75.817708921359227, 16.652814423246866 ], [ 75.818115747007653, 16.652836951329043 ], [ 75.818461907398415, 16.652714112950758 ], [ 75.81881399671073, 16.652677233921953 ], [ 75.820347184000426, 16.652794006085337 ], [ 75.820433056201395, 16.652797460997878 ], [ 75.820460875443416, 16.65280500342379 ], [ 75.82048972826415, 16.652815909715706 ], [ 75.820496204644598, 16.652795389800971 ] ] ] } },
{ "type": "Feature", "properties": { "KGISWardID": 5828, "KGISWardCode": "0307006", "KGISWardName": " ", "SHAPE.STArea()": 17530.671105285001, "SHAPE.STLength()": 584.11189799495708, "OBJECTID": 15224, "KGISWardNo": "6", "KGISTownCode": "0307", "LGD_WardCode": 1296188, "created_user": "SA", "created_date": 1634898537000, "last_edited_user": "SURESHBV1", "last_edited_date": 1692253949000, "_overlap_percent": 100.00000000000007, "_police_station": "Managoli PS", "_police_feature_index": "397", "_admin_layer": "Ward", "_geometry_clipped": true }, "geometry": { "type": "Polygon", "coordinates": [ [ [ 75.812361557467355, 16.652590475199098 ], [ 75.812336377584387, 16.652498722214201 ], [ 75.81225686356693, 16.652469378199132 ], [ 75.812070836601634, 16.6524624315953 ], [ 75.812063357557662, 16.65246039815959 ], [ 75.811957130555129, 16.652460984907908 ], [ 75.811936748957407, 16.652384362595271 ], [ 75.8119300537481, 16.652372297214953 ], [ 75.811877961248086, 16.6523275913265 ], [ 75.811841158466251, 16.652296004568083 ], [ 75.811776970774787, 16.652097211417914 ], [ 75.811729237088201, 16.652098014712355 ], [ 75.811708349062556, 16.652062083820805 ], [ 75.811548612446558, 16.652070362327471 ], [ 75.811556771952056, 16.652194805919891 ], [ 75.811560276058003, 16.65224825120232 ], [ 75.811444250734738, 16.652267838230852 ], [ 75.811177459101231, 16.652305234403414 ], [ 75.811056709659709, 16.652312561896057 ], [ 75.81106542046642, 16.652441074568419 ], [ 75.811081185765929, 16.652673714394165 ], [ 75.811246905251025, 16.653086209646471 ], [ 75.811322913105286, 16.653380978067421 ], [ 75.811380412719501, 16.653498796404271 ], [ 75.811610868565538, 16.653752548390326 ], [ 75.811696391811452, 16.653845808017266 ], [ 75.811736408086304, 16.653908503792955 ], [ 75.811765651631845, 16.653943892155706 ], [ 75.81177693133894, 16.653957541318579 ], [ 75.811790396649556, 16.653968263203137 ], [ 75.811820925984989, 16.653992570927645 ], [ 75.811859307188286, 16.653939570925932 ], [ 75.811867219388617, 16.653896841100295 ], [ 75.811873796686626, 16.653861319750703 ], [ 75.811956416632725, 16.653675852232901 ], [ 75.812020918932078, 16.653535655593299 ], [ 75.812104763445305, 16.653442362052456 ], [ 75.812130178288882, 16.653414081359024 ], [ 75.812178846302743, 16.653349440252192 ], [ 75.812201916346396, 16.653318798684353 ], [ 75.812216713913585, 16.653287876760622 ], [ 75.81222556455792, 16.653269379757528 ], [ 75.812266175118765, 16.653184519013315 ], [ 75.812284236314255, 16.652995989588835 ], [ 75.812290235831668, 16.652978694198378 ], [ 75.812399055194888, 16.652664990291616 ], [ 75.812423087451549, 16.652595708248899 ], [ 75.812361557467355, 16.652590475199098 ] ] ] } },
{ "type": "Feature", "properties": { "KGISWardID": 5827, "KGISWardCode": "0307005", "KGISWardName": " ", "SHAPE.STArea()": 41862.632924650003, "SHAPE.STLength()": 892.89645845466612, "OBJECTID": 15223, "KGISWardNo": "5", "KGISTownCode": "0307", "LGD_WardCode": 1296187, "created_user": "SA", "created_date": 1634898537000, "last_edited_user": "SURESHBV1", "last_edited_date": 1692253949000, "_overlap_percent": 99.999999999999943, "_police_station": "Managoli PS", "_police_feature_index": "397", "_admin_layer": "Ward", "_geometry_clipped": true }, "geometry": { "type": "Polygon", "coordinates": [ [ [ 75.813652669864325, 16.654124756745158 ], [ 75.813651657344096, 16.654108809443098 ], [ 75.813651172222706, 16.654045657965373 ], [ 75.813650545173076, 16.653963993188288 ], [ 75.813650018425747, 16.653895423844826 ], [ 75.813654122704619, 16.653855012970169 ], [ 75.813659282962703, 16.653804199387558 ], [ 75.81378529825561, 16.653516196910736 ], [ 75.813847763610696, 16.653147561116494 ], [ 75.813872989456527, 16.653071490409136 ], [ 75.813933404550866, 16.652889300116666 ], [ 75.813971869632709, 16.652730247436775 ], [ 75.814005575102456, 16.652583427948692 ], [ 75.81402114315317, 16.652521217701658 ], [ 75.814023593204013, 16.6525114259858 ], [ 75.814033203274505, 16.652353762867158 ], [ 75.814024794838218, 16.652104383062056 ], [ 75.814004374422623, 16.651971019169501 ], [ 75.813838463574982, 16.651937575737346 ], [ 75.813589221161507, 16.651887577678419 ], [ 75.813573964044906, 16.65188641544357 ], [ 75.813539150713694, 16.651999192596953 ], [ 75.81339335668865, 16.651996388333099 ], [ 75.81312044080282, 16.651978391438753 ], [ 75.812892503560576, 16.651950443025903 ], [ 75.812861853877877, 16.651946685383923 ], [ 75.812828924464327, 16.651942647421095 ], [ 75.812822183602194, 16.651944000777604 ], [ 75.81280241498763, 16.652039031172425 ], [ 75.81278040816278, 16.652115171409111 ], [ 75.812715808461448, 16.652166883192155 ], [ 75.812534888632484, 16.652196251408757 ], [ 75.812585096687826, 16.652335962629035 ], [ 75.812657275934384, 16.652332780075749 ], [ 75.812674393789251, 16.652332025126043 ], [ 75.812673269234494, 16.652359532769193 ], [ 75.812679658428749, 16.652403752266714 ], [ 75.81267450437177, 16.652617088636561 ], [ 75.812613509980935, 16.652611900566608 ], [ 75.812423087451549, 16.652595708248899 ], [ 75.812399055194888, 16.652664990291616 ], [ 75.812290235831668, 16.652978694198378 ], [ 75.812284236314255, 16.652995989588835 ], [ 75.812266175118765, 16.653184519013315 ], [ 75.81222556455792, 16.653269379757528 ], [ 75.812216713913585, 16.653287876760622 ], [ 75.812201916346396, 16.653318798684353 ], [ 75.812178846302743, 16.653349440252192 ], [ 75.812130178288882, 16.653414081359024 ], [ 75.812104763445305, 16.653442362052456 ], [ 75.812020918932078, 16.653535655593299 ], [ 75.811956416632725, 16.653675852232901 ], [ 75.811873796686626, 16.653861319750703 ], [ 75.811867219388617, 16.653896841100295 ], [ 75.811859307188286, 16.653939570925932 ], [ 75.811820925984989, 16.653992570927645 ], [ 75.812090325631587, 16.654191486088425 ], [ 75.812392350907373, 16.654226731555713 ], [ 75.812491602364474, 16.65422411367533 ], [ 75.812646792745767, 16.654220020112621 ], [ 75.812876978870946, 16.654216731629631 ], [ 75.812987798441085, 16.654215424933714 ], [ 75.813152353160717, 16.654213483548158 ], [ 75.813322253125136, 16.654216979772499 ], [ 75.813569177955998, 16.654185514218728 ], [ 75.813655974600948, 16.654176802585532 ], [ 75.813652669864325, 16.654124756745158 ] ] ] } },
{ "type": "Feature", "properties": { "KGISWardID": 5839, "KGISWardCode": "0307016/2", "KGISWardName": " ", "SHAPE.STArea()": 6304.6888387700001, "SHAPE.STLength()": 329.6930313692406, "OBJECTID": 15235, "KGISWardNo": "16/2", "KGISTownCode": "0307", "LGD_WardCode": 1296198, "created_user": "SA", "created_date": 1634898537000, "last_edited_user": "SURESHBV1", "last_edited_date": 1692253949000, "_overlap_percent": 100.00000000000003, "_police_station": "Managoli PS", "_police_feature_index": "397", "_admin_layer": "Ward", "_geometry_clipped": true }, "geometry": { "type": "Polygon", "coordinates": [ [ [ 75.807485522849888, 16.696822773388973 ], [ 75.807433408634196, 16.696823641135946 ], [ 75.80731111292117, 16.696825676678213 ], [ 75.806531374566063, 16.696838653320931 ], [ 75.806547789116081, 16.697293538004629 ], [ 75.806550713026468, 16.69737455095267 ], [ 75.806547941248269, 16.697391688972715 ], [ 75.806752696958185, 16.697389350433241 ], [ 75.80688490098035, 16.697385970421738 ], [ 75.807540672100913, 16.697369199862951 ], [ 75.807530180464951, 16.697336983116838 ], [ 75.807507560955514, 16.69705813502863 ], [ 75.807485522849888, 16.696822773388973 ] ] ] } },
{ "type": "Feature", "properties": { "KGISWardID": 5835, "KGISWardCode": "0307013", "KGISWardName": " ", "SHAPE.STArea()": 27899.852084955, "SHAPE.STLength()": 775.01517779530081, "OBJECTID": 15231, "KGISWardNo": "13", "KGISTownCode": "0307", "LGD_WardCode": 1296195, "created_user": "SA", "created_date": 1634898537000, "last_edited_user": "SURESHBV1", "last_edited_date": 1692253949000, "_overlap_percent": 99.999999999999986, "_police_station": "Managoli PS", "_police_feature_index": "397", "_admin_layer": "Ward", "_geometry_clipped": true }, "geometry": { "type": "Polygon", "coordinates": [ [ [ 75.815160439412708, 16.654318524152018 ], [ 75.815116230090609, 16.654131145092059 ], [ 75.815090524951017, 16.654066986381736 ], [ 75.815062039302418, 16.653995885732627 ], [ 75.815041337934659, 16.65396925479574 ], [ 75.815033227148561, 16.65381144167883 ], [ 75.814974087658229, 16.653743641434641 ], [ 75.814975520115937, 16.653690572768571 ], [ 75.814977898698771, 16.653602472126831 ], [ 75.814993586466159, 16.653495903855685 ], [ 75.815094836314941, 16.653360644609226 ], [ 75.815226208622079, 16.65328602943703 ], [ 75.815264713250912, 16.653191756807907 ], [ 75.81526176079538, 16.653172987006535 ], [ 75.815249024965269, 16.653092020669412 ], [ 75.815129163641217, 16.653039135005969 ], [ 75.815123173177881, 16.652894234013086 ], [ 75.815087302288077, 16.6528350424481 ], [ 75.815056999760429, 16.65278503710703 ], [ 75.815044163659309, 16.6526566087195 ], [ 75.815045699913327, 16.652642941913772 ], [ 75.815026590655322, 16.652641978420814 ], [ 75.814894577810236, 16.652635322851051 ], [ 75.814847181048449, 16.652610270146017 ], [ 75.814722970207541, 16.65262436195648 ], [ 75.814808774608707, 16.652847111285212 ], [ 75.814510656728771, 16.652866685009862 ], [ 75.814454283865388, 16.652670857678437 ], [ 75.814376287150566, 16.652656721315104 ], [ 75.814327800623403, 16.652553718787878 ], [ 75.814055864647656, 16.652509287216926 ], [ 75.81402114315317, 16.652521217701658 ], [ 75.814005575102456, 16.652583427948692 ], [ 75.813971869632709, 16.652730247436775 ], [ 75.813933404550866, 16.652889300116666 ], [ 75.813872989456527, 16.653071490409136 ], [ 75.813847763610696, 16.653147561116494 ], [ 75.81378529825561, 16.653516196910736 ], [ 75.813659282962703, 16.653804199387558 ], [ 75.813654122704619, 16.653855012970169 ], [ 75.813650018425747, 16.653895423844826 ], [ 75.813650545173076, 16.653963993188288 ], [ 75.813651172222706, 16.654045657965373 ], [ 75.813651657344096, 16.654108809443098 ], [ 75.813652669864325, 16.654124756745158 ], [ 75.813655974600948, 16.654176802585532 ], [ 75.813667194037478, 16.654189912242401 ], [ 75.813652042436544, 16.65442076124187 ], [ 75.81363916942361, 16.654459296560923 ], [ 75.813657405912522, 16.654459602841911 ], [ 75.813765307563799, 16.654461415715314 ], [ 75.813777830162053, 16.65446425275406 ], [ 75.813841929727417, 16.65446497380821 ], [ 75.813930734759921, 16.654465972093927 ], [ 75.813955490865496, 16.65446625004753 ], [ 75.814164585684622, 16.654468479917526 ], [ 75.81438472590483, 16.654456380831085 ], [ 75.814772145160276, 16.654441734264065 ], [ 75.81499526816593, 16.654413695948318 ], [ 75.815156156643695, 16.654389816866384 ], [ 75.815173274182683, 16.654374540418381 ], [ 75.815160439412708, 16.654318524152018 ] ] ] } },
{ "type": "Feature", "properties": { "KGISWardID": 5834, "KGISWardCode": "0307012", "KGISWardName": " ", "SHAPE.STArea()": 58236.223103359996, "SHAPE.STLength()": 1570.0058990544628, "OBJECTID": 15230, "KGISWardNo": "12", "KGISTownCode": "0307", "LGD_WardCode": 1296194, "created_user": "SA", "created_date": 1634898537000, "last_edited_user": "SURESHBV1", "last_edited_date": 1692253949000, "_overlap_percent": 100.0, "_police_station": "Managoli PS", "_police_feature_index": "397", "_admin_layer": "Ward", "_geometry_clipped": true }, "geometry": { "type": "Polygon", "coordinates": [ [ [ 75.817583050292043, 16.653743392914315 ], [ 75.81783820455162, 16.653685627744863 ], [ 75.817840351727014, 16.653722498716416 ], [ 75.817845086101116, 16.653803810959417 ], [ 75.817846515768991, 16.653813683225831 ], [ 75.817850049287671, 16.653838064858562 ], [ 75.817879655221688, 16.653829558929992 ], [ 75.819840786374954, 16.65326608926787 ], [ 75.820022378783449, 16.65321087202155 ], [ 75.82040145417136, 16.653095605187371 ], [ 75.82048972826415, 16.652815909715706 ], [ 75.820460875443416, 16.65280500342379 ], [ 75.820433056201395, 16.652797460997878 ], [ 75.820347184000426, 16.652794006085337 ], [ 75.81881399671073, 16.652677233921953 ], [ 75.818461907398415, 16.652714112950758 ], [ 75.818115747007653, 16.652836951329043 ], [ 75.817708921359227, 16.652814423246866 ], [ 75.817155161349163, 16.652785858561945 ], [ 75.817186321738234, 16.653101958962012 ], [ 75.817188003125167, 16.653119016311912 ], [ 75.817005126840172, 16.653125503769651 ], [ 75.816956506450978, 16.653126651639461 ], [ 75.816948925280926, 16.653287897117618 ], [ 75.816841213326398, 16.65331939142845 ], [ 75.816685412778654, 16.653320004127956 ], [ 75.816431296828398, 16.653306995012656 ], [ 75.816394328311219, 16.653225431770544 ], [ 75.816355207426611, 16.653139119723892 ], [ 75.816297022436061, 16.653022436367554 ], [ 75.816331998820743, 16.652919724099149 ], [ 75.816338002176565, 16.652902094145023 ], [ 75.815933262565039, 16.65278427972229 ], [ 75.815839333989388, 16.652756938125691 ], [ 75.815826588365752, 16.652753228005786 ], [ 75.815796310864812, 16.652866008429086 ], [ 75.815787509804267, 16.652898790742249 ], [ 75.815761726098245, 16.652892948062448 ], [ 75.815724808030097, 16.652884582074829 ], [ 75.815530236890297, 16.652840490837473 ], [ 75.815398872816658, 16.652815227898106 ], [ 75.815400902207983, 16.652617600239783 ], [ 75.815294654738636, 16.652612019606817 ], [ 75.815243962326846, 16.652659307989101 ], [ 75.815235100963278, 16.652658569980584 ], [ 75.81504984345645, 16.65264315070295 ], [ 75.815045699913327, 16.652642941913772 ], [ 75.815044163659309, 16.6526566087195 ], [ 75.815056999760429, 16.65278503710703 ], [ 75.815087302288077, 16.6528350424481 ], [ 75.815123173177881, 16.652894234013086 ], [ 75.815129163641217, 16.653039135005969 ], [ 75.815249024965269, 16.653092020669412 ], [ 75.81526176079538, 16.653172987006535 ], [ 75.815264713250912, 16.653191756807907 ], [ 75.815226208622079, 16.65328602943703 ], [ 75.815094836314941, 16.653360644609226 ], [ 75.814993586466159, 16.653495903855685 ], [ 75.814977898698771, 16.653602472126831 ], [ 75.814975520115937, 16.653690572768571 ], [ 75.814974087658229, 16.653743641434641 ], [ 75.815033227148561, 16.65381144167883 ], [ 75.815041337934659, 16.65396925479574 ], [ 75.815062039302418, 16.653995885732627 ], [ 75.815090524951017, 16.654066986381736 ], [ 75.815116230090609, 16.654131145092059 ], [ 75.815160439412708, 16.654318524152018 ], [ 75.815173274182683, 16.654374540418381 ], [ 75.815476158793814, 16.654304698649952 ], [ 75.815758895946615, 16.654243025681328 ], [ 75.815982042448226, 16.654226171184863 ], [ 75.816203439054846, 16.654186705748828 ], [ 75.816440357118026, 16.654100998309861 ], [ 75.816743819580395, 16.653935199901522 ], [ 75.817583050292043, 16.653743392914315 ] ] ] } },
{ "type": "Feature", "properties": { "KGISWardID": 5836, "KGISWardCode": "0307014", "KGISWardName": " ", "SHAPE.STArea()": 107928.57820899, "SHAPE.STLength()": 1904.4329795202316, "OBJECTID": 15232, "KGISWardNo": "14", "KGISTownCode": "0307", "LGD_WardCode": 1296196, "created_user": "SA", "created_date": 1634898537000, "last_edited_user": "SURESHBV1", "last_edited_date": 1692253949000, "_overlap_percent": 99.999999999999986, "_police_station": "Managoli PS", "_police_feature_index": "397", "_admin_layer": "Ward", "_geometry_clipped": true }, "geometry": { "type": "Polygon", "coordinates": [ [ [ 75.816440357118026, 16.654100998309861 ], [ 75.816203439054846, 16.654186705748828 ], [ 75.815982042448226, 16.654226171184863 ], [ 75.815758895946615, 16.654243025681328 ], [ 75.815476158793814, 16.654304698649952 ], [ 75.815173274182683, 16.654374540418381 ], [ 75.815156156643695, 16.654389816866384 ], [ 75.81499526816593, 16.654413695948318 ], [ 75.814772145160276, 16.654441734264065 ], [ 75.81438472590483, 16.654456380831085 ], [ 75.814164585684622, 16.654468479917526 ], [ 75.813955490865496, 16.65446625004753 ], [ 75.813930734759921, 16.654465972093927 ], [ 75.813841929727417, 16.65446497380821 ], [ 75.813777830162053, 16.65446425275406 ], [ 75.813765307563799, 16.654461415715314 ], [ 75.813657405912522, 16.654459602841911 ], [ 75.81363916942361, 16.654459296560923 ], [ 75.813612842782959, 16.654538103171454 ], [ 75.813581181315186, 16.654678136164907 ], [ 75.813575998432015, 16.654919707073635 ], [ 75.813577925074881, 16.654939400201062 ], [ 75.813591554553341, 16.65507868784071 ], [ 75.813649295025911, 16.655394549952813 ], [ 75.813657644891791, 16.655440229648526 ], [ 75.813773918640763, 16.655668696321257 ], [ 75.813934681392041, 16.655843848415802 ], [ 75.814047310575518, 16.655842517742787 ], [ 75.814138498112655, 16.655847541607358 ], [ 75.814190688217366, 16.655850417208534 ], [ 75.814441104123844, 16.655864213600879 ], [ 75.815157743857725, 16.655867321815126 ], [ 75.815289959679774, 16.655889067977693 ], [ 75.816004571464603, 16.656148647947294 ], [ 75.816294566973809, 16.656216678071331 ], [ 75.816648851154255, 16.656044687614429 ], [ 75.817090512154095, 16.655962130212977 ], [ 75.817486488377241, 16.65599185915119 ], [ 75.817860835537729, 16.656096846116789 ], [ 75.81819665171372, 16.65647043683428 ], [ 75.818458844836471, 16.656877774797646 ], [ 75.818793019234846, 16.657198062060765 ], [ 75.819349804360115, 16.65744546570831 ], [ 75.819968651151953, 16.6577319604026 ], [ 75.820345823877645, 16.657914992905145 ], [ 75.820246776044726, 16.657718041989352 ], [ 75.820213220825053, 16.657651623675473 ], [ 75.820123028443675, 16.65747372726668 ], [ 75.820034219830916, 16.657299470793472 ], [ 75.819846437553963, 16.656933335551784 ], [ 75.819659193303664, 16.656585712703485 ], [ 75.819612247656835, 16.656533053146958 ], [ 75.8194325350578, 16.656374653157197 ], [ 75.818912649768492, 16.65591641930887 ], [ 75.818191469866505, 16.655329837107036 ], [ 75.818092377246799, 16.655250911081293 ], [ 75.817261419922289, 16.65463517897679 ], [ 75.81685743580951, 16.654333356836162 ], [ 75.816928106224054, 16.654279797595457 ], [ 75.817056526752552, 16.654245922992665 ], [ 75.817011999445725, 16.654216194439108 ], [ 75.816743819580395, 16.653935199901522 ], [ 75.816440357118026, 16.654100998309861 ] ] ] } },
{ "type": "Feature", "properties": { "KGISWardID": 5837, "KGISWardCode": "0307015", "KGISWardName": " ", "SHAPE.STArea()": 385732.154901325, "SHAPE.STLength()": 2950.6363367543045, "OBJECTID": 15233, "KGISWardNo": "15", "KGISTownCode": "0307", "LGD_WardCode": 1296197, "created_user": "SA", "created_date": 1634898537000, "last_edited_user": "SURESHBV1", "last_edited_date": 1692253949000, "_overlap_percent": 100.0, "_police_station": "Managoli PS", "_police_feature_index": "397", "_admin_layer": "Ward", "_geometry_clipped": true }, "geometry": { "type": "Polygon", "coordinates": [ [ [ 75.819968651151953, 16.6577319604026 ], [ 75.819349804360115, 16.65744546570831 ], [ 75.818793019234846, 16.657198062060765 ], [ 75.818458844836471, 16.656877774797646 ], [ 75.81819665171372, 16.65647043683428 ], [ 75.817860835537729, 16.656096846116789 ], [ 75.817486488377241, 16.65599185915119 ], [ 75.817090512154095, 16.655962130212977 ], [ 75.816648851154255, 16.656044687614429 ], [ 75.816294566973809, 16.656216678071331 ], [ 75.816004571464603, 16.656148647947294 ], [ 75.815289959679774, 16.655889067977693 ], [ 75.815157743857725, 16.655867321815126 ], [ 75.814441104123844, 16.655864213600879 ], [ 75.814190688217366, 16.655850417208534 ], [ 75.814138498112655, 16.655847541607358 ], [ 75.814047310575518, 16.655842517742787 ], [ 75.813934681392041, 16.655843848415802 ], [ 75.813949833766813, 16.656002161819863 ], [ 75.813976210746333, 16.656277759363714 ], [ 75.814114810314052, 16.656839159650769 ], [ 75.814170573226278, 16.657065026228011 ], [ 75.814193772160024, 16.657152955907293 ], [ 75.81426512538502, 16.657423394402123 ], [ 75.814333052233948, 16.65775611835479 ], [ 75.814574389214158, 16.658344156840368 ], [ 75.814628093004217, 16.658243584927767 ], [ 75.814673598661102, 16.658349304375072 ], [ 75.814816668336334, 16.658678140686284 ], [ 75.815220345693675, 16.659651599196394 ], [ 75.815274191736052, 16.659785382744175 ], [ 75.81564776481369, 16.660660963185098 ], [ 75.815970333392073, 16.661601227375609 ], [ 75.816001557128402, 16.661714215835712 ], [ 75.816241518448678, 16.662388490840101 ], [ 75.81628905570615, 16.662544751931833 ], [ 75.816314386468108, 16.662628378403692 ], [ 75.816344091973306, 16.662683739633458 ], [ 75.816365459226844, 16.662723613608922 ], [ 75.816580946053733, 16.662610614325498 ], [ 75.817890244580511, 16.661924022029233 ], [ 75.817909808597875, 16.661913938584284 ], [ 75.818470860576369, 16.66162476975018 ], [ 75.819316930998866, 16.66119042021931 ], [ 75.819461977450899, 16.661115957025316 ], [ 75.819666693543951, 16.661011516560709 ], [ 75.819784913888284, 16.66096159995578 ], [ 75.820020264122249, 16.660753904952951 ], [ 75.820289731752737, 16.660679669411607 ], [ 75.820682944763504, 16.660580341146126 ], [ 75.820873864670986, 16.66050028008577 ], [ 75.821381194870611, 16.660290105411935 ], [ 75.82166106994562, 16.660182690586034 ], [ 75.821716301256757, 16.660161589623119 ], [ 75.821893087926526, 16.66009425373187 ], [ 75.822734860715244, 16.659765898061686 ], [ 75.823722596222353, 16.659390840985864 ], [ 75.823974709172262, 16.659313581988602 ], [ 75.823821976192789, 16.659281576023094 ], [ 75.823078498560974, 16.659050124424617 ], [ 75.822939432602922, 16.65900683159326 ], [ 75.822402080615007, 16.658823021238391 ], [ 75.822176115137722, 16.658745725024346 ], [ 75.821997052938471, 16.658684473148391 ], [ 75.821767363452182, 16.658615368882774 ], [ 75.821325578228908, 16.658482454556609 ], [ 75.82119570204739, 16.658428487843974 ], [ 75.820680957004214, 16.658565511865028 ], [ 75.820419422394949, 16.658061677867135 ], [ 75.820381020356223, 16.657984977842322 ], [ 75.820345823877645, 16.657914992905145 ], [ 75.819968651151953, 16.6577319604026 ] ] ] } },
{ "type": "Feature", "properties": { "KGISWardID": 5841, "KGISWardCode": "0307016/4", "KGISWardName": " ", "SHAPE.STArea()": 114358.20324825001, "SHAPE.STLength()": 1572.3410801427153, "OBJECTID": 15237, "KGISWardNo": "16/4", "KGISTownCode": "0307", "LGD_WardCode": 1296198, "created_user": "SA", "created_date": 1634898537000, "last_edited_user": "SURESHBV1", "last_edited_date": 1692253949000, "_overlap_percent": 99.999999999999986, "_police_station": "Managoli PS", "_police_feature_index": "397", "_admin_layer": "Ward", "_geometry_clipped": true }, "geometry": { "type": "Polygon", "coordinates": [ [ [ 75.856688160079017, 16.66763700477668 ], [ 75.85711221944635, 16.667636395586815 ], [ 75.857603600721959, 16.667635688612553 ], [ 75.857982729609233, 16.667641313375405 ], [ 75.858570926892824, 16.667650037652425 ], [ 75.858482710875151, 16.666770102429123 ], [ 75.858458549660924, 16.666494055998388 ], [ 75.858422562423399, 16.666082891308456 ], [ 75.859423265187559, 16.666289956981011 ], [ 75.859462227293193, 16.666297552660751 ], [ 75.859674592545531, 16.666338953503701 ], [ 75.860164827730259, 16.666434525003716 ], [ 75.860327411377028, 16.666466206976203 ], [ 75.860195769267023, 16.665946688181542 ], [ 75.859905043663915, 16.664919795826194 ], [ 75.859860082616891, 16.664759816032628 ], [ 75.859758787543612, 16.664746826917877 ], [ 75.859441696058212, 16.664703165855549 ], [ 75.859259443643381, 16.664678070921603 ], [ 75.858161396114198, 16.664526874908486 ], [ 75.856030459788869, 16.664420930727253 ], [ 75.856104966325177, 16.665236065036911 ], [ 75.856131950134355, 16.665531278297784 ], [ 75.856140037618133, 16.665619760140267 ], [ 75.856153050340808, 16.665698175697294 ], [ 75.856175776620972, 16.665835124706621 ], [ 75.856332620539931, 16.666816987195531 ], [ 75.856374546747077, 16.66713217624828 ], [ 75.856403899321322, 16.667271619695899 ], [ 75.856443273434749, 16.667458674378864 ], [ 75.856489254715768, 16.667666331429832 ], [ 75.856688160079017, 16.66763700477668 ] ] ] } },
{ "type": "Feature", "properties": { "KGISWardID": 5840, "KGISWardCode": "0307016/3", "KGISWardName": " ", "SHAPE.STArea()": 13124.271582314999, "SHAPE.STLength()": 468.40153488450375, "OBJECTID": 15236, "KGISWardNo": "16/3", "KGISTownCode": "0307", "LGD_WardCode": 1296198, "created_user": "SA", "created_date": 1634898537000, "last_edited_user": "SURESHBV1", "last_edited_date": 1692253949000, "_overlap_percent": 100.00000000000003, "_police_station": "Managoli PS", "_police_feature_index": "397", "_admin_layer": "Ward", "_geometry_clipped": true }, "geometry": { "type": "Polygon", "coordinates": [ [ [ 75.856187072197159, 16.672392168940075 ], [ 75.856263292732308, 16.671919730410995 ], [ 75.856291540457335, 16.671744648678512 ], [ 75.856293339733895, 16.671703055568347 ], [ 75.856296086222116, 16.671639555266488 ], [ 75.85559473541575, 16.671598731208398 ], [ 75.855022671444246, 16.671576116309716 ], [ 75.854898010684849, 16.671571188357532 ], [ 75.854889158891964, 16.671760953307064 ], [ 75.854886912681494, 16.671810090395947 ], [ 75.854886454955093, 16.671816613916704 ], [ 75.854848968246912, 16.672384278924945 ], [ 75.854873260629219, 16.672408883152627 ], [ 75.854921058607331, 16.67240973805411 ], [ 75.855071290771406, 16.672407034566259 ], [ 75.855205236176786, 16.67240462507996 ], [ 75.855235001298183, 16.672404089126804 ], [ 75.855338036651673, 16.672402235600398 ], [ 75.856113177256248, 16.672428234356932 ], [ 75.856187072197159, 16.672392168940075 ] ] ] } },
{ "type": "Feature", "properties": { "KGISWardID": 5838, "KGISWardCode": "0307016/1", "KGISWardName": " ", "SHAPE.STArea()": 59752.386349785003, "SHAPE.STLength()": 1045.6814968059157, "OBJECTID": 15234, "KGISWardNo": "16/1", "KGISTownCode": "0307", "LGD_WardCode": 1296198, "created_user": "SA", "created_date": 1634898537000, "last_edited_user": "SURESHBV1", "last_edited_date": 1692253949000, "_overlap_percent": 100.0, "_police_station": "Managoli PS", "_police_feature_index": "397", "_admin_layer": "Ward", "_geometry_clipped": true }, "geometry": { "type": "Polygon", "coordinates": [ [ [ 75.845213835401296, 16.684931686565676 ], [ 75.844212214458082, 16.685389386401219 ], [ 75.844056770168777, 16.685443954106425 ], [ 75.843806174457569, 16.685465002432657 ], [ 75.843896167393495, 16.685711962575766 ], [ 75.843969032011231, 16.685911917376561 ], [ 75.844060059131351, 16.686161711450605 ], [ 75.844303285460214, 16.686774285113962 ], [ 75.844393652330496, 16.687001874666645 ], [ 75.844518916055719, 16.687317352608975 ], [ 75.845463764110349, 16.688318765988189 ], [ 75.845482611302032, 16.688350816310045 ], [ 75.845692391654666, 16.688282419087258 ], [ 75.845768933855879, 16.688257463350432 ], [ 75.846510769884063, 16.688015590059347 ], [ 75.846716610545386, 16.687948476108076 ], [ 75.846487162899606, 16.687341393004189 ], [ 75.845807387694094, 16.686303347425373 ], [ 75.845313912896316, 16.685162959267121 ], [ 75.845213835401296, 16.684931686565676 ] ] ] } }
]
}
