{
"type": "FeatureCollection",
"name": "wards_in_police_area.writing_20260805_172659",
"crs": { "type": "name", "properties": { "name": "urn:ogc:def:crs:OGC:1.3:CRS84" } },
"features": [
{ "type": "Feature", "properties": { "KGISWardID": 2735, "KGISWardCode": "1702009", "KGISWardName": "Gavanahalli", "SHAPE.STArea()": 1419453.50088381, "SHAPE.STLength()": 6346.3304500360418, "OBJECTID": 18245, "KGISWardNo": "9", "KGISTownCode": "1702", "LGD_WardCode": 32452, "created_user": "SA", "created_date": 1634898537000, "last_edited_user": "SURESHBV1", "last_edited_date": 1692254014000, "_overlap_percent": 49.421688051081873, "_police_station": "Chickmagalur Rural PS", "_police_feature_index": "528", "_admin_layer": "Ward", "_geometry_clipped": true }, "geometry": { "type": "MultiPolygon", "coordinates": [ [ [ [ 75.757167722575375, 13.301003961181451 ], [ 75.756994915570658, 13.300888086114364 ], [ 75.756923744374674, 13.300904139216817 ], [ 75.756872197029267, 13.30091576579547 ], [ 75.756644216915305, 13.300910146704579 ], [ 75.756474774337462, 13.300947844298815 ], [ 75.756337381346981, 13.300901123562847 ], [ 75.756141848799047, 13.300997781434454 ], [ 75.756017992870838, 13.301033561022029 ], [ 75.756008369959346, 13.30111656258631 ], [ 75.755936767401749, 13.301120974483704 ], [ 75.755885833429758, 13.301124112412625 ], [ 75.755885588823162, 13.301124126702508 ], [ 75.755893168963723, 13.301412653222616 ], [ 75.755893483033972, 13.301424625436173 ], [ 75.755867968591971, 13.301437850772553 ], [ 75.755856848827946, 13.30144361542447 ], [ 75.75571714013455, 13.301516035965253 ], [ 75.755705643372309, 13.301521995225881 ], [ 75.755741212339615, 13.301596593735475 ], [ 75.755761198700554, 13.301638512678224 ], [ 75.755847645255969, 13.301819816789829 ], [ 75.755850197917809, 13.301825170986545 ], [ 75.755779739591887, 13.301872073180284 ], [ 75.755703163717683, 13.301923047880523 ], [ 75.755529701370534, 13.3019726187662 ], [ 75.755481731018762, 13.302027407220102 ], [ 75.755469159769348, 13.302041764068502 ], [ 75.7554178876522, 13.302100322805712 ], [ 75.755407877569027, 13.302111756062059 ], [ 75.755392123250914, 13.30212974902925 ], [ 75.755393533458815, 13.30234210681575 ], [ 75.755471616639582, 13.302546665175701 ], [ 75.755482453592862, 13.302575053148912 ], [ 75.75529032109128, 13.302750595438193 ], [ 75.755303114438263, 13.302843997168504 ], [ 75.755344741846173, 13.30298333416712 ], [ 75.755353602030866, 13.303166949444178 ], [ 75.755361373058108, 13.303327985163103 ], [ 75.755384610799865, 13.303439845418387 ], [ 75.755422735619248, 13.303513304325099 ], [ 75.755638936450566, 13.303929875557655 ], [ 75.755644756764596, 13.304005351823873 ], [ 75.755660629567558, 13.30421115286634 ], [ 75.755691929845725, 13.304616952330147 ], [ 75.755767933745631, 13.30493130578151 ], [ 75.755828767620159, 13.305221010256421 ], [ 75.75591118619235, 13.305224087129961 ], [ 75.75615516223607, 13.305233196239723 ], [ 75.756180569815172, 13.305334827271729 ], [ 75.756227183680821, 13.305331898299977 ], [ 75.756674970990844, 13.305328396590063 ], [ 75.757278716348807, 13.305330612288639 ], [ 75.757629748177095, 13.305337408202053 ], [ 75.757702140874756, 13.305338809996638 ], [ 75.757975342791127, 13.305344098683038 ], [ 75.75837553659828, 13.305351844635075 ], [ 75.759075760459893, 13.305369961136046 ], [ 75.759491999877227, 13.305366725888168 ], [ 75.759917808893206, 13.305381689591641 ], [ 75.760253387607705, 13.305393483874028 ], [ 75.760283416985189, 13.30539453965152 ], [ 75.760401315733247, 13.305398682562183 ], [ 75.760575603011404, 13.30540480774061 ], [ 75.761298472221441, 13.305416863775841 ], [ 75.761323829946875, 13.305417286934128 ], [ 75.761501396799375, 13.305420247878937 ], [ 75.762273995781158, 13.305437109757133 ], [ 75.762722478735171, 13.305450130908524 ], [ 75.762747176348668, 13.305450847954761 ], [ 75.762928969580997, 13.305456125284534 ], [ 75.763747111666206, 13.305481658995896 ], [ 75.764163148812685, 13.305493802188002 ], [ 75.764196399062783, 13.305494772771883 ], [ 75.764621660083975, 13.305507184954291 ], [ 75.765974591882326, 13.305532166419145 ], [ 75.765894991950375, 13.3054459479194 ], [ 75.765765494660101, 13.305305684218606 ], [ 75.765605536849677, 13.305126084621277 ], [ 75.765637991784985, 13.3050649060557 ], [ 75.765702451888401, 13.304943395674595 ], [ 75.765772391137148, 13.304811558436565 ], [ 75.765785152993715, 13.304787501418131 ], [ 75.765957025284649, 13.304463512259677 ], [ 75.765959143539476, 13.304459520262348 ], [ 75.766002984356106, 13.30437687743618 ], [ 75.766046939460523, 13.304290656428439 ], [ 75.766217958875785, 13.303955185727837 ], [ 75.766230580881015, 13.303930426565572 ], [ 75.766433191439148, 13.303532987648843 ], [ 75.766481574385253, 13.303438076739122 ], [ 75.766556062057916, 13.303296723598722 ], [ 75.766656873218778, 13.303105418435004 ], [ 75.766670651255822, 13.303079270567679 ], [ 75.767009177410912, 13.30243685940818 ], [ 75.76702625143507, 13.302404313566477 ], [ 75.767199403199115, 13.302074265446421 ], [ 75.76721443619013, 13.302045610099176 ], [ 75.767303562190605, 13.301875723771396 ], [ 75.767316148547948, 13.301851731412505 ], [ 75.767339844676101, 13.301806564949834 ], [ 75.767352386065625, 13.301782660430304 ], [ 75.767401833020571, 13.301688407111254 ], [ 75.767441320287972, 13.301607337820247 ], [ 75.767451224205971, 13.301587004620858 ], [ 75.767457136102038, 13.301574867181248 ], [ 75.767466568578243, 13.301556983012805 ], [ 75.767559647876524, 13.301380494124581 ], [ 75.767677303439839, 13.301121770208406 ], [ 75.767709909302695, 13.30100444877019 ], [ 75.767736874637421, 13.300826805883812 ], [ 75.767721553274626, 13.300812787663736 ], [ 75.767715813779418, 13.300807535446696 ], [ 75.767642780452931, 13.300752022444648 ], [ 75.767680065564846, 13.300719613562107 ], [ 75.76770566267399, 13.300688609792509 ], [ 75.767718550858575, 13.300671667281483 ], [ 75.767702678235423, 13.300653798927822 ], [ 75.767698615407923, 13.300624533926905 ], [ 75.767713674289723, 13.30058156444235 ], [ 75.767723443585098, 13.30055367723749 ], [ 75.76769430944168, 13.300503650257308 ], [ 75.767758984698361, 13.300392509692658 ], [ 75.767758985057711, 13.300392397954871 ], [ 75.767393288710423, 13.300257728374318 ], [ 75.767343813680284, 13.300329184742589 ], [ 75.767160498112972, 13.300210846654231 ], [ 75.766642498809119, 13.300017023350364 ], [ 75.766380536153079, 13.299902249141569 ], [ 75.766349101782623, 13.299301868532247 ], [ 75.766150193389947, 13.299304541166467 ], [ 75.765902842928099, 13.299307865890029 ], [ 75.765710005251762, 13.299323110574379 ], [ 75.765455196312814, 13.299107005177451 ], [ 75.765392386546765, 13.299032055226288 ], [ 75.765290354048048, 13.299046080491854 ], [ 75.765042492132082, 13.299107327554673 ], [ 75.76469730028974, 13.299244449141453 ], [ 75.764439676519999, 13.299324698263961 ], [ 75.763963630699536, 13.29934733998045 ], [ 75.763618687340667, 13.299384566681166 ], [ 75.763361182794227, 13.299417246455766 ], [ 75.762749010391602, 13.299491884226034 ], [ 75.762461775629859, 13.299757582235465 ], [ 75.762417551543336, 13.299962022116098 ], [ 75.762237566124043, 13.300070999836864 ], [ 75.761635236747367, 13.300093331330212 ], [ 75.761251531949625, 13.3000924052365 ], [ 75.760911026297364, 13.300296133142171 ], [ 75.760823037037298, 13.300519496222813 ], [ 75.760838351690893, 13.300598966595595 ], [ 75.760886044145991, 13.300749741271206 ], [ 75.760863048737022, 13.300972537345146 ], [ 75.760792116823623, 13.301141859051832 ], [ 75.760647655256292, 13.301238810537907 ], [ 75.760538834855353, 13.301182049826824 ], [ 75.760471944774423, 13.301018673998746 ], [ 75.760417891915367, 13.300849049855254 ], [ 75.760325584274469, 13.300597727267713 ], [ 75.760278050099856, 13.300384175754486 ], [ 75.760131128385979, 13.30018607809874 ], [ 75.759784757066654, 13.300285681456328 ], [ 75.759540915556641, 13.300394948496237 ], [ 75.759351858100317, 13.300385075308519 ], [ 75.759134105245124, 13.300315493379102 ], [ 75.758996252271913, 13.300333991189964 ], [ 75.758883782603164, 13.300452993161056 ], [ 75.758960222722052, 13.300641504276983 ], [ 75.758956519249992, 13.30083923489784 ], [ 75.758857042947099, 13.300889215541167 ], [ 75.758706575732106, 13.300826074544082 ], [ 75.758520776882236, 13.300794238463187 ], [ 75.758251605589152, 13.300781031036086 ], [ 75.758209522786757, 13.300947282289568 ], [ 75.758242784588106, 13.301179925173253 ], [ 75.757977313422103, 13.301208707379528 ], [ 75.757476524545751, 13.301222203663468 ], [ 75.757251274649263, 13.301187326793981 ], [ 75.757176608743265, 13.301010590384617 ], [ 75.757177125855051, 13.301006549420332 ], [ 75.757167722575375, 13.301003961181451 ] ] ], [ [ [ 75.755731592460023, 13.297951847252758 ], [ 75.755658093055587, 13.297949711176077 ], [ 75.75569056070799, 13.29799172506663 ], [ 75.755747267503651, 13.297973101908104 ], [ 75.755731592460023, 13.297951847252758 ] ] ] ] } },
{ "type": "Feature", "properties": { "KGISWardID": 2732, "KGISWardCode": "1702006", "KGISWardName": "Donikana", "SHAPE.STArea()": 617743.26288033999, "SHAPE.STLength()": 3654.754972414883, "OBJECTID": 18242, "KGISWardNo": "6", "KGISTownCode": "1702", "LGD_WardCode": 32449, "created_user": "SA", "created_date": 1634898537000, "last_edited_user": "SURESHBV1", "last_edited_date": 1692254014000, "_overlap_percent": 0.040247327049788652, "_police_station": "Chickmagalur Rural PS", "_police_feature_index": "528", "_admin_layer": "Ward", "_geometry_clipped": true }, "geometry": { "type": "MultiPolygon", "coordinates": [ [ [ [ 75.770558592568548, 13.301288146702701 ], [ 75.770528306360035, 13.301321640589332 ], [ 75.770519896695163, 13.301330942025409 ], [ 75.770503475715159, 13.301349102451317 ], [ 75.770463954574069, 13.301392806252451 ], [ 75.770224288832779, 13.301613591874863 ], [ 75.770213214873237, 13.301628774906209 ], [ 75.770209005721796, 13.301634546359955 ], [ 75.770068091390783, 13.30182775457064 ], [ 75.770051933147954, 13.301849909732379 ], [ 75.7699580749982, 13.301978598869573 ], [ 75.76989285134762, 13.302297450953471 ], [ 75.769937572816829, 13.302619435795435 ], [ 75.769940680844385, 13.302641813803868 ], [ 75.769972658951545, 13.30270433030597 ], [ 75.770011075623742, 13.30277943514505 ], [ 75.770058677773179, 13.302872497137118 ], [ 75.770071367443947, 13.302872014922796 ], [ 75.76995803955144, 13.302648678187008 ], [ 75.769909476023855, 13.302303714478182 ], [ 75.769972045758522, 13.301983214880362 ], [ 75.770232405773442, 13.301614786116307 ], [ 75.77046769774482, 13.30139149741586 ], [ 75.770558636503154, 13.301288098116093 ], [ 75.770558592568548, 13.301288146702701 ] ] ], [ [ [ 75.772728002616546, 13.29991551577019 ], [ 75.772720556693827, 13.299920115203085 ], [ 75.772770804194664, 13.299979634679392 ], [ 75.772779657679664, 13.299976767537247 ], [ 75.772728002616546, 13.29991551577019 ] ] ] ] } },
{ "type": "Feature", "properties": { "KGISWardID": 2734, "KGISWardCode": "1702008", "KGISWardName": "Jayanagara", "SHAPE.STArea()": 1212161.6546599099, "SHAPE.STLength()": 7906.0064960900563, "OBJECTID": 18244, "KGISWardNo": "8", "KGISTownCode": "1702", "LGD_WardCode": 32451, "created_user": "SA", "created_date": 1634898537000, "last_edited_user": "SURESHBV1", "last_edited_date": 1692254014000, "_overlap_percent": 56.727030507312172, "_police_station": "Chickmagalur Rural PS", "_police_feature_index": "528", "_admin_layer": "Ward", "_geometry_clipped": true }, "geometry": { "type": "Polygon", "coordinates": [ [ [ 75.772696735783768, 13.299901010139084 ], [ 75.772643442359978, 13.299713419802472 ], [ 75.772562048290723, 13.299709940989434 ], [ 75.772545527372699, 13.299748932261027 ], [ 75.772523523049259, 13.299800882574701 ], [ 75.772431208394764, 13.299787494571198 ], [ 75.772229642576306, 13.299758264422278 ], [ 75.772029582928923, 13.299571650342862 ], [ 75.771880244233245, 13.299588077783419 ], [ 75.771636097425812, 13.299847350935192 ], [ 75.771584015680276, 13.299903330136647 ], [ 75.771303166220918, 13.299813422704464 ], [ 75.771125178666296, 13.299663461363558 ], [ 75.771112040664889, 13.299652393390385 ], [ 75.771031670017166, 13.299648195777765 ], [ 75.770885365236339, 13.299640509891086 ], [ 75.770834133770222, 13.299637817941921 ], [ 75.770616722686853, 13.299527456612159 ], [ 75.770507168818455, 13.299471845343042 ], [ 75.770099580293447, 13.2993643825472 ], [ 75.769824464446259, 13.29954166120686 ], [ 75.769504223790676, 13.299541281446233 ], [ 75.769428697131445, 13.299591491093572 ], [ 75.769250901617013, 13.299727138403277 ], [ 75.769261848783231, 13.299951602553755 ], [ 75.769179895900791, 13.300048478984349 ], [ 75.769142620157268, 13.300092543793806 ], [ 75.768992577162066, 13.300122958412608 ], [ 75.768774644836228, 13.300258949222549 ], [ 75.768601927426616, 13.300359569206854 ], [ 75.768533864075806, 13.30051748245064 ], [ 75.768465805748235, 13.300820297316754 ], [ 75.768322101753213, 13.301327183020389 ], [ 75.768267785670005, 13.301278828990309 ], [ 75.768106829873204, 13.30113553841646 ], [ 75.768043467910857, 13.301085308366428 ], [ 75.76794704468027, 13.301008892812845 ], [ 75.767863626876675, 13.300942784446802 ], [ 75.767736874637421, 13.300826805883812 ], [ 75.767709909302695, 13.30100444877019 ], [ 75.767677303439839, 13.301121770208406 ], [ 75.767559647876524, 13.301380494124581 ], [ 75.767466568578243, 13.301556983012805 ], [ 75.767457136102038, 13.301574867181248 ], [ 75.767451224205971, 13.301587004620858 ], [ 75.767441320287972, 13.301607337820247 ], [ 75.767401833020571, 13.301688407111254 ], [ 75.767352386065625, 13.301782660430304 ], [ 75.767339844676101, 13.301806564949834 ], [ 75.767316148547948, 13.301851731412505 ], [ 75.767303562190605, 13.301875723771396 ], [ 75.76721443619013, 13.302045610099176 ], [ 75.767199403199115, 13.302074265446421 ], [ 75.76702625143507, 13.302404313566477 ], [ 75.767009177410912, 13.30243685940818 ], [ 75.766670651255822, 13.303079270567679 ], [ 75.766656873218778, 13.303105418435004 ], [ 75.766556062057916, 13.303296723598722 ], [ 75.766481574385253, 13.303438076739122 ], [ 75.766433191439148, 13.303532987648843 ], [ 75.766230580881015, 13.303930426565572 ], [ 75.766217958875785, 13.303955185727837 ], [ 75.766046939460523, 13.304290656428439 ], [ 75.766002984356106, 13.30437687743618 ], [ 75.765959143539476, 13.304459520262348 ], [ 75.765957025284649, 13.304463512259677 ], [ 75.765785152993715, 13.304787501418131 ], [ 75.765772391137148, 13.304811558436565 ], [ 75.765702451888401, 13.304943395674595 ], [ 75.765637991784985, 13.3050649060557 ], [ 75.765605536849677, 13.305126084621277 ], [ 75.765765494660101, 13.305305684218606 ], [ 75.765894991950375, 13.3054459479194 ], [ 75.765974591882326, 13.305532166419145 ], [ 75.764621660083975, 13.305507184954291 ], [ 75.764196399062783, 13.305494772771883 ], [ 75.764163148812685, 13.305493802188002 ], [ 75.763747111666206, 13.305481658995896 ], [ 75.762928969580997, 13.305456125284534 ], [ 75.762747176348668, 13.305450847954761 ], [ 75.762722478735171, 13.305450130908524 ], [ 75.762273995781158, 13.305437109757133 ], [ 75.761501396799375, 13.305420247878937 ], [ 75.761323829946875, 13.305417286934128 ], [ 75.761298472221441, 13.305416863775841 ], [ 75.760575603011404, 13.30540480774061 ], [ 75.760401315733247, 13.305398682562183 ], [ 75.760283416985189, 13.30539453965152 ], [ 75.760253387607705, 13.305393483874028 ], [ 75.759917808893206, 13.305381689591641 ], [ 75.759491999877227, 13.305366725888168 ], [ 75.759075760459893, 13.305369961136046 ], [ 75.75837553659828, 13.305351844635075 ], [ 75.757975342791127, 13.305344098683038 ], [ 75.757702140874756, 13.305338809996638 ], [ 75.757629748177095, 13.305337408202053 ], [ 75.757278716348807, 13.305330612288639 ], [ 75.756674970990844, 13.305328396590063 ], [ 75.756227183680821, 13.305331898299977 ], [ 75.756180569815172, 13.305334827271729 ], [ 75.756183752900142, 13.305347562210361 ], [ 75.756191421264674, 13.305378235382319 ], [ 75.756204473292726, 13.305430444556357 ], [ 75.756205502025736, 13.305434397280491 ], [ 75.756330901305603, 13.30591625103675 ], [ 75.756417922139065, 13.3062471513521 ], [ 75.756430187006529, 13.306293787679675 ], [ 75.756580434878288, 13.306479861809201 ], [ 75.75668998199059, 13.306611995234782 ], [ 75.756723131015519, 13.306651978805437 ], [ 75.756755474747607, 13.306690990967864 ], [ 75.756757543783124, 13.306690419695522 ], [ 75.756898652341064, 13.306651456169657 ], [ 75.756939067237155, 13.306640296689492 ], [ 75.756943718551284, 13.306651321960061 ], [ 75.756975586739912, 13.30672686886559 ], [ 75.756983451858062, 13.306742066391882 ], [ 75.757038363732235, 13.306848165583792 ], [ 75.757043382069284, 13.306857862423838 ], [ 75.757054259310834, 13.306878879313818 ], [ 75.756850942660407, 13.30689892197489 ], [ 75.756692222921444, 13.306914567595706 ], [ 75.756617279347481, 13.306987095201585 ], [ 75.756605138372649, 13.306998844985031 ], [ 75.756580265241382, 13.306997852096783 ], [ 75.756479075603181, 13.306993812332117 ], [ 75.756381990960435, 13.307046701899402 ], [ 75.756237808571584, 13.307050527044442 ], [ 75.756219686071063, 13.307051007738936 ], [ 75.756234703217388, 13.307098274234342 ], [ 75.756238308563312, 13.307109621806097 ], [ 75.756248261259543, 13.307140947318706 ], [ 75.756141126959022, 13.307158965383419 ], [ 75.756138507852356, 13.307159595250797 ], [ 75.75596161256351, 13.307202161281447 ], [ 75.755914660842237, 13.307222788727953 ], [ 75.755867124578245, 13.307243672883143 ], [ 75.755989688948063, 13.307296209158951 ], [ 75.756031976704492, 13.307372991047064 ], [ 75.756200237083164, 13.307421790837424 ], [ 75.75629988299373, 13.307529303233713 ], [ 75.756300245192776, 13.307529694569634 ], [ 75.756306154210449, 13.307540508147856 ], [ 75.756392315979483, 13.307698180182584 ], [ 75.756424353944539, 13.307857004257936 ], [ 75.756439419023224, 13.307947353821946 ], [ 75.756441873437382, 13.308039131546737 ], [ 75.756625794322773, 13.308018934428212 ], [ 75.756737119753282, 13.308080988610783 ], [ 75.75681333099871, 13.308123470567573 ], [ 75.757174157716889, 13.308115080081071 ], [ 75.757191067108849, 13.307980541217379 ], [ 75.757236346905358, 13.30797924262879 ], [ 75.757399525013582, 13.307950040557108 ], [ 75.757466014110435, 13.307935901766582 ], [ 75.7575786474399, 13.307911949793189 ], [ 75.757727690329475, 13.307884111559693 ], [ 75.757924709626892, 13.307865932370046 ], [ 75.758010753900933, 13.307851256809773 ], [ 75.758120158094428, 13.307788561128163 ], [ 75.758186766099016, 13.307754504547843 ], [ 75.75830511259403, 13.307792397319766 ], [ 75.758471308667424, 13.307747532424816 ], [ 75.758591605840365, 13.307713878810436 ], [ 75.758579214314366, 13.307687815773644 ], [ 75.758544696667499, 13.307615213786651 ], [ 75.758558508729593, 13.307613583920165 ], [ 75.75880748298745, 13.307584209867214 ], [ 75.758977922291905, 13.307589848445291 ], [ 75.759123449422503, 13.307502225671861 ], [ 75.759196098217089, 13.307458482411882 ], [ 75.759214518204473, 13.307447391887338 ], [ 75.759278572920607, 13.307440808893597 ], [ 75.759588613817385, 13.30740894508549 ], [ 75.759622479713144, 13.307500734630199 ], [ 75.7596525579184, 13.307582255884052 ], [ 75.759657320839452, 13.307603867789927 ], [ 75.759676077543745, 13.307688977205022 ], [ 75.759721149681681, 13.307906641899354 ], [ 75.759747551858126, 13.308034142558611 ], [ 75.759788433258009, 13.308231567063446 ], [ 75.759793598975904, 13.30825651327455 ], [ 75.759798056114832, 13.308303230604531 ], [ 75.759808111633603, 13.308408844751934 ], [ 75.759814608374555, 13.308613475268602 ], [ 75.759829623443551, 13.308777100233536 ], [ 75.759829836576202, 13.308779426047352 ], [ 75.75983354475612, 13.308819848914855 ], [ 75.759879790889372, 13.308815753047433 ], [ 75.759999972680276, 13.308805109532917 ], [ 75.760293180750793, 13.308779142446223 ], [ 75.760339835049351, 13.308744006641074 ], [ 75.760493472145384, 13.308628305779919 ], [ 75.760831230235496, 13.30852259910346 ], [ 75.761205862944848, 13.308437556847014 ], [ 75.761245525731894, 13.308428553587744 ], [ 75.761266300202223, 13.308418728042264 ], [ 75.761290730828634, 13.308454469356009 ], [ 75.761303365826038, 13.30847295359573 ], [ 75.761319428461164, 13.3085049242338 ], [ 75.761249619834032, 13.308595726580792 ], [ 75.761150816450765, 13.308724244034133 ], [ 75.761135300066414, 13.308730313238094 ], [ 75.761143343231595, 13.308838493054397 ], [ 75.761146216892982, 13.308904891812912 ], [ 75.761154127716395, 13.308947923274426 ], [ 75.761159890616156, 13.308979273762061 ], [ 75.761164456971557, 13.309004111421388 ], [ 75.761168852397276, 13.309028020097387 ], [ 75.761178199194703, 13.30902710691069 ], [ 75.761500775791362, 13.308995591027129 ], [ 75.761648102007214, 13.308981197140444 ], [ 75.761816757437444, 13.3089312402955 ], [ 75.761956489569314, 13.308889851255014 ], [ 75.762083258453416, 13.308852301274889 ], [ 75.762725176281307, 13.308911011440921 ], [ 75.762729307833936, 13.308912800162892 ], [ 75.762784178298872, 13.308936568153449 ], [ 75.76279192554432, 13.308939923811822 ], [ 75.763467039626462, 13.309232352793282 ], [ 75.763476823549865, 13.30923659021334 ], [ 75.763505287813189, 13.309248919957932 ], [ 75.763600005254531, 13.309258178956664 ], [ 75.763810494629567, 13.309278753860749 ], [ 75.763895369186372, 13.309314448840183 ], [ 75.764563819311334, 13.309595570891974 ], [ 75.764726369163512, 13.309663933072715 ], [ 75.764735358628485, 13.309667714415031 ], [ 75.764674820787818, 13.309833689280129 ], [ 75.764661192789603, 13.309871054734016 ], [ 75.764699944569429, 13.310066018014629 ], [ 75.764705244562222, 13.310092684340256 ], [ 75.764710080221619, 13.310117014764458 ], [ 75.764603336445475, 13.310473312436127 ], [ 75.764599668024999, 13.310485554282387 ], [ 75.764522112326119, 13.310744422163445 ], [ 75.764483809832996, 13.310871335627894 ], [ 75.764443793106253, 13.311003927957898 ], [ 75.764304332753468, 13.311466016861738 ], [ 75.764069081197718, 13.311926985984783 ], [ 75.7640329619705, 13.312029807347834 ], [ 75.764032961961931, 13.312029807416362 ], [ 75.76430276817058, 13.311900899239049 ], [ 75.764626740951201, 13.311877273912597 ], [ 75.764960767775761, 13.311819512340316 ], [ 75.765300383775354, 13.31151774580816 ], [ 75.765580679261646, 13.311025504612608 ], [ 75.76566645420634, 13.310704254216194 ], [ 75.765660910605803, 13.310493706136176 ], [ 75.765786656025497, 13.310386015838343 ], [ 75.765884530691409, 13.310302197486591 ], [ 75.766324080967919, 13.31029000405398 ], [ 75.766615268071135, 13.310118525596454 ], [ 75.766825677379529, 13.309801162032066 ], [ 75.767008591353218, 13.309662533119617 ], [ 75.767225763483808, 13.309345187726304 ], [ 75.767457616624739, 13.309169827756707 ], [ 75.767378496528266, 13.308966205525126 ], [ 75.767292207815572, 13.308860890752296 ], [ 75.767320234868862, 13.308728726663842 ], [ 75.767580316672905, 13.308556428813093 ], [ 75.767705515930402, 13.308329559728817 ], [ 75.767665629240184, 13.308097341996662 ], [ 75.767657741441695, 13.308051418260664 ], [ 75.76750930379589, 13.307878143438881 ], [ 75.767381942340862, 13.307728751105312 ], [ 75.767245140825978, 13.307537655806636 ], [ 75.767344262475817, 13.307313182117287 ], [ 75.767456520862268, 13.307283215990788 ], [ 75.7673469301658, 13.306841122177504 ], [ 75.767258611692611, 13.306546769911463 ], [ 75.767187568661797, 13.306338595929704 ], [ 75.767404412311322, 13.306085015840559 ], [ 75.767627039073588, 13.305988748559646 ], [ 75.767948203138971, 13.306013715651785 ], [ 75.768195208749262, 13.306050605620106 ], [ 75.768449128419562, 13.305791062620379 ], [ 75.768387701086169, 13.305651767263427 ], [ 75.768159484573147, 13.305512073615416 ], [ 75.767807901818529, 13.305299484233256 ], [ 75.767709515801712, 13.305117750641726 ], [ 75.767938108364845, 13.305106195555192 ], [ 75.768185610350855, 13.304943438162734 ], [ 75.768408204640451, 13.304859270054029 ], [ 75.768680384250601, 13.304708672027218 ], [ 75.768928351867274, 13.304358364534595 ], [ 75.769244477408293, 13.303923520717529 ], [ 75.769399542915707, 13.303669791481433 ], [ 75.769746283003357, 13.303343918080477 ], [ 75.769975174830321, 13.303211365202342 ], [ 75.770074837485694, 13.302878853378713 ], [ 75.770071367443947, 13.302872014922796 ], [ 75.770058677773179, 13.302872497137118 ], [ 75.770011075623742, 13.30277943514505 ], [ 75.769972658951545, 13.30270433030597 ], [ 75.769940680844385, 13.302641813803868 ], [ 75.769937572816829, 13.302619435795435 ], [ 75.76989285134762, 13.302297450953471 ], [ 75.7699580749982, 13.301978598869573 ], [ 75.770051933147954, 13.301849909732379 ], [ 75.770068091390783, 13.30182775457064 ], [ 75.770209005721796, 13.301634546359955 ], [ 75.770213214873237, 13.301628774906209 ], [ 75.770224288832779, 13.301613591874863 ], [ 75.770463954574069, 13.301392806252451 ], [ 75.770503475715159, 13.301349102451317 ], [ 75.770519896695163, 13.301330942025409 ], [ 75.770528306360035, 13.301321640589332 ], [ 75.770558592568548, 13.301288146702701 ], [ 75.770558636503154, 13.301288098116093 ], [ 75.77080221414414, 13.301011145164708 ], [ 75.77111154241112, 13.300824330197155 ], [ 75.771557039345325, 13.300528939579022 ], [ 75.77183570370363, 13.300251302760252 ], [ 75.771964080072337, 13.300116595796055 ], [ 75.772128531618591, 13.300121942896764 ], [ 75.772336026482719, 13.300114999790003 ], [ 75.772523401765227, 13.300058447601559 ], [ 75.772627421631867, 13.299944704416033 ], [ 75.772678912013788, 13.299912245347373 ], [ 75.772696735816254, 13.299901010253441 ], [ 75.772696735783768, 13.299901010139084 ] ] ] } },
{ "type": "Feature", "properties": { "KGISWardID": 2736, "KGISWardCode": "1702010", "KGISWardName": "Paies Compound", "SHAPE.STArea()": 510845.19261571002, "SHAPE.STLength()": 5137.6818501398739, "OBJECTID": 18246, "KGISWardNo": "10", "KGISTownCode": "1702", "LGD_WardCode": 32453, "created_user": "SA", "created_date": 1634898537000, "last_edited_user": "SURESHBV1", "last_edited_date": 1692254014000, "_overlap_percent": 0.052012251228686121, "_police_station": "Chickmagalur Rural PS", "_police_feature_index": "528", "_admin_layer": "Ward", "_geometry_clipped": true }, "geometry": { "type": "MultiPolygon", "coordinates": [ [ [ [ 75.7631788872812, 13.312152015029042 ], [ 75.763178887324642, 13.312152015389747 ], [ 75.763178888480198, 13.312152015326934 ], [ 75.7631788872812, 13.312152015029042 ] ] ], [ [ [ 75.7640329619705, 13.312029807347834 ], [ 75.764069081197718, 13.311926985984783 ], [ 75.764062483558035, 13.311939912053903 ], [ 75.764047484039097, 13.311943908416191 ], [ 75.76393590270898, 13.311973630609829 ], [ 75.763781609096469, 13.312018992323841 ], [ 75.763635549683727, 13.312023334695686 ], [ 75.763507077344812, 13.312014148272166 ], [ 75.763457613163979, 13.312020598124731 ], [ 75.763414040115663, 13.31206531856779 ], [ 75.763390257446346, 13.3120883859528 ], [ 75.763440249439455, 13.312064754271056 ], [ 75.763599788034171, 13.312035857439337 ], [ 75.764028359075638, 13.312032006586222 ], [ 75.764032961961931, 13.312029807416362 ], [ 75.7640329619705, 13.312029807347834 ] ] ] ] } },
{ "type": "Feature", "properties": { "KGISWardID": 2743, "KGISWardCode": "1702017", "KGISWardName": "Uppalli 2", "SHAPE.STArea()": 878875.17870577995, "SHAPE.STLength()": 5752.6698398670305, "OBJECTID": 18253, "KGISWardNo": "17", "KGISTownCode": "1702", "LGD_WardCode": 32460, "created_user": "SA", "created_date": 1634898537000, "last_edited_user": "SURESHBV1", "last_edited_date": 1692254014000, "_overlap_percent": 0.693398232248298, "_police_station": "Chickmagalur Rural PS", "_police_feature_index": "528", "_admin_layer": "Ward", "_geometry_clipped": true }, "geometry": { "type": "MultiPolygon", "coordinates": [ [ [ [ 75.754448906444466, 13.332735243414714 ], [ 75.754543949329474, 13.332997464358177 ], [ 75.754543949419656, 13.332997464606997 ], [ 75.754544237412134, 13.332995083705613 ], [ 75.754454447342056, 13.332729103339092 ], [ 75.754448906444466, 13.332735243414714 ] ] ], [ [ [ 75.755476644626654, 13.327093983959912 ], [ 75.755446721918091, 13.327123700225433 ], [ 75.75541203769842, 13.327734704962511 ], [ 75.755400766345105, 13.327933266145259 ], [ 75.755124769821975, 13.328312413631329 ], [ 75.755095038410616, 13.328353256106888 ], [ 75.755061722440928, 13.328474373120404 ], [ 75.754939651861363, 13.32891813972272 ], [ 75.754966208190922, 13.328996980081895 ], [ 75.755009249851369, 13.329124760654116 ], [ 75.755021799757955, 13.32916201884575 ], [ 75.754751127925161, 13.329107993758138 ], [ 75.754695479284734, 13.329096876022936 ], [ 75.754694909244421, 13.329096761983431 ], [ 75.754597481406861, 13.329077298132047 ], [ 75.754503167027153, 13.329019125262743 ], [ 75.754445239078208, 13.328983394384395 ], [ 75.754495665325948, 13.329737808120553 ], [ 75.754495902223226, 13.329738871633644 ], [ 75.754557807675695, 13.330015086621934 ], [ 75.754528415398909, 13.330063854056267 ], [ 75.754465131536392, 13.330168856336435 ], [ 75.754420067976866, 13.330243626589908 ], [ 75.754495500439788, 13.330692040922903 ], [ 75.754502859000581, 13.330756850405306 ], [ 75.754537964118114, 13.331066035428497 ], [ 75.754537272545491, 13.331078837930999 ], [ 75.754527446333626, 13.331625741034657 ], [ 75.754536401720287, 13.331977677368986 ], [ 75.754538604488388, 13.332064222333116 ], [ 75.754540209066064, 13.332127286674339 ], [ 75.754547545315631, 13.332406083443971 ], [ 75.754547545584515, 13.332406093660975 ], [ 75.7545475641801, 13.332085565929445 ], [ 75.754547593002258, 13.331588718332556 ], [ 75.754570324444899, 13.331046568089549 ], [ 75.754571288713635, 13.331033867852348 ], [ 75.754536872360987, 13.33066274912251 ], [ 75.754469556783221, 13.330217322487258 ], [ 75.754606967276771, 13.329989235563001 ], [ 75.754820773259851, 13.329648122435644 ], [ 75.754984556310063, 13.329652611798217 ], [ 75.755065499439638, 13.329135830418288 ], [ 75.754984692536581, 13.328892666142641 ], [ 75.755136377935244, 13.328326764562545 ], [ 75.755436416102029, 13.327904326702809 ], [ 75.755476644654877, 13.327093983931881 ], [ 75.755476644626654, 13.327093983959912 ] ] ], [ [ [ 75.755715270810555, 13.326848833572257 ], [ 75.755715270799683, 13.326848833735575 ], [ 75.755715740678596, 13.326848354641394 ], [ 75.755715270810555, 13.326848833572257 ] ] ] ] } },
{ "type": "Feature", "properties": { "KGISWardID": 2727, "KGISWardCode": "1702001", "KGISWardName": "Housing Board", "SHAPE.STArea()": 3286632.5584176802, "SHAPE.STLength()": 8709.8277818753832, "OBJECTID": 18237, "KGISWardNo": "1", "KGISTownCode": "1702", "LGD_WardCode": 32444, "created_user": "SA", "created_date": 1634898537000, "last_edited_user": "SURESHBV1", "last_edited_date": 1692254014000, "_overlap_percent": 0.41803782339464135, "_police_station": "Chickmagalur Rural PS", "_police_feature_index": "528", "_admin_layer": "Ward", "_geometry_clipped": true }, "geometry": { "type": "MultiPolygon", "coordinates": [ [ [ [ 75.802404131611297, 13.347173054145591 ], [ 75.802551444773158, 13.347140761928932 ], [ 75.803858354097272, 13.346854275928246 ], [ 75.803925586126866, 13.346839537240015 ], [ 75.804968338410816, 13.346610950801562 ], [ 75.805070002819448, 13.346588663877768 ], [ 75.80671645013561, 13.346227728805355 ], [ 75.806956315291842, 13.346175144760339 ], [ 75.808978438541075, 13.345161151154382 ], [ 75.811362988196663, 13.343965389838443 ], [ 75.812289800124546, 13.34350061915511 ], [ 75.814587195898767, 13.342348517304792 ], [ 75.816045792602921, 13.341617041633073 ], [ 75.816116408062769, 13.341581627855433 ], [ 75.816132073831312, 13.341558849431037 ], [ 75.816132075440635, 13.341558847090937 ], [ 75.806877464779959, 13.346122267852229 ], [ 75.802333465775618, 13.347023474479849 ], [ 75.8022853227166, 13.347198888544403 ], [ 75.802404131611297, 13.347173054145591 ] ] ], [ [ [ 75.814643685753552, 13.329989812245012 ], [ 75.814381698452507, 13.329720447611816 ], [ 75.814050090398339, 13.329379500739991 ], [ 75.812942380856526, 13.328573735804209 ], [ 75.812925774422737, 13.328559393762374 ], [ 75.812424360673759, 13.328171655275419 ], [ 75.812417493826771, 13.328169368015708 ], [ 75.812417493825322, 13.328169368015224 ], [ 75.812914291067003, 13.328570105138827 ], [ 75.812930926051422, 13.328584702064953 ], [ 75.814042462643684, 13.329400934061377 ], [ 75.814647387994896, 13.33000491349814 ], [ 75.814988346403666, 13.330345444690622 ], [ 75.814643685753552, 13.329989812245012 ] ] ], [ [ [ 75.818094839849678, 13.338719424726232 ], [ 75.818170677573931, 13.338651923757826 ], [ 75.818279572539097, 13.338555016642628 ], [ 75.818503125436862, 13.338354816555002 ], [ 75.820093887045417, 13.336925576559818 ], [ 75.820394852428706, 13.336655170313776 ], [ 75.820550385409064, 13.336515425838318 ], [ 75.820763076424072, 13.33632432964899 ], [ 75.820794202463318, 13.336263080373014 ], [ 75.81854498749891, 13.338297393555935 ], [ 75.818321654927715, 13.338499384116329 ], [ 75.818212834130478, 13.338597191556719 ], [ 75.818123824555855, 13.338677191710252 ], [ 75.818094838199741, 13.338719426194771 ], [ 75.818094839849678, 13.338719424726232 ] ] ] ] } },
{ "type": "Feature", "properties": { "KGISWardID": 2760, "KGISWardCode": "1702034", "KGISWardName": "Halenahalli Balehalli Karkipete", "SHAPE.STArea()": 2822637.8400121452, "SHAPE.STLength()": 10915.762818109295, "OBJECTID": 18270, "KGISWardNo": "34", "KGISTownCode": "1702", "LGD_WardCode": 2176852, "created_user": "SA", "created_date": 1634898537000, "last_edited_user": "SURESHBV1", "last_edited_date": 1692254014000, "_overlap_percent": 13.216841068417514, "_police_station": "Chickmagalur Rural PS", "_police_feature_index": "528", "_admin_layer": "Ward", "_geometry_clipped": true }, "geometry": { "type": "MultiPolygon", "coordinates": [ [ [ [ 75.770374344490975, 13.356328886676708 ], [ 75.770384486656994, 13.356340033217268 ], [ 75.770485128188696, 13.356320854290313 ], [ 75.770531088742274, 13.356335474199771 ], [ 75.770533703730521, 13.35633630622152 ], [ 75.770793095988779, 13.356418821164405 ], [ 75.770825116436868, 13.356429006879292 ], [ 75.770970247662319, 13.356455605361448 ], [ 75.771065051971789, 13.35647297979259 ], [ 75.771100869034569, 13.356462361552611 ], [ 75.771171004017404, 13.35644157266699 ], [ 75.771177034058582, 13.356481448226004 ], [ 75.771182351985658, 13.356516620636871 ], [ 75.77119092591137, 13.356573317820457 ], [ 75.771308110956269, 13.35677581760962 ], [ 75.771371415855242, 13.3567775317231 ], [ 75.772018420757249, 13.356795050791408 ], [ 75.772400192607506, 13.356774429948949 ], [ 75.772611629146951, 13.356762367179874 ], [ 75.772681034623773, 13.356602877309124 ], [ 75.772701218860718, 13.356556495873511 ], [ 75.772730523240199, 13.356415079768448 ], [ 75.772833412076835, 13.355918554101128 ], [ 75.772919227023493, 13.355885508765653 ], [ 75.773054176666136, 13.355833543730947 ], [ 75.773264707429178, 13.355752474059576 ], [ 75.773378628331812, 13.355407743200853 ], [ 75.773402335667583, 13.3553360015778 ], [ 75.774052548287571, 13.355391784892147 ], [ 75.774118854563426, 13.35539747294872 ], [ 75.774275367624497, 13.355388800073051 ], [ 75.774275355443208, 13.355300693932687 ], [ 75.774275343673935, 13.355214164667181 ], [ 75.774116512880838, 13.355247147871772 ], [ 75.774075394673076, 13.355255686851116 ], [ 75.774055909965028, 13.355226784844318 ], [ 75.773961599271857, 13.355086896444041 ], [ 75.773949205959141, 13.354707522725809 ], [ 75.774745888615485, 13.354494172028229 ], [ 75.774843175264238, 13.354471851547345 ], [ 75.774904899094082, 13.354463143577819 ], [ 75.774850039423342, 13.354193256848662 ], [ 75.77480303086557, 13.353438406704841 ], [ 75.774744011872983, 13.353023979811219 ], [ 75.774720522637551, 13.352922746345067 ], [ 75.774589502730421, 13.352630564860675 ], [ 75.774496989090849, 13.35226137202889 ], [ 75.774329558402357, 13.351551760150604 ], [ 75.774276176815846, 13.351325513919029 ], [ 75.774079820423253, 13.350615340043166 ], [ 75.773874365762723, 13.349678036539474 ], [ 75.773712012734563, 13.348896971521176 ], [ 75.773645300317838, 13.348743441367597 ], [ 75.773500091386595, 13.348189200669694 ], [ 75.773387352871126, 13.348179768812892 ], [ 75.773318362186998, 13.348173997328974 ], [ 75.773173666402286, 13.348195095547021 ], [ 75.772982951897035, 13.348222903769596 ], [ 75.772909614562082, 13.348233596863055 ], [ 75.772769675917942, 13.3482424803366 ], [ 75.772603493453417, 13.348253030564681 ], [ 75.772446128454291, 13.34826302125145 ], [ 75.772334484004176, 13.348270108453926 ], [ 75.772229091536033, 13.348274789539705 ], [ 75.772088560844139, 13.348281029736548 ], [ 75.771895515316103, 13.348289602538259 ], [ 75.771699387015275, 13.348298312973272 ], [ 75.771550527581354, 13.348304922724065 ], [ 75.771373764840277, 13.348324790222541 ], [ 75.771297287344339, 13.348316410734993 ], [ 75.771202789226265, 13.348306055288637 ], [ 75.771179007593673, 13.348329102704936 ], [ 75.771115805893643, 13.348390348429625 ], [ 75.770695033652117, 13.348798109551584 ], [ 75.770641789454487, 13.348851759665521 ], [ 75.770048366311002, 13.349449723211666 ], [ 75.770051228537326, 13.349556559808942 ], [ 75.770071863475707, 13.350326824985514 ], [ 75.770083325531488, 13.350678435909305 ], [ 75.770092311385326, 13.350954106483295 ], [ 75.770096668326815, 13.351007818328387 ], [ 75.770100270927202, 13.351052231232702 ], [ 75.77011576438872, 13.351243249569123 ], [ 75.770134859565601, 13.351478677188251 ], [ 75.770153956650603, 13.351714108410627 ], [ 75.770169122466953, 13.351901064370139 ], [ 75.770171179918876, 13.351926440073081 ], [ 75.770211297640657, 13.352573162880921 ], [ 75.770212341809412, 13.352589990894339 ], [ 75.770205667167247, 13.352704354760714 ], [ 75.770238378681427, 13.352952447288112 ], [ 75.770241378348999, 13.353086253112828 ], [ 75.770297091549537, 13.353464935965642 ], [ 75.770322877380337, 13.353817439938696 ], [ 75.770395578678404, 13.354065627808589 ], [ 75.770501375513703, 13.3544085320141 ], [ 75.770544271233589, 13.354581594107792 ], [ 75.770450433026099, 13.354790222730379 ], [ 75.770439907620968, 13.355002315905468 ], [ 75.770492694877035, 13.355217825966607 ], [ 75.77055884796151, 13.355420311423613 ], [ 75.770688437462482, 13.355577260477032 ], [ 75.770768146615296, 13.355688404834773 ], [ 75.770811157266209, 13.355815778630767 ], [ 75.770800776323128, 13.355969130844668 ], [ 75.770730423226141, 13.356115814630035 ], [ 75.770490439575227, 13.356200036088762 ], [ 75.770372168442734, 13.356326495151322 ], [ 75.770374344490975, 13.356328886676708 ] ] ], [ [ [ 75.767866786873512, 13.358127733755124 ], [ 75.767846812260288, 13.358015892000491 ], [ 75.767835808653572, 13.357969436378438 ], [ 75.767748478835301, 13.357603288435303 ], [ 75.767728902244528, 13.357521210847642 ], [ 75.767728902145166, 13.357521210431047 ], [ 75.767698520248743, 13.357518141951289 ], [ 75.767666390583003, 13.357514897513784 ], [ 75.767808650121083, 13.358009538338031 ], [ 75.767822105519699, 13.358056318359729 ], [ 75.767965763390109, 13.358681908385821 ], [ 75.767866786873512, 13.358127733755124 ] ] ] ] } }
]
}
