{
"type": "FeatureCollection",
"name": "police_station_boundary.writing_20260805_172659",
"crs": { "type": "name", "properties": { "name": "urn:ogc:def:crs:OGC:1.3:CRS84" } },
"features": [
{ "type": "Feature", "properties": { "Shape.STArea()": 186208857.67504576, "Shape.STLength()": 79638.934734652183, "OBJECTID": 7, "KGISPS_BOUNDID": 7, "PS_BOUNDName": "Hatcholli PS", "PS_BOUNDCode": "PSB - 07", "KGISPS_SUB_DIVID": 12, "_source_layer": "Police Station Boundary", "_source_layer_url": "https://kgis.ksrsac.in/kgismaps/rest/services/Home/Home_Department/MapServer/82", "_police_station": "Hatcholli PS" }, "geometry": { "type": "Polygon", "coordinates": [ [ [ 77.036449708561378, 15.829026727669406 ], [ 77.035905590888788, 15.829099603460842 ], [ 77.035911483857745, 15.829280261438562 ], [ 77.035899503928903, 15.829947883611153 ], [ 77.035823205213902, 15.829959895331662 ], [ 77.034921573464104, 15.830099373455189 ], [ 77.034076429514514, 15.830229283383908 ], [ 77.03379124467682, 15.830411542018149 ], [ 77.033634747534578, 15.830512402007427 ], [ 77.033163395048831, 15.830803704243989 ], [ 77.033032393948076, 15.830887382930701 ], [ 77.032831292853473, 15.831077888787979 ], [ 77.032683895279334, 15.831213675243939 ], [ 77.032479404790877, 15.831415506305314 ], [ 77.032207300842913, 15.831681220614811 ], [ 77.032164095195668, 15.83173583958988 ], [ 77.032149614257435, 15.831746140433495 ], [ 77.03184557810053, 15.831910502191715 ], [ 77.031560564654285, 15.83205209615058 ], [ 77.031155461405476, 15.832260323376991 ], [ 77.030902427120608, 15.832391451876338 ], [ 77.030680800712489, 15.832513250302561 ], [ 77.030284851293672, 15.832762050964886 ], [ 77.029922495773363, 15.832986817828241 ], [ 77.02956826059274, 15.833206989411648 ], [ 77.029274933698119, 15.833392707532541 ], [ 77.029115023099578, 15.833502633261999 ], [ 77.029151180109778, 15.833559896547126 ], [ 77.029346201840156, 15.83386980371608 ], [ 77.029508096286506, 15.834133710989592 ], [ 77.029557323282404, 15.834214572339558 ], [ 77.029344759536073, 15.834367909773256 ], [ 77.029023939357131, 15.834604709938624 ], [ 77.028878628945179, 15.834833092456828 ], [ 77.028691411020034, 15.835129633845598 ], [ 77.028528668107398, 15.835364955183827 ], [ 77.028341201195516, 15.835636650529253 ], [ 77.028200419672203, 15.835851436818828 ], [ 77.028183024575796, 15.835920495835406 ], [ 77.028100303844113, 15.836107630926653 ], [ 77.028083985155376, 15.836167645076706 ], [ 77.028044477423592, 15.836183828028538 ], [ 77.027653471582042, 15.836344480608522 ], [ 77.027031925205975, 15.836611198791562 ], [ 77.026306220901589, 15.836904865679157 ], [ 77.025668930378686, 15.83717285693259 ], [ 77.024997852206724, 15.837445679955309 ], [ 77.024483129715207, 15.837662443563437 ], [ 77.024446540782151, 15.837677852310309 ], [ 77.024390459201612, 15.83755300459748 ], [ 77.024202729027493, 15.837154927220329 ], [ 77.023998182894388, 15.836708440513158 ], [ 77.023801592137971, 15.836299149765164 ], [ 77.023575093034012, 15.83581559411955 ], [ 77.023333879116549, 15.835318621844939 ], [ 77.023148530821274, 15.834925038670672 ], [ 77.023133364116561, 15.834866448002369 ], [ 77.022975713126584, 15.834442109668643 ], [ 77.02282868621414, 15.834030097947794 ], [ 77.022669645251653, 15.833583183782906 ], [ 77.022538111818932, 15.833203780780519 ], [ 77.022421151606167, 15.832881843567513 ], [ 77.022267396219178, 15.832438268878295 ], [ 77.022249344164763, 15.832386351678727 ], [ 77.022108851531669, 15.831982313620999 ], [ 77.021956275564207, 15.83153985609745 ], [ 77.021805237734185, 15.83113465642913 ], [ 77.021633155865871, 15.830666402627392 ], [ 77.021436398045651, 15.830297771653756 ], [ 77.02114780295625, 15.829786554005121 ], [ 77.020892906677787, 15.829320200480497 ], [ 77.020697363232912, 15.828956075065074 ], [ 77.020420281008853, 15.828428936183739 ], [ 77.020176022397592, 15.827976035020532 ], [ 77.019898090723515, 15.827480529055181 ], [ 77.020286048906684, 15.827248763470349 ], [ 77.020631188545622, 15.827052409648768 ], [ 77.020918324681134, 15.826889350303858 ], [ 77.021521513015884, 15.826538112865009 ], [ 77.022110812484925, 15.826198298095642 ], [ 77.022193956897354, 15.826148429175609 ], [ 77.022661702629009, 15.825867875794421 ], [ 77.023087420936662, 15.82562107068731 ], [ 77.023288664487126, 15.825502858794398 ], [ 77.023054145626432, 15.825325460885733 ], [ 77.02229124138934, 15.824749769399787 ], [ 77.022111126136451, 15.824587675660339 ], [ 77.021702519649523, 15.824208594565402 ], [ 77.021306970536614, 15.823851980217173 ], [ 77.02092721635087, 15.823499735729259 ], [ 77.020835337440076, 15.823411363613804 ], [ 77.020614944407399, 15.823070058140683 ], [ 77.02050615065238, 15.822981843378342 ], [ 77.020262383065344, 15.822812434243364 ], [ 77.020200599928557, 15.82275879506178 ], [ 77.019840311061273, 15.822369094514499 ], [ 77.019761916814772, 15.822228640751337 ], [ 77.019621850260847, 15.821987108848576 ], [ 77.019380149043457, 15.821555642536349 ], [ 77.019229204162158, 15.821275810473583 ], [ 77.019106402319977, 15.821127862431313 ], [ 77.01875619159469, 15.820695146793078 ], [ 77.018398971869189, 15.820261363428459 ], [ 77.018050547669816, 15.819832018089411 ], [ 77.017718502355464, 15.819407035799543 ], [ 77.017452757626458, 15.819079702183037 ], [ 77.017197547251072, 15.81881438927636 ], [ 77.016808545643784, 15.818410266868057 ], [ 77.016517924674304, 15.818103492526737 ], [ 77.01642219231212, 15.81797901077474 ], [ 77.016065486290231, 15.817596045651895 ], [ 77.015770672850607, 15.81727801427602 ], [ 77.015678945471137, 15.817204321106477 ], [ 77.015237566434479, 15.816870707939486 ], [ 77.014855579618043, 15.816585109651111 ], [ 77.014527043464753, 15.81621882194948 ], [ 77.014416605030107, 15.816096110133268 ], [ 77.014329457975734, 15.815999279222106 ], [ 77.014056967311262, 15.815814315508907 ], [ 77.013516966484246, 15.815475966824875 ], [ 77.013079641680321, 15.815197654098927 ], [ 77.012559299369258, 15.814782316156558 ], [ 77.012123661570115, 15.814438476977248 ], [ 77.012032731255545, 15.814386234580446 ], [ 77.01160652700986, 15.81411120373415 ], [ 77.010882717826192, 15.813529454810563 ], [ 77.009670965757167, 15.812917204232372 ], [ 77.009064523041999, 15.812346785852657 ], [ 77.008531571391529, 15.812011744163859 ], [ 77.008509845112755, 15.811997261980776 ], [ 77.008442886822621, 15.811950443450515 ], [ 77.008357129733454, 15.811890245992808 ], [ 77.008303147073292, 15.811857990565198 ], [ 77.008147715291216, 15.811771329202621 ], [ 77.008063024557956, 15.811700955556447 ], [ 77.008018529130752, 15.811684424060555 ], [ 77.00787359709237, 15.811597665358933 ], [ 77.007749122699721, 15.811515236167317 ], [ 77.007611445242077, 15.811454387232661 ], [ 77.0074570691323, 15.811356421682289 ], [ 77.007452752395167, 15.811332741682705 ], [ 77.007239984290251, 15.811228539003753 ], [ 77.007137525118452, 15.811189954562749 ], [ 77.006998726082927, 15.811133634374526 ], [ 77.006934683723344, 15.811086788352094 ], [ 77.00689795402819, 15.811029523641876 ], [ 77.006867491238665, 15.811016251503903 ], [ 77.006835156196814, 15.810990573322828 ], [ 77.006664483103037, 15.810896145292723 ], [ 77.006509513427034, 15.810797054074257 ], [ 77.006500601571048, 15.810781636392656 ], [ 77.006494720437004, 15.810778274301528 ], [ 77.006413999131823, 15.810731769281968 ], [ 77.006333442633192, 15.81068503229187 ], [ 77.006253030686963, 15.810638091529604 ], [ 77.00617274303896, 15.81059097519352 ], [ 77.006092559452782, 15.810543713288908 ], [ 77.006012461558399, 15.810496335803807 ], [ 77.005932427208364, 15.810448868243245 ], [ 77.005852436175104, 15.810401341515918 ], [ 77.00577246818645, 15.810353782013054 ], [ 77.005692501157213, 15.810306221564087 ], [ 77.005612520360984, 15.81025868108741 ], [ 77.005532522109434, 15.810211165134998 ], [ 77.005452509148739, 15.81016366826 ], [ 77.005372482403189, 15.810116189550252 ], [ 77.005292446503148, 15.810068725348666 ], [ 77.005212402355099, 15.810021272936103 ], [ 77.00513235178984, 15.80997382868131 ], [ 77.005052297580235, 15.809926389847956 ], [ 77.00497224063281, 15.809878953716888 ], [ 77.00489218464476, 15.809831516639658 ], [ 77.004812130531462, 15.809784076800625 ], [ 77.004732081990142, 15.809736630551347 ], [ 77.004652038994095, 15.809689175181298 ], [ 77.004572005240547, 15.80964170704206 ], [ 77.004491983502362, 15.80959422339725 ], [ 77.004411974686121, 15.809546721527797 ], [ 77.00433198063152, 15.809499198705971 ], [ 77.004252005035781, 15.809451651283334 ], [ 77.004172049738628, 15.80940407653217 ], [ 77.004092116579812, 15.80935647172474 ], [ 77.004012207390133, 15.809308833229892 ], [ 77.003932323085067, 15.80926115923198 ], [ 77.003852464615605, 15.809213451529466 ], [ 77.003772630133184, 15.809165711946571 ], [ 77.003692817753631, 15.809117938693547 ], [ 77.003613028463548, 15.809070137182815 ], [ 77.003533260378788, 15.809022305624616 ], [ 77.003453511659657, 15.80897444674669 ], [ 77.00337378323934, 15.808926560540465 ], [ 77.003294073287108, 15.808878650637158 ], [ 77.003234057032827, 15.808842549567277 ], [ 77.00319502052163, 15.808826223224312 ], [ 77.003178804353695, 15.808809302325072 ], [ 77.003134705045127, 15.808782758870365 ], [ 77.003055043982542, 15.808734779743229 ], [ 77.002975398641823, 15.808686782365948 ], [ 77.002895766214522, 15.808638765860824 ], [ 77.002816147642747, 15.80859073112279 ], [ 77.002736540153592, 15.808542680888172 ], [ 77.002656943755952, 15.808494616060482 ], [ 77.00257735753442, 15.808446538455369 ], [ 77.002497779622644, 15.808398448090021 ], [ 77.002418209105201, 15.80835034678007 ], [ 77.002338646941936, 15.808302237227425 ], [ 77.002259090315533, 15.808254117650897 ], [ 77.002179539270415, 15.808205992568022 ], [ 77.002099991931317, 15.808157861092489 ], [ 77.0020204473917, 15.808109725943432 ], [ 77.001940905651594, 15.808061587120831 ], [ 77.00186136486235, 15.808013446448918 ], [ 77.001781824117472, 15.807965306646796 ], [ 77.001702283399169, 15.807917165907465 ], [ 77.00162274088548, 15.807869028765651 ], [ 77.001543195634298, 15.807820894326417 ], [ 77.001463647663456, 15.807772764396812 ], [ 77.001455349060606, 15.807767743764582 ], [ 77.001263025867829, 15.807688579526662 ], [ 77.001081369926268, 15.807544550565918 ], [ 77.000999821501878, 15.807496734348337 ], [ 77.000835080057158, 15.807471145684367 ], [ 77.000739906174658, 15.807401994762923 ], [ 77.000711983064463, 15.80735029590087 ], [ 77.000510425736863, 15.807258405872156 ], [ 77.000462143722814, 15.807212541925608 ], [ 77.000363909582077, 15.807128735745962 ], [ 77.000249711839913, 15.807082348534088 ], [ 77.000109367121766, 15.807046368316414 ], [ 77.000041945237527, 15.806952112840642 ], [ 76.999904250566473, 15.806889001415762 ], [ 76.999779682086483, 15.806796400689576 ], [ 76.999560405561368, 15.806682083203562 ], [ 76.999513347705971, 15.806641855143736 ], [ 76.999378723952717, 15.806594527815207 ], [ 76.999205847505692, 15.806512537704648 ], [ 76.999088595134907, 15.806380747524175 ], [ 76.999061151026311, 15.806364273878557 ], [ 76.999007114518207, 15.806351721700828 ], [ 76.998898164776818, 15.806305286291154 ], [ 76.998861461326626, 15.80625027949071 ], [ 76.998724712137729, 15.806164567971301 ], [ 76.998454606084564, 15.806041680262044 ], [ 76.998301888886616, 15.80593352572879 ], [ 76.998238721472248, 15.805916036131027 ], [ 76.998089636001055, 15.80582140180185 ], [ 76.997952876295372, 15.805734559437763 ], [ 76.997741756996916, 15.805619034441309 ], [ 76.997522940928533, 15.805432423473579 ], [ 76.997460035601037, 15.805382175299536 ], [ 76.997388931713886, 15.80532861495926 ], [ 76.997310290057726, 15.80527964094207 ], [ 76.997171076197873, 15.805180397163527 ], [ 76.997090980124241, 15.805102069861258 ], [ 76.997075413520804, 15.805088304091692 ], [ 76.996963299266966, 15.804989166071692 ], [ 76.996895262106449, 15.804891525677487 ], [ 76.996747419098241, 15.804744923505181 ], [ 76.996672593722948, 15.804668806520661 ], [ 76.996565864699704, 15.804551191889335 ], [ 76.996495078762678, 15.80447051975921 ], [ 76.996431730994289, 15.804375095034592 ], [ 76.996357423603712, 15.804292196247452 ], [ 76.996313843258392, 15.804249677331269 ], [ 76.996249705674629, 15.80419266315308 ], [ 76.996130644209629, 15.804125988379173 ], [ 76.995979668247429, 15.804016686422628 ], [ 76.995901960459619, 15.803943984049734 ], [ 76.995864851217632, 15.803907051172944 ], [ 76.995790508464495, 15.803760902255474 ], [ 76.995764014886433, 15.803676434374328 ], [ 76.995724130916258, 15.803594347587719 ], [ 76.995663481123543, 15.80353617256598 ], [ 76.995620978995177, 15.803484606789995 ], [ 76.995548710696909, 15.803431055510931 ], [ 76.995508023793974, 15.803386249032954 ], [ 76.99545544073149, 15.803317834467652 ], [ 76.995426253478911, 15.803255980054802 ], [ 76.995392983622622, 15.803194164948239 ], [ 76.995346849414346, 15.80312907774992 ], [ 76.995282084955988, 15.803067551034241 ], [ 76.995260151161759, 15.803031609912193 ], [ 76.995228026656534, 15.80296752437599 ], [ 76.995166164111296, 15.80284497878494 ], [ 76.995109309620815, 15.802757401195608 ], [ 76.995090775693868, 15.802711262554261 ], [ 76.995091894648269, 15.802646871644452 ], [ 76.995072733243262, 15.8025962208238 ], [ 76.995041524071667, 15.802566011381582 ], [ 76.994927656775516, 15.802493640664391 ], [ 76.994854210553086, 15.802438970426042 ], [ 76.994818885618415, 15.802405410288385 ], [ 76.994790842126335, 15.802341287180921 ], [ 76.994761215844704, 15.802294120877812 ], [ 76.994691158498838, 15.802228124599745 ], [ 76.994650023436165, 15.8021968767508 ], [ 76.994608765763559, 15.802153205682293 ], [ 76.994570191956925, 15.802085790772169 ], [ 76.994544604138412, 15.802034069406496 ], [ 76.994505767944048, 15.801999411959237 ], [ 76.994486333259019, 15.801980389156947 ], [ 76.994474931073853, 15.801947738778043 ], [ 76.994461259303307, 15.801862023431228 ], [ 76.994444615154691, 15.801770687946387 ], [ 76.994431341625273, 15.801725630406574 ], [ 76.99440132033709, 15.801697668909958 ], [ 76.994370794186594, 15.801677618440479 ], [ 76.994349499247633, 15.801647317846893 ], [ 76.994306278006903, 15.801522341783112 ], [ 76.994277190960759, 15.801470652494181 ], [ 76.994233984756235, 15.8014066684791 ], [ 76.994112767609636, 15.801298221166226 ], [ 76.994072520945295, 15.801238727883138 ], [ 76.994052667074271, 15.801176788426831 ], [ 76.994022622871469, 15.801146568101688 ], [ 76.993981081840317, 15.801133395584655 ], [ 76.993960392367086, 15.801105348352936 ], [ 76.993945996777711, 15.801064819006667 ], [ 76.993943395616313, 15.800977872490732 ], [ 76.993913307229306, 15.800943134608168 ], [ 76.993876353736852, 15.800922013558937 ], [ 76.99385616000319, 15.800884925877552 ], [ 76.993833687718165, 15.800853506534784 ], [ 76.993802037656621, 15.800837984222781 ], [ 76.993740411699832, 15.800799017818068 ], [ 76.993720261297938, 15.800766447665085 ], [ 76.99371682643698, 15.800713394261635 ], [ 76.993698370449764, 15.800675161125604 ], [ 76.993656672878075, 15.800646177168851 ], [ 76.993627345640178, 15.800629503119668 ], [ 76.993602364557617, 15.800580035899111 ], [ 76.993574717032487, 15.800496707664081 ], [ 76.993526824280991, 15.800430507493253 ], [ 76.993499103048691, 15.800399135367448 ], [ 76.993426484416261, 15.800369306516011 ], [ 76.993372551157165, 15.800341563350427 ], [ 76.993324722967188, 15.800282139447106 ], [ 76.993281439035826, 15.800210250391894 ], [ 76.993236956447902, 15.80013498296025 ], [ 76.993119943827224, 15.800038919812394 ], [ 76.993040655669205, 15.799983172913707 ], [ 76.992987174112329, 15.799941873463046 ], [ 76.992947785995469, 15.799850745505397 ], [ 76.992904613737267, 15.799790149283885 ], [ 76.99284996486648, 15.799748859595002 ], [ 76.992832356658965, 15.799737726252031 ], [ 76.992770137870252, 15.799697635464737 ], [ 76.992738234843316, 15.799656138004288 ], [ 76.992712241415319, 15.799622490930666 ], [ 76.992658471787863, 15.799551827374115 ], [ 76.992573005829755, 15.799401259157779 ], [ 76.992454724301282, 15.799175317145016 ], [ 76.992411418842963, 15.799101169076271 ], [ 76.992394876895901, 15.799086262460685 ], [ 76.992119044988584, 15.799367138962864 ], [ 76.9894527647334, 15.801034982924644 ], [ 76.979507991626008, 15.792293981728607 ], [ 76.966235771188039, 15.779810609426038 ], [ 76.96669708880394, 15.778950607380992 ], [ 76.967808749228624, 15.77687818443545 ], [ 76.968889514483564, 15.7756748896837 ], [ 76.968883030460503, 15.775667293953106 ], [ 76.9687430263387, 15.775543186191555 ], [ 76.96868045973757, 15.775465816697817 ], [ 76.968588881232407, 15.775343528690936 ], [ 76.968502224376167, 15.775187311918568 ], [ 76.96838007005185, 15.775039323691598 ], [ 76.96832743932346, 15.774964123172001 ], [ 76.9682181432199, 15.774758412932593 ], [ 76.968075961468813, 15.77452928053199 ], [ 76.967913543714829, 15.774318403091053 ], [ 76.967756723346625, 15.774143618973211 ], [ 76.967590491399832, 15.773900019208934 ], [ 76.967437835924898, 15.773673239962129 ], [ 76.967258885264769, 15.773320193905187 ], [ 76.967177483722608, 15.773224922973727 ], [ 76.966998935582325, 15.773034521526201 ], [ 76.966895728774247, 15.772915726194984 ], [ 76.966841381457812, 15.772843930120539 ], [ 76.96680265966755, 15.772759567337596 ], [ 76.96677563371027, 15.772678486433332 ], [ 76.966736339723809, 15.772595259211096 ], [ 76.966673556196994, 15.772495300823799 ], [ 76.966625007981762, 15.772420062841597 ], [ 76.966529748215692, 15.772278606266752 ], [ 76.966431333347828, 15.772112329052884 ], [ 76.965803453370114, 15.772499774998973 ], [ 76.965223635792555, 15.772851770618159 ], [ 76.964644884538558, 15.773193589713371 ], [ 76.964141638603692, 15.773503099702401 ], [ 76.963395911097777, 15.773948078690859 ], [ 76.963191746567318, 15.774065130626363 ], [ 76.962949777517053, 15.773889980477085 ], [ 76.962398947456094, 15.773497364028566 ], [ 76.961885031354328, 15.773122484312601 ], [ 76.96135644130581, 15.772737568977181 ], [ 76.960716282523165, 15.772273464278943 ], [ 76.960633245761557, 15.77221151218022 ], [ 76.960185255612757, 15.771877273388069 ], [ 76.959754321837138, 15.771579576264594 ], [ 76.959235890829873, 15.771219413481669 ], [ 76.959181840210292, 15.771178108308883 ], [ 76.958675075184829, 15.770817838932151 ], [ 76.958164628720183, 15.770438399644968 ], [ 76.957727015153253, 15.770112521109912 ], [ 76.957211982704507, 15.769741026114861 ], [ 76.956905520589828, 15.769524230634111 ], [ 76.956726380366547, 15.769397503741502 ], [ 76.956159601164202, 15.768981292484279 ], [ 76.95551292159908, 15.768503672514937 ], [ 76.954904063137917, 15.768077668100048 ], [ 76.954323315301437, 15.767663835725447 ], [ 76.953628037407995, 15.767165185741671 ], [ 76.953061356744072, 15.766757998429439 ], [ 76.952532561046027, 15.766348212334156 ], [ 76.950963180754712, 15.765859650887435 ], [ 76.94994352493967, 15.765529932300804 ], [ 76.949790774505189, 15.76547369624863 ], [ 76.949721132419256, 15.765448341205397 ], [ 76.949309359696272, 15.765322134835541 ], [ 76.948847308716324, 15.765182823586622 ], [ 76.948417734719143, 15.765042793188574 ], [ 76.948388658228978, 15.76503331521296 ], [ 76.94793006312895, 15.764889452882302 ], [ 76.947471597864521, 15.764759142544827 ], [ 76.947022442728141, 15.764626488874688 ], [ 76.946949574344728, 15.76460512768948 ], [ 76.946689675894547, 15.764528937965752 ], [ 76.946564004596198, 15.764493734692453 ], [ 76.946506288120901, 15.764477567371369 ], [ 76.946357535536535, 15.764435898978613 ], [ 76.946024749554255, 15.76433608812221 ], [ 76.945692069618246, 15.764247570943974 ], [ 76.945360449505245, 15.764147748582781 ], [ 76.94502764279369, 15.764045677248047 ], [ 76.944694856944011, 15.763945864217112 ], [ 76.944362643748022, 15.763844916009498 ], [ 76.944171376197389, 15.763785630262262 ], [ 76.943930963694598, 15.763709840406632 ], [ 76.94350340910303, 15.763579245129232 ], [ 76.943092204364049, 15.763450762060446 ], [ 76.942870495970496, 15.763379322079199 ], [ 76.942709337434238, 15.763297175870203 ], [ 76.942343016707042, 15.763105037673927 ], [ 76.941977312916691, 15.762916281840413 ], [ 76.94166860187903, 15.762772198716002 ], [ 76.941481238437532, 15.762632678797509 ], [ 76.94133859101008, 15.762534553097154 ], [ 76.941148237157932, 15.762387153772968 ], [ 76.940859973712307, 15.762185280617633 ], [ 76.940582196526861, 15.761982184031826 ], [ 76.940430059714899, 15.761867199414061 ], [ 76.940332789595871, 15.761757374216131 ], [ 76.940122951446469, 15.761523174398633 ], [ 76.939913068991615, 15.761284455732927 ], [ 76.93970323182684, 15.761050255392243 ], [ 76.939503328009067, 15.760818226257776 ], [ 76.939302302203103, 15.760590722254378 ], [ 76.939088795155683, 15.760338481507906 ], [ 76.938970882848693, 15.760203989895665 ], [ 76.938901947769693, 15.760130054433501 ], [ 76.938797596909225, 15.76001125524135 ], [ 76.93863726882644, 15.759831958400898 ], [ 76.938529724797078, 15.759683819010727 ], [ 76.938434564164581, 15.759550253996627 ], [ 76.938356648596127, 15.759451549685988 ], [ 76.938343736004853, 15.759258516420802 ], [ 76.938317505797102, 15.758952649520335 ], [ 76.938302009986785, 15.758794653502354 ], [ 76.938285588090011, 15.758600522831834 ], [ 76.938314201097413, 15.758481667458032 ], [ 76.938349459738987, 15.758325480518197 ], [ 76.938385861278263, 15.758167023455989 ], [ 76.938421119820944, 15.758010834705489 ], [ 76.938454628032943, 15.757854663340336 ], [ 76.938488136198785, 15.757698491070139 ], [ 76.938508543347822, 15.757575191546742 ], [ 76.93849075156831, 15.757359611258927 ], [ 76.938471846270858, 15.757149688482521 ], [ 76.938454702989588, 15.756940879535302 ], [ 76.938431588276728, 15.75671743994474 ], [ 76.938311349667103, 15.756521973289807 ], [ 76.938173435496978, 15.756307461966129 ], [ 76.938044861344167, 15.756093997834801 ], [ 76.937888983657416, 15.755829946227179 ], [ 76.937788653364549, 15.755704332409652 ], [ 76.937636430235216, 15.755518185985247 ], [ 76.937505189313825, 15.755356734799053 ], [ 76.937484196678682, 15.755330909992946 ], [ 76.937330796241326, 15.755143644241453 ], [ 76.93717269018974, 15.75495190301389 ], [ 76.937007553033652, 15.754756833790156 ], [ 76.936833023969314, 15.754555071685758 ], [ 76.936657857672799, 15.754347667452546 ], [ 76.936482130046315, 15.754142527978429 ], [ 76.9364195597514, 15.75406288718634 ], [ 76.936345979606287, 15.753929128028792 ], [ 76.936234352368587, 15.753718899449071 ], [ 76.936122693277596, 15.75350528340096 ], [ 76.936008734089441, 15.75329507537748 ], [ 76.935897075479858, 15.753081456442663 ], [ 76.935792457293175, 15.752872295663522 ], [ 76.935681435811688, 15.752664320327908 ], [ 76.935571591495645, 15.752457463973132 ], [ 76.935461747420618, 15.752250607534251 ], [ 76.935353631517984, 15.752041476611998 ], [ 76.935246098956227, 15.751832339523823 ], [ 76.935135640413336, 15.751622100630389 ], [ 76.935024620384425, 15.751414123882427 ], [ 76.934913568531556, 15.751202760567606 ], [ 76.934803067933814, 15.750988001892303 ], [ 76.934690245875956, 15.750774395080455 ], [ 76.934576851652935, 15.750561921883735 ], [ 76.934463447926035, 15.750348319159498 ], [ 76.934347710173213, 15.750134737070649 ], [ 76.934237222480718, 15.749921108281967 ], [ 76.934129660311797, 15.749708582963782 ], [ 76.934047673258917, 15.749548918218242 ], [ 76.933837407215506, 15.749144155553317 ], [ 76.933659751600374, 15.748857703341422 ], [ 76.933482128570802, 15.748574639213491 ], [ 76.933325021392591, 15.748302689008288 ], [ 76.933160928145114, 15.748031928339479 ], [ 76.933073995734816, 15.747903933653308 ], [ 76.934204453022943, 15.747752711169921 ], [ 76.934913087141524, 15.747641373908248 ], [ 76.935385401127519, 15.74757618499005 ], [ 76.936052179947822, 15.747478770187154 ], [ 76.93626006702803, 15.747447555384509 ], [ 76.936450846164618, 15.747334037183192 ], [ 76.936744213096773, 15.747154094677059 ], [ 76.936957522441944, 15.74695679108852 ], [ 76.937405009619312, 15.746487449322187 ], [ 76.938144514294947, 15.745881096615078 ], [ 76.938164253714618, 15.745871885774797 ], [ 76.93885190301387, 15.745577738721519 ], [ 76.938882895500328, 15.745402386971453 ], [ 76.938890089988263, 15.745361660146687 ], [ 76.938895630700841, 15.74533111464298 ], [ 76.93895722479364, 15.745307976179884 ], [ 76.939334902856189, 15.745164553869925 ], [ 76.940676643440298, 15.74466691627978 ], [ 76.941898116131412, 15.744216651270435 ], [ 76.941935996122226, 15.744214055609975 ], [ 76.942124700023911, 15.744189783685794 ], [ 76.942304637065519, 15.744163330691819 ], [ 76.942558518423667, 15.744124923278932 ], [ 76.942984130332803, 15.744055617115567 ], [ 76.943338194363605, 15.744005020456138 ], [ 76.943719544943249, 15.743941755166517 ], [ 76.944101478283159, 15.743878483130722 ], [ 76.944293032360221, 15.743847406841869 ], [ 76.944498592952769, 15.743817334944927 ], [ 76.944822195947609, 15.743752324871602 ], [ 76.945158529760263, 15.743677034140383 ], [ 76.945497206341088, 15.743602851521022 ], [ 76.945837588850907, 15.743524134190165 ], [ 76.946180939287402, 15.74345103925196 ], [ 76.946528405100096, 15.743381294694178 ], [ 76.946877598332904, 15.743309274235251 ], [ 76.947232567352231, 15.743231555855967 ], [ 76.947278512340887, 15.743218720670711 ], [ 76.947370401364751, 15.743193050281359 ], [ 76.947613535844354, 15.743189748265085 ], [ 76.947847500556705, 15.743203470694054 ], [ 76.948080884047812, 15.743217197159529 ], [ 76.948370305924868, 15.743237201338987 ], [ 76.94865914565716, 15.743257209428705 ], [ 76.949197218816863, 15.743302096720827 ], [ 76.949988942402683, 15.743345842931099 ], [ 76.950302800730029, 15.743359977383534 ], [ 76.950353550184417, 15.743361782285232 ], [ 76.950368137943343, 15.743362781260911 ], [ 76.950408975039664, 15.743364673948154 ], [ 76.950434058235444, 15.743365579900521 ], [ 76.950837246226826, 15.74339133882345 ], [ 76.950879843346911, 15.743394346087113 ], [ 76.951071373587737, 15.743421999020352 ], [ 76.95149349147664, 15.743353837452759 ], [ 76.95173336414814, 15.743314414626861 ], [ 76.95180032116464, 15.743303650286949 ], [ 76.95277097529808, 15.743154895862999 ], [ 76.953188826692397, 15.743067566694704 ], [ 76.954479554732728, 15.742790561183542 ], [ 76.954527853818746, 15.742779962442745 ], [ 76.954574985813224, 15.742769374157852 ], [ 76.955113250192412, 15.742651595151072 ], [ 76.955241851609628, 15.742623333222014 ], [ 76.95532332015631, 15.742605659677306 ], [ 76.955479226952207, 15.742566987034692 ], [ 76.955788709894989, 15.74248966234566 ], [ 76.957091263632933, 15.742169613588072 ], [ 76.958135380753319, 15.741899318785819 ], [ 76.958231436264697, 15.741882642675721 ], [ 76.95835836213331, 15.74186230063405 ], [ 76.9584113459821, 15.741853918007109 ], [ 76.959638567949924, 15.741706217334006 ], [ 76.959726051240636, 15.741707689829376 ], [ 76.959852598441969, 15.741708811054645 ], [ 76.961212570290016, 15.741722557527954 ], [ 76.962518120600791, 15.741716454311021 ], [ 76.962624250254194, 15.741716628243612 ], [ 76.962676153425903, 15.741717290405074 ], [ 76.963076183018629, 15.741718206070088 ], [ 76.963131002463058, 15.741718841858347 ], [ 76.963206229362655, 15.74171929382827 ], [ 76.963258716523143, 15.741719950590634 ], [ 76.963308299176987, 15.74172176301084 ], [ 76.964164441225492, 15.741734380996647 ], [ 76.965057856006453, 15.741742141549443 ], [ 76.96523914721655, 15.741735989049621 ], [ 76.965551596441529, 15.741725265192217 ], [ 76.965707793874941, 15.741717079572856 ], [ 76.9661707182443, 15.741709515785542 ], [ 76.966634225528679, 15.741701945757535 ], [ 76.967061499164572, 15.741746659047816 ], [ 76.967530290332192, 15.741803421289083 ], [ 76.967684922215653, 15.741814449992303 ], [ 76.968079769446987, 15.741822180255424 ], [ 76.968462435556702, 15.741836796841968 ], [ 76.968472348656974, 15.741836707316796 ], [ 76.968501556460339, 15.741842091068044 ], [ 76.968897605670804, 15.741914189901282 ], [ 76.969508768385992, 15.742040821427132 ], [ 76.969594070524636, 15.742058122714026 ], [ 76.969632650063076, 15.742067939641837 ], [ 76.969689497967764, 15.742036929290622 ], [ 76.969960970340296, 15.741888769756308 ], [ 76.970150905419388, 15.74181137623313 ], [ 76.970188662422629, 15.741796351391377 ], [ 76.970875808804522, 15.741517928686694 ], [ 76.9710061002733, 15.741363137959624 ], [ 76.971263586036883, 15.740913525797103 ], [ 76.971361193503739, 15.740755641976543 ], [ 76.971494014310935, 15.740379446230818 ], [ 76.971544523949149, 15.740235541464898 ], [ 76.971546317628111, 15.74011918630316 ], [ 76.971586190507452, 15.739960695083877 ], [ 76.971625502998592, 15.739804468842282 ], [ 76.971592579293926, 15.739655671148357 ], [ 76.97154135896794, 15.739423456499456 ], [ 76.971532211096189, 15.739381747570725 ], [ 76.970914846843996, 15.739397495560185 ], [ 76.970085985293139, 15.739430967226314 ], [ 76.970069086465116, 15.739432249448763 ], [ 76.970042837819094, 15.739431356250348 ], [ 76.969253585003912, 15.739400084100376 ], [ 76.968429545943636, 15.739389454279991 ], [ 76.967507286706862, 15.739291607202858 ], [ 76.967325748043038, 15.739271784935241 ], [ 76.967247530843267, 15.739263454732532 ], [ 76.966920635992409, 15.739226870760323 ], [ 76.966365568548113, 15.739172014288828 ], [ 76.966341079951832, 15.739172235174019 ], [ 76.965797677096631, 15.73917826542462 ], [ 76.965497400122644, 15.739180972927267 ], [ 76.965309081893807, 15.739183800230256 ], [ 76.965220909257113, 15.739171041907635 ], [ 76.96497566497176, 15.739135978808699 ], [ 76.964639354526966, 15.739090441049333 ], [ 76.964190351376075, 15.739028975506679 ], [ 76.964141308132625, 15.739022640324682 ], [ 76.963471603071071, 15.738931534447079 ], [ 76.963322803873609, 15.738920449965606 ], [ 76.962609769682999, 15.738871524330207 ], [ 76.962454556828305, 15.738860497888444 ], [ 76.962053862934454, 15.738850549489122 ], [ 76.961109741055651, 15.738783367358611 ], [ 76.960686295881899, 15.738772492472568 ], [ 76.960276091304806, 15.738804419116923 ], [ 76.959658981970378, 15.738725253840476 ], [ 76.959097328797526, 15.738652365492355 ], [ 76.958736055844682, 15.738618337825226 ], [ 76.958299675981777, 15.738596280242088 ], [ 76.957366008065577, 15.7385854633436 ], [ 76.957335094900586, 15.738584611378329 ], [ 76.957282597574221, 15.738582822775538 ], [ 76.957167096996258, 15.738578213046369 ], [ 76.956497642884415, 15.738574056387854 ], [ 76.956471956595692, 15.738570897461511 ], [ 76.95640655530643, 15.738561319664067 ], [ 76.954393441623196, 15.738295867835536 ], [ 76.954354581654286, 15.738256682286993 ], [ 76.954331033401516, 15.738233174481643 ], [ 76.954160271285431, 15.738059629512826 ], [ 76.954042514794509, 15.737940955524158 ], [ 76.953959039727749, 15.737931538948098 ], [ 76.953712684240799, 15.737902120327661 ], [ 76.953702179248296, 15.737901084046758 ], [ 76.953625700940833, 15.737891603736465 ], [ 76.953523535516098, 15.737878965021208 ], [ 76.953482677054495, 15.7378748139678 ], [ 76.953389268366138, 15.737863226240705 ], [ 76.953326805152059, 15.737855879280488 ], [ 76.953257409902236, 15.737855370593834 ], [ 76.952250278036971, 15.737845190429118 ], [ 76.951117115678812, 15.737888089456781 ], [ 76.951026783934168, 15.737893415911239 ], [ 76.951020953298794, 15.737893468088988 ], [ 76.950968499128237, 15.737896196521634 ], [ 76.950898023853483, 15.737904733783326 ], [ 76.950878771988812, 15.737903777441543 ], [ 76.949480552507978, 15.73791289600247 ], [ 76.949394259005601, 15.737913666702788 ], [ 76.949345292389211, 15.737915234949552 ], [ 76.948765338062685, 15.737940750080744 ], [ 76.948674432880352, 15.737947210211029 ], [ 76.947858011095107, 15.738001945736547 ], [ 76.947733883728574, 15.738009831816468 ], [ 76.947461753669685, 15.738029205592408 ], [ 76.947431976623477, 15.737963959508539 ], [ 76.947106858596172, 15.737256396135178 ], [ 76.94672849705367, 15.736406988905728 ], [ 76.946712293102379, 15.736358564264412 ], [ 76.946684675897572, 15.736275225527729 ], [ 76.946469536036616, 15.735297853997224 ], [ 76.946445115711342, 15.735243854160784 ], [ 76.946272395777882, 15.734863619241519 ], [ 76.946206956521891, 15.734788525511501 ], [ 76.946185147029382, 15.734763870736993 ], [ 76.945835538550426, 15.734361493187784 ], [ 76.945453026724778, 15.734484635222033 ], [ 76.945344900576842, 15.734519485450772 ], [ 76.945339534923747, 15.73450710859888 ], [ 76.945309726013676, 15.734438473806495 ], [ 76.94502602828409, 15.733792659889788 ], [ 76.944832920454175, 15.733352739740143 ], [ 76.944827232761526, 15.733306481033146 ], [ 76.944774812157988, 15.732883377465937 ], [ 76.944771650892037, 15.732857426687278 ], [ 76.944766632175174, 15.732820197268138 ], [ 76.944765326506527, 15.732805526049551 ], [ 76.944761569582184, 15.732778450158095 ], [ 76.944757771587888, 15.732746857454503 ], [ 76.944746396289489, 15.732654338216411 ], [ 76.944736269701252, 15.732631838109892 ], [ 76.944636687767769, 15.732400045768729 ], [ 76.944571879296916, 15.732268469733532 ], [ 76.944536145797017, 15.732189720998662 ], [ 76.943795412161208, 15.73112553828404 ], [ 76.944054835647663, 15.730751613662791 ], [ 76.944164641264209, 15.730586854366043 ], [ 76.944455172512676, 15.730357229875507 ], [ 76.944829924798782, 15.730031975288309 ], [ 76.945490366276729, 15.729520060391696 ], [ 76.94616297095223, 15.729061123636754 ], [ 76.946646636961432, 15.728784593539313 ], [ 76.946968517839451, 15.728541133119348 ], [ 76.94767042317892, 15.727975755125431 ], [ 76.948344218750535, 15.727398201597504 ], [ 76.948671947167824, 15.727156945882534 ], [ 76.948800951146666, 15.726804513201037 ], [ 76.948986603869784, 15.726216634535026 ], [ 76.9492235407713, 15.725626038570532 ], [ 76.949430094511357, 15.725028936828622 ], [ 76.949452716428212, 15.724955316904389 ], [ 76.949489494480488, 15.72483751836848 ], [ 76.949487457191793, 15.724439945169754 ], [ 76.949475347474973, 15.723719420553703 ], [ 76.949470271137841, 15.722880233592887 ], [ 76.94945846034301, 15.722007221172412 ], [ 76.949456559511148, 15.72113412015206 ], [ 76.94939985676551, 15.720261507687482 ], [ 76.949363560368027, 15.719388714637876 ], [ 76.949372188663418, 15.71851890790426 ], [ 76.949462556500663, 15.717660795792559 ], [ 76.949495186044956, 15.716800940300724 ], [ 76.949493255536822, 15.715924450631784 ], [ 76.949448372950414, 15.715190663001378 ], [ 76.949372026603385, 15.71507161571232 ], [ 76.94931858880588, 15.714725330417778 ], [ 76.94931614630751, 15.714529945358288 ], [ 76.949189476984046, 15.714208034677718 ], [ 76.948868386990256, 15.713490267629941 ], [ 76.948873326902287, 15.713335479315159 ], [ 76.948762647611943, 15.712794297698048 ], [ 76.948562715726808, 15.712309258982785 ], [ 76.948446722838199, 15.712067447295951 ], [ 76.948423504888879, 15.711526614291017 ], [ 76.948297676162099, 15.711292797761281 ], [ 76.947919913626592, 15.71080708482241 ], [ 76.947700134651214, 15.710687057086982 ], [ 76.947490245704444, 15.710319575816191 ], [ 76.947226628823316, 15.71012651961462 ], [ 76.946708009710093, 15.709726775035902 ], [ 76.946411392330873, 15.709312625630075 ], [ 76.946112744623349, 15.708930120386645 ], [ 76.945647064059884, 15.708517476194441 ], [ 76.945118024575578, 15.708124597908354 ], [ 76.94267697824192, 15.706044280786493 ], [ 76.941679812168346, 15.704362249197489 ], [ 76.941238608817898, 15.698959132968049 ], [ 76.941855629569133, 15.692515355041909 ], [ 76.941827012168801, 15.692509961641665 ], [ 76.940594027305764, 15.692266768096987 ], [ 76.940477214540095, 15.692244085056421 ], [ 76.940303157350172, 15.69220948439208 ], [ 76.940278631253449, 15.692205183990096 ], [ 76.940247089486348, 15.69219868770838 ], [ 76.940198608619411, 15.692188952290556 ], [ 76.940516249653697, 15.691378521135071 ], [ 76.940559092778017, 15.691285519625152 ], [ 76.940648236580131, 15.691094966885554 ], [ 76.940888757083513, 15.690575509294504 ], [ 76.94131411422785, 15.689566453979003 ], [ 76.941490252104373, 15.689143576534576 ], [ 76.941503943137789, 15.689111828216063 ], [ 76.941514200723148, 15.689086887545487 ], [ 76.94151590675807, 15.689082354289908 ], [ 76.941551819908327, 15.688996191363845 ], [ 76.941572917051374, 15.688946304851573 ], [ 76.94165441600444, 15.688749043505828 ], [ 76.9417313689775, 15.688564247305044 ], [ 76.941973747636467, 15.687995072452061 ], [ 76.942055463761605, 15.687882523549455 ], [ 76.942139491050128, 15.687767695043188 ], [ 76.942233391777748, 15.687587266298504 ], [ 76.942282052039388, 15.687493083386169 ], [ 76.942853714982732, 15.686421733078399 ], [ 76.94322335645829, 15.68574863973536 ], [ 76.943281097536826, 15.685628395989642 ], [ 76.94330453728827, 15.685579618083779 ], [ 76.94336457787324, 15.685455966215875 ], [ 76.943412387837768, 15.685333552560316 ], [ 76.943585984645409, 15.684889234805448 ], [ 76.943592033061648, 15.684850777181595 ], [ 76.94359916174146, 15.684803273752578 ], [ 76.943601311584189, 15.684784053615443 ], [ 76.943632313017929, 15.684548835873764 ], [ 76.943642312550566, 15.684496789730209 ], [ 76.943647757580578, 15.684456078417735 ], [ 76.943669111479537, 15.684310179838002 ], [ 76.943694818482228, 15.684131485424594 ], [ 76.943786747437684, 15.683497004557845 ], [ 76.943789469479228, 15.683476649808881 ], [ 76.943805154576864, 15.683347743588419 ], [ 76.943823551006446, 15.683197353188122 ], [ 76.943895938872657, 15.683208005947298 ], [ 76.943934902906619, 15.683136498609823 ], [ 76.943960695322687, 15.683089959712463 ], [ 76.944158969743413, 15.682727878652738 ], [ 76.944223768704518, 15.682614350090356 ], [ 76.944591314503072, 15.681967253118053 ], [ 76.94491027335431, 15.681422245033575 ], [ 76.944938958481472, 15.681373420383874 ], [ 76.944987714470429, 15.68128940197867 ], [ 76.945039351908619, 15.68120196936766 ], [ 76.945451850585187, 15.680439260137444 ], [ 76.94565445298872, 15.67961177549217 ], [ 76.945715811393654, 15.679319813241223 ], [ 76.945728462971246, 15.679301627408565 ], [ 76.946032122789816, 15.678865189662385 ], [ 76.946255408002401, 15.678559360215651 ], [ 76.946270369680676, 15.678538896566042 ], [ 76.946274333114928, 15.678526435630483 ], [ 76.946364198827823, 15.678228572051536 ], [ 76.946411101666911, 15.678072279463692 ], [ 76.946416196901069, 15.67805642078716 ], [ 76.94649949580257, 15.677803795684833 ], [ 76.94660601768534, 15.677479802990115 ], [ 76.946638311093906, 15.677381247924957 ], [ 76.946681940173079, 15.677248705355986 ], [ 76.946777623139809, 15.676949659506951 ], [ 76.946792900781844, 15.676900953108598 ], [ 76.946838781638007, 15.676821479035366 ], [ 76.947069346039939, 15.676422963302354 ], [ 76.947203894181129, 15.676165363865136 ], [ 76.947230797346677, 15.676113166314353 ], [ 76.947275458557144, 15.676028055414497 ], [ 76.947609718956642, 15.676237429778771 ], [ 76.947894508340809, 15.676332034395976 ], [ 76.948183949401184, 15.676425465861699 ], [ 76.948476282776255, 15.676516613013506 ], [ 76.94877039813457, 15.676611133346823 ], [ 76.949065626826155, 15.676699994817559 ], [ 76.949300623165925, 15.676769060214687 ], [ 76.949364351198113, 15.676788823811183 ], [ 76.949419303727524, 15.676805277916207 ], [ 76.949708218163209, 15.676536136022969 ], [ 76.951176120066222, 15.675499702907338 ], [ 76.952443499508462, 15.674588168580524 ], [ 76.955584176002219, 15.673408011522804 ], [ 76.955869668958059, 15.673086936340953 ], [ 76.957522416414463, 15.672674566410027 ], [ 76.957848543970144, 15.672336181881834 ], [ 76.958092208359886, 15.671847179382933 ], [ 76.960161943343593, 15.669929931275956 ], [ 76.962307488626607, 15.667897907492941 ], [ 76.962328913715126, 15.667822038738375 ], [ 76.96255513270043, 15.667033867388106 ], [ 76.962638246700408, 15.666703303509843 ], [ 76.96301608478727, 15.665189752740062 ], [ 76.963305895527924, 15.663980830901224 ], [ 76.963783702992743, 15.66408497922864 ], [ 76.96490560109261, 15.664309852537567 ], [ 76.96491786252875, 15.664312001523134 ], [ 76.96494881834289, 15.664318500786475 ], [ 76.964979191317582, 15.664325006179904 ], [ 76.965003131342868, 15.664329309372921 ], [ 76.965248230521979, 15.664358734915549 ], [ 76.965504457894951, 15.664393708748664 ], [ 76.965733831037227, 15.664424406234232 ], [ 76.967250159972849, 15.664628781611126 ], [ 76.967277014299583, 15.664633058359104 ], [ 76.967286350704626, 15.664634103977239 ], [ 76.967366309225227, 15.664644681505397 ], [ 76.967438712312642, 15.664657584120835 ], [ 76.967451524192015, 15.664656339472028 ], [ 76.967633621965589, 15.664680681759 ], [ 76.968485761343004, 15.6647961393282 ], [ 76.968509107774508, 15.664799317044155 ], [ 76.968521930466693, 15.664799201748021 ], [ 76.968878753437309, 15.664808418591129 ], [ 76.968930064904626, 15.664810216154304 ], [ 76.968997697081662, 15.664811866017454 ], [ 76.969011102620343, 15.664811745450567 ], [ 76.969388357067174, 15.664763171663527 ], [ 76.969448325606152, 15.664755856035358 ], [ 76.969459378085446, 15.664753496680763 ], [ 76.969494964355818, 15.66475656508568 ], [ 76.969648373683157, 15.664767609592253 ], [ 76.969670543608629, 15.664769670062284 ], [ 76.970063687027306, 15.664797758094945 ], [ 76.970595797622607, 15.664850574268531 ], [ 76.970617955783879, 15.664851504331102 ], [ 76.970652365537575, 15.664853453622323 ], [ 76.971485215479504, 15.664902430808484 ], [ 76.971863183268638, 15.664928394091207 ], [ 76.972100413563183, 15.664927386754433 ], [ 76.973211572286985, 15.664943353323808 ], [ 76.973611503853974, 15.664949913919745 ], [ 76.974655949071675, 15.664999230297244 ], [ 76.975467500396562, 15.665015628493544 ], [ 76.975823288197105, 15.665038396464617 ], [ 76.976053483109723, 15.665093923743051 ], [ 76.977299625071609, 15.665447503286076 ], [ 76.977330009265756, 15.665455136309443 ], [ 76.977446094834619, 15.665464253338669 ], [ 76.978252880619721, 15.665530381427077 ], [ 76.978364884409288, 15.665539534844088 ], [ 76.978368382440152, 15.665539504136031 ], [ 76.978391135259784, 15.665541556628245 ], [ 76.978399305075982, 15.665542612303696 ], [ 76.979229339715971, 15.665601750480317 ], [ 76.979256334817777, 15.665741565227046 ], [ 76.979400362737124, 15.665747040039088 ], [ 76.979454579457567, 15.665747679320976 ], [ 76.980225170248715, 15.665747487266493 ], [ 76.980343002603377, 15.665756586924537 ], [ 76.980427580894158, 15.66576259883667 ], [ 76.981308993808895, 15.665830300196044 ], [ 76.981712112070824, 15.665865054540101 ], [ 76.981969387665202, 15.665887574522973 ], [ 76.982408686155679, 15.665926518010302 ], [ 76.982968819487567, 15.66598356765175 ], [ 76.98311223276221, 15.665985657043322 ], [ 76.983584998613452, 15.665989280315989 ], [ 76.984327105331431, 15.665997238318749 ], [ 76.984358600906063, 15.665999211832716 ], [ 76.984537644134519, 15.666008883835078 ], [ 76.984781427053463, 15.66602248674519 ], [ 76.985314782316834, 15.666083161567153 ], [ 76.985657912159922, 15.666122970546425 ], [ 76.985858067970625, 15.66614600397472 ], [ 76.985942679999013, 15.66615540191926 ], [ 76.986920987359014, 15.666236884745789 ], [ 76.987374253735567, 15.666273432285935 ], [ 76.988035241305013, 15.666331812056544 ], [ 76.988440130569032, 15.666368796678782 ], [ 76.988678755457386, 15.666391478027295 ], [ 76.988802439262045, 15.666402778887301 ], [ 76.990056128602347, 15.666450119355893 ], [ 76.990072448310102, 15.666449970994446 ], [ 76.990774537708091, 15.666418738198136 ], [ 76.991470521781139, 15.666419184691057 ], [ 76.991484510079133, 15.666419056530557 ], [ 76.99202409317779, 15.666400593970396 ], [ 76.992347495948266, 15.666389744316254 ], [ 76.992452970051175, 15.666386525337215 ], [ 76.993401770267269, 15.666550700683656 ], [ 76.993421015134942, 15.666551654932377 ], [ 76.994312260920026, 15.666611306085773 ], [ 76.994372338808475, 15.666615277635161 ], [ 76.994779504889749, 15.666646582097185 ], [ 76.995639244825782, 15.666643263931986 ], [ 76.996540763533787, 15.666620359904684 ], [ 76.996668967454042, 15.666616931573342 ], [ 76.99772579651794, 15.666620843398093 ], [ 76.997925129310389, 15.666619024185314 ], [ 76.998724186780507, 15.666609470767344 ], [ 76.998762643503071, 15.666607990135525 ], [ 76.999744515595694, 15.666576432779518 ], [ 77.000227352070169, 15.666537007092504 ], [ 77.001195389368405, 15.666461519443148 ], [ 77.001497234956844, 15.666451982852472 ], [ 77.0025641883106, 15.666418505527302 ], [ 77.003160370336332, 15.666466136942347 ], [ 77.004590105344406, 15.666515171059283 ], [ 77.005716639220566, 15.666554549656201 ], [ 77.006505223450077, 15.666547322790118 ], [ 77.00698940990506, 15.666527071264762 ], [ 77.007401599715891, 15.666535716160896 ], [ 77.007406262441947, 15.666535673402491 ], [ 77.007462215153481, 15.666535160293893 ], [ 77.007473883001609, 15.666536182783096 ], [ 77.00770175070906, 15.666531834006358 ], [ 77.00771457320306, 15.666531716402957 ], [ 77.00771439958362, 15.666573509112911 ], [ 77.007714047542194, 15.666597231624619 ], [ 77.00773980040691, 15.667801031328949 ], [ 77.007740990226793, 15.667863142339675 ], [ 77.00770519180864, 15.668733177621821 ], [ 77.007701455159093, 15.668828089012823 ], [ 77.007687071917118, 15.669145606582099 ], [ 77.007618282102527, 15.670636035023213 ], [ 77.007610062326094, 15.670808922296763 ], [ 77.007604819979193, 15.670928696257061 ], [ 77.007602919969415, 15.670972764674344 ], [ 77.007563412437165, 15.671463325463362 ], [ 77.007561125160152, 15.671467863499515 ], [ 77.007481764876388, 15.671638014904701 ], [ 77.007467491502069, 15.671668642050559 ], [ 77.007424660319174, 15.67175939409692 ], [ 77.007408099655166, 15.671794560179476 ], [ 77.007333316420144, 15.672373544724413 ], [ 77.007303532880229, 15.672606492737458 ], [ 77.007265381683951, 15.672877920143824 ], [ 77.007195709230999, 15.673383441890648 ], [ 77.007189188558286, 15.673432068842803 ], [ 77.00717987686248, 15.673493146683148 ], [ 77.007121384713031, 15.673890133986662 ], [ 77.007118108282583, 15.673912753827864 ], [ 77.007113182599113, 15.673945554201532 ], [ 77.007074909712131, 15.674204558332974 ], [ 77.007068905658258, 15.674246404512877 ], [ 77.007067257335351, 15.674256585036744 ], [ 77.007026235616948, 15.674532556720775 ], [ 77.007018583225744, 15.674584583424263 ], [ 77.007008742848171, 15.674651312655438 ], [ 77.007008806437113, 15.674896412162649 ], [ 77.007004535272216, 15.675711942612439 ], [ 77.00699837121455, 15.676810991256794 ], [ 77.007020064525506, 15.679030240035063 ], [ 77.007002180725308, 15.679884296840195 ], [ 77.006999492649641, 15.680026637103026 ], [ 77.006938520998801, 15.682018485324758 ], [ 77.006918333576991, 15.682696363794154 ], [ 77.006914885149882, 15.682820639192906 ], [ 77.00690274222093, 15.683367423130365 ], [ 77.006876579795048, 15.684507317204355 ], [ 77.006873441593498, 15.684663214518608 ], [ 77.006573887938885, 15.687652332103873 ], [ 77.006587924184984, 15.68771658412523 ], [ 77.006784933715096, 15.687713646464463 ], [ 77.007215102663181, 15.68770856822773 ], [ 77.007648769821472, 15.687703457023073 ], [ 77.008122151457584, 15.687705886611182 ], [ 77.00815339981348, 15.687741743203 ], [ 77.008463239683834, 15.68777165229023 ], [ 77.00889906631356, 15.687808309772999 ], [ 77.009335473094112, 15.687844961036681 ], [ 77.009771297963724, 15.687881617663377 ], [ 77.010207761094932, 15.687923914062036 ], [ 77.01036408998057, 15.687933770625555 ], [ 77.01064408042123, 15.68795152666919 ], [ 77.011083985721157, 15.687988142195525 ], [ 77.011415383048927, 15.688016719223944 ], [ 77.012344492562562, 15.68800478107886 ], [ 77.013451957638523, 15.68799006706398 ], [ 77.014322047956824, 15.687963980747202 ], [ 77.014563907632009, 15.687957234382127 ], [ 77.014746432623269, 15.687963458853753 ], [ 77.014786662805108, 15.687964217607524 ], [ 77.01479772679464, 15.687962986165671 ], [ 77.014907223994328, 15.687952941214874 ], [ 77.014971287420281, 15.687946704292902 ], [ 77.015067959887404, 15.68793677745742 ], [ 77.015134354874576, 15.68793051719245 ], [ 77.015189685881566, 15.687925489273017 ], [ 77.015300919688414, 15.687914298639139 ], [ 77.015376057206709, 15.687907958620155 ], [ 77.015667835106029, 15.68787929071496 ], [ 77.016032529693149, 15.687855597493375 ], [ 77.016223026401931, 15.68784254602248 ], [ 77.01718030568334, 15.687790795751871 ], [ 77.017562508753358, 15.687769197436188 ], [ 77.017592225413182, 15.687767793729611 ], [ 77.017723883408166, 15.687758673274979 ], [ 77.01935614829523, 15.687640819933433 ], [ 77.020086039139201, 15.68758550974745 ], [ 77.020203123381052, 15.687576521569708 ], [ 77.020376132239036, 15.687563628115033 ], [ 77.02097962280213, 15.687518518822653 ], [ 77.021336804141541, 15.687501663197699 ], [ 77.021346128099381, 15.687382981633505 ], [ 77.021365751745094, 15.687126409232652 ], [ 77.022714201765538, 15.687076664974333 ], [ 77.023122697792033, 15.687061590757841 ], [ 77.023757145492198, 15.687022964430668 ], [ 77.023796166848712, 15.687019215719376 ], [ 77.024234191280229, 15.68698353461826 ], [ 77.024343113290968, 15.686974619841958 ], [ 77.024367595723547, 15.686974394072845 ], [ 77.024967302970495, 15.686959804955915 ], [ 77.025146799442865, 15.686954754065134 ], [ 77.025748837867397, 15.686940140317335 ], [ 77.025887510426401, 15.686933208998278 ], [ 77.0259784081112, 15.686928977425522 ], [ 77.026484625895279, 15.686951393669176 ], [ 77.028061068369212, 15.686908541025659 ], [ 77.028585580954257, 15.686894638566645 ], [ 77.028608896598428, 15.686894423148599 ], [ 77.029396920170512, 15.686882591632342 ], [ 77.030800843171932, 15.686902311201083 ], [ 77.032660631333101, 15.686981034683004 ], [ 77.034769712957115, 15.687098083279409 ], [ 77.035055519063675, 15.687114625207052 ], [ 77.036484818529971, 15.68722442852221 ], [ 77.0371075229409, 15.687119234237393 ], [ 77.037150005590931, 15.68711206159972 ], [ 77.037248940571487, 15.687095327195793 ], [ 77.037627805506531, 15.687031934823629 ], [ 77.037681342414501, 15.687022400127702 ], [ 77.037767004818932, 15.687078075262137 ], [ 77.037788717478747, 15.68709255600594 ], [ 77.037797516878001, 15.687098121343169 ], [ 77.037833308583473, 15.687121506620469 ], [ 77.037922502045092, 15.6871805371827 ], [ 77.03823197125044, 15.687349331832051 ], [ 77.038292346269117, 15.687382653073879 ], [ 77.038319887882167, 15.68739707941576 ], [ 77.03837263956359, 15.687425953824764 ], [ 77.039180859977094, 15.687452301368285 ], [ 77.039485250348548, 15.687461886353772 ], [ 77.040074339121077, 15.687493662936875 ], [ 77.040584681798933, 15.687520525534019 ], [ 77.040606842785508, 15.687521448168781 ], [ 77.040882885909198, 15.687552755647038 ], [ 77.041149591626848, 15.687583020471269 ], [ 77.041523682732333, 15.687625836788287 ], [ 77.042247811225735, 15.687695876881131 ], [ 77.042631173452364, 15.6877329564129 ], [ 77.042646922675246, 15.687733938739695 ], [ 77.042767715438828, 15.687746363774199 ], [ 77.043800552008662, 15.687849657864973 ], [ 77.044458745012861, 15.687854798701112 ], [ 77.045830821673576, 15.687954910486246 ], [ 77.046733892978693, 15.688139596608099 ], [ 77.047155996878416, 15.688203412456071 ], [ 77.047331144941197, 15.688230008965677 ], [ 77.047380768359019, 15.68823745051241 ], [ 77.048801785265411, 15.688451160624956 ], [ 77.048875387029497, 15.688466283351573 ], [ 77.050054685064453, 15.68870032154217 ], [ 77.050409130178807, 15.688760247443593 ], [ 77.050670155275824, 15.688805236582791 ], [ 77.050727963737145, 15.688814859486863 ], [ 77.05144327675329, 15.688935777607746 ], [ 77.052532299712098, 15.689177425642933 ], [ 77.052699871219403, 15.689204088806889 ], [ 77.052726728361591, 15.689208354471612 ], [ 77.052779267436492, 15.689215767365313 ], [ 77.054172256279941, 15.68942405700207 ], [ 77.054306478997091, 15.689438608186336 ], [ 77.054797265190146, 15.689491598136117 ], [ 77.05481594025035, 15.689493681521633 ], [ 77.055028428461711, 15.68952330901859 ], [ 77.055067548946099, 15.689529718023135 ], [ 77.056143455472821, 15.689683372746254 ], [ 77.056531665110597, 15.689738452902661 ], [ 77.056581288968189, 15.689745892274837 ], [ 77.056636125786852, 15.689749893314595 ], [ 77.05665245800229, 15.689750870024735 ], [ 77.056808202512741, 15.689760699317775 ], [ 77.057197843912434, 15.689784139962811 ], [ 77.057222886407786, 15.689781645384977 ], [ 77.057298627020671, 15.689777544237828 ], [ 77.057335910172569, 15.6897749344514 ], [ 77.057292049356519, 15.68947039272161 ], [ 77.057288291574267, 15.689444451459321 ], [ 77.057359080077475, 15.689237094511164 ], [ 77.05744175799893, 15.688994612469859 ], [ 77.057656278913782, 15.688296848478664 ], [ 77.057905143260626, 15.687826909766699 ], [ 77.058374089244495, 15.686923448132829 ], [ 77.058451638920872, 15.686751039628815 ], [ 77.058813678286512, 15.685941199398645 ], [ 77.058822114583236, 15.685910623717051 ], [ 77.059025010226051, 15.685158753696292 ], [ 77.05922271315967, 15.683889641158549 ], [ 77.059558037396172, 15.682393341188837 ], [ 77.059964582019305, 15.681430603419013 ], [ 77.060543009603151, 15.680750869109081 ], [ 77.060570431513682, 15.680695268300131 ], [ 77.060606414936387, 15.680621513718215 ], [ 77.060631550706802, 15.680570451365361 ], [ 77.061146265677721, 15.679525373197079 ], [ 77.061583615060954, 15.678787104256919 ], [ 77.061594507879207, 15.678768930298345 ], [ 77.061812645364952, 15.678607621029355 ], [ 77.062324326376441, 15.678248148469272 ], [ 77.062609708750117, 15.677933728955155 ], [ 77.062528966214074, 15.677323452929018 ], [ 77.06247613147157, 15.67688007495018 ], [ 77.062442393269194, 15.676596900519336 ], [ 77.06271537945149, 15.676499451639785 ], [ 77.063022238355074, 15.676582397714355 ], [ 77.063712205962275, 15.676737401411499 ], [ 77.063918081007429, 15.676168473786225 ], [ 77.063939068396152, 15.676110673591795 ], [ 77.064015629152934, 15.675898743244888 ], [ 77.064022408571702, 15.675877219643555 ], [ 77.064033141185902, 15.675843234742995 ], [ 77.064038228809736, 15.675827373473124 ], [ 77.064064222454391, 15.675745808393614 ], [ 77.064182347002287, 15.675377620215395 ], [ 77.064197036493127, 15.675331174879885 ], [ 77.064220205684151, 15.675258671175381 ], [ 77.064231511603026, 15.675223551406823 ], [ 77.064238860612676, 15.675200892973811 ], [ 77.064660651814279, 15.674598302113553 ], [ 77.064719476369504, 15.674535627010728 ], [ 77.064726973844358, 15.674527650077488 ], [ 77.064747168958135, 15.674507129319485 ], [ 77.064903295923358, 15.674440147572286 ], [ 77.064920129285511, 15.674433211981102 ], [ 77.064965969424705, 15.67441244917973 ], [ 77.06503851808759, 15.674381269206046 ], [ 77.065367226399914, 15.674260703366508 ], [ 77.065438070908328, 15.67423405717542 ], [ 77.065453800792653, 15.674175177071188 ], [ 77.065496210977727, 15.674161223273442 ], [ 77.065579285601956, 15.674133332135582 ], [ 77.065731580103915, 15.674091234023996 ], [ 77.065851039776533, 15.674087847261429 ], [ 77.066015961022856, 15.674084031175738 ], [ 77.066055537393851, 15.674078010210106 ], [ 77.066177192052777, 15.674061049099409 ], [ 77.066443186612474, 15.674022394623082 ], [ 77.066569412991782, 15.673996354496442 ], [ 77.066592098310721, 15.673991622422761 ], [ 77.066616532149354, 15.673986873832039 ], [ 77.066628727272345, 15.673982240834606 ], [ 77.066891169972138, 15.67388036999434 ], [ 77.06691631982487, 15.673946770167243 ], [ 77.066948062794637, 15.67403117930548 ], [ 77.067395415835961, 15.675216265958358 ], [ 77.06773253169483, 15.676046616269076 ], [ 77.06810708941282, 15.676890165179449 ], [ 77.068332843656648, 15.677427909948895 ], [ 77.068345972570825, 15.677458281025372 ], [ 77.068360897417904, 15.677493153832195 ], [ 77.068366370592656, 15.677515691125869 ], [ 77.068405825795693, 15.677671181558093 ], [ 77.068494073444398, 15.677983206247495 ], [ 77.068524902469662, 15.67809247066943 ], [ 77.068527930503478, 15.678103736555913 ], [ 77.068825367539318, 15.679160350409068 ], [ 77.06883986721121, 15.679211037693022 ], [ 77.068856813988319, 15.679272997249999 ], [ 77.068870103398524, 15.679319179977172 ], [ 77.069701966592646, 15.680075947939056 ], [ 77.069860213397149, 15.680219020204239 ], [ 77.070650458763055, 15.680720922649847 ], [ 77.070998360777864, 15.680942389331602 ], [ 77.071949346877375, 15.681314007047151 ], [ 77.071960375022812, 15.681366985798642 ], [ 77.072202986253018, 15.682533668280247 ], [ 77.072224492386141, 15.682643021084639 ], [ 77.072266236398619, 15.682851573651018 ], [ 77.072385819385161, 15.683148615064621 ], [ 77.07250718556206, 15.683449026911235 ], [ 77.072902976986398, 15.68442902636219 ], [ 77.073287867298035, 15.685598875285896 ], [ 77.073430879985565, 15.686022190857013 ], [ 77.073659847203572, 15.686702207040662 ], [ 77.073735754510736, 15.686945446971919 ], [ 77.074072337969525, 15.687718184936077 ], [ 77.074238842174424, 15.688100617492529 ], [ 77.074396489155035, 15.688529441227125 ], [ 77.074441346886999, 15.688641960328683 ], [ 77.074548331945792, 15.688845375109013 ], [ 77.074573303914249, 15.688893704372521 ], [ 77.074623830769752, 15.688990357354696 ], [ 77.074644631258408, 15.689029690614294 ], [ 77.074715970116898, 15.689166805255073 ], [ 77.074720130221706, 15.689174671904505 ], [ 77.075315742261168, 15.689217585654225 ], [ 77.075410944978373, 15.689466289592447 ], [ 77.075616723404934, 15.689927408999013 ], [ 77.075899946167425, 15.690552691826637 ], [ 77.07655513303888, 15.691643160810331 ], [ 77.076697438237346, 15.691880120997178 ], [ 77.077031138463212, 15.692423601917042 ], [ 77.077545584259823, 15.693200289614657 ], [ 77.077882032021563, 15.693726801799468 ], [ 77.078334251561046, 15.694460028310729 ], [ 77.078348481349863, 15.694483611322196 ], [ 77.078581485566943, 15.694868795666077 ], [ 77.078640770907057, 15.694966493437919 ], [ 77.07866378905689, 15.694994510606733 ], [ 77.078713381839705, 15.6950561574236 ], [ 77.079030987630901, 15.695448441576701 ], [ 77.079450740500576, 15.695968509727784 ], [ 77.079613692301606, 15.696171388349928 ], [ 77.080203670528348, 15.696863768860702 ], [ 77.080853510890236, 15.697595107727594 ], [ 77.081380268845308, 15.698260979498338 ], [ 77.08174101996039, 15.69871044901665 ], [ 77.081829993175432, 15.698860946510413 ], [ 77.081910072003851, 15.698996845958526 ], [ 77.082644958229324, 15.698744753500462 ], [ 77.082672907505327, 15.698856300887272 ], [ 77.082688111075299, 15.698918276146355 ], [ 77.082786008505849, 15.699316034834842 ], [ 77.08296015705038, 15.699816975964289 ], [ 77.08340885542404, 15.700831454204518 ], [ 77.084193122639007, 15.702339682446871 ], [ 77.084222853972463, 15.702397000228894 ], [ 77.084626882069188, 15.703087750516593 ], [ 77.084989496455947, 15.70389070953744 ], [ 77.085160325175991, 15.704293418154347 ], [ 77.08534122517591, 15.704941118707504 ], [ 77.085396589104718, 15.705111135425913 ], [ 77.085684166416598, 15.70598709207791 ], [ 77.085820632423548, 15.70644998907985 ], [ 77.085990556944807, 15.707164429337686 ], [ 77.086162281204111, 15.707940973018848 ], [ 77.08622948750947, 15.708300622738253 ], [ 77.086466810642619, 15.709221106347256 ], [ 77.086676912775346, 15.710216391531047 ], [ 77.086880159609777, 15.711053621352093 ], [ 77.086970343144813, 15.711379165942132 ], [ 77.087339410544629, 15.71252653455484 ], [ 77.08771439934246, 15.713625279558 ], [ 77.088059303474239, 15.714803372612025 ], [ 77.086062829181131, 15.715006558921358 ], [ 77.085092873020201, 15.715080204000355 ], [ 77.084647798775521, 15.715113820277702 ], [ 77.08348629113577, 15.715213005770758 ], [ 77.083447839332322, 15.715215631655271 ], [ 77.081864075867855, 15.715528914372678 ], [ 77.081656374978138, 15.715571555959643 ], [ 77.081036849664571, 15.715707348859718 ], [ 77.080547035252124, 15.715813666851936 ], [ 77.079441452775697, 15.71602411402433 ], [ 77.079181536845496, 15.71609209670326 ], [ 77.079378425497239, 15.717453457461104 ], [ 77.079389127071309, 15.717531286987892 ], [ 77.07944578893661, 15.71823100100263 ], [ 77.079511506668439, 15.719018725073344 ], [ 77.079561875054281, 15.719787394780843 ], [ 77.079567821442467, 15.719856234044572 ], [ 77.079631366481863, 15.72054458773489 ], [ 77.079770351955005, 15.722058973243126 ], [ 77.079797419564358, 15.722370440086548 ], [ 77.079902962605004, 15.723576807343932 ], [ 77.07997532976546, 15.724673934836567 ], [ 77.079985611378746, 15.724825181873785 ], [ 77.080029690889035, 15.725146651316786 ], [ 77.080105461613641, 15.726119506676822 ], [ 77.080116132316491, 15.726251549472765 ], [ 77.080177845606599, 15.726988485632431 ], [ 77.080223262970861, 15.727556161038258 ], [ 77.079522204196095, 15.72758995116229 ], [ 77.079378263561594, 15.727596971437432 ], [ 77.078260505076614, 15.727648283550405 ], [ 77.077874488175041, 15.727701656400628 ], [ 77.076798991046999, 15.727838395260751 ], [ 77.076398432716971, 15.727895293253193 ], [ 77.076286647605698, 15.727911040066084 ], [ 77.075764404258194, 15.727984906454536 ], [ 77.075734134577857, 15.727989712276141 ], [ 77.074740664158341, 15.728166321575538 ], [ 77.074279199086092, 15.728254288293378 ], [ 77.073755457288286, 15.728353012964602 ], [ 77.073329529845992, 15.728438381006432 ], [ 77.072717068517164, 15.728470179877043 ], [ 77.071677088898213, 15.728545567593276 ], [ 77.071506922438019, 15.728553960393951 ], [ 77.070619982987751, 15.728599653528024 ], [ 77.069776172842879, 15.728643803489948 ], [ 77.069201362980138, 15.728651516930279 ], [ 77.068855669875489, 15.728657054036345 ], [ 77.067937578163551, 15.728678183977719 ], [ 77.067067131467255, 15.728740649048765 ], [ 77.066388831181897, 15.728777570235517 ], [ 77.066335801348544, 15.728780332412468 ], [ 77.066265864612788, 15.728783253833159 ], [ 77.065767798740936, 15.728942705976044 ], [ 77.065716072567156, 15.728959008146623 ], [ 77.065476034860566, 15.729034694610963 ], [ 77.063852065666694, 15.729422786267072 ], [ 77.063821818067723, 15.729429849177762 ], [ 77.063756658869806, 15.729444019117379 ], [ 77.063258200631822, 15.72956506739412 ], [ 77.062817770765406, 15.729600857879934 ], [ 77.061858229808678, 15.72967543894098 ], [ 77.061421115999863, 15.729693124983221 ], [ 77.061353511617128, 15.729696022823951 ], [ 77.060922799216627, 15.729712517019971 ], [ 77.060676280833732, 15.729723881850157 ], [ 77.06009290143119, 15.729749722911022 ], [ 77.06003579004863, 15.72975252123773 ], [ 77.059128443196812, 15.72979948969903 ], [ 77.058358808953599, 15.729857580626954 ], [ 77.057470547996232, 15.729947282307148 ], [ 77.057451903263569, 15.729948587641498 ], [ 77.057334777400925, 15.729955338848916 ], [ 77.057258449446707, 15.729960576628423 ], [ 77.056551058370715, 15.730004520725576 ], [ 77.055620501080057, 15.730062989082942 ], [ 77.054785496871432, 15.73011490514846 ], [ 77.054099823199493, 15.730173318819133 ], [ 77.053894752000701, 15.730189933904901 ], [ 77.052988350203179, 15.730215409465245 ], [ 77.052610540146205, 15.730216707401437 ], [ 77.052566701451724, 15.730205825398675 ], [ 77.052513512008773, 15.730192771565964 ], [ 77.052449222813266, 15.730177563258401 ], [ 77.052399531431405, 15.730164478285264 ], [ 77.052034570088537, 15.730167911410852 ], [ 77.051088227492684, 15.730164388947058 ], [ 77.050600857255859, 15.730171230604558 ], [ 77.050518082671118, 15.730173139187515 ], [ 77.050165504752655, 15.730132403881608 ], [ 77.049267766731973, 15.730033542947064 ], [ 77.049263996253103, 15.730122804731334 ], [ 77.049268957688852, 15.73044352537068 ], [ 77.049253406914104, 15.730695540834178 ], [ 77.049228136380535, 15.731083183599718 ], [ 77.049179137285705, 15.731546721258161 ], [ 77.049142744244079, 15.731929950688933 ], [ 77.049090355762829, 15.732346082913409 ], [ 77.049052133474248, 15.732837756676703 ], [ 77.048999765575076, 15.733256148522871 ], [ 77.049008742263752, 15.733337385214854 ], [ 77.04911792452134, 15.734341577575487 ], [ 77.049267322597785, 15.735576930714057 ], [ 77.049360762500598, 15.736289869303315 ], [ 77.049467317781378, 15.736973319440615 ], [ 77.049561487036058, 15.738166273273208 ], [ 77.049651312550608, 15.739972560606734 ], [ 77.049652194617551, 15.740176984187627 ], [ 77.048727330877909, 15.740285070955514 ], [ 77.047964024155718, 15.740397284286987 ], [ 77.04790666587094, 15.741074368133823 ], [ 77.047873846529399, 15.741581803497599 ], [ 77.04784825521017, 15.742403160479494 ], [ 77.047852123248489, 15.742789399023174 ], [ 77.047855575491525, 15.743017516340476 ], [ 77.047847838578818, 15.743525846345172 ], [ 77.047848831988745, 15.744090566324012 ], [ 77.047845974703534, 15.74462030924659 ], [ 77.047852613804437, 15.744759170260071 ], [ 77.047852727872609, 15.744770462869974 ], [ 77.047852941914229, 15.744791920570805 ], [ 77.047855421428096, 15.744922914459814 ], [ 77.047855329541207, 15.74514654901224 ], [ 77.047851728059698, 15.745369086179734 ], [ 77.047853304883716, 15.745817466371459 ], [ 77.047850766523027, 15.746262496845166 ], [ 77.047856368971637, 15.746588857667549 ], [ 77.04785796933426, 15.746923162300359 ], [ 77.04785775863877, 15.747193105724499 ], [ 77.047855389962308, 15.747538741323018 ], [ 77.047848347510225, 15.747650623882166 ], [ 77.047839544072801, 15.747877727735347 ], [ 77.047830169839415, 15.748105966409215 ], [ 77.047824863845577, 15.748333037385807 ], [ 77.047819537103436, 15.748557849638019 ], [ 77.047809556285259, 15.748783835089389 ], [ 77.047794739945303, 15.749341925788093 ], [ 77.047783501581307, 15.749558888289851 ], [ 77.047761944783318, 15.74996795475551 ], [ 77.04775037328929, 15.750209767558413 ], [ 77.047740549705679, 15.750567898112381 ], [ 77.047725775056264, 15.750839106927627 ], [ 77.047688520201348, 15.751136504584505 ], [ 77.047684334922948, 15.751475380436313 ], [ 77.04768647509205, 15.751688828788943 ], [ 77.047674564103033, 15.751896761026282 ], [ 77.047669808416458, 15.752120438413069 ], [ 77.047665114347836, 15.752641161756069 ], [ 77.047684666020629, 15.753195543599077 ], [ 77.047709680865381, 15.753654996876294 ], [ 77.047748190724235, 15.754064628912856 ], [ 77.047777933902168, 15.754472082613628 ], [ 77.047823628921449, 15.754842115101088 ], [ 77.047877187214965, 15.75512397592181 ], [ 77.047882717045596, 15.755152160365828 ], [ 77.04788453514773, 15.755158920016106 ], [ 77.047944479279863, 15.755496064167435 ], [ 77.047978603887458, 15.755758906876137 ], [ 77.048033963310374, 15.756220334377673 ], [ 77.048074677070431, 15.756209786383767 ], [ 77.048160264482732, 15.756196557453588 ], [ 77.048195776732669, 15.756190576185473 ], [ 77.048295324088741, 15.756173827541764 ], [ 77.050497338851216, 15.755950933380891 ], [ 77.051226170923684, 15.75588420981345 ], [ 77.051569993718374, 15.755861769593773 ], [ 77.052123832131684, 15.755789913835873 ], [ 77.052832292019446, 15.755669163142771 ], [ 77.053431626817712, 15.755656735482862 ], [ 77.054229023822501, 15.755855905756047 ], [ 77.054554480645123, 15.756616346229313 ], [ 77.054853795668009, 15.757502401878666 ], [ 77.054980044407387, 15.758168717297028 ], [ 77.055190818158749, 15.759005910681664 ], [ 77.055216481913533, 15.759064400903295 ], [ 77.055285745353146, 15.759225258885508 ], [ 77.055322178463854, 15.759310753396559 ], [ 77.055708178846572, 15.760581131838943 ], [ 77.05595335954861, 15.761475601807151 ], [ 77.056207898177391, 15.76231464057552 ], [ 77.054538993076562, 15.762785565389786 ], [ 77.054125490177, 15.762896766361358 ], [ 77.052334849274104, 15.76344110898674 ], [ 77.050904311639442, 15.764015930054445 ], [ 77.050794798288976, 15.764085858552519 ], [ 77.050806148593992, 15.76411285854183 ], [ 77.050981014918335, 15.764801307979081 ], [ 77.0511410964166, 15.765527167531404 ], [ 77.051299155798972, 15.76610960693951 ], [ 77.051419518676511, 15.766074588931762 ], [ 77.0516608371979, 15.76728195990815 ], [ 77.052052917394747, 15.768751071440667 ], [ 77.052242541749365, 15.769630257215024 ], [ 77.052248668224607, 15.769659565233219 ], [ 77.052259709514956, 15.769713674880631 ], [ 77.05368059186074, 15.76939305918887 ], [ 77.054034573151085, 15.769276773103337 ], [ 77.055454764860215, 15.768888385845891 ], [ 77.056862753040974, 15.768504623928644 ], [ 77.057315056068106, 15.770332316580951 ], [ 77.057743940647043, 15.771860925241581 ], [ 77.057762217966243, 15.771996286400523 ], [ 77.058030470074371, 15.773729713707283 ], [ 77.058254517023727, 15.77535851848339 ], [ 77.058359685463955, 15.776071337240412 ], [ 77.058566908210977, 15.77736146530054 ], [ 77.058815753020454, 15.779134603761056 ], [ 77.059005492044719, 15.780309693089434 ], [ 77.059169541413311, 15.781077294288004 ], [ 77.059411801132541, 15.781042245395145 ], [ 77.059659879944761, 15.781929902006009 ], [ 77.059870222144667, 15.782603319515232 ], [ 77.059907725186491, 15.782678637263006 ], [ 77.060193863337616, 15.78358061495871 ], [ 77.060403059853925, 15.784601911216564 ], [ 77.060304237367774, 15.78619198002856 ], [ 77.060298404741559, 15.786249638014876 ], [ 77.060949478122836, 15.786154239902681 ], [ 77.062759246823433, 15.785928129201341 ], [ 77.062865576632234, 15.785888719194624 ], [ 77.063893540509454, 15.785518671174449 ], [ 77.064089332288617, 15.785444527107375 ], [ 77.065780556249067, 15.784974428284256 ], [ 77.066314121038772, 15.784909497658475 ], [ 77.066443226505555, 15.785793754432815 ], [ 77.066689561393531, 15.787540920674507 ], [ 77.066889800570578, 15.788767850118276 ], [ 77.067164030914824, 15.79027417803114 ], [ 77.067410855063486, 15.791665564347419 ], [ 77.067422668726962, 15.791737736287415 ], [ 77.067522541628989, 15.792326354231236 ], [ 77.067593197807355, 15.792852003043713 ], [ 77.06761191055034, 15.793086748086202 ], [ 77.067672635848055, 15.793840638570474 ], [ 77.067714522598109, 15.79434735859421 ], [ 77.067763721670232, 15.795057309433407 ], [ 77.067807143942559, 15.795657759300749 ], [ 77.067823251194881, 15.795923024843466 ], [ 77.067763678970891, 15.796547043621215 ], [ 77.067739797017879, 15.796779935897179 ], [ 77.067638767769836, 15.797227026830408 ], [ 77.067534067080814, 15.797657210156299 ], [ 77.06742989195439, 15.798081743062326 ], [ 77.067335619340653, 15.798505051378509 ], [ 77.067215333282562, 15.799008798485529 ], [ 77.067075955794181, 15.799757814312363 ], [ 77.067030066145648, 15.800236004875273 ], [ 77.066966196167911, 15.800551726886759 ], [ 77.066939951789465, 15.801011659448386 ], [ 77.06690310800029, 15.801519129416015 ], [ 77.066872680861536, 15.802084139853127 ], [ 77.065662794885029, 15.802179227733701 ], [ 77.065005602624169, 15.802250984221208 ], [ 77.064483690746741, 15.802319194152746 ], [ 77.064246461982819, 15.802335001176147 ], [ 77.063844038604373, 15.802337696651399 ], [ 77.063851174090445, 15.802408783801727 ], [ 77.064124809906644, 15.80402806434892 ], [ 77.0642252511132, 15.805190436252278 ], [ 77.064335841657325, 15.806490504341644 ], [ 77.064315060505237, 15.807144649351844 ], [ 77.064288323132146, 15.807786426188425 ], [ 77.064294040226756, 15.808522768567853 ], [ 77.0643550181655, 15.809301504329497 ], [ 77.064370788239216, 15.809361214854857 ], [ 77.064436962284702, 15.809674570728466 ], [ 77.064599331123659, 15.810443306598572 ], [ 77.06471609050682, 15.811028375931038 ], [ 77.06477605664665, 15.811362121445221 ], [ 77.064943142143122, 15.812250531761414 ], [ 77.064984979648997, 15.812464728691644 ], [ 77.065003578216519, 15.812630578848061 ], [ 77.065024681704273, 15.81281334770215 ], [ 77.065029783123137, 15.812856217968889 ], [ 77.065036555325335, 15.812948768690919 ], [ 77.065060818415233, 15.813270429732007 ], [ 77.065136265304574, 15.813864926932931 ], [ 77.065143195825911, 15.813915685878923 ], [ 77.065150940722475, 15.813989026815593 ], [ 77.06530702016326, 15.8154016018599 ], [ 77.065331214191701, 15.815658884315326 ], [ 77.065351328024434, 15.815973807098326 ], [ 77.065402816897063, 15.81656401499947 ], [ 77.065403480407156, 15.816571914775052 ], [ 77.065416602499283, 15.816715228955605 ], [ 77.065419186816086, 15.816740052072133 ], [ 77.065463100259052, 15.817101055389152 ], [ 77.065569550868602, 15.817991171392713 ], [ 77.06566667987974, 15.818767302364821 ], [ 77.065691424908337, 15.819078792539996 ], [ 77.065730733814249, 15.819503087247588 ], [ 77.065772491626831, 15.819651776833576 ], [ 77.065808195492266, 15.820008340250007 ], [ 77.06582618564596, 15.820401214384331 ], [ 77.065862002204398, 15.821055949025311 ], [ 77.065878330254336, 15.821285070931227 ], [ 77.065921258314702, 15.82223790917968 ], [ 77.065937862052209, 15.822494134086044 ], [ 77.066011582848219, 15.822860501159225 ], [ 77.066018835450379, 15.82294288034509 ], [ 77.066047254988504, 15.823271276874902 ], [ 77.066048501844762, 15.823279171083929 ], [ 77.066066107021669, 15.823404371312085 ], [ 77.066103583665608, 15.823705574985251 ], [ 77.066134668409347, 15.824009098388155 ], [ 77.066162275706802, 15.82431491376898 ], [ 77.06618294035367, 15.824626442454868 ], [ 77.066204144354103, 15.824933448226323 ], [ 77.066224820725438, 15.825246106207302 ], [ 77.066254763743544, 15.825609500708396 ], [ 77.066260681941699, 15.825732553302402 ], [ 77.066290846595564, 15.826232606993836 ], [ 77.06629362735363, 15.826276628664496 ], [ 77.066305517353214, 15.826470779980728 ], [ 77.066253965925114, 15.826621486565243 ], [ 77.066224496459128, 15.826706475280602 ], [ 77.066169549508814, 15.826867379160124 ], [ 77.066082592267577, 15.82709296511737 ], [ 77.066014656736016, 15.82741098576715 ], [ 77.065860917059567, 15.828182729147921 ], [ 77.065558856174022, 15.828824868260158 ], [ 77.065449859157212, 15.82906308964585 ], [ 77.065321058799057, 15.82913208173246 ], [ 77.064786951381393, 15.829384515663902 ], [ 77.064236521040343, 15.829638231414444 ], [ 77.063708721763476, 15.829880437955078 ], [ 77.063687347502253, 15.829900970384781 ], [ 77.063131430663361, 15.83001694485937 ], [ 77.06287941768305, 15.830073555353177 ], [ 77.062581919591807, 15.830131728513061 ], [ 77.06213240076211, 15.830155202889078 ], [ 77.061685808680977, 15.830179778865492 ], [ 77.061237443604796, 15.830202111898245 ], [ 77.061106831974215, 15.830207871029636 ], [ 77.060790793824538, 15.830221039384481 ], [ 77.060426924998566, 15.830234661716666 ], [ 77.060065961042156, 15.830247126405332 ], [ 77.059705534474418, 15.830255067618479 ], [ 77.059368245130429, 15.83030118961687 ], [ 77.059265735027964, 15.830316845792696 ], [ 77.059212735822499, 15.830325255146166 ], [ 77.059155070307412, 15.830333709697202 ], [ 77.05902694119105, 15.830354125886553 ], [ 77.058926180892612, 15.830369766197496 ], [ 77.058725254933435, 15.83040216777232 ], [ 77.058550188016369, 15.830395923505829 ], [ 77.058513418833797, 15.830394013634921 ], [ 77.058446316729373, 15.830392391671744 ], [ 77.05748109915946, 15.830356373311085 ], [ 77.056391044023314, 15.830320404934564 ], [ 77.055894447709463, 15.830246051979453 ], [ 77.054785993678522, 15.830063421780947 ], [ 77.054078233360045, 15.830105140178366 ], [ 77.054036842564827, 15.830107790194544 ], [ 77.053937740277604, 15.830114376931549 ], [ 77.054432007036951, 15.828804054662456 ], [ 77.053333246176649, 15.82871393798878 ], [ 77.053220322182781, 15.828969132767636 ], [ 77.052891311146723, 15.829488404885737 ], [ 77.052394026162034, 15.829576691486496 ], [ 77.051888735981507, 15.829623261330338 ], [ 77.051369458801162, 15.829671092671015 ], [ 77.05115853034448, 15.828885862695675 ], [ 77.050082907239926, 15.829007848018277 ], [ 77.049030399301287, 15.829108149296227 ], [ 77.049364456014146, 15.827989095456042 ], [ 77.048252473575076, 15.827975881646262 ], [ 77.047729567863527, 15.829400539861892 ], [ 77.047171434085399, 15.830513800571586 ], [ 77.04696000544007, 15.830546290586531 ], [ 77.04662870990893, 15.830492944790469 ], [ 77.046515277924158, 15.83046690931153 ], [ 77.045731851937703, 15.830178384413399 ], [ 77.045537296910695, 15.830148594889705 ], [ 77.045303297577391, 15.830083034709366 ], [ 77.044576146628557, 15.8299374141529 ], [ 77.043263807030144, 15.830072892675588 ], [ 77.041664597891412, 15.830222359711398 ], [ 77.041182146237972, 15.82992985353895 ], [ 77.04117198625508, 15.829963832808446 ], [ 77.041231105260351, 15.830913147858388 ], [ 77.041233728550594, 15.831000091181103 ], [ 77.041252551239836, 15.831596266990866 ], [ 77.041134658804651, 15.832113536583108 ], [ 77.040767068918626, 15.832338369464528 ], [ 77.040325212331851, 15.83260343154239 ], [ 77.040135594861823, 15.832717031691585 ], [ 77.039485957342947, 15.832681352950145 ], [ 77.039196877256558, 15.832591456307869 ], [ 77.038800462860536, 15.832443836739577 ], [ 77.0387196158687, 15.832409583720841 ], [ 77.038629186804968, 15.832350571813869 ], [ 77.038213167386502, 15.832109391400934 ], [ 77.038063462688115, 15.832014794657452 ], [ 77.03804109335924, 15.831994674676899 ], [ 77.037988726492927, 15.831949988572097 ], [ 77.037975185978311, 15.831937691804734 ], [ 77.037501811540835, 15.831561513119333 ], [ 77.037507424877987, 15.831481268936415 ], [ 77.037509979058456, 15.83144510231644 ], [ 77.037524698194588, 15.831225849375162 ], [ 77.037567717095385, 15.830629091916071 ], [ 77.037589493671618, 15.830066418639662 ], [ 77.0375541980018, 15.829513315390299 ], [ 77.037179435228808, 15.829313534491945 ], [ 77.037012347498191, 15.829230393673674 ], [ 77.03696719618172, 15.829207099132283 ], [ 77.036573791689705, 15.829009750148694 ], [ 77.036449708561378, 15.829026727669406 ] ] ] } }
]
}
