{
"type": "FeatureCollection",
"name": "police_station_boundary.writing_20260805_172659",
"crs": { "type": "name", "properties": { "name": "urn:ogc:def:crs:OGC:1.3:CRS84" } },
"features": [
{ "type": "Feature", "properties": { "Shape.STArea()": 31389591.452266961, "Shape.STLength()": 36105.031071872101, "OBJECTID": 284, "KGISPS_BOUNDID": 376, "PS_BOUNDName": "Kurakunta PS", "PS_BOUNDCode": "PSB - 376", "KGISPS_SUB_DIVID": 37, "_source_layer": "Police Station Boundary", "_source_layer_url": "https://kgis.ksrsac.in/kgismaps/rest/services/Home/Home_Department/MapServer/82", "_police_station": "Kurakunta PS" }, "geometry": { "type": "Polygon", "coordinates": [ [ [ 77.368394959161449, 17.224310001805001 ], [ 77.367359265079642, 17.22533829968879 ], [ 77.364005700922888, 17.226947185957108 ], [ 77.360394077686976, 17.227992607568389 ], [ 77.358259335562778, 17.228985581858652 ], [ 77.35569599470891, 17.230270867132226 ], [ 77.354984550564225, 17.230407595905906 ], [ 77.35379991267753, 17.230622290920135 ], [ 77.351721997929502, 17.230365858588563 ], [ 77.351007258401935, 17.229875799491133 ], [ 77.350410289980104, 17.22898537515027 ], [ 77.349564190877132, 17.228089275686152 ], [ 77.348648579572512, 17.224701231582291 ], [ 77.347897974321498, 17.22296565607931 ], [ 77.346672979595525, 17.22219683459117 ], [ 77.345278226958754, 17.22222388891656 ], [ 77.342664411410794, 17.222844061723361 ], [ 77.338985414483702, 17.223826180411773 ], [ 77.337524534354245, 17.224021772484278 ], [ 77.335997812794417, 17.22375689056393 ], [ 77.334031023173509, 17.222927156209188 ], [ 77.333044938817224, 17.221988837383314 ], [ 77.332015280236391, 17.221030391187263 ], [ 77.33100925722124, 17.220552933400551 ], [ 77.330306217620034, 17.22049302612405 ], [ 77.325575064118325, 17.220942315173104 ], [ 77.323348181345494, 17.220483001288088 ], [ 77.322877631443745, 17.220385832765789 ], [ 77.321476576305116, 17.220097659576062 ], [ 77.319320729416333, 17.220433038304197 ], [ 77.316152656836479, 17.221614502372741 ], [ 77.314235043902414, 17.223986084318195 ], [ 77.312251447094141, 17.225400257369536 ], [ 77.309328763871775, 17.225862201044496 ], [ 77.305759741191338, 17.22609444323707 ], [ 77.301923637709976, 17.225558753996722 ], [ 77.300527054741011, 17.224991461253552 ], [ 77.297430925435989, 17.223187389327563 ], [ 77.296774102906241, 17.222969041951288 ], [ 77.295993691250985, 17.222710599595477 ], [ 77.295493861874846, 17.222632700713124 ], [ 77.295490576022829, 17.221731479367904 ], [ 77.295520355661637, 17.220862858805152 ], [ 77.295680615273568, 17.219527211968238 ], [ 77.295775483473705, 17.218988069597454 ], [ 77.295793758894945, 17.218881825221128 ], [ 77.295824743763873, 17.218731477895798 ], [ 77.295947544542116, 17.218137997603158 ], [ 77.296200048966952, 17.216921641455016 ], [ 77.296467191427325, 17.215693269228417 ], [ 77.296510428887999, 17.214816207994712 ], [ 77.2965433928659, 17.214591313104588 ], [ 77.296606996480747, 17.213902555048396 ], [ 77.2976088745841, 17.213811687993228 ], [ 77.297736901852062, 17.213799807905076 ], [ 77.29766626083395, 17.213298691887537 ], [ 77.297764894150049, 17.213283558313243 ], [ 77.298313255251841, 17.213200860505317 ], [ 77.299808970282513, 17.213030989385022 ], [ 77.299898742616961, 17.213020793347361 ], [ 77.300675733632502, 17.213071434307736 ], [ 77.302176876692599, 17.212944817522008 ], [ 77.302238423120016, 17.212946143577188 ], [ 77.303775179398087, 17.212979241030176 ], [ 77.305219469074586, 17.212998551790527 ], [ 77.305499118221988, 17.212993872021237 ], [ 77.305598637748943, 17.212921132845729 ], [ 77.305673564569034, 17.212865448246522 ], [ 77.305727420424859, 17.212825671340404 ], [ 77.305753938726113, 17.211784271951036 ], [ 77.306357886011455, 17.211774703949608 ], [ 77.308484853329389, 17.21176595157311 ], [ 77.308556428450572, 17.211765657618823 ], [ 77.309444619975977, 17.21173104662855 ], [ 77.309831298892718, 17.211746192696069 ], [ 77.310602341370426, 17.211767380136834 ], [ 77.310700985112277, 17.211770090005761 ], [ 77.311499960357565, 17.211743195529376 ], [ 77.311919650961116, 17.21172409113084 ], [ 77.312131732496624, 17.211752139571903 ], [ 77.31217150201789, 17.211623892244031 ], [ 77.312335750160457, 17.210959784129923 ], [ 77.312347918849625, 17.210676867580897 ], [ 77.31307506500788, 17.210645897070727 ], [ 77.314692715176548, 17.210647138743106 ], [ 77.314793408998995, 17.21064562083416 ], [ 77.314803557243081, 17.21075326525775 ], [ 77.314816630280788, 17.210891936836518 ], [ 77.314989527616859, 17.210896627477013 ], [ 77.31521626326672, 17.210902193965037 ], [ 77.315925541268243, 17.210919605391982 ], [ 77.317201968581017, 17.210974550902161 ], [ 77.317544962496626, 17.210989314121665 ], [ 77.317581478163405, 17.210584396158399 ], [ 77.31752719333835, 17.209477580460341 ], [ 77.317549598045304, 17.208564949999708 ], [ 77.317353158451496, 17.207828393940904 ], [ 77.317135560024852, 17.207786495681372 ], [ 77.317102071109986, 17.20720615927717 ], [ 77.317062482979495, 17.207086553211724 ], [ 77.316444765267391, 17.205220252651689 ], [ 77.316487261087175, 17.204367550837397 ], [ 77.316498805807839, 17.203978555520269 ], [ 77.316565815979857, 17.202281837148568 ], [ 77.316565798262246, 17.202188753503201 ], [ 77.316571335495439, 17.201837334110529 ], [ 77.317306609442085, 17.201807144803649 ], [ 77.318702350389898, 17.201842447255803 ], [ 77.318806019547296, 17.201435040016985 ], [ 77.319856029024209, 17.201268516331325 ], [ 77.319921390491672, 17.201258150535701 ], [ 77.321415540000928, 17.201165308863843 ], [ 77.321961403796777, 17.2010633602819 ], [ 77.321814360134752, 17.200617672789502 ], [ 77.322099743843069, 17.199361641697493 ], [ 77.322132016555244, 17.198096597459834 ], [ 77.323280384312895, 17.19818186061212 ], [ 77.323507430314734, 17.198173400828821 ], [ 77.323497107027933, 17.198413713529767 ], [ 77.323527160723103, 17.198881054489917 ], [ 77.326164333419101, 17.199131783648042 ], [ 77.326375370567604, 17.199295629925022 ], [ 77.32640200551451, 17.200416782025471 ], [ 77.326858091638542, 17.200407398652491 ], [ 77.328212626114436, 17.200410391954399 ], [ 77.329193570790352, 17.200366317557098 ], [ 77.32975096694102, 17.200420342611082 ], [ 77.329833831416764, 17.202405170748122 ], [ 77.330613187368257, 17.202466980271467 ], [ 77.332483542156595, 17.202641059798239 ], [ 77.333886146899474, 17.202340757746715 ], [ 77.334749036084432, 17.202141840023135 ], [ 77.335490544068122, 17.202127180997344 ], [ 77.336436372891043, 17.20396511028871 ], [ 77.33691937216156, 17.20486234454377 ], [ 77.337037562590154, 17.205081898138435 ], [ 77.337530573287026, 17.20701926157609 ], [ 77.338250859325527, 17.207696822731592 ], [ 77.338516811533651, 17.207999348450322 ], [ 77.338543948375602, 17.208020675775106 ], [ 77.338722234808799, 17.206369830545611 ], [ 77.338946848413286, 17.205723893150441 ], [ 77.339309197791167, 17.204674113472013 ], [ 77.339832309552818, 17.20427869797857 ], [ 77.340173715418757, 17.203421222646039 ], [ 77.34069770462493, 17.20256383149048 ], [ 77.341542428951144, 17.201181603975758 ], [ 77.342746480400777, 17.199986612948845 ], [ 77.343324747709616, 17.199363529454928 ], [ 77.344093540671196, 17.199001991692612 ], [ 77.344188344980523, 17.198957052035635 ], [ 77.344305838029044, 17.19825564693485 ], [ 77.344338078105622, 17.198063189541461 ], [ 77.344354119320158, 17.198000253658087 ], [ 77.344963820282871, 17.195495792706591 ], [ 77.344957651847508, 17.194311125467529 ], [ 77.344951794691454, 17.193186313144125 ], [ 77.344921641572, 17.192133896328347 ], [ 77.345087541740028, 17.19105004422936 ], [ 77.345285245806679, 17.189245838823425 ], [ 77.345297266858935, 17.189133937070693 ], [ 77.345218776741078, 17.188273448439528 ], [ 77.345137022379006, 17.187013477517034 ], [ 77.345154432009366, 17.186669498114963 ], [ 77.345099209131334, 17.186295853379594 ], [ 77.345060223403905, 17.186103230806623 ], [ 77.345048589819939, 17.185989350420702 ], [ 77.344934892082733, 17.184595198895263 ], [ 77.344409144067356, 17.181914075042471 ], [ 77.344261624266721, 17.18116175734216 ], [ 77.344439186486696, 17.181065469855628 ], [ 77.344392247491214, 17.180940514147192 ], [ 77.344242455601105, 17.18046471960497 ], [ 77.343590724790388, 17.179359533935934 ], [ 77.343143213001369, 17.178417583181908 ], [ 77.343045768022108, 17.178242373542773 ], [ 77.343576923215565, 17.178159304695495 ], [ 77.345137876009858, 17.177958503380331 ], [ 77.345725908828342, 17.177907665369947 ], [ 77.347132843369366, 17.177786020310272 ], [ 77.348283531058939, 17.177645484492622 ], [ 77.349414718277075, 17.177609680302702 ], [ 77.349975923367865, 17.177591916397144 ], [ 77.350169200502876, 17.177616469245727 ], [ 77.350197666383266, 17.177620083216869 ], [ 77.351096636699324, 17.17764982006673 ], [ 77.351109771061829, 17.177650727451518 ], [ 77.351122903533849, 17.177651633954174 ], [ 77.352061504186096, 17.177749921616517 ], [ 77.352126672992739, 17.17775674402062 ], [ 77.352962029598018, 17.177840319581353 ], [ 77.353701000905545, 17.177856135722841 ], [ 77.353840512296628, 17.177868022932955 ], [ 77.354746913751143, 17.17791264779779 ], [ 77.354856725415061, 17.177905973045469 ], [ 77.355797099654652, 17.177848816867016 ], [ 77.356001548807328, 17.177836389547608 ], [ 77.357061134280542, 17.177817179327231 ], [ 77.357045598175006, 17.178052496186041 ], [ 77.357224218936111, 17.178127755904647 ], [ 77.3574190552673, 17.178209849105173 ], [ 77.357481741255697, 17.178236261590765 ], [ 77.358089596687989, 17.178492374748508 ], [ 77.358251140328093, 17.178570847435797 ], [ 77.358422368063657, 17.178654025859892 ], [ 77.358996521764112, 17.178669171286593 ], [ 77.359432299395252, 17.178732985061657 ], [ 77.359807625012593, 17.178787945520448 ], [ 77.360468896634885, 17.178872763367906 ], [ 77.361045582978633, 17.178946729609077 ], [ 77.361188951275906, 17.178965118975334 ], [ 77.361194324953274, 17.178966342365992 ], [ 77.363278917781443, 17.179440895499187 ], [ 77.363647848324334, 17.179524879617805 ], [ 77.364616962123208, 17.179780192544094 ], [ 77.365208976640275, 17.17970981277259 ], [ 77.365383786225905, 17.179676604231556 ], [ 77.366362463365235, 17.179490678644427 ], [ 77.367470493669828, 17.17922334068906 ], [ 77.368844505411914, 17.178903238820237 ], [ 77.368956942097341, 17.178480531092081 ], [ 77.369208243241189, 17.178350989490916 ], [ 77.36949765254225, 17.178201804872437 ], [ 77.36972107243875, 17.178165328099112 ], [ 77.369719518225324, 17.178138651235809 ], [ 77.370263806565205, 17.17887491696947 ], [ 77.370570755158226, 17.179813024464668 ], [ 77.370792972988369, 17.180724444768387 ], [ 77.371067629815812, 17.181774515361841 ], [ 77.371161162867182, 17.182128669978805 ], [ 77.371258313028164, 17.182719971986778 ], [ 77.370411593654168, 17.184109865861714 ], [ 77.370093436445828, 17.184594798808131 ], [ 77.369678305577978, 17.185181850629483 ], [ 77.369244471034307, 17.186447733790196 ], [ 77.369189449773785, 17.186925720937104 ], [ 77.369558273512339, 17.187567633199858 ], [ 77.370111267744505, 17.188154427184237 ], [ 77.370454281444069, 17.189022335239045 ], [ 77.371031087872836, 17.189007064329019 ], [ 77.371635037743516, 17.189892881055616 ], [ 77.372142984695117, 17.190182872189656 ], [ 77.373287503923279, 17.190551102153123 ], [ 77.373325854551709, 17.19103175927356 ], [ 77.373465079973144, 17.191992326265161 ], [ 77.373665853162862, 17.193719237511882 ], [ 77.373192695553811, 17.194442106088434 ], [ 77.372869290521251, 17.195045650621484 ], [ 77.373624958909176, 17.195076919073465 ], [ 77.372077787003505, 17.19556342034975 ], [ 77.371573597697946, 17.195759031918755 ], [ 77.37224687672952, 17.195982702697922 ], [ 77.372828396922401, 17.196185366912353 ], [ 77.374469535064463, 17.196787086247507 ], [ 77.374318882510266, 17.196958365213053 ], [ 77.374243988599659, 17.197161251029129 ], [ 77.374240556398377, 17.197470349454974 ], [ 77.374685545703997, 17.19740941678328 ], [ 77.375921876889819, 17.197238397023121 ], [ 77.37622743004998, 17.196812244061245 ], [ 77.376962246849246, 17.196460754003063 ], [ 77.377923600531631, 17.196721370854817 ], [ 77.379412650051719, 17.196134602338986 ], [ 77.380020592964215, 17.196442142570593 ], [ 77.380443265001816, 17.197036330663085 ], [ 77.382246665288392, 17.197002483135048 ], [ 77.383020645688319, 17.196073679337271 ], [ 77.384128895626873, 17.195687545204535 ], [ 77.384403285737591, 17.196236163866068 ], [ 77.384783665629129, 17.196612589557123 ], [ 77.386336503866389, 17.196093211843159 ], [ 77.386525260793391, 17.195800894242126 ], [ 77.387090221729409, 17.195548472737681 ], [ 77.388131040042111, 17.195944162949761 ], [ 77.388473323854072, 17.196443871907082 ], [ 77.390089577013114, 17.195705055046041 ], [ 77.391423538245846, 17.194913439434782 ], [ 77.392018212151982, 17.195585788822562 ], [ 77.392777412320683, 17.195187816591687 ], [ 77.3935328538563, 17.194103219338615 ], [ 77.394010205229364, 17.193947216117831 ], [ 77.394734620219268, 17.195138399724087 ], [ 77.394798560291932, 17.19587214966721 ], [ 77.394905218869553, 17.196038753352365 ], [ 77.395157001350157, 17.196529872888341 ], [ 77.394995727174901, 17.197547098858156 ], [ 77.395265426054479, 17.197876631986272 ], [ 77.395232472854588, 17.198081209534461 ], [ 77.395204021035923, 17.198249625808558 ], [ 77.395239983045201, 17.199237619117373 ], [ 77.395433140857435, 17.199965068036533 ], [ 77.395481111337617, 17.200142131477783 ], [ 77.395651458551313, 17.200780476938458 ], [ 77.395768670258235, 17.201799680053238 ], [ 77.395781518310756, 17.202428658582125 ], [ 77.395951883491605, 17.203283837376325 ], [ 77.396426422367682, 17.20475296706811 ], [ 77.396586200396257, 17.2051767899965 ], [ 77.396588013423013, 17.205293102749216 ], [ 77.396644726018081, 17.206634473250819 ], [ 77.396718598165137, 17.207248461199864 ], [ 77.397094387551476, 17.207636178238108 ], [ 77.397361038272791, 17.208262738918577 ], [ 77.397770770108338, 17.20926690304826 ], [ 77.398545975420248, 17.210062539298651 ], [ 77.399203605124185, 17.210203753070871 ], [ 77.400187645316649, 17.209445477984499 ], [ 77.401416312055289, 17.209580389644184 ], [ 77.402011765001973, 17.21016574058536 ], [ 77.402069774170087, 17.210456815059391 ], [ 77.402060258602006, 17.211074612540877 ], [ 77.402035255032033, 17.21165409170321 ], [ 77.401821618555928, 17.21212046911068 ], [ 77.402111274561832, 17.213930453754397 ], [ 77.401714622120323, 17.214025081882312 ], [ 77.400383623647286, 17.214090587140912 ], [ 77.398337802595947, 17.213873994191218 ], [ 77.397157538199778, 17.213785122165834 ], [ 77.397061080084228, 17.213766412956488 ], [ 77.396934082350128, 17.213750116833392 ], [ 77.396050988238443, 17.213638273110355 ], [ 77.395113076788235, 17.2136012404304 ], [ 77.394033980885297, 17.213746740685387 ], [ 77.392544934511747, 17.214134856647206 ], [ 77.392060381521247, 17.214272825129726 ], [ 77.390392977077767, 17.214709258053137 ], [ 77.389453572598825, 17.214979015456137 ], [ 77.388821906955798, 17.215276983356695 ], [ 77.388845056064, 17.215509855145854 ], [ 77.388126647306166, 17.215646732726832 ], [ 77.387299968392213, 17.216192513303131 ], [ 77.386233940910458, 17.216577789246866 ], [ 77.385531918995085, 17.216920115783324 ], [ 77.384107625993806, 17.217674737641019 ], [ 77.38254030217071, 17.218255308409045 ], [ 77.382095394956508, 17.218339976691464 ], [ 77.380350310302703, 17.220939414866276 ], [ 77.380283940133296, 17.221052680837985 ], [ 77.379787546676567, 17.221821075193574 ], [ 77.376673503617639, 17.220096048540654 ], [ 77.374856403823429, 17.219591225317217 ], [ 77.371612675054763, 17.219515828807875 ], [ 77.370529583943551, 17.220682156518087 ], [ 77.369802528911123, 17.221845590142902 ], [ 77.368394959161449, 17.224310001805001 ] ] ] } }
]
}
