{
"type": "FeatureCollection",
"name": "wards_in_police_area.writing_20260805_172659",
"crs": { "type": "name", "properties": { "name": "urn:ogc:def:crs:OGC:1.3:CRS84" } },
"features": [
{ "type": "Feature", "properties": { "KGISWardID": 5179, "KGISWardCode": "2003152", "KGISWardName": "Suddagunte Palya", "SHAPE.STArea()": 1737540.0161319701, "SHAPE.STLength()": 6304.020372690562, "OBJECTID": 18995, "KGISWardNo": "152", "KGISTownCode": "2003", "LGD_WardCode": 1302824, "created_user": "SA", "created_date": 1634898537000, "last_edited_user": "SURESHBV1", "last_edited_date": 1692254014000, "_overlap_percent": 0.085659831552210547, "_police_station": "Adugodi PS", "_police_feature_index": "782", "_admin_layer": "Ward", "_geometry_clipped": true }, "geometry": { "type": "MultiPolygon", "coordinates": [ [ [ [ 77.606513000417706, 12.936422999802543 ], [ 77.607053999949088, 12.936281000052428 ], [ 77.607574000160682, 12.936089000371133 ], [ 77.60768300018205, 12.936047999585679 ], [ 77.607925000051054, 12.935923999624531 ], [ 77.608229000412791, 12.935737000359666 ], [ 77.60826316838974, 12.935716099265234 ], [ 77.607989917969022, 12.935876423594463 ], [ 77.607918813506487, 12.935903108298456 ], [ 77.607656750005333, 12.93600058911343 ], [ 77.607573029185104, 12.936031917045231 ], [ 77.607308674686635, 12.936130549752832 ], [ 77.606990365932887, 12.936244402385473 ], [ 77.606510323657076, 12.936416335767801 ], [ 77.606378809548701, 12.936450883566661 ], [ 77.606513000417706, 12.936422999802543 ] ] ], [ [ [ 77.601707000434558, 12.937137000058357 ], [ 77.603538940666525, 12.936866487241033 ], [ 77.603418091235724, 12.93688200463238 ], [ 77.603251376776754, 12.936903996391074 ], [ 77.602885161649624, 12.936950565482917 ], [ 77.602601634301934, 12.936977110810592 ], [ 77.602590709515823, 12.936978349148244 ], [ 77.602111064523925, 12.937022661530273 ], [ 77.601703863561767, 12.937058345163857 ], [ 77.601693514366261, 12.937059577721755 ], [ 77.601698423711426, 12.937088890266727 ], [ 77.601697757850019, 12.937089014595259 ], [ 77.601707000434558, 12.937137000058357 ] ] ] ] } },
{ "type": "Feature", "properties": { "KGISWardID": 5167, "KGISWardCode": "2003146", "KGISWardName": "Lakkasandra", "SHAPE.STArea()": 1288693.5344039451, "SHAPE.STLength()": 6452.073020861777, "OBJECTID": 18989, "KGISWardNo": "146", "KGISTownCode": "2003", "LGD_WardCode": 1302818, "created_user": "SA", "created_date": 1634898537000, "last_edited_user": "SURESHBV1", "last_edited_date": 1692254014000, "_overlap_percent": 88.89767427160362, "_police_station": "Adugodi PS", "_police_feature_index": "782", "_admin_layer": "Ward", "_geometry_clipped": true }, "geometry": { "type": "MultiPolygon", "coordinates": [ [ [ [ 77.597283000381324, 12.943187999594294 ], [ 77.59737699998449, 12.943178000446391 ], [ 77.597964000373707, 12.943004999925632 ], [ 77.59836754799683, 12.942903635342233 ], [ 77.598142683015524, 12.942937943808165 ], [ 77.597975116464028, 12.942989303076139 ], [ 77.597770838744481, 12.943053450389503 ], [ 77.597283904001685, 12.943179891433747 ], [ 77.597283000381324, 12.943187999594294 ] ] ], [ [ [ 77.601707000434558, 12.937137000058357 ], [ 77.601524783471447, 12.937160484205101 ], [ 77.601552864062015, 12.937284531740701 ], [ 77.601844934423397, 12.938574762221378 ], [ 77.601364620876979, 12.938687707864101 ], [ 77.600892323526764, 12.938798766761485 ], [ 77.600849553804622, 12.938892143074792 ], [ 77.600704047577864, 12.938916052187567 ], [ 77.599863437577568, 12.939054177754308 ], [ 77.599825994973159, 12.939483608585896 ], [ 77.599679479739308, 12.939455190492621 ], [ 77.599625709992111, 12.939620633027745 ], [ 77.599643349577946, 12.940170752578906 ], [ 77.599158806926113, 12.940281885903362 ], [ 77.599066964375865, 12.940302950915944 ], [ 77.599066066987703, 12.940354917215357 ], [ 77.599097403712761, 12.940501091049716 ], [ 77.599287092735494, 12.941385903860597 ], [ 77.598417712209468, 12.941491227720102 ], [ 77.598466672395929, 12.941937875122914 ], [ 77.598474864385693, 12.942012612208616 ], [ 77.598549266754844, 12.942691359950869 ], [ 77.59856852767652, 12.942867070024448 ], [ 77.598562444913512, 12.94286851467208 ], [ 77.598576999808884, 12.942865999906839 ], [ 77.598978999746024, 12.942796000157085 ], [ 77.599291000215217, 12.942743000213135 ], [ 77.599593000243544, 12.942690000288277 ], [ 77.599862000364965, 12.94264500026866 ], [ 77.600096999626146, 12.942604999997616 ], [ 77.600246999927563, 12.942579999823449 ], [ 77.600418000230945, 12.942552000244463 ], [ 77.600526999984808, 12.942534000436357 ], [ 77.600752999722886, 12.94249700026268 ], [ 77.600969999679307, 12.942461000376767 ], [ 77.601005000127174, 12.942473000099854 ], [ 77.601134999726469, 12.942448000286078 ], [ 77.601423999779328, 12.94239299962082 ], [ 77.601465000161753, 12.942385999852908 ], [ 77.601730000107239, 12.942337999704172 ], [ 77.602033000026395, 12.942282000397205 ], [ 77.602486000247708, 12.942185999710107 ], [ 77.602617999697486, 12.942156000430929 ], [ 77.602671999741361, 12.942139999888601 ], [ 77.602674000158032, 12.942143000082236 ], [ 77.602728999710862, 12.942416999871751 ], [ 77.602751000271724, 12.942518999748486 ], [ 77.60277399970937, 12.942629999559168 ], [ 77.602804000121736, 12.942839999660707 ], [ 77.60281900006548, 12.942929000402188 ], [ 77.602855000356925, 12.943152999747856 ], [ 77.602857000169067, 12.94317199970134 ], [ 77.602870999986038, 12.943290999800368 ], [ 77.602870999836867, 12.943390000443481 ], [ 77.602869999919477, 12.943704999655596 ], [ 77.60285000010505, 12.944264000163319 ], [ 77.602827999799558, 12.944411000275252 ], [ 77.602812000450697, 12.944491999952717 ], [ 77.602644999697162, 12.945047000248096 ], [ 77.602567000242686, 12.94558000026522 ], [ 77.602531999897607, 12.946060000192546 ], [ 77.602496000343677, 12.94644499990982 ], [ 77.602492999807779, 12.946476000388563 ], [ 77.602456000193271, 12.946873000433854 ], [ 77.602436999944146, 12.947164000050849 ], [ 77.602444000021677, 12.947415999948769 ], [ 77.602497999903406, 12.947720999903913 ], [ 77.602516000075525, 12.947816000129798 ], [ 77.602611999781985, 12.948138999605968 ], [ 77.60268500010703, 12.948343000335411 ], [ 77.602743000145523, 12.948487999677594 ], [ 77.602794999679574, 12.94863100002604 ], [ 77.602838999983234, 12.948746999948286 ], [ 77.602879999847517, 12.948854000047183 ], [ 77.602943999934226, 12.949023000408019 ], [ 77.602957999705822, 12.949055000057882 ], [ 77.603039000448334, 12.949236999806686 ], [ 77.603117999800105, 12.949447999739068 ], [ 77.603200999544754, 12.949661999686336 ], [ 77.603251000069875, 12.949791000391444 ], [ 77.603359999660569, 12.950127999876241 ], [ 77.603379000447291, 12.950200000356164 ], [ 77.603422000440929, 12.950359999877163 ], [ 77.605727858074019, 12.949997874476642 ], [ 77.605735348817404, 12.949974384344863 ], [ 77.605781101095047, 12.949982196383131 ], [ 77.605868999964613, 12.949761000094066 ], [ 77.605901999738919, 12.949651000101557 ], [ 77.606053999664823, 12.949139000088428 ], [ 77.606228000224661, 12.948552999717108 ], [ 77.606532999780242, 12.947579999984573 ], [ 77.606630000356674, 12.947279000184196 ], [ 77.606809000384047, 12.946699000073906 ], [ 77.606945000407691, 12.946259999950033 ], [ 77.606990000023458, 12.946114000268514 ], [ 77.607315000379046, 12.945000000336819 ], [ 77.607365000306515, 12.94483699961483 ], [ 77.607613999642737, 12.944020999603136 ], [ 77.607620999887772, 12.943996999569332 ], [ 77.607693999847768, 12.943748000010419 ], [ 77.607733999765287, 12.943610999717935 ], [ 77.607744999911844, 12.943571999804687 ], [ 77.607814000169867, 12.9433359999383 ], [ 77.607849000062458, 12.943214999691277 ], [ 77.607981999627228, 12.942818000149288 ], [ 77.608071000393622, 12.942552999786505 ], [ 77.608173999960286, 12.942244999844059 ], [ 77.608251000166547, 12.942009000332341 ], [ 77.608279000146027, 12.941931000095426 ], [ 77.608417000039907, 12.941645999866948 ], [ 77.608527999661433, 12.941467999801512 ], [ 77.608664999573719, 12.941212999700769 ], [ 77.608718000061756, 12.94111099995569 ], [ 77.608812999781222, 12.94092799959798 ], [ 77.608925000266169, 12.940710000159584 ], [ 77.609054000022454, 12.940462000308999 ], [ 77.609071999842712, 12.940428999555106 ], [ 77.609235000075216, 12.940128000416525 ], [ 77.609298999555705, 12.940009000070452 ], [ 77.609830000017041, 12.938936999858329 ], [ 77.610171348468583, 12.938237830896533 ], [ 77.610103372073482, 12.938224113076402 ], [ 77.610705636642393, 12.937085072028628 ], [ 77.612011100051433, 12.934672118799597 ], [ 77.612675359739654, 12.933403377410649 ], [ 77.613713126453604, 12.931828822725391 ], [ 77.613749000196151, 12.931718000009896 ], [ 77.613762140984178, 12.931678029950588 ], [ 77.61366901485772, 12.931697688490381 ], [ 77.613574990705288, 12.931783464896114 ], [ 77.612728050552136, 12.932556110130875 ], [ 77.612428053529399, 12.932781338761298 ], [ 77.611582507623822, 12.933416146321182 ], [ 77.611342652608016, 12.933607644081313 ], [ 77.610691645374445, 12.934186565303497 ], [ 77.610303534348191, 12.934503271636167 ], [ 77.610039207975007, 12.934718966041872 ], [ 77.609769559839677, 12.934896904209504 ], [ 77.609770193567627, 12.934728584063853 ], [ 77.609608365383934, 12.93485065200931 ], [ 77.609156003458722, 12.93519283433047 ], [ 77.608694830393375, 12.935462830044267 ], [ 77.60826316838974, 12.935716099265234 ], [ 77.608229000412791, 12.935737000359666 ], [ 77.607925000051054, 12.935923999624531 ], [ 77.60768300018205, 12.936047999585679 ], [ 77.607574000160682, 12.936089000371133 ], [ 77.607053999949088, 12.936281000052428 ], [ 77.606513000417706, 12.936422999802543 ], [ 77.606378809548701, 12.936450883566661 ], [ 77.606282407845271, 12.936476207592353 ], [ 77.606188255384964, 12.936500863690407 ], [ 77.605773233242189, 12.936559217346948 ], [ 77.60508802900992, 12.936654148535892 ], [ 77.603904454971357, 12.936819554223037 ], [ 77.603538940666525, 12.936866487241033 ], [ 77.601707000434558, 12.937137000058357 ] ] ] ] } },
{ "type": "Feature", "properties": { "KGISWardID": 5170, "KGISWardCode": "2003147", "KGISWardName": "Adugodi", "SHAPE.STArea()": 1602717.95192628, "SHAPE.STLength()": 5587.4805891964161, "OBJECTID": 18990, "KGISWardNo": "147", "KGISTownCode": "2003", "LGD_WardCode": 1302819, "created_user": "SA", "created_date": 1634898537000, "last_edited_user": "SURESHBV1", "last_edited_date": 1692254014000, "_overlap_percent": 79.958087968072562, "_police_station": "Adugodi PS", "_police_feature_index": "782", "_admin_layer": "Ward", "_geometry_clipped": true }, "geometry": { "type": "Polygon", "coordinates": [ [ [ 77.609830000017041, 12.938936999858329 ], [ 77.609298999555705, 12.940009000070452 ], [ 77.609235000075216, 12.940128000416525 ], [ 77.609071999842712, 12.940428999555106 ], [ 77.609054000022454, 12.940462000308999 ], [ 77.608925000266169, 12.940710000159584 ], [ 77.608812999781222, 12.94092799959798 ], [ 77.608718000061756, 12.94111099995569 ], [ 77.608664999573719, 12.941212999700769 ], [ 77.608527999661433, 12.941467999801512 ], [ 77.608417000039907, 12.941645999866948 ], [ 77.608279000146027, 12.941931000095426 ], [ 77.608251000166547, 12.942009000332341 ], [ 77.608173999960286, 12.942244999844059 ], [ 77.608071000393622, 12.942552999786505 ], [ 77.607981999627228, 12.942818000149288 ], [ 77.607849000062458, 12.943214999691277 ], [ 77.607814000169867, 12.9433359999383 ], [ 77.607744999911844, 12.943571999804687 ], [ 77.607733999765287, 12.943610999717935 ], [ 77.607693999847768, 12.943748000010419 ], [ 77.607620999887772, 12.943996999569332 ], [ 77.607613999642737, 12.944020999603136 ], [ 77.607365000306515, 12.94483699961483 ], [ 77.607315000379046, 12.945000000336819 ], [ 77.606990000023458, 12.946114000268514 ], [ 77.606945000407691, 12.946259999950033 ], [ 77.606809000384047, 12.946699000073906 ], [ 77.606630000356674, 12.947279000184196 ], [ 77.606532999780242, 12.947579999984573 ], [ 77.606228000224661, 12.948552999717108 ], [ 77.606053999664823, 12.949139000088428 ], [ 77.605901999738919, 12.949651000101557 ], [ 77.605868999964613, 12.949761000094066 ], [ 77.607292999730817, 12.949558999992931 ], [ 77.608600000365115, 12.949375999565993 ], [ 77.609161000245251, 12.949332000091161 ], [ 77.609488000206497, 12.949320000311257 ], [ 77.609889999648487, 12.949238000253292 ], [ 77.610963000375918, 12.948981999783292 ], [ 77.611211999667375, 12.948976999763419 ], [ 77.611509000312509, 12.949106000312973 ], [ 77.611633999812867, 12.949295000294091 ], [ 77.611688999809672, 12.949294999982998 ], [ 77.611685999587209, 12.949287999611665 ], [ 77.611751000298497, 12.949289000299432 ], [ 77.611823999859965, 12.949290000275212 ], [ 77.611879000139027, 12.949291000012114 ], [ 77.611945000228943, 12.949291999665219 ], [ 77.611994000152166, 12.949291999823545 ], [ 77.612058999929488, 12.949293000443161 ], [ 77.612112999883422, 12.9492940002228 ], [ 77.61218800006138, 12.94929499991048 ], [ 77.612254000147473, 12.949296000388069 ], [ 77.612318999904602, 12.949297000039003 ], [ 77.612371000137301, 12.949297999942479 ], [ 77.612433999883748, 12.949297999655096 ], [ 77.612484000400286, 12.949298999714477 ], [ 77.612524999898426, 12.949299999691167 ], [ 77.61259700003707, 12.949301000437215 ], [ 77.612664999808445, 12.949301999726703 ], [ 77.61271000028286, 12.949302000110636 ], [ 77.61275800015791, 12.949303000307001 ], [ 77.612809000059841, 12.949304000217548 ], [ 77.612860999981322, 12.949303999935212 ], [ 77.612937000448312, 12.949305000213565 ], [ 77.612988000344401, 12.949306000088791 ], [ 77.61302500040695, 12.94930700035188 ], [ 77.613080999743374, 12.949306999659006 ], [ 77.613126999895968, 12.949307999970461 ], [ 77.613171999731122, 12.949309000370487 ], [ 77.613224999955392, 12.949308999918411 ], [ 77.613272000419954, 12.949310000107042 ], [ 77.6133230003054, 12.949310999916165 ], [ 77.613375999612416, 12.949311000345812 ], [ 77.613423000063122, 12.949311999603648 ], [ 77.613501000222541, 12.949313000433403 ], [ 77.613541000300415, 12.949314000337578 ], [ 77.613588999852567, 12.949314000292883 ], [ 77.613638000017147, 12.949315000227397 ], [ 77.613681000118106, 12.949315999823339 ], [ 77.613687999575077, 12.949316000063058 ], [ 77.613735000349749, 12.949314999985106 ], [ 77.613779000175228, 12.94931400019612 ], [ 77.613831000060387, 12.949313999719493 ], [ 77.613891000345987, 12.949313000174882 ], [ 77.61395300033854, 12.949312000426193 ], [ 77.61400499991656, 12.949310999828535 ], [ 77.614059999827035, 12.949310999918854 ], [ 77.614157999850875, 12.949309000149801 ], [ 77.614244000047847, 12.949307999797821 ], [ 77.614304000311535, 12.949307000158552 ], [ 77.614356999578106, 12.949307000388513 ], [ 77.614416000432286, 12.949305999912294 ], [ 77.614524000203161, 12.94930500001672 ], [ 77.614583000137145, 12.949304000415433 ], [ 77.614651000140057, 12.949302999906536 ], [ 77.614716000115081, 12.949301999678889 ], [ 77.614788999861332, 12.949301000445638 ], [ 77.614861999593543, 12.949300000288693 ], [ 77.61492799987127, 12.949298999905112 ], [ 77.614997000177723, 12.949298000106092 ], [ 77.615062000132923, 12.949296999792496 ], [ 77.615120000028327, 12.949297000259737 ], [ 77.615128999802025, 12.949296000166754 ], [ 77.615175999594612, 12.949294999839529 ], [ 77.61525999971262, 12.949293000171025 ], [ 77.615333999728861, 12.949291999777637 ], [ 77.615407000050979, 12.949290000277477 ], [ 77.615458000177142, 12.949289000390822 ], [ 77.615528000446503, 12.949289999622639 ], [ 77.615605000182413, 12.949285000301167 ], [ 77.61576000023237, 12.949282000291852 ], [ 77.615935999809821, 12.949276999638176 ], [ 77.616087000398593, 12.949273999846756 ], [ 77.616210999836809, 12.949271000113692 ], [ 77.616317000043907, 12.949268000410566 ], [ 77.6164139995509, 12.949265999907194 ], [ 77.616500000196979, 12.949263999623637 ], [ 77.616548999644195, 12.94926299974402 ], [ 77.61660600037429, 12.94926099980397 ], [ 77.616668000224323, 12.949260000316109 ], [ 77.616767999727543, 12.949258000263885 ], [ 77.616864000411383, 12.949254999602053 ], [ 77.616984000347387, 12.949251999929356 ], [ 77.617094000196573, 12.949249999569835 ], [ 77.617035000262518, 12.949137999824234 ], [ 77.617169000120981, 12.949043999669129 ], [ 77.617204000317457, 12.949038999938011 ], [ 77.617232999790971, 12.949019999645467 ], [ 77.617219999627991, 12.949000000226704 ], [ 77.617188999907938, 12.948966999823437 ], [ 77.617399999761417, 12.948820000132319 ], [ 77.617524000210977, 12.948732999737528 ], [ 77.617649999963348, 12.948644999901546 ], [ 77.61778899991522, 12.948547999604029 ], [ 77.617904000395271, 12.948465000418111 ], [ 77.618035999807418, 12.948367999903214 ], [ 77.618153000098417, 12.948283000241714 ], [ 77.618287999923709, 12.948185000109412 ], [ 77.618425999935226, 12.948085000315654 ], [ 77.61854599991544, 12.947996999929424 ], [ 77.618678000051133, 12.947901000157284 ], [ 77.618797000173998, 12.947814999970348 ], [ 77.61892500043237, 12.947720999829988 ], [ 77.619051000014139, 12.947630000137746 ], [ 77.619254464835549, 12.947483595248983 ], [ 77.619137937901783, 12.947272021468386 ], [ 77.618551716229504, 12.946211838282483 ], [ 77.618396540617113, 12.945821387333259 ], [ 77.618360218037267, 12.945512091421582 ], [ 77.6177963923476, 12.943495608730503 ], [ 77.617583000051695, 12.943550999718781 ], [ 77.61758177336668, 12.943539795778987 ], [ 77.61752743928912, 12.943559783418415 ], [ 77.617512810417466, 12.943408273045387 ], [ 77.616286557873664, 12.943734585016456 ], [ 77.615959980703977, 12.943733082483638 ], [ 77.615822473985787, 12.943634069942416 ], [ 77.615733503535409, 12.943515447416999 ], [ 77.615639409992767, 12.943372973514531 ], [ 77.615578334490351, 12.943124993557234 ], [ 77.615469919826722, 12.943011346937002 ], [ 77.615123549842252, 12.942981358141598 ], [ 77.614538227162654, 12.942939425200601 ], [ 77.614302652104342, 12.942784027179638 ], [ 77.614113679005939, 12.942672781554432 ], [ 77.613881503924432, 12.942549260583972 ], [ 77.613744367560628, 12.942251846607238 ], [ 77.613606235082401, 12.941858829533183 ], [ 77.613824048186999, 12.941713226806224 ], [ 77.61404155049317, 12.941537748133126 ], [ 77.614355525402488, 12.941265688818667 ], [ 77.614698214546266, 12.940826019120518 ], [ 77.615023187553234, 12.940440309476937 ], [ 77.615330943175266, 12.940156360418396 ], [ 77.615609486157553, 12.939992219809639 ], [ 77.616568178392541, 12.93949975661735 ], [ 77.617932111784341, 12.939204828607279 ], [ 77.617925999640931, 12.939181000146581 ], [ 77.617848216321008, 12.938838038408969 ], [ 77.617731365538731, 12.938429223075337 ], [ 77.617417418369001, 12.93702981334263 ], [ 77.617275624060653, 12.936399526382576 ], [ 77.61689174783308, 12.936405962229331 ], [ 77.616907565415048, 12.9367023011238 ], [ 77.616517673336332, 12.93675616782156 ], [ 77.616015081279187, 12.936855567942553 ], [ 77.615637894128952, 12.937042516505738 ], [ 77.61535492770156, 12.937039804414146 ], [ 77.615197019477733, 12.93709134218483 ], [ 77.61474633279802, 12.937284576573155 ], [ 77.614277224092135, 12.93733923458306 ], [ 77.614182041409876, 12.937255394513793 ], [ 77.612748285342832, 12.937558360537587 ], [ 77.612800213584507, 12.937875782336956 ], [ 77.611931084654884, 12.938102536207831 ], [ 77.61128225107035, 12.938029577617684 ], [ 77.610690817172554, 12.938282704195368 ], [ 77.610233212597336, 12.938250315244808 ], [ 77.610171348468583, 12.938237830896533 ], [ 77.609830000017041, 12.938936999858329 ] ] ] } },
{ "type": "Feature", "properties": { "KGISWardID": 5163, "KGISWardCode": "2003144", "KGISWardName": "Siddapura", "SHAPE.STArea()": 667566.69400613999, "SHAPE.STLength()": 4129.1782784378929, "OBJECTID": 18987, "KGISWardNo": "144", "KGISTownCode": "2003", "LGD_WardCode": 1302816, "created_user": "SA", "created_date": 1634898537000, "last_edited_user": "SURESHBV1", "last_edited_date": 1692254014000, "_overlap_percent": 0.07142130975329955, "_police_station": "Adugodi PS", "_police_feature_index": "782", "_admin_layer": "Ward", "_geometry_clipped": true }, "geometry": { "type": "Polygon", "coordinates": [ [ [ 77.597130000301405, 12.944248999859527 ], [ 77.597210000190671, 12.943723000078691 ], [ 77.597283000381324, 12.943187999594294 ], [ 77.597283904001685, 12.943179891433747 ], [ 77.597255264003024, 12.943187328305712 ], [ 77.597245682656478, 12.94325097678041 ], [ 77.597225640091182, 12.94338412049172 ], [ 77.597171058145733, 12.943727969484305 ], [ 77.597150517947981, 12.943856913575871 ], [ 77.597086992861804, 12.944215863170665 ], [ 77.597111250420426, 12.944251303466489 ], [ 77.597124466255323, 12.944270611220572 ], [ 77.597130000301405, 12.944248999859527 ] ] ] } },
{ "type": "Feature", "properties": { "KGISWardID": 5166, "KGISWardCode": "2003145", "KGISWardName": "Hombegowda Nagar", "SHAPE.STArea()": 1410426.0675408549, "SHAPE.STLength()": 6221.3382850788448, "OBJECTID": 18988, "KGISWardNo": "145", "KGISTownCode": "2003", "LGD_WardCode": 1302817, "created_user": "SA", "created_date": 1634898537000, "last_edited_user": "SURESHBV1", "last_edited_date": 1692254014000, "_overlap_percent": 21.472411738164375, "_police_station": "Adugodi PS", "_police_feature_index": "782", "_admin_layer": "Ward", "_geometry_clipped": true }, "geometry": { "type": "Polygon", "coordinates": [ [ [ 77.597964000373707, 12.943004999925632 ], [ 77.59737699998449, 12.943178000446391 ], [ 77.597283000381324, 12.943187999594294 ], [ 77.597210000190671, 12.943723000078691 ], [ 77.597130000301405, 12.944248999859527 ], [ 77.597124466255323, 12.944270611220572 ], [ 77.597196988476881, 12.944376562999622 ], [ 77.597652810570622, 12.944940767547363 ], [ 77.597888646661119, 12.945316064483693 ], [ 77.598036164063302, 12.945674041995574 ], [ 77.598239737931991, 12.945621961968003 ], [ 77.598502935305248, 12.946228034685699 ], [ 77.598553101347918, 12.946343554198368 ], [ 77.598603291953552, 12.946459127653251 ], [ 77.598605671792654, 12.946464608537369 ], [ 77.598626702025271, 12.946456311262589 ], [ 77.59897336813377, 12.946319542142069 ], [ 77.598979424465753, 12.946317152682479 ], [ 77.599090777670455, 12.946273221043407 ], [ 77.599138808993615, 12.946262435565345 ], [ 77.59917376626521, 12.946254586559265 ], [ 77.599333536743757, 12.946218711095341 ], [ 77.599414330928568, 12.946470508497278 ], [ 77.599416648727455, 12.946477732711417 ], [ 77.599418752339815, 12.946484287811797 ], [ 77.599508116417738, 12.946762793657093 ], [ 77.599536725333522, 12.946821361441813 ], [ 77.599559389428052, 12.946867757862849 ], [ 77.599561860710878, 12.946872816821655 ], [ 77.599565846881902, 12.946871449908265 ], [ 77.599572911495713, 12.946869028691317 ], [ 77.599600648406394, 12.946952220991482 ], [ 77.599612294181611, 12.94698714984937 ], [ 77.599641852628807, 12.947075805994052 ], [ 77.599688120209123, 12.947214576849355 ], [ 77.600100698175837, 12.948452017817788 ], [ 77.600132058602867, 12.94854607554147 ], [ 77.600232578193584, 12.948847561210265 ], [ 77.600259127991137, 12.948839102984758 ], [ 77.600959154345347, 12.948616080887644 ], [ 77.601379328233932, 12.948482217007994 ], [ 77.601727845270162, 12.948371181429362 ], [ 77.601802964064177, 12.948414814998301 ], [ 77.601866813336756, 12.948451901901839 ], [ 77.602022563021691, 12.948542370729372 ], [ 77.602228763226663, 12.948479326859617 ], [ 77.602512836921903, 12.948392474673536 ], [ 77.602572822326536, 12.948374134767827 ], [ 77.602629948474473, 12.948356669024955 ], [ 77.602653254123609, 12.948438874233938 ], [ 77.602745868121289, 12.948653643004286 ], [ 77.6027918697838, 12.948759336483894 ], [ 77.602832573523912, 12.948853790000662 ], [ 77.60284024438819, 12.948871781966869 ], [ 77.602899226722158, 12.949007836490905 ], [ 77.602915743196675, 12.949046067253317 ], [ 77.602919279091097, 12.949053936939071 ], [ 77.602996034854698, 12.949238373211548 ], [ 77.603077161976003, 12.949433947513411 ], [ 77.603080473388687, 12.949441930559948 ], [ 77.6031466099695, 12.949601628526322 ], [ 77.603151954892198, 12.949617385142027 ], [ 77.603348977756255, 12.950184577114056 ], [ 77.603369159382538, 12.950243098362391 ], [ 77.603402151354928, 12.950361353238085 ], [ 77.603422000440929, 12.950359999877163 ], [ 77.603379000447291, 12.950200000356164 ], [ 77.603359999660569, 12.950127999876241 ], [ 77.603251000069875, 12.949791000391444 ], [ 77.603200999544754, 12.949661999686336 ], [ 77.603117999800105, 12.949447999739068 ], [ 77.603039000448334, 12.949236999806686 ], [ 77.602957999705822, 12.949055000057882 ], [ 77.602943999934226, 12.949023000408019 ], [ 77.602879999847517, 12.948854000047183 ], [ 77.602838999983234, 12.948746999948286 ], [ 77.602794999679574, 12.94863100002604 ], [ 77.602743000145523, 12.948487999677594 ], [ 77.60268500010703, 12.948343000335411 ], [ 77.602611999781985, 12.948138999605968 ], [ 77.602516000075525, 12.947816000129798 ], [ 77.602497999903406, 12.947720999903913 ], [ 77.602444000021677, 12.947415999948769 ], [ 77.602436999944146, 12.947164000050849 ], [ 77.602456000193271, 12.946873000433854 ], [ 77.602492999807779, 12.946476000388563 ], [ 77.602496000343677, 12.94644499990982 ], [ 77.602531999897607, 12.946060000192546 ], [ 77.602567000242686, 12.94558000026522 ], [ 77.602644999697162, 12.945047000248096 ], [ 77.602812000450697, 12.944491999952717 ], [ 77.602827999799558, 12.944411000275252 ], [ 77.60285000010505, 12.944264000163319 ], [ 77.602869999919477, 12.943704999655596 ], [ 77.602870999836867, 12.943390000443481 ], [ 77.602870999986038, 12.943290999800368 ], [ 77.602857000169067, 12.94317199970134 ], [ 77.602855000356925, 12.943152999747856 ], [ 77.60281900006548, 12.942929000402188 ], [ 77.602804000121736, 12.942839999660707 ], [ 77.60277399970937, 12.942629999559168 ], [ 77.602751000271724, 12.942518999748486 ], [ 77.602728999710862, 12.942416999871751 ], [ 77.602674000158032, 12.942143000082236 ], [ 77.602671999741361, 12.942139999888601 ], [ 77.602617999697486, 12.942156000430929 ], [ 77.602486000247708, 12.942185999710107 ], [ 77.602033000026395, 12.942282000397205 ], [ 77.601730000107239, 12.942337999704172 ], [ 77.601465000161753, 12.942385999852908 ], [ 77.601423999779328, 12.94239299962082 ], [ 77.601134999726469, 12.942448000286078 ], [ 77.601005000127174, 12.942473000099854 ], [ 77.600969999679307, 12.942461000376767 ], [ 77.600752999722886, 12.94249700026268 ], [ 77.600526999984808, 12.942534000436357 ], [ 77.600418000230945, 12.942552000244463 ], [ 77.600246999927563, 12.942579999823449 ], [ 77.600096999626146, 12.942604999997616 ], [ 77.599862000364965, 12.94264500026866 ], [ 77.599593000243544, 12.942690000288277 ], [ 77.599291000215217, 12.942743000213135 ], [ 77.598978999746024, 12.942796000157085 ], [ 77.598576999808884, 12.942865999906839 ], [ 77.598562444913512, 12.94286851467208 ], [ 77.598499041404608, 12.942883572915996 ], [ 77.59836754799683, 12.942903635342233 ], [ 77.597964000373707, 12.943004999925632 ] ] ] } },
{ "type": "Feature", "properties": { "KGISWardID": 5107, "KGISWardCode": "2003116", "KGISWardName": "Nilasandra", "SHAPE.STArea()": 521301.11331034999, "SHAPE.STLength()": 4483.6740167261278, "OBJECTID": 18959, "KGISWardNo": "116", "KGISTownCode": "2003", "LGD_WardCode": 1302788, "created_user": "SA", "created_date": 1634898537000, "last_edited_user": "SURESHBV1", "last_edited_date": 1692254014000, "_overlap_percent": 33.181204954530394, "_police_station": "Adugodi PS", "_police_feature_index": "782", "_admin_layer": "Ward", "_geometry_clipped": true }, "geometry": { "type": "Polygon", "coordinates": [ [ [ 77.605866999831719, 12.949977000008445 ], [ 77.606353999678959, 12.949960000148547 ], [ 77.607011448326688, 12.949846067502056 ], [ 77.607204999441592, 12.949799320665859 ], [ 77.607385039391374, 12.94977056578772 ], [ 77.610048441351154, 12.949422905192886 ], [ 77.610968907471431, 12.949375243973989 ], [ 77.611161660539196, 12.949365262450952 ], [ 77.61117462475373, 12.949400149252883 ], [ 77.611174976340209, 12.9494010952283 ], [ 77.611223776977269, 12.949532417560944 ], [ 77.611249512117567, 12.949601670004816 ], [ 77.611307952663267, 12.949758934183675 ], [ 77.611941286961127, 12.94988309147992 ], [ 77.612210332489909, 12.949935834067617 ], [ 77.612533722760517, 12.950024836815384 ], [ 77.612580932009578, 12.950035599217669 ], [ 77.612635986552689, 12.950048151205163 ], [ 77.612640861574008, 12.950049262306225 ], [ 77.612668890715341, 12.950058794169598 ], [ 77.612694201243215, 12.950067401088413 ], [ 77.612718920169698, 12.950075807054199 ], [ 77.613694185880519, 12.950407450362727 ], [ 77.613811912771737, 12.950447483220092 ], [ 77.614877586929438, 12.950761346507289 ], [ 77.615291570863263, 12.950871395454055 ], [ 77.615294241187954, 12.950872104931571 ], [ 77.615558716452227, 12.950942409677385 ], [ 77.616289040011168, 12.950853337956 ], [ 77.616744745979602, 12.950751368760248 ], [ 77.617018829916347, 12.950718372232588 ], [ 77.617333174324102, 12.950680528763597 ], [ 77.617545801551586, 12.950756305854645 ], [ 77.61785190929794, 12.951365308678799 ], [ 77.617958185145724, 12.951576743049504 ], [ 77.618440737318593, 12.952143254913938 ], [ 77.618587355012394, 12.952184196252603 ], [ 77.618622000216916, 12.952156000157061 ], [ 77.618626999640043, 12.952152000139534 ], [ 77.618646000217268, 12.952122999944052 ], [ 77.61886700038886, 12.952124000335749 ], [ 77.618902999727297, 12.952120000281448 ], [ 77.618892999831957, 12.952073000141686 ], [ 77.618886000006384, 12.95189099982602 ], [ 77.618950000207874, 12.95162600031917 ], [ 77.618800000158373, 12.951538000423398 ], [ 77.618777999965829, 12.951525000074284 ], [ 77.618054999547269, 12.950364999636856 ], [ 77.618072000244155, 12.950353000282576 ], [ 77.618508000243651, 12.950091000272268 ], [ 77.61840699960544, 12.949939999743666 ], [ 77.618453999729226, 12.949911000002936 ], [ 77.618505999864951, 12.949880000413977 ], [ 77.618549999648565, 12.949853000275592 ], [ 77.618578000316063, 12.949836000109933 ], [ 77.618606000058378, 12.949818999951223 ], [ 77.618653000132056, 12.949790000183041 ], [ 77.618700999586551, 12.949761000299262 ], [ 77.618752000252371, 12.949729999878388 ], [ 77.618805000300299, 12.949698000042291 ], [ 77.618841000437982, 12.949686000267596 ], [ 77.618867999546865, 12.949671000380464 ], [ 77.619155000209801, 12.949509000084104 ], [ 77.619774999792583, 12.949155999849662 ], [ 77.620046395877765, 12.949002905288898 ], [ 77.61953465386226, 12.947992324430659 ], [ 77.619254464835549, 12.947483595248983 ], [ 77.619051000014139, 12.947630000137746 ], [ 77.61892500043237, 12.947720999829988 ], [ 77.618797000173998, 12.947814999970348 ], [ 77.618678000051133, 12.947901000157284 ], [ 77.61854599991544, 12.947996999929424 ], [ 77.618425999935226, 12.948085000315654 ], [ 77.618287999923709, 12.948185000109412 ], [ 77.618153000098417, 12.948283000241714 ], [ 77.618035999807418, 12.948367999903214 ], [ 77.617904000395271, 12.948465000418111 ], [ 77.61778899991522, 12.948547999604029 ], [ 77.617649999963348, 12.948644999901546 ], [ 77.617524000210977, 12.948732999737528 ], [ 77.617399999761417, 12.948820000132319 ], [ 77.617188999907938, 12.948966999823437 ], [ 77.617219999627991, 12.949000000226704 ], [ 77.617232999790971, 12.949019999645467 ], [ 77.617204000317457, 12.949038999938011 ], [ 77.617169000120981, 12.949043999669129 ], [ 77.617035000262518, 12.949137999824234 ], [ 77.617094000196573, 12.949249999569835 ], [ 77.616984000347387, 12.949251999929356 ], [ 77.616864000411383, 12.949254999602053 ], [ 77.616767999727543, 12.949258000263885 ], [ 77.616668000224323, 12.949260000316109 ], [ 77.61660600037429, 12.94926099980397 ], [ 77.616548999644195, 12.94926299974402 ], [ 77.616500000196979, 12.949263999623637 ], [ 77.6164139995509, 12.949265999907194 ], [ 77.616317000043907, 12.949268000410566 ], [ 77.616210999836809, 12.949271000113692 ], [ 77.616087000398593, 12.949273999846756 ], [ 77.615935999809821, 12.949276999638176 ], [ 77.61576000023237, 12.949282000291852 ], [ 77.615605000182413, 12.949285000301167 ], [ 77.615528000446503, 12.949289999622639 ], [ 77.615458000177142, 12.949289000390822 ], [ 77.615407000050979, 12.949290000277477 ], [ 77.615333999728861, 12.949291999777637 ], [ 77.61525999971262, 12.949293000171025 ], [ 77.615175999594612, 12.949294999839529 ], [ 77.615128999802025, 12.949296000166754 ], [ 77.615120000028327, 12.949297000259737 ], [ 77.615062000132923, 12.949296999792496 ], [ 77.614997000177723, 12.949298000106092 ], [ 77.61492799987127, 12.949298999905112 ], [ 77.614861999593543, 12.949300000288693 ], [ 77.614788999861332, 12.949301000445638 ], [ 77.614716000115081, 12.949301999678889 ], [ 77.614651000140057, 12.949302999906536 ], [ 77.614583000137145, 12.949304000415433 ], [ 77.614524000203161, 12.94930500001672 ], [ 77.614416000432286, 12.949305999912294 ], [ 77.614356999578106, 12.949307000388513 ], [ 77.614304000311535, 12.949307000158552 ], [ 77.614244000047847, 12.949307999797821 ], [ 77.614157999850875, 12.949309000149801 ], [ 77.614059999827035, 12.949310999918854 ], [ 77.61400499991656, 12.949310999828535 ], [ 77.61395300033854, 12.949312000426193 ], [ 77.613891000345987, 12.949313000174882 ], [ 77.613831000060387, 12.949313999719493 ], [ 77.613779000175228, 12.94931400019612 ], [ 77.613735000349749, 12.949314999985106 ], [ 77.613687999575077, 12.949316000063058 ], [ 77.613681000118106, 12.949315999823339 ], [ 77.613638000017147, 12.949315000227397 ], [ 77.613588999852567, 12.949314000292883 ], [ 77.613541000300415, 12.949314000337578 ], [ 77.613501000222541, 12.949313000433403 ], [ 77.613423000063122, 12.949311999603648 ], [ 77.613375999612416, 12.949311000345812 ], [ 77.6133230003054, 12.949310999916165 ], [ 77.613272000419954, 12.949310000107042 ], [ 77.613224999955392, 12.949308999918411 ], [ 77.613171999731122, 12.949309000370487 ], [ 77.613126999895968, 12.949307999970461 ], [ 77.613080999743374, 12.949306999659006 ], [ 77.61302500040695, 12.94930700035188 ], [ 77.612988000344401, 12.949306000088791 ], [ 77.612937000448312, 12.949305000213565 ], [ 77.612860999981322, 12.949303999935212 ], [ 77.612809000059841, 12.949304000217548 ], [ 77.61275800015791, 12.949303000307001 ], [ 77.61271000028286, 12.949302000110636 ], [ 77.612664999808445, 12.949301999726703 ], [ 77.61259700003707, 12.949301000437215 ], [ 77.612524999898426, 12.949299999691167 ], [ 77.612484000400286, 12.949298999714477 ], [ 77.612433999883748, 12.949297999655096 ], [ 77.612371000137301, 12.949297999942479 ], [ 77.612318999904602, 12.949297000039003 ], [ 77.612254000147473, 12.949296000388069 ], [ 77.61218800006138, 12.94929499991048 ], [ 77.612112999883422, 12.9492940002228 ], [ 77.612058999929488, 12.949293000443161 ], [ 77.611994000152166, 12.949291999823545 ], [ 77.611945000228943, 12.949291999665219 ], [ 77.611879000139027, 12.949291000012114 ], [ 77.611823999859965, 12.949290000275212 ], [ 77.611751000298497, 12.949289000299432 ], [ 77.611685999587209, 12.949287999611665 ], [ 77.611688999809672, 12.949294999982998 ], [ 77.611633999812867, 12.949295000294091 ], [ 77.611509000312509, 12.949106000312973 ], [ 77.611211999667375, 12.948976999763419 ], [ 77.610963000375918, 12.948981999783292 ], [ 77.609889999648487, 12.949238000253292 ], [ 77.609488000206497, 12.949320000311257 ], [ 77.609161000245251, 12.949332000091161 ], [ 77.608600000365115, 12.949375999565993 ], [ 77.607292999730817, 12.949558999992931 ], [ 77.605868999964613, 12.949761000094066 ], [ 77.605781101095047, 12.949982196383131 ], [ 77.605804302630531, 12.949986157962584 ], [ 77.605866999831719, 12.949977000008445 ] ] ] } },
{ "type": "Feature", "properties": { "KGISWardID": 5106, "KGISWardCode": "2003115", "KGISWardName": "Vannarpete", "SHAPE.STArea()": 762326.9225015, "SHAPE.STLength()": 5446.4004080265304, "OBJECTID": 18958, "KGISWardNo": "115", "KGISTownCode": "2003", "LGD_WardCode": 1302787, "created_user": "SA", "created_date": 1634898537000, "last_edited_user": "SURESHBV1", "last_edited_date": 1692254014000, "_overlap_percent": 9.9686579776120041, "_police_station": "Adugodi PS", "_police_feature_index": "782", "_admin_layer": "Ward", "_geometry_clipped": true }, "geometry": { "type": "Polygon", "coordinates": [ [ [ 77.619774999792583, 12.949155999849662 ], [ 77.619155000209801, 12.949509000084104 ], [ 77.618867999546865, 12.949671000380464 ], [ 77.618841000437982, 12.949686000267596 ], [ 77.618805000300299, 12.949698000042291 ], [ 77.618752000252371, 12.949729999878388 ], [ 77.618700999586551, 12.949761000299262 ], [ 77.618653000132056, 12.949790000183041 ], [ 77.618606000058378, 12.949818999951223 ], [ 77.618578000316063, 12.949836000109933 ], [ 77.618549999648565, 12.949853000275592 ], [ 77.618505999864951, 12.949880000413977 ], [ 77.618453999729226, 12.949911000002936 ], [ 77.61840699960544, 12.949939999743666 ], [ 77.618508000243651, 12.950091000272268 ], [ 77.618072000244155, 12.950353000282576 ], [ 77.618054999547269, 12.950364999636856 ], [ 77.618777999965829, 12.951525000074284 ], [ 77.618800000158373, 12.951538000423398 ], [ 77.618950000207874, 12.95162600031917 ], [ 77.618886000006384, 12.95189099982602 ], [ 77.618892999831957, 12.952073000141686 ], [ 77.618902999727297, 12.952120000281448 ], [ 77.61886700038886, 12.952124000335749 ], [ 77.618646000217268, 12.952122999944052 ], [ 77.618626999640043, 12.952152000139534 ], [ 77.618622000216916, 12.952156000157061 ], [ 77.618587355012394, 12.952184196252603 ], [ 77.618657441757875, 12.952203767186424 ], [ 77.61890758434437, 12.952273615940141 ], [ 77.619626659399046, 12.95223521364022 ], [ 77.621209560580596, 12.951673896812895 ], [ 77.621382423443222, 12.951603982440796 ], [ 77.621311059641613, 12.951501918783537 ], [ 77.621305108204055, 12.951488959519896 ], [ 77.621182781504942, 12.951222589972769 ], [ 77.621029652742919, 12.950889145193303 ], [ 77.62078403488772, 12.950354301202871 ], [ 77.620702667761336, 12.950177120172642 ], [ 77.620252933290374, 12.949410772435559 ], [ 77.620046395877765, 12.949002905288898 ], [ 77.619774999792583, 12.949155999849662 ] ] ] } },
{ "type": "Feature", "properties": { "KGISWardID": 5110, "KGISWardCode": "2003117", "KGISWardName": "Shanthi Nagar", "SHAPE.STArea()": 2705605.97820873, "SHAPE.STLength()": 7532.7719817227635, "OBJECTID": 18960, "KGISWardNo": "117", "KGISTownCode": "2003", "LGD_WardCode": 1302789, "created_user": "SA", "created_date": 1634898537000, "last_edited_user": "SURESHBV1", "last_edited_date": 1692254014000, "_overlap_percent": 0.12398205082022179, "_police_station": "Adugodi PS", "_police_feature_index": "782", "_admin_layer": "Ward", "_geometry_clipped": true }, "geometry": { "type": "MultiPolygon", "coordinates": [ [ [ [ 77.603422000440929, 12.950359999877163 ], [ 77.603402151354928, 12.950361353238085 ], [ 77.603443306867263, 12.95050886912275 ], [ 77.603618106044792, 12.950465208271128 ], [ 77.603736079960825, 12.950435740859653 ], [ 77.603909561547241, 12.950392409200688 ], [ 77.60397995616897, 12.950379776611381 ], [ 77.604802525936833, 12.950232156839755 ], [ 77.605203691480298, 12.95017966065882 ], [ 77.605644706854676, 12.95012194909906 ], [ 77.605690190181306, 12.950115996766772 ], [ 77.605727858074019, 12.949997874476642 ], [ 77.603422000440929, 12.950359999877163 ] ] ], [ [ [ 77.606353999678959, 12.949960000148547 ], [ 77.605866999831719, 12.949977000008445 ], [ 77.605804302630531, 12.949986157962584 ], [ 77.605960268684711, 12.950012788610202 ], [ 77.60619409338311, 12.950021742161397 ], [ 77.606571615115755, 12.949953595560267 ], [ 77.606780628772853, 12.949901815483049 ], [ 77.607011448326688, 12.949846067502056 ], [ 77.606353999678959, 12.949960000148547 ] ] ] ] } }
]
}
