{
"type": "FeatureCollection",
"name": "police_station_boundary.writing_20260805_172659",
"crs": { "type": "name", "properties": { "name": "urn:ogc:def:crs:OGC:1.3:CRS84" } },
"features": [
{ "type": "Feature", "properties": { "Shape.STArea()": 54750267.261009872, "Shape.STLength()": 47786.717946268203, "OBJECTID": 928, "KGISPS_BOUNDID": 225, "PS_BOUNDName": "Kumbalagudu PS", "PS_BOUNDCode": "PSB - 225", "KGISPS_SUB_DIVID": 108, "_source_layer": "Police Station Boundary", "_source_layer_url": "https://kgis.ksrsac.in/kgismaps/rest/services/Home/Home_Department/MapServer/82", "_police_station": "Kumbalagudu PS" }, "geometry": { "type": "Polygon", "coordinates": [ [ [ 77.458555895729432, 12.867928809596449 ], [ 77.458575802870982, 12.867937406007423 ], [ 77.458780763494474, 12.868025917822171 ], [ 77.459013346652114, 12.867889862771143 ], [ 77.459263277526375, 12.867533710373879 ], [ 77.459386144502943, 12.867140502261808 ], [ 77.459730636867718, 12.866487030920835 ], [ 77.460263457000536, 12.866156910693572 ], [ 77.460506995640415, 12.866145061554617 ], [ 77.46079082144972, 12.866266707384034 ], [ 77.461121089305323, 12.867152901999663 ], [ 77.461610645547282, 12.868381843101947 ], [ 77.462705447663026, 12.869710279083844 ], [ 77.463241363312761, 12.870182543834721 ], [ 77.463496179170875, 12.870752149445769 ], [ 77.463694902252101, 12.871639574825862 ], [ 77.463834733147081, 12.87248452339931 ], [ 77.463873779311129, 12.8734881972686 ], [ 77.463762018446999, 12.874019955856177 ], [ 77.463610746825708, 12.87499673389528 ], [ 77.463591601043603, 12.876029641953973 ], [ 77.463568670492833, 12.876675312385373 ], [ 77.463384937678896, 12.877322496365641 ], [ 77.463120350758459, 12.878173638597724 ], [ 77.46297085962432, 12.879083463548911 ], [ 77.46302180688636, 12.879310089246287 ], [ 77.463266268667425, 12.879391459377551 ], [ 77.463473249902833, 12.879377559410605 ], [ 77.463691127012879, 12.879232075310791 ], [ 77.463957148553334, 12.879026372764576 ], [ 77.464088464862272, 12.878750221520045 ], [ 77.464244028928988, 12.878461888472843 ], [ 77.464449489102734, 12.878292615415109 ], [ 77.464889097924129, 12.878396052816241 ], [ 77.465554416402313, 12.879154772548068 ], [ 77.466288017942162, 12.88066587502354 ], [ 77.46654747127873, 12.881033969057805 ], [ 77.466863390723404, 12.880947322939955 ], [ 77.467759960444397, 12.880436854606776 ], [ 77.468392498627381, 12.880335268827855 ], [ 77.470191714422185, 12.879935810044817 ], [ 77.47208638584479, 12.879332240353026 ], [ 77.473335278932538, 12.878722807307303 ], [ 77.474014190308097, 12.878381715158106 ], [ 77.474681855582887, 12.878136351392552 ], [ 77.475060202790431, 12.878204492125644 ], [ 77.475330555738367, 12.878440992280254 ], [ 77.475431767857302, 12.878822524109822 ], [ 77.475173409387253, 12.879479018303972 ], [ 77.475113208923105, 12.879559769831459 ], [ 77.474972999939979, 12.879758080475717 ], [ 77.47495817979221, 12.879779041168424 ], [ 77.474824143039967, 12.880048377492688 ], [ 77.474865346155397, 12.880416583397242 ], [ 77.474943081162905, 12.880677217457185 ], [ 77.475157616672874, 12.880949960012064 ], [ 77.47544762203961, 12.881162430829162 ], [ 77.475649794466705, 12.881310551370087 ], [ 77.476068168282836, 12.881612278125393 ], [ 77.47618282342053, 12.881682345443306 ], [ 77.476421160198015, 12.881903177711642 ], [ 77.476526703634278, 12.882000969527533 ], [ 77.476934382200639, 12.882368682622683 ], [ 77.477354834798689, 12.882747567897466 ], [ 77.477546740652826, 12.883005511795297 ], [ 77.477668952049981, 12.883125006638734 ], [ 77.477944849187878, 12.883394771768934 ], [ 77.47826470781709, 12.883787030571622 ], [ 77.47850729849047, 12.884106610058982 ], [ 77.478711013001117, 12.884277477786293 ], [ 77.47890207699885, 12.884449594506677 ], [ 77.478979748572158, 12.884621655639876 ], [ 77.479018345479602, 12.884683406556345 ], [ 77.479006283665598, 12.88474450788771 ], [ 77.479007017113616, 12.884819040716213 ], [ 77.47895806971637, 12.884992301071595 ], [ 77.478884531849616, 12.88524033411046 ], [ 77.478897804986985, 12.885302324878602 ], [ 77.478898660677658, 12.885389279848619 ], [ 77.478899271889148, 12.885451390541101 ], [ 77.478899871990791, 12.885512371947954 ], [ 77.478900360964772, 12.885562060501456 ], [ 77.478875648279399, 12.885624411050046 ], [ 77.478838971413296, 12.88569929821281 ], [ 77.478801585631189, 12.885760639400722 ], [ 77.478751548981236, 12.885823229795752 ], [ 77.478739620449446, 12.885897882556682 ], [ 77.478727814153984, 12.885984957457561 ], [ 77.478741198456106, 12.88605824108434 ], [ 77.478747652070936, 12.886073637252276 ], [ 77.478767133619741, 12.886120111927967 ], [ 77.478856256458386, 12.886168960975644 ], [ 77.478944681530734, 12.886205393300827 ], [ 77.479004333199697, 12.886213850737152 ], [ 77.479083627744686, 12.886225092836828 ], [ 77.479108956256113, 12.886228683797725 ], [ 77.479222338536431, 12.886227609722997 ], [ 77.479336296350979, 12.88622653014674 ], [ 77.479356155401177, 12.886220307449969 ], [ 77.479499837402102, 12.886175287595977 ], [ 77.479776393677909, 12.886085704259939 ], [ 77.480141105310068, 12.885946721513353 ], [ 77.480292473241576, 12.885945287019585 ], [ 77.480406430835743, 12.88594420700087 ], [ 77.480570460687915, 12.885942652341575 ], [ 77.480696627001052, 12.885953879759974 ], [ 77.480759936759569, 12.88595327965759 ], [ 77.480924088920915, 12.885964146894649 ], [ 77.481125982209662, 12.88594980967517 ], [ 77.481453552227705, 12.885897010895743 ], [ 77.481813363541434, 12.885845035377756 ], [ 77.481924487696389, 12.885825780353963 ], [ 77.481965061966861, 12.885818750252096 ], [ 77.482077831803551, 12.885755564433797 ], [ 77.48221653746991, 12.885754248932397 ], [ 77.482367905046786, 12.88575281326005 ], [ 77.482494524298545, 12.885751612250321 ], [ 77.482633352348373, 12.885762718631501 ], [ 77.482849854979023, 12.88594588434839 ], [ 77.482926720379439, 12.886094234258218 ], [ 77.482966654264629, 12.886291498178831 ], [ 77.482967745199673, 12.886402167789633 ], [ 77.482866663164813, 12.886658368364538 ], [ 77.482707018862996, 12.887104861624426 ], [ 77.48250938808205, 12.88755171524264 ], [ 77.482376291310899, 12.888122189270469 ], [ 77.482243464565883, 12.888778494222043 ], [ 77.482009155981743, 12.88930023534016 ], [ 77.481841872800942, 12.889555934442276 ], [ 77.481729223785621, 12.889631542570793 ], [ 77.481591728974479, 12.889755950010285 ], [ 77.481573595552447, 12.889774032290232 ], [ 77.481404197505512, 12.889942948315163 ], [ 77.48134174362832, 12.890030503533534 ], [ 77.481254173738591, 12.890081027119768 ], [ 77.481128041784629, 12.890131916377904 ], [ 77.481052766783009, 12.890145053490855 ], [ 77.481019937257145, 12.890145364809262 ], [ 77.481269572490319, 12.890613304587772 ], [ 77.481388344051297, 12.890835939753837 ], [ 77.481464430382786, 12.890978562748309 ], [ 77.481269957536142, 12.891146769785216 ], [ 77.481114819230143, 12.89128095512752 ], [ 77.478822569431756, 12.893263581563637 ], [ 77.477626480168809, 12.894298092145776 ], [ 77.477506039117102, 12.894402262390257 ], [ 77.476000340623642, 12.895704537979402 ], [ 77.474075555806721, 12.897323297592449 ], [ 77.473165819987585, 12.898088382188899 ], [ 77.471617359038447, 12.90012446994159 ], [ 77.470571382704449, 12.902300203164167 ], [ 77.470492570410428, 12.902501321818677 ], [ 77.469815398644059, 12.904229357264951 ], [ 77.468747335385061, 12.907136809147701 ], [ 77.467735623543334, 12.909828576977242 ], [ 77.467317106945742, 12.911366893328042 ], [ 77.467368066572888, 12.912014962734313 ], [ 77.46737634147172, 12.912696755198574 ], [ 77.467412301519801, 12.913496140983158 ], [ 77.467649091298355, 12.914707280520808 ], [ 77.468122410027576, 12.917101983716648 ], [ 77.468373416225973, 12.91815033562148 ], [ 77.468708725101465, 12.919550768190536 ], [ 77.469118532479172, 12.921201494543833 ], [ 77.469360766691153, 12.922964112125236 ], [ 77.469400807780218, 12.924177107660565 ], [ 77.469370346604677, 12.926797180542421 ], [ 77.469364046559008, 12.927902370328958 ], [ 77.469352402239849, 12.929945508906426 ], [ 77.469327229553301, 12.934363894000743 ], [ 77.469323412371295, 12.935074212672557 ], [ 77.469316301519001, 12.936397442389115 ], [ 77.469310318846752, 12.937511095433758 ], [ 77.469309621644953, 12.937640806197368 ], [ 77.4693088528565, 12.937783924000126 ], [ 77.469309708460884, 12.937928016670778 ], [ 77.469477687575605, 12.937919538263531 ], [ 77.469475926975491, 12.938317174864251 ], [ 77.469497313839895, 12.939028486060847 ], [ 77.469534798484204, 12.939937009476289 ], [ 77.469617568291284, 12.941446146387927 ], [ 77.469706721608219, 12.943021016429499 ], [ 77.469749762065334, 12.943941678737501 ], [ 77.469763862950501, 12.944243310022678 ], [ 77.469825798672105, 12.944796929080871 ], [ 77.469893883657448, 12.945405514722667 ], [ 77.469980922378483, 12.946019782614563 ], [ 77.469981927239544, 12.946026872907288 ], [ 77.46998288603281, 12.946032092457978 ], [ 77.470162987129115, 12.94701250816814 ], [ 77.470293997853275, 12.947694903918769 ], [ 77.470316447245722, 12.947811834409741 ], [ 77.470340741648158, 12.947938375248912 ], [ 77.470401445310657, 12.948316431766351 ], [ 77.470429250388889, 12.948489595856859 ], [ 77.470476535175393, 12.948784076186344 ], [ 77.470481680896427, 12.948816124730733 ], [ 77.470549904001814, 12.949240997675984 ], [ 77.470561715724813, 12.949314558198326 ], [ 77.470574078079153, 12.949391550464121 ], [ 77.470588232523582, 12.949479698586773 ], [ 77.470518751030028, 12.949488727648017 ], [ 77.470317067150162, 12.949495908544749 ], [ 77.469272429170786, 12.949533097272131 ], [ 77.468269400431623, 12.949452978153802 ], [ 77.468008562453164, 12.949686902894445 ], [ 77.466948801604161, 12.949711411167868 ], [ 77.465905033115604, 12.949651606602494 ], [ 77.465383789994959, 12.949564213980505 ], [ 77.46400382446123, 12.949834333916295 ], [ 77.463409726399291, 12.950058403248734 ], [ 77.462014821960011, 12.950536067476905 ], [ 77.462005069064134, 12.9505881897098 ], [ 77.461974510793539, 12.950599715586014 ], [ 77.461975743121187, 12.950744932005513 ], [ 77.461887876302455, 12.951214561529216 ], [ 77.461885520197555, 12.951227160784903 ], [ 77.461555252058176, 12.952566626933889 ], [ 77.461536498873102, 12.952682704016878 ], [ 77.461413458678479, 12.95330296194078 ], [ 77.461257425906098, 12.954332819680211 ], [ 77.461232128015311, 12.954499787018502 ], [ 77.461116484262888, 12.954905306099063 ], [ 77.461111690013837, 12.954996707169272 ], [ 77.46110573251201, 12.955146924800237 ], [ 77.461105667517529, 12.95514856078479 ], [ 77.461136278209437, 12.955215917089726 ], [ 77.4611541596732, 12.955255258999651 ], [ 77.461240147791045, 12.955599009763059 ], [ 77.461242129803551, 12.955607026027939 ], [ 77.460693968838683, 12.955914274764709 ], [ 77.460147544291459, 12.956211065987747 ], [ 77.459550961121195, 12.956556546428061 ], [ 77.459011590429299, 12.956825591537216 ], [ 77.458342286556402, 12.956991523890322 ], [ 77.457795414813944, 12.95712420231804 ], [ 77.457687439161248, 12.957150399045654 ], [ 77.457224059416959, 12.95727451167625 ], [ 77.457280540782378, 12.95750330600792 ], [ 77.457367840592283, 12.957870333765369 ], [ 77.456666287950938, 12.958104156593601 ], [ 77.456331043835689, 12.958215932946706 ], [ 77.455890563237887, 12.958389477059779 ], [ 77.455895739777787, 12.958535379642795 ], [ 77.455841836232111, 12.958542510929703 ], [ 77.455541982615671, 12.958581700584686 ], [ 77.455423113233877, 12.958604138508019 ], [ 77.455107302026875, 12.958663941172674 ], [ 77.454631418853481, 12.95885607928439 ], [ 77.454133882527842, 12.958957463947788 ], [ 77.453845164930513, 12.959016233675749 ], [ 77.453326521312178, 12.958998491037368 ], [ 77.45265763864559, 12.959264517780488 ], [ 77.452150332427706, 12.959260845972613 ], [ 77.451875660777503, 12.959413896086428 ], [ 77.451342935954699, 12.959698196984633 ], [ 77.451183450005772, 12.959718616713277 ], [ 77.450223372898549, 12.959841446581869 ], [ 77.45013594270057, 12.95985224800701 ], [ 77.450045517780225, 12.959860628129499 ], [ 77.4499386996699, 12.959876676221084 ], [ 77.449039963319635, 12.960012188397693 ], [ 77.448693137831228, 12.960064406768039 ], [ 77.448217518748052, 12.960194257202557 ], [ 77.44783447152264, 12.960298833925734 ], [ 77.447724925537429, 12.96032877957197 ], [ 77.447445037625428, 12.960451463760489 ], [ 77.447403079913315, 12.96046990710213 ], [ 77.446260757730315, 12.960116744670499 ], [ 77.445989160278643, 12.960084379876312 ], [ 77.445010039300669, 12.959967765900029 ], [ 77.444963817979442, 12.959966406506114 ], [ 77.443788753952731, 12.959931930978838 ], [ 77.443694636536733, 12.959937153228553 ], [ 77.443552133158192, 12.959943127788064 ], [ 77.443439162183381, 12.959947863723595 ], [ 77.443106251447759, 12.959961820651362 ], [ 77.442377171042608, 12.959992384990255 ], [ 77.442257854711713, 12.959962586469162 ], [ 77.442112644979034, 12.95991693800614 ], [ 77.441579465140848, 12.959931587087018 ], [ 77.440230294887272, 12.959978091745967 ], [ 77.439338245446422, 12.959989148188031 ], [ 77.439267044483941, 12.959988859415521 ], [ 77.439176033033519, 12.959988491507097 ], [ 77.439174224143059, 12.959977945255824 ], [ 77.438370621939029, 12.959931496431656 ], [ 77.438393382370066, 12.95957963989996 ], [ 77.438403790884621, 12.959417120583872 ], [ 77.438426420065625, 12.959169856471664 ], [ 77.438445386647828, 12.958963021824989 ], [ 77.438527281828158, 12.958302888836753 ], [ 77.438538485632918, 12.958198298427979 ], [ 77.438571006395662, 12.957894378701813 ], [ 77.438585440980034, 12.957760265811007 ], [ 77.43870494698983, 12.956994103370342 ], [ 77.438717134288197, 12.956797318986155 ], [ 77.438721034518807, 12.956734366737832 ], [ 77.438689463977255, 12.956732327687911 ], [ 77.438701929269556, 12.955643221308129 ], [ 77.438728280390649, 12.954528492554878 ], [ 77.438730225652577, 12.954446216675187 ], [ 77.438731065491154, 12.954407099375478 ], [ 77.438680219611655, 12.953949405531667 ], [ 77.438667748487546, 12.953600894890476 ], [ 77.438662754301831, 12.953554405170243 ], [ 77.438653131724195, 12.953466352884417 ], [ 77.438643615446864, 12.953378525484636 ], [ 77.438596448925324, 12.952725964564655 ], [ 77.438579745177705, 12.952494816400943 ], [ 77.438552309431472, 12.952229139878801 ], [ 77.438513086900073, 12.951849414938559 ], [ 77.438443748903438, 12.951178019403482 ], [ 77.438555100658235, 12.951201499825466 ], [ 77.438486032383508, 12.949729194187906 ], [ 77.438454744436726, 12.949124114970656 ], [ 77.438295555697948, 12.949165093809029 ], [ 77.438295373188922, 12.949162620738111 ], [ 77.438078801095926, 12.949066012366387 ], [ 77.438015969532998, 12.949035501608765 ], [ 77.437193370869409, 12.948636046465065 ], [ 77.436411461548957, 12.948617354965512 ], [ 77.435969473974069, 12.948597405872803 ], [ 77.435665362032921, 12.948588116376282 ], [ 77.434995363918858, 12.948551493583018 ], [ 77.434908212675708, 12.948546867887702 ], [ 77.434921903236315, 12.948471428419587 ], [ 77.43389279856774, 12.94840531225616 ], [ 77.433652778175372, 12.948389858551923 ], [ 77.432450762288823, 12.948312545768127 ], [ 77.431983242732343, 12.948285930507932 ], [ 77.431727512072101, 12.948272586822304 ], [ 77.431352232276538, 12.94825304165659 ], [ 77.431357855445995, 12.948327217543321 ], [ 77.431335036347264, 12.948325826705394 ], [ 77.429660281617132, 12.947993974715763 ], [ 77.429145255970127, 12.947877061052457 ], [ 77.428987117132948, 12.947868855712521 ], [ 77.428844467103545, 12.947861454607686 ], [ 77.428713633766762, 12.947870814168942 ], [ 77.428537769338163, 12.947873305437412 ], [ 77.428122563525378, 12.947879185472393 ], [ 77.427961182218695, 12.94788147090688 ], [ 77.427747424402199, 12.94788500957004 ], [ 77.427369379239835, 12.947891266795363 ], [ 77.427149323045455, 12.947894908823024 ], [ 77.427043647017015, 12.947893426542812 ], [ 77.42664781468892, 12.947887873781147 ], [ 77.426448516474522, 12.947885077516128 ], [ 77.426293679271467, 12.94788555262304 ], [ 77.425909399470456, 12.947886728251198 ], [ 77.425521145560623, 12.947887916814826 ], [ 77.425256139415836, 12.947888726545404 ], [ 77.425238077832248, 12.94769504971414 ], [ 77.425123185042537, 12.947692335060841 ], [ 77.424704886392092, 12.947682449888942 ], [ 77.424276807619918, 12.947672333372827 ], [ 77.423865267458226, 12.947662606227412 ], [ 77.423820337709429, 12.94766154508579 ], [ 77.423785434265582, 12.947661032184625 ], [ 77.423726463917149, 12.946935672709181 ], [ 77.423622959534171, 12.946393483324821 ], [ 77.423574841366076, 12.946141594826171 ], [ 77.423592967104, 12.945929958364783 ], [ 77.423633837162996, 12.945455667312919 ], [ 77.423690190234751, 12.944801397424378 ], [ 77.423694697456682, 12.944748865990828 ], [ 77.423728576307596, 12.942707242360763 ], [ 77.423740689560205, 12.941977413044325 ], [ 77.423630079215442, 12.941202814811366 ], [ 77.421330782357899, 12.940598193712265 ], [ 77.42126394024848, 12.940601498067378 ], [ 77.420884330015951, 12.940620264546538 ], [ 77.420590275383063, 12.940617162707071 ], [ 77.419940899814335, 12.940581331171748 ], [ 77.419752312900869, 12.940549717387936 ], [ 77.419768978498979, 12.940394784450481 ], [ 77.419777792294894, 12.940312080633753 ], [ 77.419287920668651, 12.940332180772717 ], [ 77.418856638805821, 12.940136152104699 ], [ 77.418267082614761, 12.940058380490751 ], [ 77.417936507978766, 12.940332245928603 ], [ 77.417333728553302, 12.940831664111409 ], [ 77.416882327112631, 12.941036565307753 ], [ 77.416362654374097, 12.941034810431564 ], [ 77.416048169434603, 12.940927714752965 ], [ 77.41575354642184, 12.940827290713376 ], [ 77.415610504800156, 12.940695120616397 ], [ 77.415485674624748, 12.940635946479508 ], [ 77.415304096808384, 12.939099379575106 ], [ 77.415168088855793, 12.939110807140933 ], [ 77.414664930647049, 12.939224994895643 ], [ 77.414427490380476, 12.939303157917772 ], [ 77.414278834715105, 12.93885275647901 ], [ 77.414106495402933, 12.938416944182375 ], [ 77.413924036376486, 12.937845456242753 ], [ 77.413783348558354, 12.937284779033261 ], [ 77.41381559206576, 12.936839990332007 ], [ 77.413962617929215, 12.936807857135772 ], [ 77.415225499825709, 12.936531852718028 ], [ 77.415604540265178, 12.93635494907792 ], [ 77.415642190397861, 12.936334914706404 ], [ 77.41583726230742, 12.936242301017449 ], [ 77.415948878367274, 12.936199095673564 ], [ 77.41680327159041, 12.935854429292503 ], [ 77.417002203499067, 12.935774178469991 ], [ 77.416963414752047, 12.935632006974107 ], [ 77.416957316225577, 12.93560978743607 ], [ 77.417189996049544, 12.935419569229655 ], [ 77.417424623745049, 12.935277724093668 ], [ 77.417680465097305, 12.935072899162702 ], [ 77.418149945753171, 12.934819341940003 ], [ 77.41861903897501, 12.934472754853067 ], [ 77.419041530457164, 12.933966093400063 ], [ 77.419075855060555, 12.934006604490429 ], [ 77.419084377405213, 12.93402033072871 ], [ 77.41915030489092, 12.934144476383134 ], [ 77.419368847420159, 12.934555998645942 ], [ 77.419945342051349, 12.934514112554915 ], [ 77.420382004024916, 12.934471524311615 ], [ 77.420445466632373, 12.934442723045185 ], [ 77.420418089082844, 12.934243192381954 ], [ 77.420430099636661, 12.934239502879521 ], [ 77.420726722341357, 12.934295118055287 ], [ 77.420648149260941, 12.934145770254906 ], [ 77.420598553741257, 12.933999407144874 ], [ 77.420691374646069, 12.933319432870764 ], [ 77.42063311796916, 12.932990321321979 ], [ 77.421028708048766, 12.932801478168466 ], [ 77.421127311972825, 12.932754376418947 ], [ 77.42115908335326, 12.931994474748707 ], [ 77.421062843739804, 12.931536656166951 ], [ 77.42072092315118, 12.931106029921494 ], [ 77.420353393741138, 12.930521695397845 ], [ 77.419979294659882, 12.930210332524252 ], [ 77.419748922010498, 12.92991603304683 ], [ 77.419646645210236, 12.929092461399776 ], [ 77.419454706653838, 12.928304526486478 ], [ 77.41957765654054, 12.927625498044165 ], [ 77.419274674069953, 12.927141996906531 ], [ 77.419721166414462, 12.92647931269523 ], [ 77.420354918952199, 12.925480943526921 ], [ 77.420533466837014, 12.925199622945422 ], [ 77.421287097577434, 12.924983729696265 ], [ 77.42167282557179, 12.92483240581295 ], [ 77.422087862336298, 12.925253768089167 ], [ 77.422303934573549, 12.925371837468008 ], [ 77.422752527810601, 12.925215825499828 ], [ 77.422406211346811, 12.924049531590116 ], [ 77.421936012298559, 12.923311195518943 ], [ 77.421896398674392, 12.92324896366836 ], [ 77.421837029469685, 12.923155766291281 ], [ 77.421698207979588, 12.923229700241196 ], [ 77.421650024759501, 12.923255313724598 ], [ 77.420653475721849, 12.923309744784124 ], [ 77.418936240005308, 12.923412167582502 ], [ 77.418795224206349, 12.923423568827186 ], [ 77.418342777691379, 12.923460151578132 ], [ 77.417860933740542, 12.923499110247965 ], [ 77.417162176913322, 12.923541074426803 ], [ 77.416998495424579, 12.923548267176578 ], [ 77.415985721914438, 12.923709568082803 ], [ 77.415866664941731, 12.923742660230083 ], [ 77.414338612299261, 12.924167641480262 ], [ 77.413917786975333, 12.924284627636062 ], [ 77.412148623479496, 12.924771128010221 ], [ 77.412057836817269, 12.924796063875021 ], [ 77.411142037630327, 12.925041749913172 ], [ 77.411074075799135, 12.925060940342396 ], [ 77.410578136718911, 12.925200390217999 ], [ 77.409984692480222, 12.925367337525074 ], [ 77.409977952591959, 12.925251696283567 ], [ 77.409898197513414, 12.924071767238345 ], [ 77.409845933202817, 12.923298545087302 ], [ 77.409813188561515, 12.922814113179497 ], [ 77.409806998780098, 12.922341025051239 ], [ 77.409805658729795, 12.92224023800568 ], [ 77.409283736631451, 12.920634253087952 ], [ 77.409265211571096, 12.920577175835747 ], [ 77.409135913937263, 12.919719837306724 ], [ 77.409096156868586, 12.919147389430686 ], [ 77.409053102162403, 12.91915078919396 ], [ 77.408768389925626, 12.91719309005861 ], [ 77.408737775990176, 12.916982585171651 ], [ 77.408918511105043, 12.915808478859061 ], [ 77.408947029530424, 12.915623213242425 ], [ 77.408951816828306, 12.914556599231112 ], [ 77.408931600588687, 12.914396226943978 ], [ 77.408764453102364, 12.913070249424162 ], [ 77.40875162514142, 12.912968481196497 ], [ 77.408062564434857, 12.912558979956239 ], [ 77.407693120909883, 12.910271321998055 ], [ 77.408370592610936, 12.910172009947104 ], [ 77.40839393199542, 12.910168635072433 ], [ 77.408546344340849, 12.910146302847023 ], [ 77.408540021556263, 12.910134816426032 ], [ 77.408510024800563, 12.910055433828786 ], [ 77.408647684902363, 12.910036370172504 ], [ 77.408675837988199, 12.910022719956469 ], [ 77.40888895309827, 12.909919391748879 ], [ 77.409183331023044, 12.909776661868259 ], [ 77.409814469399677, 12.909506664119641 ], [ 77.409858798055524, 12.909487206554651 ], [ 77.40986874079789, 12.909481785692094 ], [ 77.409935844947142, 12.909445204435421 ], [ 77.410707387310268, 12.909055360013785 ], [ 77.410720287251323, 12.909048844744664 ], [ 77.410822538830999, 12.908977784723026 ], [ 77.410832689224023, 12.908972603162999 ], [ 77.410895967794872, 12.908940439231863 ], [ 77.41135600503894, 12.908706535462921 ], [ 77.411460883813888, 12.908653211221635 ], [ 77.411610223684349, 12.908577279932528 ], [ 77.411708601719013, 12.908527259359484 ], [ 77.411948099197843, 12.908405488019202 ], [ 77.411938856718422, 12.908377315646783 ], [ 77.411902301348718, 12.908265878260774 ], [ 77.411892080639731, 12.908234723253228 ], [ 77.411685497920956, 12.907604989171254 ], [ 77.411652725756312, 12.907494038141527 ], [ 77.41163648635488, 12.907424610874033 ], [ 77.411526380477156, 12.906953839846699 ], [ 77.411503390234003, 12.906854981096799 ], [ 77.411417409471042, 12.906839873789655 ], [ 77.410958911137243, 12.906745716358317 ], [ 77.410529134206783, 12.90686529243008 ], [ 77.410320948250686, 12.906863003942519 ], [ 77.410285294645192, 12.906862652411526 ], [ 77.409956179906558, 12.90693410657523 ], [ 77.409585637947004, 12.906851209705057 ], [ 77.409582915480783, 12.906788365552362 ], [ 77.409569417892399, 12.906672321029767 ], [ 77.40953471625248, 12.906372948529089 ], [ 77.409505611054186, 12.905764377143575 ], [ 77.409502327268456, 12.905695715655748 ], [ 77.409497975841276, 12.905604736295835 ], [ 77.409496102728383, 12.90556554656426 ], [ 77.409413725917716, 12.905535755958317 ], [ 77.409335549943194, 12.905507484323465 ], [ 77.409265623419614, 12.904975304161708 ], [ 77.409250134730101, 12.904857417505195 ], [ 77.409237155676806, 12.904758635042871 ], [ 77.409232684993597, 12.904724614079088 ], [ 77.409217269918997, 12.904193026450953 ], [ 77.408788956395725, 12.904122141673144 ], [ 77.408929885414452, 12.903655426677526 ], [ 77.409138420891892, 12.902964805944091 ], [ 77.409390869638699, 12.902128756452614 ], [ 77.409279946685771, 12.901053675749997 ], [ 77.409250741108238, 12.900770616538365 ], [ 77.409073078790513, 12.90003824870392 ], [ 77.407964367860288, 12.899918960988428 ], [ 77.407731929395936, 12.898745184284071 ], [ 77.407510238915478, 12.898728062932461 ], [ 77.407237959359406, 12.898707034818601 ], [ 77.407135053889633, 12.898699087562049 ], [ 77.406108340703668, 12.898239520220528 ], [ 77.40608402577395, 12.898216473769128 ], [ 77.409087949148699, 12.897425895554337 ], [ 77.40979751506346, 12.897232078168832 ], [ 77.409808188280948, 12.897229213132997 ], [ 77.41140768272372, 12.89707401066366 ], [ 77.411742596597549, 12.897041538660027 ], [ 77.41213345797027, 12.896988607891227 ], [ 77.412697507953041, 12.896884722263623 ], [ 77.412799557566245, 12.896858929450799 ], [ 77.414897362910736, 12.896328698535454 ], [ 77.41495582928718, 12.896313920501266 ], [ 77.416298800435612, 12.895897145612672 ], [ 77.416300403782984, 12.895896648303616 ], [ 77.416588046395788, 12.896060859126607 ], [ 77.417165419163169, 12.896390471088623 ], [ 77.418212048602911, 12.896987969424 ], [ 77.41855441578852, 12.897183417779337 ], [ 77.418592206868126, 12.897204991068058 ], [ 77.418797022959609, 12.898369110700282 ], [ 77.418817086013178, 12.89848314538302 ], [ 77.41897217330974, 12.898459561142056 ], [ 77.419011019695333, 12.898449948535859 ], [ 77.419127346608207, 12.898421166861965 ], [ 77.419179505135929, 12.898908446748541 ], [ 77.419234813756844, 12.899344256626343 ], [ 77.419289525644814, 12.899775349124011 ], [ 77.419235850167553, 12.900103373837908 ], [ 77.419244545005782, 12.900259917121659 ], [ 77.419262878312381, 12.900370544159237 ], [ 77.419265491577789, 12.900386472119072 ], [ 77.419432751760922, 12.900408885540511 ], [ 77.419760674421127, 12.900452724994555 ], [ 77.419809297306216, 12.900459229579019 ], [ 77.419869858533048, 12.900475379261103 ], [ 77.419897747498709, 12.900482815739691 ], [ 77.419992186971598, 12.900507999018275 ], [ 77.42021424156431, 12.900485734800387 ], [ 77.42055727785538, 12.90048889746253 ], [ 77.4206343120741, 12.90048514019114 ], [ 77.420903228710941, 12.900423471531708 ], [ 77.42089906109247, 12.900417069638664 ], [ 77.421347980015668, 12.900129513173875 ], [ 77.42149182705657, 12.900037370885814 ], [ 77.421798993885659, 12.899833605999415 ], [ 77.421994446506815, 12.899703947305168 ], [ 77.422346602034821, 12.899435928716905 ], [ 77.422418821980997, 12.899391748453882 ], [ 77.422458347384662, 12.899326198628319 ], [ 77.422760245348357, 12.898932289769848 ], [ 77.422795865748967, 12.898885812912061 ], [ 77.423179287709843, 12.898291454790604 ], [ 77.423378049147146, 12.897946080211158 ], [ 77.424439657831869, 12.89796713637895 ], [ 77.424584208869405, 12.897044611201938 ], [ 77.424646000180758, 12.897048176534991 ], [ 77.424665560353873, 12.896937399463248 ], [ 77.425110961842321, 12.896939643058937 ], [ 77.425173983824735, 12.896939885366153 ], [ 77.425258586492831, 12.896976928576926 ], [ 77.425848049466765, 12.897235025099624 ], [ 77.425855905802081, 12.897728730118267 ], [ 77.425882856023634, 12.897911882413696 ], [ 77.425935784408651, 12.897910574587012 ], [ 77.426720408720698, 12.89789118318104 ], [ 77.427512162646849, 12.898251088517021 ], [ 77.428777229460906, 12.898828349697315 ], [ 77.429894372668727, 12.899585963774374 ], [ 77.429941763244329, 12.899616817511145 ], [ 77.430839843826092, 12.900202730262768 ], [ 77.430981844028338, 12.899371625915897 ], [ 77.431027270452603, 12.899105551657525 ], [ 77.431046641710196, 12.898996113565588 ], [ 77.431240470712936, 12.897906871844524 ], [ 77.431259360404923, 12.897854181512741 ], [ 77.431305767565419, 12.89772397174082 ], [ 77.431468734991242, 12.896870908972106 ], [ 77.431486831850435, 12.89677639387768 ], [ 77.431562386093745, 12.896295509121071 ], [ 77.43157173538296, 12.896236017997229 ], [ 77.43168187320812, 12.895652867906687 ], [ 77.431786675963082, 12.895190479584425 ], [ 77.431902424368673, 12.894722900758721 ], [ 77.432001647764281, 12.894276309432183 ], [ 77.432089595788852, 12.893860690614186 ], [ 77.432149410664863, 12.893787434661483 ], [ 77.43220636295284, 12.89372199112761 ], [ 77.432233970187184, 12.89369023067267 ], [ 77.432288161201754, 12.89362802489025 ], [ 77.432559325724853, 12.893316789725693 ], [ 77.435828977675413, 12.892437806856805 ], [ 77.435613103482126, 12.892250323128611 ], [ 77.435241474001714, 12.891949083401414 ], [ 77.43484231490973, 12.891613101526378 ], [ 77.434815185708146, 12.891553376186549 ], [ 77.434998059829923, 12.891438851914135 ], [ 77.434870244425909, 12.89118671626705 ], [ 77.433634139066726, 12.888748302501607 ], [ 77.433071796006899, 12.887896398336613 ], [ 77.43245186281051, 12.886963410725178 ], [ 77.432428630278523, 12.886928445495768 ], [ 77.43211316899523, 12.886396068194296 ], [ 77.431641766552019, 12.88542647974427 ], [ 77.431525953102849, 12.885205812164044 ], [ 77.431449852643382, 12.88506081311837 ], [ 77.431249633069356, 12.884679308414064 ], [ 77.431189134739128, 12.884560113127046 ], [ 77.430971071144754, 12.884130406298111 ], [ 77.430763677113106, 12.883721519779613 ], [ 77.430681311474345, 12.883557156887523 ], [ 77.43067135168944, 12.883534115982597 ], [ 77.430119855144255, 12.882257681583765 ], [ 77.429676247031352, 12.881211974504499 ], [ 77.429652768115744, 12.881092986177565 ], [ 77.429551384167894, 12.880581064292983 ], [ 77.429438431727021, 12.880025203706083 ], [ 77.429302677471455, 12.879357130253041 ], [ 77.429294883079237, 12.879335794014329 ], [ 77.428600547285384, 12.877431285202547 ], [ 77.428356729950224, 12.876972350272448 ], [ 77.428269742640026, 12.876794009377171 ], [ 77.428172221403827, 12.876594135251679 ], [ 77.428150164238914, 12.876387289924764 ], [ 77.427583537027047, 12.875329629266998 ], [ 77.427666468428271, 12.875345687320481 ], [ 77.427902204614696, 12.875502602831922 ], [ 77.428102699673829, 12.875636058085583 ], [ 77.428125916598262, 12.875586789440364 ], [ 77.428148720145913, 12.875538395643256 ], [ 77.428177314691354, 12.87547777019136 ], [ 77.428268360346763, 12.875284684469383 ], [ 77.428473139002165, 12.875264241554939 ], [ 77.430356541832921, 12.875076279243936 ], [ 77.431336642130077, 12.87494683502689 ], [ 77.431153812779584, 12.874340980273017 ], [ 77.430937486466433, 12.873624055488964 ], [ 77.430860728172092, 12.873237482346308 ], [ 77.430743586201942, 12.872647513287191 ], [ 77.430583416100077, 12.871840734280239 ], [ 77.430577134702574, 12.871331465451034 ], [ 77.430569475048969, 12.870709548429662 ], [ 77.430573802328141, 12.870568387534396 ], [ 77.430578536051513, 12.870413975122011 ], [ 77.430585506776012, 12.870186844701104 ], [ 77.43039837828367, 12.870198561956247 ], [ 77.430208912755219, 12.870210408277929 ], [ 77.430076190989013, 12.870218700428291 ], [ 77.430036381280985, 12.870221208326996 ], [ 77.429117081380696, 12.870278724569253 ], [ 77.428883369309006, 12.870264733102289 ], [ 77.428479450794612, 12.870323038521539 ], [ 77.428263292944578, 12.8703542444356 ], [ 77.427894857363015, 12.870315914952736 ], [ 77.426328753064254, 12.870153007371302 ], [ 77.42469067280372, 12.870178912447919 ], [ 77.42461176380651, 12.870187360745563 ], [ 77.42435308121749, 12.870215048247132 ], [ 77.423966026348111, 12.870158446682582 ], [ 77.423784181204297, 12.870131846961675 ], [ 77.423573043455818, 12.870100976825112 ], [ 77.422517760453758, 12.869946645902807 ], [ 77.420898301141463, 12.869909430841071 ], [ 77.420651505496849, 12.86990375607799 ], [ 77.418791309599982, 12.869788273436452 ], [ 77.420157226844481, 12.867622196638866 ], [ 77.420397289087234, 12.867241505396519 ], [ 77.420843050970561, 12.866534623114534 ], [ 77.420860335823562, 12.866495473510701 ], [ 77.421217900255257, 12.865685464053238 ], [ 77.421462966325194, 12.865130304194333 ], [ 77.421552330558811, 12.864927873411901 ], [ 77.421631633191197, 12.864748229103439 ], [ 77.421826060854244, 12.864307773530335 ], [ 77.422172517550536, 12.863490077734355 ], [ 77.422179685489795, 12.863473147676737 ], [ 77.422217788469695, 12.863399979549772 ], [ 77.422693674220653, 12.862775931398346 ], [ 77.423092241458207, 12.862253273394144 ], [ 77.424223435213307, 12.860769887498234 ], [ 77.424297084668297, 12.860673304032305 ], [ 77.424476793314184, 12.860437648059671 ], [ 77.424564919096568, 12.860322083604 ], [ 77.42465757928592, 12.860200574328363 ], [ 77.424822677145798, 12.859984075704155 ], [ 77.424926444015867, 12.859847996069995 ], [ 77.424961812926384, 12.859801611579917 ], [ 77.42513215844329, 12.859586740393086 ], [ 77.42534141791711, 12.859322802634679 ], [ 77.425404093342763, 12.859146485816428 ], [ 77.42574492846795, 12.859094959063052 ], [ 77.425909184627116, 12.858999468930108 ], [ 77.425939620926329, 12.858966976835845 ], [ 77.42596799436069, 12.858936682273622 ], [ 77.425969556855634, 12.858611411004489 ], [ 77.426024561050426, 12.85860714069015 ], [ 77.426242452166662, 12.858590228975707 ], [ 77.426242474118425, 12.858590213412313 ], [ 77.426404149473157, 12.858501436785929 ], [ 77.426404525580168, 12.858501189348516 ], [ 77.427009597006744, 12.858168781272369 ], [ 77.427098626024375, 12.858119877845798 ], [ 77.427150302500237, 12.858082807781319 ], [ 77.427907943062706, 12.857539441998826 ], [ 77.428004250666405, 12.857470369776022 ], [ 77.428215713014382, 12.857418932934415 ], [ 77.428281493515797, 12.857402938312656 ], [ 77.429096940243866, 12.857075694655624 ], [ 77.429096993128709, 12.857075639953143 ], [ 77.429257837654248, 12.857011094514395 ], [ 77.429269064605563, 12.856985590082415 ], [ 77.429375260798494, 12.856744135299117 ], [ 77.429223946901587, 12.856537637574091 ], [ 77.429219418338988, 12.856531449578373 ], [ 77.429129204673458, 12.856198177828974 ], [ 77.429099370728323, 12.856084335544663 ], [ 77.428966449704447, 12.855577183481005 ], [ 77.428776754968908, 12.854908725725453 ], [ 77.428715868975559, 12.854677335038206 ], [ 77.428590180709236, 12.854199684029204 ], [ 77.428475527551456, 12.853768543699543 ], [ 77.428448556073491, 12.853667112929044 ], [ 77.428391755459586, 12.853453494911191 ], [ 77.428191500935895, 12.852713516143574 ], [ 77.42804083891464, 12.852156762514621 ], [ 77.428039643297026, 12.852121953647181 ], [ 77.427576059246363, 12.851170698656205 ], [ 77.428565034941158, 12.851149992086601 ], [ 77.431594269260032, 12.85126125810141 ], [ 77.43188253830121, 12.851271846791668 ], [ 77.433102118046293, 12.851316637413227 ], [ 77.433132694909787, 12.851317760676944 ], [ 77.434016923523799, 12.851091907818745 ], [ 77.434017733080751, 12.851091729539313 ], [ 77.437003075503256, 12.850329216249492 ], [ 77.437391362281815, 12.850229991705177 ], [ 77.437468864507991, 12.85019035179663 ], [ 77.438673068116813, 12.851329791910164 ], [ 77.439094507451415, 12.852303076043674 ], [ 77.439217364655391, 12.853160572937195 ], [ 77.439697776955413, 12.85397762347702 ], [ 77.440177858919441, 12.854716674108024 ], [ 77.440717324729292, 12.85539698385573 ], [ 77.441217949978565, 12.856291942697165 ], [ 77.441737881373939, 12.857050325868547 ], [ 77.442219460624088, 12.858140359819302 ], [ 77.442799265128443, 12.858956995888303 ], [ 77.443318706079609, 12.859598379768128 ], [ 77.44344574807549, 12.859896899659423 ], [ 77.443776996797496, 12.859908572826079 ], [ 77.443872193544195, 12.860110458809613 ], [ 77.443880618772724, 12.86044983220445 ], [ 77.443952344555555, 12.860884943268511 ], [ 77.444276927094194, 12.861620718331624 ], [ 77.444561970738519, 12.862096099351236 ], [ 77.445630499140492, 12.864402457480107 ], [ 77.446665446413931, 12.867024356624288 ], [ 77.447538033471758, 12.869259508998113 ], [ 77.447715107833659, 12.869814178914453 ], [ 77.448375204879355, 12.872201044329024 ], [ 77.448576377764724, 12.872669904226655 ], [ 77.44883289070701, 12.873004832831437 ], [ 77.449270292458834, 12.873147031667557 ], [ 77.449984066864332, 12.873220313197397 ], [ 77.450137276039484, 12.873236041010269 ], [ 77.450685339927674, 12.873106944483283 ], [ 77.451454025762388, 12.871788505927974 ], [ 77.451708670606919, 12.871277912718892 ], [ 77.452076452281716, 12.870531679875343 ], [ 77.452576977157321, 12.870132065964315 ], [ 77.453237750914042, 12.869838178270959 ], [ 77.453779370322565, 12.869707163788959 ], [ 77.454321923132213, 12.869794519658496 ], [ 77.454431338762689, 12.870023646929669 ], [ 77.454524823473108, 12.870466794834746 ], [ 77.454212393863983, 12.87130081953503 ], [ 77.4540690018096, 12.871589033927233 ], [ 77.454081074075376, 12.871827980032103 ], [ 77.454356182506402, 12.872054899056563 ], [ 77.454806245564626, 12.872232367279141 ], [ 77.455356185652761, 12.872657519531366 ], [ 77.455820372199994, 12.873284283190486 ], [ 77.456124440991275, 12.873482242200877 ], [ 77.456397783143501, 12.873527491073412 ], [ 77.456611254618934, 12.873429865334677 ], [ 77.456716499769115, 12.873228069485229 ], [ 77.456654114024076, 12.872827035959999 ], [ 77.456352060767429, 12.871835384137357 ], [ 77.456364287885336, 12.871089406047597 ], [ 77.45662229312974, 12.870561058371512 ], [ 77.456966610072314, 12.869888465478047 ], [ 77.457176725117364, 12.869446627609523 ], [ 77.457125110362938, 12.869150678943521 ], [ 77.456915614256545, 12.868655400839172 ], [ 77.456598261642227, 12.868094195717601 ], [ 77.456712188476004, 12.867793005808208 ], [ 77.456963656126092, 12.867583968284295 ], [ 77.457177308956702, 12.867505466198452 ], [ 77.457714327110153, 12.867605616298333 ], [ 77.458173942514748, 12.867763865197382 ], [ 77.458367041470325, 12.867847253620939 ], [ 77.458555895729432, 12.867928809596449 ] ] ] } }
]
}
