{
"type": "FeatureCollection",
"name": "wards_in_police_area.writing_20260805_172659",
"crs": { "type": "name", "properties": { "name": "urn:ogc:def:crs:OGC:1.3:CRS84" } },
"features": [
{ "type": "Feature", "properties": { "KGISWardID": 3109, "KGISWardCode": "1501025", "KGISWardName": "Hudko New Bullapura", "SHAPE.STArea()": 1938150.45300284, "SHAPE.STLength()": 6049.993472178352, "OBJECTID": 17908, "KGISWardNo": "25", "KGISTownCode": "1501", "LGD_WardCode": 61551, "created_user": "SA", "created_date": 1634898537000, "last_edited_user": "SURESHBV1", "last_edited_date": 1692253993000, "_overlap_percent": 0.27086885800192984, "_police_station": "Jannapura New Town PS", "_police_feature_index": "615", "_admin_layer": "Ward", "_geometry_clipped": true }, "geometry": { "type": "MultiPolygon", "coordinates": [ [ [ [ 75.681942040122607, 13.830315664360022 ], [ 75.681959533953318, 13.83033876480461 ], [ 75.682335852837369, 13.830059846903499 ], [ 75.682406102033454, 13.829999943077613 ], [ 75.681724165435412, 13.830027966834654 ], [ 75.681942040122607, 13.830315664360022 ] ] ], [ [ [ 75.678990920881219, 13.830400018797786 ], [ 75.679060944089898, 13.830381661355936 ], [ 75.679389319571996, 13.830295229714208 ], [ 75.680174209632611, 13.830049724406209 ], [ 75.68017811905311, 13.830048501996561 ], [ 75.680401567851092, 13.82997860856403 ], [ 75.681049458008076, 13.829864724948695 ], [ 75.680337267248476, 13.82998184568533 ], [ 75.679317639501008, 13.830289746540934 ], [ 75.678987308058367, 13.830373655483076 ], [ 75.678931643965825, 13.830387791355637 ], [ 75.678990920881219, 13.830400018797786 ] ] ], [ [ [ 75.687397959622857, 13.824190568758763 ], [ 75.687800761134937, 13.82380668058904 ], [ 75.688389749547227, 13.823260792061808 ], [ 75.689021451320173, 13.822672919030497 ], [ 75.689375419979044, 13.822334019764916 ], [ 75.689707440190574, 13.822024088433253 ], [ 75.690156682931459, 13.82161853640968 ], [ 75.690240139781565, 13.821540510058435 ], [ 75.690172616297161, 13.821482981308614 ], [ 75.687250610380616, 13.824318945622453 ], [ 75.687189670768845, 13.824377700521206 ], [ 75.687397959622857, 13.824190568758763 ] ] ], [ [ [ 75.682501912091382, 13.829918242654712 ], [ 75.682621485191405, 13.829786336351358 ], [ 75.682806898011123, 13.829565732650796 ], [ 75.683072798653455, 13.829242038971636 ], [ 75.683258169685899, 13.829007083420878 ], [ 75.683453234624878, 13.828738607213534 ], [ 75.683623761909018, 13.82845106190454 ], [ 75.683823450075181, 13.828089276406279 ], [ 75.684006001020578, 13.827727537642085 ], [ 75.684171617449408, 13.82743522179895 ], [ 75.684276416143447, 13.827274649041374 ], [ 75.684393447853395, 13.827111649722047 ], [ 75.684547151805518, 13.826931802171185 ], [ 75.684744864592929, 13.826732693452877 ], [ 75.684763038552219, 13.826714832175567 ], [ 75.684284562385869, 13.827174011046539 ], [ 75.683797427992317, 13.828024616870554 ], [ 75.683322601123052, 13.828899111479952 ], [ 75.682458690136329, 13.82995509945329 ], [ 75.682501912091382, 13.829918242654712 ] ] ] ] } },
{ "type": "Feature", "properties": { "KGISWardID": 3110, "KGISWardCode": "1501026", "KGISWardName": "Balabharathi", "SHAPE.STArea()": 869254.12362236995, "SHAPE.STLength()": 4742.5664269772114, "OBJECTID": 17909, "KGISWardNo": "26", "KGISTownCode": "1501", "LGD_WardCode": 61552, "created_user": "SA", "created_date": 1634898537000, "last_edited_user": "SURESHBV1", "last_edited_date": 1692253993000, "_overlap_percent": 83.944896559617462, "_police_station": "Jannapura New Town PS", "_police_feature_index": "615", "_admin_layer": "Ward", "_geometry_clipped": true }, "geometry": { "type": "Polygon", "coordinates": [ [ [ 75.686937715063166, 13.82493847793728 ], [ 75.687116931423105, 13.825547111437917 ], [ 75.688254258347968, 13.825435614958481 ], [ 75.689949309068894, 13.825356096870211 ], [ 75.690108537126065, 13.825391532219722 ], [ 75.690169932051163, 13.825457146682309 ], [ 75.69017952633854, 13.825597664122814 ], [ 75.690142137953174, 13.825745011699093 ], [ 75.690176688284367, 13.826171692419283 ], [ 75.690171264009066, 13.82632481080039 ], [ 75.690156149321879, 13.826512404710192 ], [ 75.690120685782048, 13.826731514996348 ], [ 75.690094434891051, 13.827127744835597 ], [ 75.690093648801223, 13.827525816219733 ], [ 75.690087874935315, 13.827560280729239 ], [ 75.690062431697825, 13.827566093679479 ], [ 75.689831345622721, 13.827570571797089 ], [ 75.688934262440654, 13.827534816317431 ], [ 75.688182080005731, 13.827490997431996 ], [ 75.68768275828964, 13.827462348094626 ], [ 75.68786497523412, 13.82808467480351 ], [ 75.688019437914093, 13.828580633177957 ], [ 75.688223460648842, 13.829279792115145 ], [ 75.6884397953026, 13.830002840150536 ], [ 75.688625468569683, 13.830705041010944 ], [ 75.688820234665968, 13.831377313021356 ], [ 75.688996615447252, 13.832040665430842 ], [ 75.689023774884632, 13.832118576011682 ], [ 75.689041497009043, 13.832151061290906 ], [ 75.689078763981726, 13.832170093900311 ], [ 75.68913557765633, 13.832175675634234 ], [ 75.689399951043214, 13.832167278022506 ], [ 75.689873951805538, 13.832181255121146 ], [ 75.690686781978783, 13.832198105447743 ], [ 75.691111746829392, 13.832187339559187 ], [ 75.691738469100883, 13.832187485771719 ], [ 75.692241840551006, 13.83219946224944 ], [ 75.692735386830989, 13.832199982699475 ], [ 75.693117281386591, 13.832195074561389 ], [ 75.693659664406169, 13.832153352328341 ], [ 75.694004279194758, 13.832125584578007 ], [ 75.694247211183864, 13.832151689749168 ], [ 75.69437254324869, 13.832147507635923 ], [ 75.695026491299274, 13.832082500097716 ], [ 75.695433788296995, 13.832058379975587 ], [ 75.695455298144481, 13.832046836238861 ], [ 75.695459123866073, 13.832016204448506 ], [ 75.69534470179137, 13.831737114949416 ], [ 75.695185724442723, 13.83137514140587 ], [ 75.694921852434646, 13.830727590791865 ], [ 75.694828093588541, 13.830481455757784 ], [ 75.694835260886364, 13.830421629350385 ], [ 75.694967152456798, 13.83031838928423 ], [ 75.695307798053449, 13.83002676579593 ], [ 75.695600833788461, 13.829778338075119 ], [ 75.695988927670911, 13.829389693730926 ], [ 75.696325653856164, 13.829015548070322 ], [ 75.696874678238842, 13.828411144145285 ], [ 75.697006404045709, 13.828252882214388 ], [ 75.697008974094445, 13.828211727823646 ], [ 75.696959695460052, 13.828104695898277 ], [ 75.696774819924102, 13.827843031242912 ], [ 75.696458513266535, 13.827509014963885 ], [ 75.696159952943432, 13.827215138373246 ], [ 75.695505182439064, 13.826649684709842 ], [ 75.695207625752644, 13.826445990562808 ], [ 75.69515852345522, 13.826398286433554 ], [ 75.69515453781554, 13.826375331331095 ], [ 75.695316918470098, 13.82610238000372 ], [ 75.694501075580249, 13.825745837985114 ], [ 75.693211675856944, 13.824338060004516 ], [ 75.692463546814622, 13.823725675168843 ], [ 75.691714280189998, 13.822954783810374 ], [ 75.690243583634441, 13.821537290334316 ], [ 75.690240139781565, 13.821540510058435 ], [ 75.690156682931459, 13.82161853640968 ], [ 75.689707440190574, 13.822024088433253 ], [ 75.689375419979044, 13.822334019764916 ], [ 75.689021451320173, 13.822672919030497 ], [ 75.688389749547227, 13.823260792061808 ], [ 75.687800761134937, 13.82380668058904 ], [ 75.687397959622857, 13.824190568758763 ], [ 75.687189670768845, 13.824377700521206 ], [ 75.686878130499636, 13.824678071928922 ], [ 75.686937715063166, 13.82493847793728 ] ] ] } },
{ "type": "Feature", "properties": { "KGISWardID": 3111, "KGISWardCode": "1501027", "KGISWardName": "Anjeneyaagrahara,Cooli Block", "SHAPE.STArea()": 68708.179914990003, "SHAPE.STLength()": 1049.054411374703, "OBJECTID": 17910, "KGISWardNo": "27", "KGISTownCode": "1501", "LGD_WardCode": 61553, "created_user": "SA", "created_date": 1634898537000, "last_edited_user": "SURESHBV1", "last_edited_date": 1692253993000, "_overlap_percent": 100.0, "_police_station": "Jannapura New Town PS", "_police_feature_index": "615", "_admin_layer": "Ward", "_geometry_clipped": true }, "geometry": { "type": "Polygon", "coordinates": [ [ [ 75.687172620039007, 13.82573623300831 ], [ 75.68740128430403, 13.826492140152604 ], [ 75.687509501819576, 13.826871606210817 ], [ 75.687679508581908, 13.827451249667456 ], [ 75.68768275828964, 13.827462348094626 ], [ 75.688182080005731, 13.827490997431996 ], [ 75.688934262440654, 13.827534816317431 ], [ 75.689831345622721, 13.827570571797089 ], [ 75.690062431697825, 13.827566093679479 ], [ 75.690087874935315, 13.827560280729239 ], [ 75.690093648801223, 13.827525816219733 ], [ 75.690094434891051, 13.827127744835597 ], [ 75.690120685782048, 13.826731514996348 ], [ 75.690156149321879, 13.826512404710192 ], [ 75.690171264009066, 13.82632481080039 ], [ 75.690176688284367, 13.826171692419283 ], [ 75.690142137953174, 13.825745011699093 ], [ 75.69017952633854, 13.825597664122814 ], [ 75.690169932051163, 13.825457146682309 ], [ 75.690108537126065, 13.825391532219722 ], [ 75.689949309068894, 13.825356096870211 ], [ 75.688254258347968, 13.825435614958481 ], [ 75.687116931423105, 13.825547111437917 ], [ 75.687172620039007, 13.82573623300831 ] ] ] } },
{ "type": "Feature", "properties": { "KGISWardID": 3113, "KGISWardCode": "1501029", "KGISWardName": "K C Block Ntb Layout", "SHAPE.STArea()": 1081595.06693437, "SHAPE.STLength()": 5386.1905716381143, "OBJECTID": 17912, "KGISWardNo": "29", "KGISTownCode": "1501", "LGD_WardCode": 61555, "created_user": "SA", "created_date": 1634898537000, "last_edited_user": "SURESHBV1", "last_edited_date": 1692253993000, "_overlap_percent": 88.003625075855808, "_police_station": "Jannapura New Town PS", "_police_feature_index": "615", "_admin_layer": "Ward", "_geometry_clipped": true }, "geometry": { "type": "MultiPolygon", "coordinates": [ [ [ [ 75.673103275106428, 13.8348016827831 ], [ 75.673193966721882, 13.834839709452389 ], [ 75.673282148150363, 13.83485621321022 ], [ 75.673433988596486, 13.834874935405207 ], [ 75.67367884517617, 13.834888615356341 ], [ 75.673815954544693, 13.83489302340233 ], [ 75.673901681764576, 13.834907141281608 ], [ 75.674014386664567, 13.834937930849311 ], [ 75.674480045196063, 13.835113676885797 ], [ 75.674891735052782, 13.835251294022715 ], [ 75.675122096305842, 13.835331996802557 ], [ 75.675283805348784, 13.835377004307665 ], [ 75.675562999026582, 13.835412118440498 ], [ 75.675861887865679, 13.835485453590001 ], [ 75.676182810715815, 13.835558729409327 ], [ 75.67637388409824, 13.835598870402483 ], [ 75.676750997046824, 13.835631322431604 ], [ 75.676964042148228, 13.835649871653182 ], [ 75.677079154541161, 13.835666299660103 ], [ 75.677204141366886, 13.835711407278055 ], [ 75.677611131861866, 13.835916016162045 ], [ 75.677969117094165, 13.836106406385476 ], [ 75.678270123122346, 13.836276021597401 ], [ 75.67845473131726, 13.836354441760115 ], [ 75.678591843049972, 13.836412685917511 ], [ 75.678910416676146, 13.836519453576358 ], [ 75.679274816103359, 13.836599182570216 ], [ 75.679584131413151, 13.836679066419221 ], [ 75.679930090722436, 13.836731932452802 ], [ 75.680080084781721, 13.836746466623451 ], [ 75.680199407232848, 13.836737164571932 ], [ 75.680349209184499, 13.836685913698759 ], [ 75.680502089310522, 13.836640635177675 ], [ 75.680587749654308, 13.836631426372607 ], [ 75.680728570721186, 13.836648976556223 ], [ 75.680919120979141, 13.836719019401595 ], [ 75.68130150515448, 13.836879433697749 ], [ 75.681614012866874, 13.837004157565596 ], [ 75.681805178752214, 13.837075394181175 ], [ 75.681996291546326, 13.837128687840643 ], [ 75.682220541341124, 13.837210596949665 ], [ 75.682459551667463, 13.837317582170607 ], [ 75.682654495170027, 13.837424690764458 ], [ 75.682761252402159, 13.837514102771719 ], [ 75.682860906434982, 13.837686066639177 ], [ 75.682929887657323, 13.837834193789091 ], [ 75.683036927906912, 13.838020491348074 ], [ 75.683158625969824, 13.838195982235883 ], [ 75.683175002716794, 13.838241570172666 ], [ 75.683743796223098, 13.838139807680177 ], [ 75.684524269456546, 13.837967779682076 ], [ 75.684622056145429, 13.837919662388815 ], [ 75.684641536878061, 13.837883723913563 ], [ 75.684648706927774, 13.837823897707695 ], [ 75.684618306409405, 13.837474715080486 ], [ 75.684578227444305, 13.837163835022851 ], [ 75.684530913733667, 13.836891250708915 ], [ 75.684528276539055, 13.836826667100574 ], [ 75.684574658838571, 13.836781084852406 ], [ 75.68474100113535, 13.836735167579644 ], [ 75.685347697870355, 13.836580369205739 ], [ 75.686108494840724, 13.836379685435194 ], [ 75.686773868090327, 13.836198403091288 ], [ 75.687231329783742, 13.836079901305192 ], [ 75.68749119438661, 13.836029677574691 ], [ 75.68749105032785, 13.83602473406558 ], [ 75.687475522626542, 13.835739143656605 ], [ 75.68745968637738, 13.835348774424194 ], [ 75.687458906651045, 13.835083236560958 ], [ 75.687459410848305, 13.834754540845548 ], [ 75.687445620560666, 13.834560807568911 ], [ 75.687418511551257, 13.83433266336079 ], [ 75.687367701567837, 13.834037123942041 ], [ 75.687284264667213, 13.833635459550976 ], [ 75.687230365642819, 13.833288257230636 ], [ 75.687179539339354, 13.832986977299251 ], [ 75.687164779010885, 13.832962617349922 ], [ 75.687145666368849, 13.83295693043155 ], [ 75.687091331208734, 13.832961388259083 ], [ 75.686744920675238, 13.833045608603992 ], [ 75.68641608164657, 13.833111119350686 ], [ 75.686213952872379, 13.833141109849324 ], [ 75.685860303326251, 13.83317798329438 ], [ 75.685510347069695, 13.833222022182733 ], [ 75.685230134880427, 13.833256297033129 ], [ 75.685190957282316, 13.8332540141125 ], [ 75.685168910629926, 13.833249290928405 ], [ 75.685124697409165, 13.833199176927531 ], [ 75.685064877876769, 13.833098283995545 ], [ 75.684901433601581, 13.833107571419692 ], [ 75.684371832640963, 13.833137660164507 ], [ 75.684270425547567, 13.832961984724768 ], [ 75.684236042042784, 13.832768183807564 ], [ 75.684225259406318, 13.832732602859565 ], [ 75.684064878720918, 13.832203367561826 ], [ 75.684206140111897, 13.832094118694201 ], [ 75.684158713050948, 13.831900271856565 ], [ 75.684556564897662, 13.831498005415286 ], [ 75.684597223290979, 13.83126344191276 ], [ 75.68389439756487, 13.831349690776698 ], [ 75.683364744808785, 13.831557023322157 ], [ 75.682489246914201, 13.831769896088696 ], [ 75.682234413598366, 13.831831857106453 ], [ 75.682209069994059, 13.831614522628849 ], [ 75.68216719423458, 13.831255413790545 ], [ 75.682166306925424, 13.831247800560483 ], [ 75.682147260899796, 13.831084470906216 ], [ 75.682128769333488, 13.83056223443279 ], [ 75.681959533953318, 13.83033876480461 ], [ 75.681942040122607, 13.830315664360022 ], [ 75.681724165435412, 13.830027966834654 ], [ 75.681675749029253, 13.830029956476517 ], [ 75.681674788248188, 13.829984376160711 ], [ 75.681644348617581, 13.829987525843597 ], [ 75.681569408768624, 13.829830336941972 ], [ 75.681546807131554, 13.829782935210593 ], [ 75.681049458008076, 13.829864724948695 ], [ 75.680401567851092, 13.82997860856403 ], [ 75.68017811905311, 13.830048501996561 ], [ 75.680174209632611, 13.830049724406209 ], [ 75.679389319571996, 13.830295229714208 ], [ 75.679060944089898, 13.830381661355936 ], [ 75.678990920881219, 13.830400018797786 ], [ 75.678931643965825, 13.830387791355637 ], [ 75.678916939231328, 13.83039152561669 ], [ 75.678012337684081, 13.830206925544189 ], [ 75.677142197008834, 13.830037586736934 ], [ 75.676414918051279, 13.829869746864977 ], [ 75.676390547096688, 13.829864855680711 ], [ 75.675972019242323, 13.829780828019555 ], [ 75.674833757188196, 13.829552296687869 ], [ 75.674284628623582, 13.829444516042036 ], [ 75.672007488708672, 13.829098675320754 ], [ 75.671986410102392, 13.82923755061196 ], [ 75.672111260326815, 13.829416615788622 ], [ 75.673625388238264, 13.831938327442675 ], [ 75.673610747461922, 13.831980116176048 ], [ 75.673162649131584, 13.833210856491275 ], [ 75.673016008190729, 13.833613576051896 ], [ 75.672985687379196, 13.833696916702889 ], [ 75.673102139108437, 13.834772485269335 ], [ 75.67299790084256, 13.834734769891138 ], [ 75.673103275106428, 13.8348016827831 ] ] ], [ [ [ 75.670322944698157, 13.83422319699201 ], [ 75.670550677121867, 13.834241712618882 ], [ 75.670607219347971, 13.834242873459351 ], [ 75.670138665487158, 13.834182757406159 ], [ 75.670322944698157, 13.83422319699201 ] ] ] ] } },
{ "type": "Feature", "properties": { "KGISWardID": 3112, "KGISWardCode": "1501028", "KGISWardName": "Ganesh Colony Vidyamandhir", "SHAPE.STArea()": 3933928.0001252652, "SHAPE.STLength()": 11577.054011375441, "OBJECTID": 17911, "KGISWardNo": "28", "KGISTownCode": "1501", "LGD_WardCode": 61554, "created_user": "SA", "created_date": 1634898537000, "last_edited_user": "SURESHBV1", "last_edited_date": 1692253993000, "_overlap_percent": 91.131972221446247, "_police_station": "Jannapura New Town PS", "_police_feature_index": "615", "_admin_layer": "Ward", "_geometry_clipped": true }, "geometry": { "type": "Polygon", "coordinates": [ [ [ 75.708430468682423, 13.842663560323601 ], [ 75.708834171810111, 13.841825966802194 ], [ 75.708913290909237, 13.841566517724411 ], [ 75.708872974944569, 13.841543478661183 ], [ 75.709070562643433, 13.83977512971172 ], [ 75.7093908491658, 13.83808593820612 ], [ 75.709768190605544, 13.836095826452867 ], [ 75.710401968301937, 13.834519240166447 ], [ 75.711085314132092, 13.833351192625349 ], [ 75.70984991076898, 13.833114652242315 ], [ 75.71023667499432, 13.831486812480717 ], [ 75.7097462940296, 13.83123704740254 ], [ 75.709887633276864, 13.829406577372529 ], [ 75.709713911931289, 13.828629603772647 ], [ 75.708910805475725, 13.828090602916536 ], [ 75.70688372158898, 13.827752647378331 ], [ 75.705977182614603, 13.827504072996065 ], [ 75.702849392519624, 13.827211797112781 ], [ 75.70216684926649, 13.827170518002749 ], [ 75.702056508610497, 13.82716323138979 ], [ 75.699721068471831, 13.827079432820019 ], [ 75.698717186630049, 13.827022488017358 ], [ 75.697394132867956, 13.826655455122753 ], [ 75.696376813552078, 13.826318025362486 ], [ 75.695371267935514, 13.826126131964239 ], [ 75.695316918470098, 13.82610238000372 ], [ 75.69515453781554, 13.826375331331095 ], [ 75.69515852345522, 13.826398286433554 ], [ 75.695207625752644, 13.826445990562808 ], [ 75.695505182439064, 13.826649684709842 ], [ 75.696159952943432, 13.827215138373246 ], [ 75.696458513266535, 13.827509014963885 ], [ 75.696774819924102, 13.827843031242912 ], [ 75.696959695460052, 13.828104695898277 ], [ 75.697008974094445, 13.828211727823646 ], [ 75.697006404045709, 13.828252882214388 ], [ 75.696874678238842, 13.828411144145285 ], [ 75.696325653856164, 13.829015548070322 ], [ 75.695988927670911, 13.829389693730926 ], [ 75.695600833788461, 13.829778338075119 ], [ 75.695307798053449, 13.83002676579593 ], [ 75.694967152456798, 13.83031838928423 ], [ 75.694835260886364, 13.830421629350385 ], [ 75.694828093588541, 13.830481455757784 ], [ 75.694921852434646, 13.830727590791865 ], [ 75.695185724442723, 13.83137514140587 ], [ 75.69534470179137, 13.831737114949416 ], [ 75.695459123866073, 13.832016204448506 ], [ 75.695455298144481, 13.832046836238861 ], [ 75.695433788296995, 13.832058379975587 ], [ 75.695026491299274, 13.832082500097716 ], [ 75.69437254324869, 13.832147507635923 ], [ 75.694247211183864, 13.832151689749168 ], [ 75.694004279194758, 13.832125584578007 ], [ 75.693659664406169, 13.832153352328341 ], [ 75.693117281386591, 13.832195074561389 ], [ 75.692735386830989, 13.832199982699475 ], [ 75.692241840551006, 13.83219946224944 ], [ 75.691738469100883, 13.832187485771719 ], [ 75.691111746829392, 13.832187339559187 ], [ 75.690686781978783, 13.832198105447743 ], [ 75.689873951805538, 13.832181255121146 ], [ 75.689399951043214, 13.832167278022506 ], [ 75.68913557765633, 13.832175675634234 ], [ 75.689078763981726, 13.832170093900311 ], [ 75.689041497009043, 13.832151061290906 ], [ 75.689023774884632, 13.832118576011682 ], [ 75.688996615447252, 13.832040665430842 ], [ 75.688820234665968, 13.831377313021356 ], [ 75.688625468569683, 13.830705041010944 ], [ 75.6884397953026, 13.830002840150536 ], [ 75.688223460648842, 13.829279792115145 ], [ 75.688019437914093, 13.828580633177957 ], [ 75.68786497523412, 13.82808467480351 ], [ 75.68768275828964, 13.827462348094626 ], [ 75.687679508581908, 13.827451249667456 ], [ 75.687509501819576, 13.826871606210817 ], [ 75.68740128430403, 13.826492140152604 ], [ 75.687172620039007, 13.82573623300831 ], [ 75.687116931423105, 13.825547111437917 ], [ 75.686937715063166, 13.82493847793728 ], [ 75.686878130499636, 13.824678071928922 ], [ 75.685322085489787, 13.826178332011771 ], [ 75.684763038552219, 13.826714832175567 ], [ 75.684744864592929, 13.826732693452877 ], [ 75.684547151805518, 13.826931802171185 ], [ 75.684393447853395, 13.827111649722047 ], [ 75.684276416143447, 13.827274649041374 ], [ 75.684171617449408, 13.82743522179895 ], [ 75.684006001020578, 13.827727537642085 ], [ 75.683823450075181, 13.828089276406279 ], [ 75.683623761909018, 13.82845106190454 ], [ 75.683453234624878, 13.828738607213534 ], [ 75.683258169685899, 13.829007083420878 ], [ 75.683072798653455, 13.829242038971636 ], [ 75.682806898011123, 13.829565732650796 ], [ 75.682621485191405, 13.829786336351358 ], [ 75.682501912091382, 13.829918242654712 ], [ 75.682458690136329, 13.82995509945329 ], [ 75.682422556451158, 13.829999266893632 ], [ 75.682406102033454, 13.829999943077613 ], [ 75.682335852837369, 13.830059846903499 ], [ 75.681959533953318, 13.83033876480461 ], [ 75.682128769333488, 13.83056223443279 ], [ 75.682147260899796, 13.831084470906216 ], [ 75.682166306925424, 13.831247800560483 ], [ 75.68216719423458, 13.831255413790545 ], [ 75.682209069994059, 13.831614522628849 ], [ 75.682234413598366, 13.831831857106453 ], [ 75.682489246914201, 13.831769896088696 ], [ 75.683364744808785, 13.831557023322157 ], [ 75.68389439756487, 13.831349690776698 ], [ 75.684597223290979, 13.83126344191276 ], [ 75.684556564897662, 13.831498005415286 ], [ 75.684158713050948, 13.831900271856565 ], [ 75.684206140111897, 13.832094118694201 ], [ 75.684064878720918, 13.832203367561826 ], [ 75.684225259406318, 13.832732602859565 ], [ 75.684236042042784, 13.832768183807564 ], [ 75.684270425547567, 13.832961984724768 ], [ 75.684371832640963, 13.833137660164507 ], [ 75.684901433601581, 13.833107571419692 ], [ 75.685064877876769, 13.833098283995545 ], [ 75.685124697409165, 13.833199176927531 ], [ 75.685168910629926, 13.833249290928405 ], [ 75.685190957282316, 13.8332540141125 ], [ 75.685230134880427, 13.833256297033129 ], [ 75.685510347069695, 13.833222022182733 ], [ 75.685860303326251, 13.83317798329438 ], [ 75.686213952872379, 13.833141109849324 ], [ 75.68641608164657, 13.833111119350686 ], [ 75.686744920675238, 13.833045608603992 ], [ 75.687091331208734, 13.832961388259083 ], [ 75.687145666368849, 13.83295693043155 ], [ 75.687164779010885, 13.832962617349922 ], [ 75.687179539339354, 13.832986977299251 ], [ 75.687230365642819, 13.833288257230636 ], [ 75.687284264667213, 13.833635459550976 ], [ 75.687367701567837, 13.834037123942041 ], [ 75.687418511551257, 13.83433266336079 ], [ 75.687445620560666, 13.834560807568911 ], [ 75.687459410848305, 13.834754540845548 ], [ 75.687458906651045, 13.835083236560958 ], [ 75.68745968637738, 13.835348774424194 ], [ 75.687475522626542, 13.835739143656605 ], [ 75.68749105032785, 13.83602473406558 ], [ 75.68749119438661, 13.836029677574691 ], [ 75.687509560692817, 13.836659225429043 ], [ 75.687515543063924, 13.83669557010071 ], [ 75.687531268104763, 13.836714664225317 ], [ 75.687576336402785, 13.83672219330337 ], [ 75.68818541168109, 13.836710914806794 ], [ 75.688518356196866, 13.836708066807988 ], [ 75.688645682629442, 13.836715363757675 ], [ 75.688678972568979, 13.836713357058224 ], [ 75.688700482269752, 13.83670181388543 ], [ 75.688739360617703, 13.836602187198169 ], [ 75.688840341713487, 13.836309091556457 ], [ 75.68887342322401, 13.83623627572805 ], [ 75.688927974923885, 13.836138518164402 ], [ 75.688953333707872, 13.836103998655453 ], [ 75.688966959178018, 13.836075252587088 ], [ 75.688980517061452, 13.836023543015727 ], [ 75.689030835580922, 13.835818625292413 ], [ 75.689044415967459, 13.835774570218632 ], [ 75.689052170565319, 13.835747755642519 ], [ 75.68907366981712, 13.835732384283901 ], [ 75.689375163564137, 13.835691347136557 ], [ 75.68976470680677, 13.835621355059356 ], [ 75.689915472819337, 13.835607534026934 ], [ 75.689950760884258, 13.835618916572567 ], [ 75.689972388865996, 13.835647562581276 ], [ 75.69006929859718, 13.835966895414794 ], [ 75.690215503961895, 13.836399000989253 ], [ 75.690486527945353, 13.837356929612815 ], [ 75.690613407989005, 13.837835021145706 ], [ 75.690622032158402, 13.837848633287951 ], [ 75.690728520292367, 13.838016698335867 ], [ 75.691009674563389, 13.838383354691526 ], [ 75.691333988579771, 13.838772854443018 ], [ 75.691569867565036, 13.839061171733389 ], [ 75.691758663737915, 13.839322828879737 ], [ 75.692198924117889, 13.839844051606907 ], [ 75.692359927606503, 13.839979476568448 ], [ 75.69291811823399, 13.840474647897393 ], [ 75.693626870740758, 13.841091635902517 ], [ 75.694173015790568, 13.841568537237734 ], [ 75.6945956186525, 13.841869958744599 ], [ 75.694830916641891, 13.841960197027607 ], [ 75.695416602098291, 13.842147522599507 ], [ 75.695573365544163, 13.842173392165206 ], [ 75.69578141482036, 13.842156056698373 ], [ 75.69630010133811, 13.842042147770931 ], [ 75.696619821176668, 13.841994351689609 ], [ 75.696903233564683, 13.841963403333569 ], [ 75.696991392308504, 13.84197032978796 ], [ 75.697032569246275, 13.841986000977773 ], [ 75.69705028186452, 13.84201465741881 ], [ 75.697057737199046, 13.842051955078013 ], [ 75.697058574437463, 13.842123650122305 ], [ 75.697233829671006, 13.842111066698921 ], [ 75.69751000060468, 13.842114587323069 ], [ 75.697937527944774, 13.84213633562138 ], [ 75.698285740962476, 13.8421611798512 ], [ 75.698835231660283, 13.842196932444045 ], [ 75.699440568324945, 13.842241135557062 ], [ 75.700386759558697, 13.842305895647572 ], [ 75.701885369237118, 13.842402082016346 ], [ 75.702507193449691, 13.842450674867818 ], [ 75.703594262860392, 13.842465795976359 ], [ 75.706062712674424, 13.842673998334913 ], [ 75.706541694969459, 13.84271402303307 ], [ 75.706711818455872, 13.842725515592081 ], [ 75.707837523430896, 13.842791395336045 ], [ 75.707829850994088, 13.842821663871989 ], [ 75.708333962010158, 13.842863788375265 ], [ 75.708430468682423, 13.842663560323601 ] ] ] } },
{ "type": "Feature", "properties": { "KGISWardID": 3102, "KGISWardCode": "1501018", "KGISWardName": "M M Compound", "SHAPE.STArea()": 3114300.7561523952, "SHAPE.STLength()": 12025.682502306963, "OBJECTID": 17901, "KGISWardNo": "18", "KGISTownCode": "1501", "LGD_WardCode": 61544, "created_user": "SA", "created_date": 1634898537000, "last_edited_user": "SURESHBV1", "last_edited_date": 1692253993000, "_overlap_percent": 0.3346844728472595, "_police_station": "Jannapura New Town PS", "_police_feature_index": "615", "_admin_layer": "Ward", "_geometry_clipped": true }, "geometry": { "type": "Polygon", "coordinates": [ [ [ 75.708834171810111, 13.841825966802194 ], [ 75.708430468682423, 13.842663560323601 ], [ 75.709169140002601, 13.842805448476215 ], [ 75.709410839929049, 13.842666355393224 ], [ 75.709610520475934, 13.841964958297675 ], [ 75.708913290909237, 13.841566517724411 ], [ 75.708834171810111, 13.841825966802194 ] ] ] } },
{ "type": "Feature", "properties": { "KGISWardID": 3114, "KGISWardCode": "1501030", "KGISWardName": "Hosasiddhapura", "SHAPE.STArea()": 6112164.7553033046, "SHAPE.STLength()": 15298.987437141479, "OBJECTID": 17913, "KGISWardNo": "30", "KGISTownCode": "1501", "LGD_WardCode": 61556, "created_user": "SA", "created_date": 1634898537000, "last_edited_user": "SURESHBV1", "last_edited_date": 1692253993000, "_overlap_percent": 23.504148150903394, "_police_station": "Jannapura New Town PS", "_police_feature_index": "615", "_admin_layer": "Ward", "_geometry_clipped": true }, "geometry": { "type": "MultiPolygon", "coordinates": [ [ [ [ 75.670550677121867, 13.834241712618882 ], [ 75.670322944698157, 13.83422319699201 ], [ 75.670138665487158, 13.834182757406159 ], [ 75.669678327629057, 13.834123695476512 ], [ 75.667781321340314, 13.834236520649576 ], [ 75.666386353526747, 13.834407772851337 ], [ 75.664502058012189, 13.83468799641753 ], [ 75.664217806059256, 13.833731863827307 ], [ 75.661878644180931, 13.833319544548241 ], [ 75.661721508976811, 13.834025684033987 ], [ 75.660264253181779, 13.833814309503236 ], [ 75.659173245118936, 13.833255064182977 ], [ 75.658435305182593, 13.832013071477443 ], [ 75.657844023865195, 13.830686954930902 ], [ 75.656333975161587, 13.829100147404221 ], [ 75.655340385995004, 13.828349242064624 ], [ 75.655230489266515, 13.828445226471946 ], [ 75.65509654674392, 13.828696771531192 ], [ 75.654753144943626, 13.828458462183242 ], [ 75.653393651386111, 13.828175015448908 ], [ 75.652597522222862, 13.827997714988109 ], [ 75.6525736072402, 13.82820112151102 ], [ 75.651348796282065, 13.82792926608183 ], [ 75.649413810471202, 13.827575556570489 ], [ 75.649317212785036, 13.828054265169275 ], [ 75.648459552165335, 13.827757500747889 ], [ 75.648195988950789, 13.82982750580058 ], [ 75.649077773121434, 13.829992631705045 ], [ 75.6494504301033, 13.831953300873504 ], [ 75.650059242984412, 13.831964111035132 ], [ 75.650058503211568, 13.832203263382665 ], [ 75.650956464110948, 13.832104805459879 ], [ 75.651665457385192, 13.831756044247697 ], [ 75.652045050723487, 13.831802880740224 ], [ 75.65247457349767, 13.832196461124317 ], [ 75.653224390133232, 13.833318827416736 ], [ 75.654513044012177, 13.834523482987127 ], [ 75.655163177783137, 13.835012159995523 ], [ 75.656910782132499, 13.836179690886375 ], [ 75.657043133085992, 13.836195803680461 ], [ 75.657897499625733, 13.836649515965641 ], [ 75.658167875128854, 13.837031551352409 ], [ 75.66147339243318, 13.837190113174181 ], [ 75.662967257771115, 13.837353535212417 ], [ 75.664975499218301, 13.837161387643661 ], [ 75.665599637573891, 13.836690925383142 ], [ 75.667440337384463, 13.836571092321327 ], [ 75.669125390831766, 13.836815294208709 ], [ 75.669440289249621, 13.837350298423997 ], [ 75.67128733170145, 13.837929518182278 ], [ 75.673046209706683, 13.838105946255236 ], [ 75.67291065184024, 13.838642182772329 ], [ 75.674636218860158, 13.839345545752389 ], [ 75.675205967926772, 13.83995639324616 ], [ 75.677304177898861, 13.840830951376072 ], [ 75.677063107815272, 13.84206490142105 ], [ 75.677106168616461, 13.841908500083459 ], [ 75.677130729651353, 13.841813636984904 ], [ 75.677261124287554, 13.841310008571003 ], [ 75.677379729612795, 13.840840801311385 ], [ 75.677488645880842, 13.840407503080897 ], [ 75.677604705050754, 13.839904810134456 ], [ 75.677740301122483, 13.839385317258582 ], [ 75.677839464370919, 13.838966399308861 ], [ 75.677977369223044, 13.838399055645827 ], [ 75.678117707931392, 13.837826918577795 ], [ 75.67823379938126, 13.837336187227631 ], [ 75.678347608444383, 13.836902875096078 ], [ 75.67845473131726, 13.836354441760115 ], [ 75.678270123122346, 13.836276021597401 ], [ 75.677969117094165, 13.836106406385476 ], [ 75.677611131861866, 13.835916016162045 ], [ 75.677204141366886, 13.835711407278055 ], [ 75.677079154541161, 13.835666299660103 ], [ 75.676964042148228, 13.835649871653182 ], [ 75.676750997046824, 13.835631322431604 ], [ 75.67637388409824, 13.835598870402483 ], [ 75.676182810715815, 13.835558729409327 ], [ 75.675861887865679, 13.835485453590001 ], [ 75.675562999026582, 13.835412118440498 ], [ 75.675283805348784, 13.835377004307665 ], [ 75.675122096305842, 13.835331996802557 ], [ 75.674891735052782, 13.835251294022715 ], [ 75.674480045196063, 13.835113676885797 ], [ 75.674014386664567, 13.834937930849311 ], [ 75.673901681764576, 13.834907141281608 ], [ 75.673815954544693, 13.83489302340233 ], [ 75.67367884517617, 13.834888615356341 ], [ 75.673433988596486, 13.834874935405207 ], [ 75.673282148150363, 13.83485621321022 ], [ 75.673193966721882, 13.834839709452389 ], [ 75.673103275106428, 13.8348016827831 ], [ 75.67299790084256, 13.834734769891138 ], [ 75.672641992047076, 13.834605995350305 ], [ 75.671784418584721, 13.834357159932757 ], [ 75.670682444275783, 13.834252524912769 ], [ 75.670607219347971, 13.834242873459351 ], [ 75.670550677121867, 13.834241712618882 ] ] ], [ [ [ 75.676025386055457, 13.851033279020957 ], [ 75.676034628107331, 13.851026742694685 ], [ 75.676171509610981, 13.849812341008855 ], [ 75.676349341799067, 13.848156266770051 ], [ 75.676382492429312, 13.847847558275069 ], [ 75.676445927071541, 13.847256798235017 ], [ 75.676552484324588, 13.846370840908421 ], [ 75.676626219723829, 13.845613929245456 ], [ 75.676671100086267, 13.845153218826354 ], [ 75.676736503538834, 13.844481818857615 ], [ 75.676794391155383, 13.843887588252734 ], [ 75.676460653357225, 13.846368067357471 ], [ 75.675959722307155, 13.850938642452007 ], [ 75.67595301385299, 13.851092420172479 ], [ 75.676025386055457, 13.851033279020957 ] ] ] ] } },
{ "type": "Feature", "properties": { "KGISWardID": 3116, "KGISWardCode": "1501032", "KGISWardName": "Jannapura", "SHAPE.STArea()": 221484.26685203999, "SHAPE.STLength()": 2339.2755200423239, "OBJECTID": 17915, "KGISWardNo": "32", "KGISTownCode": "1501", "LGD_WardCode": 61558, "created_user": "SA", "created_date": 1634898537000, "last_edited_user": "SURESHBV1", "last_edited_date": 1692253993000, "_overlap_percent": 100.00000000000003, "_police_station": "Jannapura New Town PS", "_police_feature_index": "615", "_admin_layer": "Ward", "_geometry_clipped": true }, "geometry": { "type": "Polygon", "coordinates": [ [ [ 75.690613407989005, 13.837835021145706 ], [ 75.690486527945353, 13.837356929612815 ], [ 75.690215503961895, 13.836399000989253 ], [ 75.69006929859718, 13.835966895414794 ], [ 75.689972388865996, 13.835647562581276 ], [ 75.689950760884258, 13.835618916572567 ], [ 75.689915472819337, 13.835607534026934 ], [ 75.68976470680677, 13.835621355059356 ], [ 75.689375163564137, 13.835691347136557 ], [ 75.68907366981712, 13.835732384283901 ], [ 75.689052170565319, 13.835747755642519 ], [ 75.689044415967459, 13.835774570218632 ], [ 75.689030835580922, 13.835818625292413 ], [ 75.688980517061452, 13.836023543015727 ], [ 75.688966959178018, 13.836075252587088 ], [ 75.688953333707872, 13.836103998655453 ], [ 75.688927974923885, 13.836138518164402 ], [ 75.68887342322401, 13.83623627572805 ], [ 75.688840341713487, 13.836309091556457 ], [ 75.688739360617703, 13.836602187198169 ], [ 75.688700482269752, 13.83670181388543 ], [ 75.688678972568979, 13.836713357058224 ], [ 75.688645682629442, 13.836715363757675 ], [ 75.688518356196866, 13.836708066807988 ], [ 75.68818541168109, 13.836710914806794 ], [ 75.687576336402785, 13.83672219330337 ], [ 75.687531268104763, 13.836714664225317 ], [ 75.687515543063924, 13.83669557010071 ], [ 75.687509560692817, 13.836659225429043 ], [ 75.68749119438661, 13.836029677574691 ], [ 75.687231329783742, 13.836079901305192 ], [ 75.686773868090327, 13.836198403091288 ], [ 75.686108494840724, 13.836379685435194 ], [ 75.685347697870355, 13.836580369205739 ], [ 75.68474100113535, 13.836735167579644 ], [ 75.684574658838571, 13.836781084852406 ], [ 75.684528276539055, 13.836826667100574 ], [ 75.684530913733667, 13.836891250708915 ], [ 75.684578227444305, 13.837163835022851 ], [ 75.684618306409405, 13.837474715080486 ], [ 75.684648706927774, 13.837823897707695 ], [ 75.684641536878061, 13.837883723913563 ], [ 75.684622056145429, 13.837919662388815 ], [ 75.684524269456546, 13.837967779682076 ], [ 75.683743796223098, 13.838139807680177 ], [ 75.683175002716794, 13.838241570172666 ], [ 75.683247483075604, 13.838443331841329 ], [ 75.683458594392675, 13.839056354888452 ], [ 75.683691636245328, 13.839633432435235 ], [ 75.683834034422802, 13.840046919914384 ], [ 75.684153234072838, 13.83990454171596 ], [ 75.684747868895002, 13.839640691072058 ], [ 75.685199791186307, 13.839467186862215 ], [ 75.685477570337952, 13.839351581761552 ], [ 75.685508889703243, 13.839345752798538 ], [ 75.685536315624404, 13.83934759019157 ], [ 75.685563863948033, 13.839391530069687 ], [ 75.685695933784956, 13.839680145411648 ], [ 75.685719509305969, 13.839704957253012 ], [ 75.685744982017027, 13.839708714178563 ], [ 75.685846703685186, 13.839666325846723 ], [ 75.686102915592286, 13.839543125821141 ], [ 75.686251591834207, 13.839483381764531 ], [ 75.68641788933661, 13.839421675086848 ], [ 75.686535363043731, 13.839407949248871 ], [ 75.68665285357875, 13.839399964684114 ], [ 75.686748766673773, 13.839380558669244 ], [ 75.686809448323856, 13.83936890590037 ], [ 75.686907258460948, 13.83932844219501 ], [ 75.687049979115599, 13.83924192066763 ], [ 75.687167386182068, 13.8392052301205 ], [ 75.687290639825534, 13.83915895356391 ], [ 75.687496169257628, 13.839118186676503 ], [ 75.687621471600309, 13.839102525181231 ], [ 75.687746818913809, 13.839102174432673 ], [ 75.68806018108323, 13.839099380040542 ], [ 75.688320730937974, 13.839119700857957 ], [ 75.688550038553558, 13.839172643308975 ], [ 75.688673427021868, 13.839172296683083 ], [ 75.688820318976468, 13.839171883949648 ], [ 75.688894704022303, 13.839158278070558 ], [ 75.688984724243994, 13.839133144571754 ], [ 75.689045332448941, 13.839096612780082 ], [ 75.689275860698714, 13.838898843871455 ], [ 75.689522096982316, 13.838714427415209 ], [ 75.689889474433997, 13.838432065580333 ], [ 75.690172831059826, 13.838216923080271 ], [ 75.690481536458165, 13.837963433358718 ], [ 75.690622032158402, 13.837848633287951 ], [ 75.690613407989005, 13.837835021145706 ] ] ] } },
{ "type": "Feature", "properties": { "KGISWardID": 3117, "KGISWardCode": "1501033", "KGISWardName": "Hutthacolony", "SHAPE.STArea()": 503098.04486309999, "SHAPE.STLength()": 3837.224952124066, "OBJECTID": 17916, "KGISWardNo": "33", "KGISTownCode": "1501", "LGD_WardCode": 61559, "created_user": "SA", "created_date": 1634898537000, "last_edited_user": "SURESHBV1", "last_edited_date": 1692253993000, "_overlap_percent": 99.999999999999972, "_police_station": "Jannapura New Town PS", "_police_feature_index": "615", "_admin_layer": "Ward", "_geometry_clipped": true }, "geometry": { "type": "Polygon", "coordinates": [ [ [ 75.690481536458165, 13.837963433358718 ], [ 75.690172831059826, 13.838216923080271 ], [ 75.689889474433997, 13.838432065580333 ], [ 75.689522096982316, 13.838714427415209 ], [ 75.689275860698714, 13.838898843871455 ], [ 75.689045332448941, 13.839096612780082 ], [ 75.688984724243994, 13.839133144571754 ], [ 75.688894704022303, 13.839158278070558 ], [ 75.688820318976468, 13.839171883949648 ], [ 75.688673427021868, 13.839172296683083 ], [ 75.688550038553558, 13.839172643308975 ], [ 75.688320730937974, 13.839119700857957 ], [ 75.68806018108323, 13.839099380040542 ], [ 75.687746818913809, 13.839102174432673 ], [ 75.687621471600309, 13.839102525181231 ], [ 75.687496169257628, 13.839118186676503 ], [ 75.687290639825534, 13.83915895356391 ], [ 75.687167386182068, 13.8392052301205 ], [ 75.687049979115599, 13.83924192066763 ], [ 75.686907258460948, 13.83932844219501 ], [ 75.686809448323856, 13.83936890590037 ], [ 75.686748766673773, 13.839380558669244 ], [ 75.68665285357875, 13.839399964684114 ], [ 75.686535363043731, 13.839407949248871 ], [ 75.68641788933661, 13.839421675086848 ], [ 75.686251591834207, 13.839483381764531 ], [ 75.686102915592286, 13.839543125821141 ], [ 75.685846703685186, 13.839666325846723 ], [ 75.685744982017027, 13.839708714178563 ], [ 75.685719509305969, 13.839704957253012 ], [ 75.685695933784956, 13.839680145411648 ], [ 75.685563863948033, 13.839391530069687 ], [ 75.685536315624404, 13.83934759019157 ], [ 75.685508889703243, 13.839345752798538 ], [ 75.685477570337952, 13.839351581761552 ], [ 75.685199791186307, 13.839467186862215 ], [ 75.684747868895002, 13.839640691072058 ], [ 75.684153234072838, 13.83990454171596 ], [ 75.683834034422802, 13.840046919914384 ], [ 75.68385336717752, 13.840103057348564 ], [ 75.68415547453877, 13.840855772444712 ], [ 75.684598969026283, 13.841817411905287 ], [ 75.684919198026876, 13.842486345971748 ], [ 75.685190262667447, 13.843086639809867 ], [ 75.685981877886633, 13.84274353035147 ], [ 75.686556439129376, 13.842478774747329 ], [ 75.687256295423765, 13.84215386038742 ], [ 75.687314352215722, 13.842123795413407 ], [ 75.687366385612648, 13.842126638612312 ], [ 75.687387860165686, 13.842144520401726 ], [ 75.687575627287202, 13.842514790587202 ], [ 75.68781587597887, 13.843040409576545 ], [ 75.688077618128304, 13.843589891804056 ], [ 75.688231574100541, 13.843909422081962 ], [ 75.688478096401539, 13.844485858620176 ], [ 75.688533463175943, 13.844581392278492 ], [ 75.688573291283888, 13.844596232340031 ], [ 75.688643669668295, 13.844593043622861 ], [ 75.688805760458422, 13.844556704915494 ], [ 75.689129985909503, 13.844498977230554 ], [ 75.689432823456002, 13.8444532712429 ], [ 75.689674446868025, 13.844404746245573 ], [ 75.690252199854854, 13.844184827145121 ], [ 75.690374461930887, 13.844133647636328 ], [ 75.690426548731651, 13.844154432924187 ], [ 75.690463413920639, 13.844202174101124 ], [ 75.690558892023546, 13.844408236314139 ], [ 75.690663754354858, 13.8446830482088 ], [ 75.690790568820944, 13.845137216389853 ], [ 75.690926043798754, 13.845414932758905 ], [ 75.690975212211868, 13.845483571182827 ], [ 75.691039549288845, 13.845507311808239 ], [ 75.69105828895951, 13.845509152251099 ], [ 75.691224025320807, 13.845313899562491 ], [ 75.691481584387887, 13.844983043265819 ], [ 75.691695274803578, 13.844719772088171 ], [ 75.691808987973801, 13.844582315550864 ], [ 75.691929012568465, 13.844437006662314 ], [ 75.692043174913721, 13.84429602075409 ], [ 75.69220130673888, 13.844121897278127 ], [ 75.692331630883089, 13.843982299577682 ], [ 75.692511775581707, 13.843800938368897 ], [ 75.69264361458292, 13.843677126351295 ], [ 75.692845809380984, 13.843501442147351 ], [ 75.693045143459528, 13.843351602935273 ], [ 75.693287020617845, 13.843182983321874 ], [ 75.69354655439983, 13.843024361358038 ], [ 75.693844297076197, 13.842871372322872 ], [ 75.694128904592532, 13.842747126073935 ], [ 75.694372456570662, 13.8426488328882 ], [ 75.694693855396579, 13.842547448127439 ], [ 75.694981553361117, 13.842474865357296 ], [ 75.695270740920719, 13.842409454285496 ], [ 75.695850631851357, 13.842294416039861 ], [ 75.696371815412078, 13.84219676826431 ], [ 75.696755057115354, 13.842145441613738 ], [ 75.697058574437463, 13.842123650122305 ], [ 75.697057737199046, 13.842051955078013 ], [ 75.69705028186452, 13.84201465741881 ], [ 75.697032569246275, 13.841986000977773 ], [ 75.696991392308504, 13.84197032978796 ], [ 75.696903233564683, 13.841963403333569 ], [ 75.696619821176668, 13.841994351689609 ], [ 75.69630010133811, 13.842042147770931 ], [ 75.69578141482036, 13.842156056698373 ], [ 75.695573365544163, 13.842173392165206 ], [ 75.695416602098291, 13.842147522599507 ], [ 75.694830916641891, 13.841960197027607 ], [ 75.6945956186525, 13.841869958744599 ], [ 75.694173015790568, 13.841568537237734 ], [ 75.693626870740758, 13.841091635902517 ], [ 75.69291811823399, 13.840474647897393 ], [ 75.692359927606503, 13.839979476568448 ], [ 75.692198924117889, 13.839844051606907 ], [ 75.691758663737915, 13.839322828879737 ], [ 75.691569867565036, 13.839061171733389 ], [ 75.691333988579771, 13.838772854443018 ], [ 75.691009674563389, 13.838383354691526 ], [ 75.690728520292367, 13.838016698335867 ], [ 75.690622032158402, 13.837848633287951 ], [ 75.690481536458165, 13.837963433358718 ] ] ] } },
{ "type": "Feature", "properties": { "KGISWardID": 3115, "KGISWardCode": "1501031", "KGISWardName": "Zinceline", "SHAPE.STArea()": 1364938.1288556501, "SHAPE.STLength()": 5654.9468060086501, "OBJECTID": 17914, "KGISWardNo": "31", "KGISTownCode": "1501", "LGD_WardCode": 61557, "created_user": "SA", "created_date": 1634898537000, "last_edited_user": "SURESHBV1", "last_edited_date": 1692253993000, "_overlap_percent": 99.962236281729645, "_police_station": "Jannapura New Town PS", "_police_feature_index": "615", "_admin_layer": "Ward", "_geometry_clipped": true }, "geometry": { "type": "Polygon", "coordinates": [ [ [ 75.676167630678449, 13.851216661228591 ], [ 75.676816279741914, 13.851161044446982 ], [ 75.677149819599506, 13.851145171451027 ], [ 75.677639483816193, 13.851143816302615 ], [ 75.677881290457023, 13.851155108244471 ], [ 75.678138494047147, 13.851199251354554 ], [ 75.678273255614798, 13.8512347613724 ], [ 75.678417285278911, 13.851300149640151 ], [ 75.678456955808201, 13.851322664406116 ], [ 75.678806194056577, 13.851161976114533 ], [ 75.679128329370144, 13.850998188912582 ], [ 75.679372538068733, 13.850918382816669 ], [ 75.679679777996327, 13.850870429433561 ], [ 75.679959554445105, 13.850812685783842 ], [ 75.680054879929571, 13.850835678688137 ], [ 75.681191819211506, 13.850704691017297 ], [ 75.681251308216673, 13.850759942056731 ], [ 75.681195339434765, 13.850871523824525 ], [ 75.681067054438103, 13.851126466772779 ], [ 75.681298736751216, 13.851216198028723 ], [ 75.681477589293394, 13.85125876078591 ], [ 75.681551136328181, 13.851292046898697 ], [ 75.681570806824766, 13.851320699041736 ], [ 75.681592967636249, 13.851363698596851 ], [ 75.681652615258514, 13.851381215133303 ], [ 75.68190010422245, 13.851452293419706 ], [ 75.682299578649392, 13.851587539023935 ], [ 75.682672073273636, 13.851706113330897 ], [ 75.683176972264008, 13.851891300157311 ], [ 75.683259781594046, 13.851920461372302 ], [ 75.68347352770337, 13.851995731582958 ], [ 75.683605799965591, 13.852016892121908 ], [ 75.683818860310808, 13.852035435551388 ], [ 75.68389483538057, 13.852061537889472 ], [ 75.683961072545685, 13.852106805609658 ], [ 75.684010137262021, 13.852140160228329 ], [ 75.684073877927304, 13.85216868906635 ], [ 75.684140060084289, 13.852194818677596 ], [ 75.684196420347945, 13.852211407055922 ], [ 75.684274829989306, 13.852232718595621 ], [ 75.684328769798199, 13.852258882358274 ], [ 75.684346020239772, 13.852297109672891 ], [ 75.68436322167625, 13.85231859220632 ], [ 75.6844978936372, 13.852323000629678 ], [ 75.685200461107399, 13.852416280412081 ], [ 75.685440913361759, 13.852111888110516 ], [ 75.685952182784575, 13.851380508709047 ], [ 75.686234632893871, 13.851013349312234 ], [ 75.686711019221903, 13.850644028443858 ], [ 75.68689767854211, 13.85046014014033 ], [ 75.687204415434891, 13.849999099416111 ], [ 75.687314053131928, 13.849834305605945 ], [ 75.687508780067674, 13.849606877361062 ], [ 75.687539898222852, 13.849570880687089 ], [ 75.687100866015172, 13.849535447356637 ], [ 75.686883814570862, 13.849574427434455 ], [ 75.686791759037746, 13.849574685551231 ], [ 75.686689875994574, 13.849563488440561 ], [ 75.686595805331635, 13.849544613926282 ], [ 75.686527145756131, 13.84950844494765 ], [ 75.686481973881627, 13.849466467850915 ], [ 75.686442603973731, 13.84939959490759 ], [ 75.686415037368803, 13.849349913901632 ], [ 75.686373743187715, 13.849294529984785 ], [ 75.686328559222872, 13.84924872470588 ], [ 75.686279403091177, 13.849183794146411 ], [ 75.686249704446325, 13.849074790374745 ], [ 75.686237541806491, 13.848935117424679 ], [ 75.686256728784826, 13.848799184834986 ], [ 75.686289812690561, 13.848726368405284 ], [ 75.686332723099071, 13.848665006281106 ], [ 75.686385325215326, 13.848569168762301 ], [ 75.686383225868184, 13.848521329575059 ], [ 75.686381070360213, 13.848454353240374 ], [ 75.686380806391782, 13.848364406116509 ], [ 75.68638838845979, 13.848278263384696 ], [ 75.686446709075028, 13.848128824293761 ], [ 75.686444615341316, 13.848082899182149 ], [ 75.686432751270999, 13.848044656007191 ], [ 75.686405224157454, 13.848008371713959 ], [ 75.686307135202753, 13.847955060081812 ], [ 75.686244386623471, 13.847930356278624 ], [ 75.68616213575433, 13.847934414850165 ], [ 75.686013341955572, 13.847955882954702 ], [ 75.685809740070852, 13.847988987153622 ], [ 75.685662860243951, 13.847995139662926 ], [ 75.685441507273111, 13.847986190438826 ], [ 75.685269064101377, 13.847957965993752 ], [ 75.685165166814926, 13.847927635633917 ], [ 75.685073005392127, 13.847891531036908 ], [ 75.684961403194492, 13.847905239937287 ], [ 75.684822530950413, 13.847970697386215 ], [ 75.684762026260756, 13.848043590284549 ], [ 75.684719171560232, 13.848124090209041 ], [ 75.684703621457942, 13.848164323290144 ], [ 75.684664504381445, 13.84818356992839 ], [ 75.684574396155384, 13.84817999356008 ], [ 75.684296119103578, 13.848129099559367 ], [ 75.684307317446724, 13.84793960291679 ], [ 75.684314787366532, 13.847815184996914 ], [ 75.684326254455584, 13.847717549595487 ], [ 75.684357311788332, 13.847621772658703 ], [ 75.684414288276272, 13.847514440561213 ], [ 75.684477480733932, 13.847356376211147 ], [ 75.684496696183999, 13.847229533983045 ], [ 75.68446396456855, 13.846921026078439 ], [ 75.684394196449773, 13.84650497038149 ], [ 75.68432474867889, 13.846198955569454 ], [ 75.684191269242362, 13.845763941293045 ], [ 75.684164135692797, 13.84569464134821 ], [ 75.684073375238071, 13.845635088610587 ], [ 75.683957977807978, 13.845522975630718 ], [ 75.683834124570197, 13.845239840190327 ], [ 75.684057108362268, 13.845137787094897 ], [ 75.683991814336594, 13.844912140695913 ], [ 75.684130724240276, 13.844860081415721 ], [ 75.68447305898934, 13.844715590076333 ], [ 75.685380672167582, 13.844311155937415 ], [ 75.685687796449386, 13.844182072378723 ], [ 75.685693615204329, 13.844162917878709 ], [ 75.685669983122764, 13.844118967099377 ], [ 75.68541769074514, 13.843576155449506 ], [ 75.685190262667447, 13.843086639809867 ], [ 75.684919198026876, 13.842486345971748 ], [ 75.684598969026283, 13.841817411905287 ], [ 75.68415547453877, 13.840855772444712 ], [ 75.68385336717752, 13.840103057348564 ], [ 75.683834034422802, 13.840046919914384 ], [ 75.683691636245328, 13.839633432435235 ], [ 75.683458594392675, 13.839056354888452 ], [ 75.683247483075604, 13.838443331841329 ], [ 75.683175002716794, 13.838241570172666 ], [ 75.683158625969824, 13.838195982235883 ], [ 75.683036927906912, 13.838020491348074 ], [ 75.682929887657323, 13.837834193789091 ], [ 75.682860906434982, 13.837686066639177 ], [ 75.682761252402159, 13.837514102771719 ], [ 75.682654495170027, 13.837424690764458 ], [ 75.682459551667463, 13.837317582170607 ], [ 75.682220541341124, 13.837210596949665 ], [ 75.681996291546326, 13.837128687840643 ], [ 75.681805178752214, 13.837075394181175 ], [ 75.681614012866874, 13.837004157565596 ], [ 75.68130150515448, 13.836879433697749 ], [ 75.680919120979141, 13.836719019401595 ], [ 75.680728570721186, 13.836648976556223 ], [ 75.680587749654308, 13.836631426372607 ], [ 75.680502089310522, 13.836640635177675 ], [ 75.680349209184499, 13.836685913698759 ], [ 75.680199407232848, 13.836737164571932 ], [ 75.680080084781721, 13.836746466623451 ], [ 75.679930090722436, 13.836731932452802 ], [ 75.679584131413151, 13.836679066419221 ], [ 75.679274816103359, 13.836599182570216 ], [ 75.678910416676146, 13.836519453576358 ], [ 75.678591843049972, 13.836412685917511 ], [ 75.67845473131726, 13.836354441760115 ], [ 75.678347608444383, 13.836902875096078 ], [ 75.67823379938126, 13.837336187227631 ], [ 75.678117707931392, 13.837826918577795 ], [ 75.677977369223044, 13.838399055645827 ], [ 75.677839464370919, 13.838966399308861 ], [ 75.677740301122483, 13.839385317258582 ], [ 75.677604705050754, 13.839904810134456 ], [ 75.677488645880842, 13.840407503080897 ], [ 75.677379729612795, 13.840840801311385 ], [ 75.677261124287554, 13.841310008571003 ], [ 75.677130729651353, 13.841813636984904 ], [ 75.677106168616461, 13.841908500083459 ], [ 75.677063107815272, 13.84206490142105 ], [ 75.676987678113818, 13.842450998617815 ], [ 75.676794391155383, 13.843887588252734 ], [ 75.676736503538834, 13.844481818857615 ], [ 75.676671100086267, 13.845153218826354 ], [ 75.676626219723829, 13.845613929245456 ], [ 75.676552484324588, 13.846370840908421 ], [ 75.676445927071541, 13.847256798235017 ], [ 75.676382492429312, 13.847847558275069 ], [ 75.676349341799067, 13.848156266770051 ], [ 75.676171509610981, 13.849812341008855 ], [ 75.676034628107331, 13.851026742694685 ], [ 75.676025386055457, 13.851033279020957 ], [ 75.67595301385299, 13.851092420172479 ], [ 75.675946644834681, 13.851238417013377 ], [ 75.676167630678449, 13.851216661228591 ] ] ] } },
{ "type": "Feature", "properties": { "KGISWardID": 3118, "KGISWardCode": "1501034", "KGISWardName": "Upperhuttha", "SHAPE.STArea()": 461382.18604904, "SHAPE.STLength()": 4482.015087641953, "OBJECTID": 17917, "KGISWardNo": "34", "KGISTownCode": "1501", "LGD_WardCode": 61560, "created_user": "SA", "created_date": 1634898537000, "last_edited_user": "SURESHBV1", "last_edited_date": 1692253993000, "_overlap_percent": 100.00000000000009, "_police_station": "Jannapura New Town PS", "_police_feature_index": "615", "_admin_layer": "Ward", "_geometry_clipped": true }, "geometry": { "type": "Polygon", "coordinates": [ [ [ 75.691039549288845, 13.845507311808239 ], [ 75.690975212211868, 13.845483571182827 ], [ 75.690926043798754, 13.845414932758905 ], [ 75.690790568820944, 13.845137216389853 ], [ 75.690663754354858, 13.8446830482088 ], [ 75.690558892023546, 13.844408236314139 ], [ 75.690463413920639, 13.844202174101124 ], [ 75.690426548731651, 13.844154432924187 ], [ 75.690374461930887, 13.844133647636328 ], [ 75.690252199854854, 13.844184827145121 ], [ 75.689674446868025, 13.844404746245573 ], [ 75.689432823456002, 13.8444532712429 ], [ 75.689129985909503, 13.844498977230554 ], [ 75.688805760458422, 13.844556704915494 ], [ 75.688643669668295, 13.844593043622861 ], [ 75.688573291283888, 13.844596232340031 ], [ 75.688533463175943, 13.844581392278492 ], [ 75.688478096401539, 13.844485858620176 ], [ 75.688231574100541, 13.843909422081962 ], [ 75.688077618128304, 13.843589891804056 ], [ 75.68781587597887, 13.843040409576545 ], [ 75.687575627287202, 13.842514790587202 ], [ 75.687387860165686, 13.842144520401726 ], [ 75.687366385612648, 13.842126638612312 ], [ 75.687314352215722, 13.842123795413407 ], [ 75.687256295423765, 13.84215386038742 ], [ 75.686556439129376, 13.842478774747329 ], [ 75.685981877886633, 13.84274353035147 ], [ 75.685190262667447, 13.843086639809867 ], [ 75.68541769074514, 13.843576155449506 ], [ 75.685669983122764, 13.844118967099377 ], [ 75.685693615204329, 13.844162917878709 ], [ 75.685687796449386, 13.844182072378723 ], [ 75.685380672167582, 13.844311155937415 ], [ 75.68447305898934, 13.844715590076333 ], [ 75.684130724240276, 13.844860081415721 ], [ 75.683991814336594, 13.844912140695913 ], [ 75.684057108362268, 13.845137787094897 ], [ 75.683834124570197, 13.845239840190327 ], [ 75.683957977807978, 13.845522975630718 ], [ 75.684073375238071, 13.845635088610587 ], [ 75.684164135692797, 13.84569464134821 ], [ 75.684191269242362, 13.845763941293045 ], [ 75.68432474867889, 13.846198955569454 ], [ 75.684394196449773, 13.84650497038149 ], [ 75.68446396456855, 13.846921026078439 ], [ 75.684496696183999, 13.847229533983045 ], [ 75.684477480733932, 13.847356376211147 ], [ 75.684414288276272, 13.847514440561213 ], [ 75.684357311788332, 13.847621772658703 ], [ 75.684326254455584, 13.847717549595487 ], [ 75.684314787366532, 13.847815184996914 ], [ 75.684307317446724, 13.84793960291679 ], [ 75.684296119103578, 13.848129099559367 ], [ 75.684574396155384, 13.84817999356008 ], [ 75.684664504381445, 13.84818356992839 ], [ 75.684703621457942, 13.848164323290144 ], [ 75.684719171560232, 13.848124090209041 ], [ 75.684762026260756, 13.848043590284549 ], [ 75.684822530950413, 13.847970697386215 ], [ 75.684961403194492, 13.847905239937287 ], [ 75.685073005392127, 13.847891531036908 ], [ 75.685165166814926, 13.847927635633917 ], [ 75.685269064101377, 13.847957965993752 ], [ 75.685441507273111, 13.847986190438826 ], [ 75.685662860243951, 13.847995139662926 ], [ 75.685809740070852, 13.847988987153622 ], [ 75.686013341955572, 13.847955882954702 ], [ 75.68616213575433, 13.847934414850165 ], [ 75.686244386623471, 13.847930356278624 ], [ 75.686307135202753, 13.847955060081812 ], [ 75.686405224157454, 13.848008371713959 ], [ 75.686432751270999, 13.848044656007191 ], [ 75.686444615341316, 13.848082899182149 ], [ 75.686446709075028, 13.848128824293761 ], [ 75.68638838845979, 13.848278263384696 ], [ 75.686380806391782, 13.848364406116509 ], [ 75.686381070360213, 13.848454353240374 ], [ 75.686383225868184, 13.848521329575059 ], [ 75.686385325215326, 13.848569168762301 ], [ 75.686332723099071, 13.848665006281106 ], [ 75.686289812690561, 13.848726368405284 ], [ 75.686256728784826, 13.848799184834986 ], [ 75.686237541806491, 13.848935117424679 ], [ 75.686249704446325, 13.849074790374745 ], [ 75.686279403091177, 13.849183794146411 ], [ 75.686328559222872, 13.84924872470588 ], [ 75.686373743187715, 13.849294529984785 ], [ 75.686415037368803, 13.849349913901632 ], [ 75.686442603973731, 13.84939959490759 ], [ 75.686481973881627, 13.849466467850915 ], [ 75.686527145756131, 13.84950844494765 ], [ 75.686595805331635, 13.849544613926282 ], [ 75.686689875994574, 13.849563488440561 ], [ 75.686791759037746, 13.849574685551231 ], [ 75.686883814570862, 13.849574427434455 ], [ 75.687100866015172, 13.849535447356637 ], [ 75.687539898222852, 13.849570880687089 ], [ 75.687508780067674, 13.849606877361062 ], [ 75.687314053131928, 13.849834305605945 ], [ 75.687204415434891, 13.849999099416111 ], [ 75.68689767854211, 13.85046014014033 ], [ 75.686711019221903, 13.850644028443858 ], [ 75.686234632893871, 13.851013349312234 ], [ 75.685952182784575, 13.851380508709047 ], [ 75.685440913361759, 13.852111888110516 ], [ 75.685200461107399, 13.852416280412081 ], [ 75.6844978936372, 13.852323000629678 ], [ 75.68436322167625, 13.85231859220632 ], [ 75.684346020239772, 13.852297109672891 ], [ 75.684328769798199, 13.852258882358274 ], [ 75.684274829989306, 13.852232718595621 ], [ 75.684196420347945, 13.852211407055922 ], [ 75.684140060084289, 13.852194818677596 ], [ 75.684073877927304, 13.85216868906635 ], [ 75.684010137262021, 13.852140160228329 ], [ 75.683961072545685, 13.852106805609658 ], [ 75.68389483538057, 13.852061537889472 ], [ 75.683818860310808, 13.852035435551388 ], [ 75.683605799965591, 13.852016892121908 ], [ 75.68347352770337, 13.851995731582958 ], [ 75.683259781594046, 13.851920461372302 ], [ 75.683101559914547, 13.852344102562965 ], [ 75.682844139836078, 13.853064886369916 ], [ 75.682759125994863, 13.853297170741703 ], [ 75.682756789283133, 13.85333545368465 ], [ 75.682771556140935, 13.853361726994017 ], [ 75.682793648439358, 13.853380803613092 ], [ 75.68304605686177, 13.85345904317168 ], [ 75.68346247805097, 13.853527257028022 ], [ 75.683903383436885, 13.853595400885508 ], [ 75.684182639967602, 13.853644858307943 ], [ 75.684334598259582, 13.853699455044525 ], [ 75.684579845966681, 13.853839910583179 ], [ 75.684771941555482, 13.854032364053509 ], [ 75.685138398141817, 13.853588735398759 ], [ 75.685574487446644, 13.85305823108364 ], [ 75.686202677962029, 13.852287964413522 ], [ 75.686800400904431, 13.851565624947273 ], [ 75.687315719172346, 13.850921264392493 ], [ 75.687635855204505, 13.850510694240329 ], [ 75.687898037055177, 13.850166074428358 ], [ 75.688254992747787, 13.849788293203668 ], [ 75.688474687867753, 13.849566392590294 ], [ 75.688807000617771, 13.849134855675402 ], [ 75.689239933146396, 13.848577441237977 ], [ 75.689743154840144, 13.847986935141474 ], [ 75.690212816395757, 13.847432406651158 ], [ 75.690688543810239, 13.84685991823077 ], [ 75.691002530721718, 13.846443381316712 ], [ 75.691158147891116, 13.846287446235941 ], [ 75.691561128544549, 13.845954385731176 ], [ 75.691591608945956, 13.845912435632799 ], [ 75.691597589438558, 13.845864573719004 ], [ 75.691576033737519, 13.845819779561257 ], [ 75.691502496863549, 13.845790084983742 ], [ 75.691398340033729, 13.84575449491685 ], [ 75.69130334661871, 13.845712898885941 ], [ 75.691263314935526, 13.845629283693164 ], [ 75.691201878808982, 13.845551708939256 ], [ 75.691128325315788, 13.845516032416851 ], [ 75.69105828895951, 13.845509152251099 ], [ 75.691039549288845, 13.845507311808239 ] ] ] } },
{ "type": "Feature", "properties": { "KGISWardID": 3090, "KGISWardCode": "1501006", "KGISWardName": "Siddharodanagara", "SHAPE.STArea()": 539402.57584726496, "SHAPE.STLength()": 3633.4616128797256, "OBJECTID": 17889, "KGISWardNo": "6", "KGISTownCode": "1501", "LGD_WardCode": 61532, "created_user": "SA", "created_date": 1634898537000, "last_edited_user": "SURESHBV1", "last_edited_date": 1692253993000, "_overlap_percent": 3.0234565786217522, "_police_station": "Jannapura New Town PS", "_police_feature_index": "615", "_admin_layer": "Ward", "_geometry_clipped": true }, "geometry": { "type": "MultiPolygon", "coordinates": [ [ [ [ 75.69445238443133, 13.852662122774664 ], [ 75.694963699381915, 13.854068968464006 ], [ 75.695107236946768, 13.854025685050667 ], [ 75.695022528593782, 13.853900317440639 ], [ 75.694873187492092, 13.853429396334038 ], [ 75.694632528561428, 13.852917245327376 ], [ 75.694469813369253, 13.852498704331978 ], [ 75.69445238443133, 13.852662122774664 ] ] ], [ [ [ 75.696956886558098, 13.844398966697316 ], [ 75.696876118489854, 13.844402014649994 ], [ 75.695714005344371, 13.844674443977608 ], [ 75.695042159648722, 13.845154798835321 ], [ 75.694339531383648, 13.845575433152089 ], [ 75.693669276308825, 13.846594033394009 ], [ 75.693489114019485, 13.847760761146978 ], [ 75.693640578867871, 13.84868075970015 ], [ 75.693797889309181, 13.846485745122301 ], [ 75.695053780085516, 13.845303725796771 ], [ 75.697026976211674, 13.84456575056921 ], [ 75.696992266380931, 13.844397631273635 ], [ 75.696956886558098, 13.844398966697316 ] ] ] ] } },
{ "type": "Feature", "properties": { "KGISWardID": 3086, "KGISWardCode": "1501002", "KGISWardName": "Lowerhuttha", "SHAPE.STArea()": 2452887.4972402351, "SHAPE.STLength()": 8748.2354308705162, "OBJECTID": 17885, "KGISWardNo": "2", "KGISTownCode": "1501", "LGD_WardCode": 61528, "created_user": "SA", "created_date": 1634898537000, "last_edited_user": "SURESHBV1", "last_edited_date": 1692253993000, "_overlap_percent": 93.299197152283796, "_police_station": "Jannapura New Town PS", "_police_feature_index": "615", "_admin_layer": "Ward", "_geometry_clipped": true }, "geometry": { "type": "Polygon", "coordinates": [ [ [ 75.696700272369569, 13.842578801801482 ], [ 75.696704941174531, 13.84250223670994 ], [ 75.696712142898178, 13.842454372140523 ], [ 75.696743862984349, 13.842418397985792 ], [ 75.696829507561475, 13.842403801072567 ], [ 75.697035044391583, 13.842364941115141 ], [ 75.69705457339127, 13.842345747390365 ], [ 75.697064251910987, 13.842307444406517 ], [ 75.697058574437463, 13.842123650122305 ], [ 75.696755057115354, 13.842145441613738 ], [ 75.696371815412078, 13.84219676826431 ], [ 75.695850631851357, 13.842294416039861 ], [ 75.695270740920719, 13.842409454285496 ], [ 75.694981553361117, 13.842474865357296 ], [ 75.694693855396579, 13.842547448127439 ], [ 75.694372456570662, 13.8426488328882 ], [ 75.694128904592532, 13.842747126073935 ], [ 75.693844297076197, 13.842871372322872 ], [ 75.69354655439983, 13.843024361358038 ], [ 75.693287020617845, 13.843182983321874 ], [ 75.693045143459528, 13.843351602935273 ], [ 75.692845809380984, 13.843501442147351 ], [ 75.69264361458292, 13.843677126351295 ], [ 75.692511775581707, 13.843800938368897 ], [ 75.692331630883089, 13.843982299577682 ], [ 75.69220130673888, 13.844121897278127 ], [ 75.692043174913721, 13.84429602075409 ], [ 75.691929012568465, 13.844437006662314 ], [ 75.691808987973801, 13.844582315550864 ], [ 75.691695274803578, 13.844719772088171 ], [ 75.691481584387887, 13.844983043265819 ], [ 75.691224025320807, 13.845313899562491 ], [ 75.69105828895951, 13.845509152251099 ], [ 75.691128325315788, 13.845516032416851 ], [ 75.691201878808982, 13.845551708939256 ], [ 75.691263314935526, 13.845629283693164 ], [ 75.69130334661871, 13.845712898885941 ], [ 75.691398340033729, 13.84575449491685 ], [ 75.691502496863549, 13.845790084983742 ], [ 75.691576033737519, 13.845819779561257 ], [ 75.691597589438558, 13.845864573719004 ], [ 75.691591608945956, 13.845912435632799 ], [ 75.691561128544549, 13.845954385731176 ], [ 75.691158147891116, 13.846287446235941 ], [ 75.691002530721718, 13.846443381316712 ], [ 75.690688543810239, 13.84685991823077 ], [ 75.690212816395757, 13.847432406651158 ], [ 75.689743154840144, 13.847986935141474 ], [ 75.689239933146396, 13.848577441237977 ], [ 75.688807000617771, 13.849134855675402 ], [ 75.688474687867753, 13.849566392590294 ], [ 75.688254992747787, 13.849788293203668 ], [ 75.687898037055177, 13.850166074428358 ], [ 75.687635855204505, 13.850510694240329 ], [ 75.687315719172346, 13.850921264392493 ], [ 75.686800400904431, 13.851565624947273 ], [ 75.686202677962029, 13.852287964413522 ], [ 75.685574487446644, 13.85305823108364 ], [ 75.685138398141817, 13.853588735398759 ], [ 75.684771941555482, 13.854032364053509 ], [ 75.684427830652879, 13.854448938974116 ], [ 75.68373253354784, 13.855300127913239 ], [ 75.683247810221303, 13.855877413804219 ], [ 75.682781412461338, 13.856512659078396 ], [ 75.682037668706499, 13.857546387075136 ], [ 75.681675036605654, 13.858083857349321 ], [ 75.681004475357085, 13.859028268078141 ], [ 75.680642445122345, 13.859563941446117 ], [ 75.680492516049625, 13.859786836941577 ], [ 75.680364506966313, 13.859970198810183 ], [ 75.680283981638979, 13.860063720379381 ], [ 75.680188785763448, 13.860164458954756 ], [ 75.68007521606539, 13.860261660863967 ], [ 75.679599007271378, 13.860686410220406 ], [ 75.679100739653293, 13.86110404364708 ], [ 75.678492655439982, 13.861647572905806 ], [ 75.677976155682074, 13.862111903622061 ], [ 75.677397332990665, 13.862615877551169 ], [ 75.676945491136152, 13.863003475293892 ], [ 75.676429420670843, 13.863449422132126 ], [ 75.676577329912476, 13.863710206078771 ], [ 75.676790914690855, 13.864075150331475 ], [ 75.67687762201696, 13.864254807240851 ], [ 75.676930979973847, 13.864417332240016 ], [ 75.677014146561092, 13.86472713730927 ], [ 75.677103300639502, 13.865075201293571 ], [ 75.677214328545531, 13.865536118077442 ], [ 75.677246114045559, 13.865689134016183 ], [ 75.677305388572705, 13.865658499984912 ], [ 75.677593466574365, 13.865470581566042 ], [ 75.67862526403843, 13.865022349037831 ], [ 75.679175058355327, 13.864770976366964 ], [ 75.67948717427727, 13.864629943578503 ], [ 75.679876176887163, 13.864572086841548 ], [ 75.679889668706821, 13.864570919166022 ], [ 75.679905043846802, 13.864567883701959 ], [ 75.680636208962952, 13.864428370182646 ], [ 75.680650268313627, 13.864241177754934 ], [ 75.681019114695701, 13.864360810776862 ], [ 75.681356456373109, 13.864616697258198 ], [ 75.681616471967629, 13.864790550576346 ], [ 75.681778180892735, 13.864856934158102 ], [ 75.682038202663733, 13.864930651174276 ], [ 75.682191127886185, 13.864818657890442 ], [ 75.682604848838679, 13.86451737797158 ], [ 75.682860325169742, 13.864392079320542 ], [ 75.683106363948298, 13.864262989425727 ], [ 75.683295761573817, 13.864165675663971 ], [ 75.68343156544492, 13.864133629403502 ], [ 75.683610265553696, 13.863960242771572 ], [ 75.684051458606675, 13.863532326866812 ], [ 75.684609354124277, 13.863272701873994 ], [ 75.685059001866904, 13.863034981594309 ], [ 75.685087142560832, 13.863024000554329 ], [ 75.68533067527359, 13.862929255241246 ], [ 75.685371418627994, 13.862913427884676 ], [ 75.685988287987584, 13.862681638107166 ], [ 75.686197233462678, 13.862584786387202 ], [ 75.686863263372672, 13.86225749843482 ], [ 75.687013561862614, 13.862184522915403 ], [ 75.687542447387116, 13.861969411080795 ], [ 75.688093913587139, 13.86179050471255 ], [ 75.688124912539834, 13.861780472796132 ], [ 75.688482973926227, 13.861750998641067 ], [ 75.688621869428488, 13.86173976621669 ], [ 75.689318118221578, 13.86179914670379 ], [ 75.689445457088723, 13.86180538473176 ], [ 75.689895798227028, 13.861827175251316 ], [ 75.690329242644992, 13.861958594848408 ], [ 75.690859513983114, 13.861941821199235 ], [ 75.690911638963129, 13.861991348137966 ], [ 75.691105814346471, 13.862175817313936 ], [ 75.691621243286747, 13.862674425678525 ], [ 75.691820553451507, 13.862868427553046 ], [ 75.692011879396063, 13.862783679436216 ], [ 75.692101203277886, 13.862738317851816 ], [ 75.693157209780153, 13.862187024151694 ], [ 75.693705370540243, 13.862109352440639 ], [ 75.694229165179152, 13.861908954104349 ], [ 75.694321775959281, 13.861873790279089 ], [ 75.694892874024461, 13.861610007413695 ], [ 75.695266228191741, 13.861139049200151 ], [ 75.695910856873681, 13.861114922604184 ], [ 75.695245910761059, 13.860251559120458 ], [ 75.694846088428562, 13.859594829727754 ], [ 75.694197521787743, 13.857623073568712 ], [ 75.696938460594069, 13.856837115481564 ], [ 75.696237484327796, 13.856036090069379 ], [ 75.695038661813896, 13.854275220452342 ], [ 75.694963699381915, 13.854068968464006 ], [ 75.69445238443133, 13.852662122774664 ], [ 75.694469813369253, 13.852498704331978 ], [ 75.694056448824441, 13.851435435403378 ], [ 75.693637750303068, 13.848720227779406 ], [ 75.693640578867871, 13.84868075970015 ], [ 75.693489114019485, 13.847760761146978 ], [ 75.693669276308825, 13.846594033394009 ], [ 75.694339531383648, 13.845575433152089 ], [ 75.695042159648722, 13.845154798835321 ], [ 75.695714005344371, 13.844674443977608 ], [ 75.696876118489854, 13.844402014649994 ], [ 75.696956886558098, 13.844398966697316 ], [ 75.696871111737309, 13.84381081097202 ], [ 75.696795978772016, 13.843446899626677 ], [ 75.696741052216495, 13.843065982925607 ], [ 75.696735936753058, 13.843045187561611 ], [ 75.696725784656181, 13.842960102106241 ], [ 75.696705983521881, 13.842822780865449 ], [ 75.696709192755563, 13.842795110906504 ], [ 75.696700272369569, 13.842578801801482 ] ] ] } },
{ "type": "Feature", "properties": { "KGISWardID": 3119, "KGISWardCode": "1501035", "KGISWardName": "Bandarahalli", "SHAPE.STArea()": 1454346.5049351749, "SHAPE.STLength()": 5386.3700111343987, "OBJECTID": 17918, "KGISWardNo": "35", "KGISTownCode": "1501", "LGD_WardCode": 61561, "created_user": "SA", "created_date": 1634898537000, "last_edited_user": "SURESHBV1", "last_edited_date": 1692253993000, "_overlap_percent": 88.719257160859655, "_police_station": "Jannapura New Town PS", "_police_feature_index": "615", "_admin_layer": "Ward", "_geometry_clipped": true }, "geometry": { "type": "Polygon", "coordinates": [ [ [ 75.668657101549059, 13.857634247102647 ], [ 75.668370706539477, 13.858120144670767 ], [ 75.668361745111497, 13.85813534990511 ], [ 75.668156732315822, 13.858404176946852 ], [ 75.668322315432093, 13.858371261273346 ], [ 75.668599062628729, 13.858398016352352 ], [ 75.668999485044097, 13.858435198052183 ], [ 75.669158665770951, 13.858446724980677 ], [ 75.669337371390867, 13.858436666870743 ], [ 75.669503780345408, 13.858407504911014 ], [ 75.6697337518453, 13.858344677245329 ], [ 75.670432453244942, 13.85931400812723 ], [ 75.670241210621398, 13.860014145232459 ], [ 75.670672285740324, 13.860087403613317 ], [ 75.670664891051842, 13.859942024918782 ], [ 75.670918119024023, 13.860078484958844 ], [ 75.671207847889505, 13.860114559406679 ], [ 75.671449326160172, 13.860094654021481 ], [ 75.671539986717136, 13.860916722267977 ], [ 75.672355171246153, 13.861501375641513 ], [ 75.672596870539053, 13.861513122005432 ], [ 75.672594419858072, 13.861543260591068 ], [ 75.672593935425155, 13.861549212162709 ], [ 75.672581194751444, 13.861705838586074 ], [ 75.672940241613205, 13.861845311165062 ], [ 75.673461999740368, 13.861927604378062 ], [ 75.67392774639579, 13.861938282551911 ], [ 75.674264475360999, 13.861961279063971 ], [ 75.674593649408436, 13.862028501834436 ], [ 75.674593698736146, 13.862029240392374 ], [ 75.674603754026478, 13.86218080857533 ], [ 75.674790156101537, 13.862455042725768 ], [ 75.67513163959255, 13.862472903771289 ], [ 75.675222530803879, 13.862605240878509 ], [ 75.675228594462951, 13.862700489424673 ], [ 75.675376111850397, 13.862824750746677 ], [ 75.675266191287065, 13.862913919725436 ], [ 75.675382030588835, 13.862974200997478 ], [ 75.675224624859922, 13.863419439259005 ], [ 75.675145053907031, 13.863644512815602 ], [ 75.67522421434802, 13.863737181760644 ], [ 75.675742582091189, 13.864026494281745 ], [ 75.675782343654234, 13.864017412568352 ], [ 75.675818974796158, 13.863984419202231 ], [ 75.676337955859395, 13.863528458353272 ], [ 75.676429420670843, 13.863449422132126 ], [ 75.676945491136152, 13.863003475293892 ], [ 75.677397332990665, 13.862615877551169 ], [ 75.677976155682074, 13.862111903622061 ], [ 75.678492655439982, 13.861647572905806 ], [ 75.679100739653293, 13.86110404364708 ], [ 75.679599007271378, 13.860686410220406 ], [ 75.68007521606539, 13.860261660863967 ], [ 75.680188785763448, 13.860164458954756 ], [ 75.680283981638979, 13.860063720379381 ], [ 75.680364506966313, 13.859970198810183 ], [ 75.680492516049625, 13.859786836941577 ], [ 75.680642445122345, 13.859563941446117 ], [ 75.681004475357085, 13.859028268078141 ], [ 75.681675036605654, 13.858083857349321 ], [ 75.682037668706499, 13.857546387075136 ], [ 75.682781412461338, 13.856512659078396 ], [ 75.683247810221303, 13.855877413804219 ], [ 75.68373253354784, 13.855300127913239 ], [ 75.684427830652879, 13.854448938974116 ], [ 75.684771941555482, 13.854032364053509 ], [ 75.684579845966681, 13.853839910583179 ], [ 75.684334598259582, 13.853699455044525 ], [ 75.684182639967602, 13.853644858307943 ], [ 75.683903383436885, 13.853595400885508 ], [ 75.68346247805097, 13.853527257028022 ], [ 75.68304605686177, 13.85345904317168 ], [ 75.682793648439358, 13.853380803613092 ], [ 75.682771556140935, 13.853361726994017 ], [ 75.682756789283133, 13.85333545368465 ], [ 75.682759125994863, 13.853297170741703 ], [ 75.682844139836078, 13.853064886369916 ], [ 75.683101559914547, 13.852344102562965 ], [ 75.683259781594046, 13.851920461372302 ], [ 75.683176972264008, 13.851891300157311 ], [ 75.682672073273636, 13.851706113330897 ], [ 75.682299578649392, 13.851587539023935 ], [ 75.68190010422245, 13.851452293419706 ], [ 75.681652615258514, 13.851381215133303 ], [ 75.681592967636249, 13.851363698596851 ], [ 75.681570806824766, 13.851320699041736 ], [ 75.681551136328181, 13.851292046898697 ], [ 75.681477589293394, 13.85125876078591 ], [ 75.681298736751216, 13.851216198028723 ], [ 75.681067054438103, 13.851126466772779 ], [ 75.681195339434765, 13.850871523824525 ], [ 75.681251308216673, 13.850759942056731 ], [ 75.681191819211506, 13.850704691017297 ], [ 75.680054879929571, 13.850835678688137 ], [ 75.679959554445105, 13.850812685783842 ], [ 75.679679777996327, 13.850870429433561 ], [ 75.679372538068733, 13.850918382816669 ], [ 75.679128329370144, 13.850998188912582 ], [ 75.678806194056577, 13.851161976114533 ], [ 75.678456955808201, 13.851322664406116 ], [ 75.678417285278911, 13.851300149640151 ], [ 75.678273255614798, 13.8512347613724 ], [ 75.678138494047147, 13.851199251354554 ], [ 75.677881290457023, 13.851155108244471 ], [ 75.677639483816193, 13.851143816302615 ], [ 75.677149819599506, 13.851145171451027 ], [ 75.676816279741914, 13.851161044446982 ], [ 75.676167630678449, 13.851216661228591 ], [ 75.675946644834681, 13.851238417013377 ], [ 75.67577602617547, 13.855149504100009 ], [ 75.672349073275925, 13.855422085737644 ], [ 75.669852835270618, 13.855811686970867 ], [ 75.668791331965522, 13.857406511973597 ], [ 75.668657101549059, 13.857634247102647 ] ] ] } },
{ "type": "Feature", "properties": { "KGISWardID": 3085, "KGISWardCode": "1501001", "KGISWardName": "Hebbandi Jedikatte", "SHAPE.STArea()": 7638088.0647813054, "SHAPE.STLength()": 16622.655821994409, "OBJECTID": 17884, "KGISWardNo": "1", "KGISTownCode": "1501", "LGD_WardCode": 61527, "created_user": "SA", "created_date": 1634898537000, "last_edited_user": "SURESHBV1", "last_edited_date": 1692253993000, "_overlap_percent": 91.047474952045093, "_police_station": "Jannapura New Town PS", "_police_feature_index": "615", "_admin_layer": "Ward", "_geometry_clipped": true }, "geometry": { "type": "Polygon", "coordinates": [ [ [ 75.683252977065592, 13.87769377875564 ], [ 75.683442283162691, 13.877626387665353 ], [ 75.68352650379633, 13.877651415128264 ], [ 75.683809383876067, 13.877763131318922 ], [ 75.684898332955854, 13.877504011432135 ], [ 75.685036739998225, 13.877462771423598 ], [ 75.68589579265867, 13.877207172729925 ], [ 75.686912400380635, 13.876637185610132 ], [ 75.686975208640547, 13.8768775485701 ], [ 75.687012892456025, 13.877021293103995 ], [ 75.687018427596101, 13.877044722340187 ], [ 75.687761053390346, 13.876044734023028 ], [ 75.688432736163421, 13.875474688218072 ], [ 75.68922295853406, 13.875215425778194 ], [ 75.688941501013772, 13.874876072798823 ], [ 75.688389318400056, 13.875383270603059 ], [ 75.687931649886153, 13.874537729895765 ], [ 75.687853981835033, 13.874354941882872 ], [ 75.687765410110558, 13.87421165702211 ], [ 75.687505459416997, 13.873723407681737 ], [ 75.687652844986715, 13.873617712156792 ], [ 75.687969403550923, 13.873367125199586 ], [ 75.688201164970863, 13.873146278024205 ], [ 75.688221628815668, 13.873129814620478 ], [ 75.688411888437827, 13.872976753413255 ], [ 75.688476936010176, 13.872923818529788 ], [ 75.688641141371392, 13.872790191080624 ], [ 75.689083177727966, 13.872469375612205 ], [ 75.689740384057075, 13.871779781860177 ], [ 75.690806750296801, 13.8701321087379 ], [ 75.691722284305683, 13.869232433238857 ], [ 75.690617098216819, 13.868099243254081 ], [ 75.692356506032752, 13.86635995526624 ], [ 75.694184594938037, 13.863573800155317 ], [ 75.696353307282635, 13.862132297457485 ], [ 75.695914509732575, 13.861119665462168 ], [ 75.695910856873681, 13.861114922604184 ], [ 75.695266228191741, 13.861139049200151 ], [ 75.694892874024461, 13.861610007413695 ], [ 75.694321775959281, 13.861873790279089 ], [ 75.694229165179152, 13.861908954104349 ], [ 75.693705370540243, 13.862109352440639 ], [ 75.693157209780153, 13.862187024151694 ], [ 75.692101203277886, 13.862738317851816 ], [ 75.692011879396063, 13.862783679436216 ], [ 75.691820553451507, 13.862868427553046 ], [ 75.691621243286747, 13.862674425678525 ], [ 75.691105814346471, 13.862175817313936 ], [ 75.690911638963129, 13.861991348137966 ], [ 75.690859513983114, 13.861941821199235 ], [ 75.690329242644992, 13.861958594848408 ], [ 75.689895798227028, 13.861827175251316 ], [ 75.689445457088723, 13.86180538473176 ], [ 75.689318118221578, 13.86179914670379 ], [ 75.688621869428488, 13.86173976621669 ], [ 75.688482973926227, 13.861750998641067 ], [ 75.688124912539834, 13.861780472796132 ], [ 75.688093913587139, 13.86179050471255 ], [ 75.687542447387116, 13.861969411080795 ], [ 75.687013561862614, 13.862184522915403 ], [ 75.686863263372672, 13.86225749843482 ], [ 75.686197233462678, 13.862584786387202 ], [ 75.685988287987584, 13.862681638107166 ], [ 75.685371418627994, 13.862913427884676 ], [ 75.68533067527359, 13.862929255241246 ], [ 75.685087142560832, 13.863024000554329 ], [ 75.685059001866904, 13.863034981594309 ], [ 75.684609354124277, 13.863272701873994 ], [ 75.684051458606675, 13.863532326866812 ], [ 75.683610265553696, 13.863960242771572 ], [ 75.68343156544492, 13.864133629403502 ], [ 75.683295761573817, 13.864165675663971 ], [ 75.683106363948298, 13.864262989425727 ], [ 75.682860325169742, 13.864392079320542 ], [ 75.682604848838679, 13.86451737797158 ], [ 75.682191127886185, 13.864818657890442 ], [ 75.682038202663733, 13.864930651174276 ], [ 75.681778180892735, 13.864856934158102 ], [ 75.681616471967629, 13.864790550576346 ], [ 75.681356456373109, 13.864616697258198 ], [ 75.681019114695701, 13.864360810776862 ], [ 75.680650268313627, 13.864241177754934 ], [ 75.680636208962952, 13.864428370182646 ], [ 75.679905043846802, 13.864567883701959 ], [ 75.679889668706821, 13.864570919166022 ], [ 75.679876176887163, 13.864572086841548 ], [ 75.67948717427727, 13.864629943578503 ], [ 75.679175058355327, 13.864770976366964 ], [ 75.67862526403843, 13.865022349037831 ], [ 75.677593466574365, 13.865470581566042 ], [ 75.677305388572705, 13.865658499984912 ], [ 75.677246114045559, 13.865689134016183 ], [ 75.677214328545531, 13.865536118077442 ], [ 75.677103300639502, 13.865075201293571 ], [ 75.677014146561092, 13.86472713730927 ], [ 75.676930979973847, 13.864417332240016 ], [ 75.67687762201696, 13.864254807240851 ], [ 75.676790914690855, 13.864075150331475 ], [ 75.676577329912476, 13.863710206078771 ], [ 75.676429420670843, 13.863449422132126 ], [ 75.676337955859395, 13.863528458353272 ], [ 75.675818974796158, 13.863984419202231 ], [ 75.675782343654234, 13.864017412568352 ], [ 75.675742582091189, 13.864026494281745 ], [ 75.67522421434802, 13.863737181760644 ], [ 75.675145053907031, 13.863644512815602 ], [ 75.675224624859922, 13.863419439259005 ], [ 75.675382030588835, 13.862974200997478 ], [ 75.675266191287065, 13.862913919725436 ], [ 75.675376111850397, 13.862824750746677 ], [ 75.675228594462951, 13.862700489424673 ], [ 75.675222530803879, 13.862605240878509 ], [ 75.67513163959255, 13.862472903771289 ], [ 75.674790156101537, 13.862455042725768 ], [ 75.674603754026478, 13.86218080857533 ], [ 75.674593698736146, 13.862029240392374 ], [ 75.674593649408436, 13.862028501834436 ], [ 75.674264475360999, 13.861961279063971 ], [ 75.67392774639579, 13.861938282551911 ], [ 75.673461999740368, 13.861927604378062 ], [ 75.672940241613205, 13.861845311165062 ], [ 75.672581194751444, 13.861705838586074 ], [ 75.672593935425155, 13.861549212162709 ], [ 75.672594419858072, 13.861543260591068 ], [ 75.672596870539053, 13.861513122005432 ], [ 75.672355171246153, 13.861501375641513 ], [ 75.671539986717136, 13.860916722267977 ], [ 75.671449326160172, 13.860094654021481 ], [ 75.671207847889505, 13.860114559406679 ], [ 75.670918119024023, 13.860078484958844 ], [ 75.670664891051842, 13.859942024918782 ], [ 75.670672285740324, 13.860087403613317 ], [ 75.670241210621398, 13.860014145232459 ], [ 75.670432453244942, 13.85931400812723 ], [ 75.6697337518453, 13.858344677245329 ], [ 75.669503780345408, 13.858407504911014 ], [ 75.669337371390867, 13.858436666870743 ], [ 75.669158665770951, 13.858446724980677 ], [ 75.668999485044097, 13.858435198052183 ], [ 75.668599062628729, 13.858398016352352 ], [ 75.668322315432093, 13.858371261273346 ], [ 75.668156732315822, 13.858404176946852 ], [ 75.668126362469636, 13.858405576199795 ], [ 75.668125989223199, 13.858406136973128 ], [ 75.667873648378617, 13.858426414945955 ], [ 75.667257869753243, 13.858637265943706 ], [ 75.665160938859074, 13.859316496191802 ], [ 75.665042217560142, 13.859480915803267 ], [ 75.6648935191254, 13.85959236634552 ], [ 75.664307329315818, 13.860031707625497 ], [ 75.664218726915038, 13.860100831875572 ], [ 75.664218717780059, 13.860100839342568 ], [ 75.664218715084459, 13.860100841105341 ], [ 75.663705917916261, 13.860500906107864 ], [ 75.663199869499053, 13.860890426478292 ], [ 75.662398419936309, 13.861456675264495 ], [ 75.66154213948117, 13.862069095843497 ], [ 75.6607551789876, 13.862643806670912 ], [ 75.656911133765249, 13.864673273650396 ], [ 75.655841955567396, 13.865270734629769 ], [ 75.651137116049981, 13.867973640799569 ], [ 75.654670500599991, 13.873477691238982 ], [ 75.657140379699229, 13.878291307011798 ], [ 75.657258537650534, 13.8785735751333 ], [ 75.657512899422002, 13.879438694360926 ], [ 75.657521119192779, 13.879439917275791 ], [ 75.657517065437005, 13.879224722866828 ], [ 75.65958064734032, 13.879615079280507 ], [ 75.659668599821387, 13.879775291548896 ], [ 75.659865589046547, 13.879842344610777 ], [ 75.660104192584015, 13.879924249817069 ], [ 75.660480625549482, 13.879888329979947 ], [ 75.661080744341703, 13.879527883109221 ], [ 75.661886504905695, 13.879242785593309 ], [ 75.662753150213703, 13.878685385227779 ], [ 75.663171004230122, 13.878560153285406 ], [ 75.663200014422401, 13.878598768799955 ], [ 75.663213855460071, 13.878593151714902 ], [ 75.663269307422155, 13.87857064786686 ], [ 75.663362130958276, 13.878466878447751 ], [ 75.663416960941859, 13.878657590404442 ], [ 75.663537144600468, 13.878593093681344 ], [ 75.663769853159721, 13.878704098875348 ], [ 75.663974147973548, 13.878673519869928 ], [ 75.664038038182341, 13.878730338828895 ], [ 75.663986795711807, 13.879279883019819 ], [ 75.663976929659626, 13.879367501597933 ], [ 75.664090674293476, 13.879544358112355 ], [ 75.664161222952288, 13.879650394670735 ], [ 75.66452777363115, 13.87953008724787 ], [ 75.664607318601895, 13.87950472466928 ], [ 75.664832629000784, 13.879433034659066 ], [ 75.665608520614313, 13.879224328679674 ], [ 75.665737270560342, 13.87917980384467 ], [ 75.666105928368395, 13.879051911565425 ], [ 75.666802259795602, 13.878820567958181 ], [ 75.667059935273031, 13.878715592558533 ], [ 75.667102164023404, 13.878698022640961 ], [ 75.667610545168586, 13.87859926206721 ], [ 75.668158763690599, 13.878406870421198 ], [ 75.66820238736409, 13.878391700652164 ], [ 75.668643443071801, 13.878385493042543 ], [ 75.669047208075682, 13.878246940811762 ], [ 75.669483076150044, 13.878154307403246 ], [ 75.669483091267438, 13.878154302987596 ], [ 75.670481847215726, 13.877850618262055 ], [ 75.670986758283206, 13.877658898610861 ], [ 75.671771988263046, 13.877360714460192 ], [ 75.6718237082126, 13.877349684539819 ], [ 75.671987611978651, 13.877314670929698 ], [ 75.672000953704469, 13.877310023206347 ], [ 75.672055716089559, 13.877300122300902 ], [ 75.672531701286303, 13.877186505032235 ], [ 75.673069180344342, 13.877056032343297 ], [ 75.673097857182213, 13.877049177677748 ], [ 75.673316976763132, 13.877339724364317 ], [ 75.673851083804891, 13.87808698934974 ], [ 75.67389375317137, 13.878147563016631 ], [ 75.674390596678805, 13.878168308644012 ], [ 75.674391256055387, 13.878163019338814 ], [ 75.674514396908634, 13.878161655238676 ], [ 75.675304811089688, 13.878152700326615 ], [ 75.675717884895732, 13.878147997580893 ], [ 75.675933081165184, 13.878140796995822 ], [ 75.676046583633138, 13.878137000380043 ], [ 75.676356688888276, 13.878156984332673 ], [ 75.676698765195098, 13.878198353026219 ], [ 75.677017959068408, 13.878233176149767 ], [ 75.676984885083726, 13.878821805903502 ], [ 75.676984564762833, 13.878825276927657 ], [ 75.678005433062225, 13.879321052665183 ], [ 75.678185860507014, 13.879321044022561 ], [ 75.678436489152517, 13.878962567518174 ], [ 75.678583019863694, 13.878763986055862 ], [ 75.678926569781595, 13.878169818021062 ], [ 75.679153518954095, 13.878275736609016 ], [ 75.679195147256024, 13.878295166025609 ], [ 75.679195187400566, 13.878295286166336 ], [ 75.679239653880217, 13.878286007041861 ], [ 75.679231740988527, 13.878261793374909 ], [ 75.67921441626774, 13.878233469210967 ], [ 75.679257793347716, 13.87825596064283 ], [ 75.679257844642464, 13.878256096123144 ], [ 75.679462154264272, 13.878215103772268 ], [ 75.67993980933484, 13.878139592899183 ], [ 75.680016956314461, 13.878139264736658 ], [ 75.680694739050864, 13.878066766778769 ], [ 75.681854467857065, 13.877992207599739 ], [ 75.681991738725358, 13.877983376342293 ], [ 75.682548386597972, 13.877945745297373 ], [ 75.682719116579804, 13.877925628641869 ], [ 75.683055906621789, 13.87776951772655 ], [ 75.683108139966052, 13.877745316845109 ], [ 75.683216033878722, 13.877713440996136 ], [ 75.683252977065592, 13.87769377875564 ] ] ] } },
{ "type": "Feature", "properties": { "KGISWardID": 3101, "KGISWardCode": "1501017", "KGISWardName": "Nehrunagar", "SHAPE.STArea()": 1841459.749055875, "SHAPE.STLength()": 7239.1368751003565, "OBJECTID": 17900, "KGISWardNo": "17", "KGISTownCode": "1501", "LGD_WardCode": 61543, "created_user": "SA", "created_date": 1634898537000, "last_edited_user": "SURESHBV1", "last_edited_date": 1692253993000, "_overlap_percent": 0.080907338691023845, "_police_station": "Jannapura New Town PS", "_police_feature_index": "615", "_admin_layer": "Ward", "_geometry_clipped": true }, "geometry": { "type": "Polygon", "coordinates": [ [ [ 75.708430468682423, 13.842663560323601 ], [ 75.708333962010158, 13.842863788375265 ], [ 75.709040255486258, 13.842922807640662 ], [ 75.709104278036634, 13.842842775135546 ], [ 75.709169140002601, 13.842805448476215 ], [ 75.708430468682423, 13.842663560323601 ] ] ] } },
{ "type": "Feature", "properties": { "KGISWardID": 3087, "KGISWardCode": "1501003", "KGISWardName": "B H Left Right Chamegowda Area", "SHAPE.STArea()": 325513.32879966497, "SHAPE.STLength()": 2871.1851327435083, "OBJECTID": 17886, "KGISWardNo": "3", "KGISTownCode": "1501", "LGD_WardCode": 61529, "created_user": "SA", "created_date": 1634898537000, "last_edited_user": "SURESHBV1", "last_edited_date": 1692253993000, "_overlap_percent": 2.8593302031555137, "_police_station": "Jannapura New Town PS", "_police_feature_index": "615", "_admin_layer": "Ward", "_geometry_clipped": true }, "geometry": { "type": "MultiPolygon", "coordinates": [ [ [ [ 75.696956886558098, 13.844398966697316 ], [ 75.696992266380931, 13.844397631273635 ], [ 75.696871111737309, 13.84381081097202 ], [ 75.696956886558098, 13.844398966697316 ] ] ], [ [ [ 75.696735936753058, 13.843045187561611 ], [ 75.696741052216495, 13.843065982925607 ], [ 75.696725784656181, 13.842960102106241 ], [ 75.696735936753058, 13.843045187561611 ] ] ], [ [ [ 75.701885369237118, 13.842402082016346 ], [ 75.700386759558697, 13.842305895647572 ], [ 75.699440568324945, 13.842241135557062 ], [ 75.698835231660283, 13.842196932444045 ], [ 75.698285740962476, 13.8421611798512 ], [ 75.697937527944774, 13.84213633562138 ], [ 75.69751000060468, 13.842114587323069 ], [ 75.697233829671006, 13.842111066698921 ], [ 75.697058574437463, 13.842123650122305 ], [ 75.697064251910987, 13.842307444406517 ], [ 75.69705457339127, 13.842345747390365 ], [ 75.697035044391583, 13.842364941115141 ], [ 75.696829507561475, 13.842403801072567 ], [ 75.696743862984349, 13.842418397985792 ], [ 75.696712142898178, 13.842454372140523 ], [ 75.696704941174531, 13.84250223670994 ], [ 75.696700272369569, 13.842578801801482 ], [ 75.696709192755563, 13.842795110906504 ], [ 75.696741787412179, 13.842514080323681 ], [ 75.696881538138115, 13.842430834639499 ], [ 75.697497859197341, 13.842368395551011 ], [ 75.697982477766558, 13.842323955587972 ], [ 75.700171484015897, 13.842418185207524 ], [ 75.702507193449691, 13.842450674867818 ], [ 75.701885369237118, 13.842402082016346 ] ] ], [ [ [ 75.707837523430896, 13.842791395336045 ], [ 75.706711818455872, 13.842725515592081 ], [ 75.706541694969459, 13.84271402303307 ], [ 75.707829850994088, 13.842821663871989 ], [ 75.707837523430896, 13.842791395336045 ] ] ] ] } },
{ "type": "Feature", "properties": { "KGISWardID": 3091, "KGISWardCode": "1501007", "KGISWardName": "Durginagara Khalandhar Nagar", "SHAPE.STArea()": 1154923.56399466, "SHAPE.STLength()": 5789.2525947912773, "OBJECTID": 17890, "KGISWardNo": "7", "KGISTownCode": "1501", "LGD_WardCode": 61533, "created_user": "SA", "created_date": 1634898537000, "last_edited_user": "SURESHBV1", "last_edited_date": 1692253993000, "_overlap_percent": 0.82117029649873152, "_police_station": "Jannapura New Town PS", "_police_feature_index": "615", "_admin_layer": "Ward", "_geometry_clipped": true }, "geometry": { "type": "Polygon", "coordinates": [ [ [ 75.694963699381915, 13.854068968464006 ], [ 75.695038661813896, 13.854275220452342 ], [ 75.696237484327796, 13.856036090069379 ], [ 75.696938460594069, 13.856837115481564 ], [ 75.697384735950877, 13.856709147018728 ], [ 75.696356738908761, 13.855874936856232 ], [ 75.695107236946768, 13.854025685050667 ], [ 75.694963699381915, 13.854068968464006 ] ] ] } }
]
}
