{
"type": "FeatureCollection",
"name": "wards_in_police_area.writing_20260805_172659",
"crs": { "type": "name", "properties": { "name": "urn:ogc:def:crs:OGC:1.3:CRS84" } },
"features": [
{ "type": "Feature", "properties": { "KGISWardID": 6231, "KGISWardCode": "1601011", "KGISWardName": null, "SHAPE.STArea()": 1159494.07527169, "SHAPE.STLength()": 7785.5055365831686, "OBJECTID": 18084, "KGISWardNo": "11", "KGISTownCode": "1601", "LGD_WardCode": 1922636, "created_user": "SA", "created_date": 1634898537000, "last_edited_user": "SURESHBV1", "last_edited_date": 1692254014000, "_overlap_percent": 1.1106681848591617, "_police_station": "Karkala Rural PS", "_police_feature_index": "569", "_admin_layer": "Ward", "_geometry_clipped": true }, "geometry": { "type": "Polygon", "coordinates": [ [ [ 75.028212338209599, 13.225849201549476 ], [ 75.028656915916585, 13.22576625806561 ], [ 75.029219645564865, 13.22566126904271 ], [ 75.029226382379747, 13.225660012261285 ], [ 75.029316193430489, 13.224698988750696 ], [ 75.029331420829891, 13.224602977668717 ], [ 75.028675498310704, 13.2246518199587 ], [ 75.028597170541815, 13.22468418614392 ], [ 75.028333206735908, 13.224826113772592 ], [ 75.028194915624795, 13.225920425868949 ], [ 75.028212338209599, 13.225849201549476 ] ] ] } },
{ "type": "Feature", "properties": { "KGISWardID": 6239, "KGISWardCode": "1601019", "KGISWardName": null, "SHAPE.STArea()": 1484926.408833415, "SHAPE.STLength()": 6862.0469911386308, "OBJECTID": 18092, "KGISWardNo": "19", "KGISTownCode": "1601", "LGD_WardCode": 1922644, "created_user": "SA", "created_date": 1634898537000, "last_edited_user": "SURESHBV1", "last_edited_date": 1692254014000, "_overlap_percent": 0.74052260011334925, "_police_station": "Karkala Rural PS", "_police_feature_index": "569", "_admin_layer": "Ward", "_geometry_clipped": true }, "geometry": { "type": "Polygon", "coordinates": [ [ [ 74.979753826379465, 13.205030771690886 ], [ 74.979651866540365, 13.205110759630971 ], [ 74.977631016117172, 13.206674557215202 ], [ 74.977385688454518, 13.206863238751971 ], [ 74.977124714803196, 13.207063230004767 ], [ 74.974408928445357, 13.209245426159917 ], [ 74.973859748373698, 13.209770415685549 ], [ 74.973675115741926, 13.209948405156476 ], [ 74.973141001127303, 13.210445424044687 ], [ 74.973214430085505, 13.210384960604745 ], [ 74.97385722692546, 13.209882970093794 ], [ 74.974061347712947, 13.209717785839967 ], [ 74.974668282032354, 13.209226622620527 ], [ 74.977335863790472, 13.20706783337199 ], [ 74.977577547928277, 13.20686957367559 ], [ 74.977804806181695, 13.20668314831873 ], [ 74.979703823027549, 13.205125319584907 ], [ 74.979790342672658, 13.205053640752531 ], [ 74.979753826379465, 13.205030771690886 ] ] ] } },
{ "type": "Feature", "properties": { "KGISWardID": 6237, "KGISWardCode": "1601017", "KGISWardName": null, "SHAPE.STArea()": 1456397.3475041201, "SHAPE.STLength()": 6964.5569477806912, "OBJECTID": 18090, "KGISWardNo": "17", "KGISTownCode": "1601", "LGD_WardCode": 1922642, "created_user": "SA", "created_date": 1634898537000, "last_edited_user": "SURESHBV1", "last_edited_date": 1692254014000, "_overlap_percent": 0.22194616040293261, "_police_station": "Karkala Rural PS", "_police_feature_index": "569", "_admin_layer": "Ward", "_geometry_clipped": true }, "geometry": { "type": "Polygon", "coordinates": [ [ [ 74.968150030722214, 13.216145471678283 ], [ 74.968597537347108, 13.216759234977157 ], [ 74.969127049996075, 13.217416986791459 ], [ 74.970022395239084, 13.218562479450751 ], [ 74.970044415412104, 13.218501766690219 ], [ 74.97008377121405, 13.218393249692969 ], [ 74.969130270410318, 13.2172760769141 ], [ 74.968570735958721, 13.216639292022679 ], [ 74.968154435050735, 13.21611315257414 ], [ 74.968150030722214, 13.216145471678283 ] ] ] } },
{ "type": "Feature", "properties": { "KGISWardID": 6229, "KGISWardCode": "1601009", "KGISWardName": null, "SHAPE.STArea()": 2217410.6310701398, "SHAPE.STLength()": 7021.1170043842258, "OBJECTID": 18082, "KGISWardNo": "9", "KGISTownCode": "1601", "LGD_WardCode": 1922634, "created_user": "SA", "created_date": 1634898537000, "last_edited_user": "SURESHBV1", "last_edited_date": 1692254014000, "_overlap_percent": 0.20135976193460633, "_police_station": "Karkala Rural PS", "_police_feature_index": "569", "_admin_layer": "Ward", "_geometry_clipped": true }, "geometry": { "type": "MultiPolygon", "coordinates": [ [ [ [ 75.012378808410972, 13.235438330438194 ], [ 75.011732752375082, 13.23407491406347 ], [ 75.011733702087341, 13.23401526120421 ], [ 75.011749822570309, 13.2329895202676 ], [ 75.011756051817983, 13.232598166205937 ], [ 75.011728885288321, 13.232578340043144 ], [ 75.01170838182135, 13.23328676446085 ], [ 75.011678506452157, 13.234319071797678 ], [ 75.01167676755432, 13.23437915782965 ], [ 75.012229271103848, 13.235616068677036 ], [ 75.012378808410972, 13.235438330438194 ] ] ], [ [ [ 75.010214797937806, 13.239011595374867 ], [ 75.010223025992985, 13.238967325437487 ], [ 75.0103547724256, 13.238283467380077 ], [ 75.010381899962908, 13.237916332425907 ], [ 75.010412028783463, 13.23750464645698 ], [ 75.010372496841981, 13.237543947031364 ], [ 75.010333265559055, 13.238132647563772 ], [ 75.010309470624861, 13.238489748759143 ], [ 75.010206057790725, 13.239044794376607 ], [ 75.010214797937806, 13.239011595374867 ] ] ] ] } }
]
}
