{
"type": "FeatureCollection",
"name": "police_station_boundary.writing_20260805_172659",
"crs": { "type": "name", "properties": { "name": "urn:ogc:def:crs:OGC:1.3:CRS84" } },
"features": [
{ "type": "Feature", "properties": { "Shape.STArea()": 135517356.12107006, "Shape.STLength()": 102928.23142383812, "OBJECTID": 467, "KGISPS_BOUNDID": 567, "PS_BOUNDName": "Kushalanagar Rural PS", "PS_BOUNDCode": "PSB - 567", "KGISPS_SUB_DIVID": 163, "_source_layer": "Police Station Boundary", "_source_layer_url": "https://kgis.ksrsac.in/kgismaps/rest/services/Home/Home_Department/MapServer/82", "_police_station": "Kushalanagar Rural PS" }, "geometry": { "type": "Polygon", "coordinates": [ [ [ 75.949190442281719, 12.59310987073445 ], [ 75.948856142728104, 12.593777702516103 ], [ 75.948733528111404, 12.594749404619431 ], [ 75.948198507738269, 12.595725759819038 ], [ 75.947627375788528, 12.595962452852747 ], [ 75.947726566837048, 12.596358934463463 ], [ 75.947538840797179, 12.596541919781718 ], [ 75.94736542387578, 12.597350666311256 ], [ 75.94696135632536, 12.597926122987303 ], [ 75.946267700303991, 12.598024458246147 ], [ 75.945706902363241, 12.598910582206599 ], [ 75.943993644661816, 12.601263413926151 ], [ 75.943862182345725, 12.601443951454009 ], [ 75.943720314983395, 12.601513711178875 ], [ 75.943633639308416, 12.60155633216727 ], [ 75.943532486559747, 12.601606072252222 ], [ 75.943302379176956, 12.601719222259286 ], [ 75.943255407306665, 12.601742320886299 ], [ 75.943213424373781, 12.601762964216016 ], [ 75.943155111776775, 12.601791638270326 ], [ 75.942726090678875, 12.602002598269786 ], [ 75.942412221476872, 12.602809207501085 ], [ 75.942033706503821, 12.603127665459583 ], [ 75.941412410025862, 12.603176617777205 ], [ 75.940300697993337, 12.604086372984302 ], [ 75.940170649987593, 12.604341807785376 ], [ 75.940163308157253, 12.604368829041928 ], [ 75.938979998763102, 12.603412052364991 ], [ 75.935972646061913, 12.600980374264649 ], [ 75.931199829456446, 12.597078916835066 ], [ 75.927378191983721, 12.591929676854869 ], [ 75.927587751010805, 12.587920917736843 ], [ 75.928238689012829, 12.584020936409244 ], [ 75.928713437783202, 12.581599243499806 ], [ 75.928766236510981, 12.579750425089401 ], [ 75.929926684218358, 12.575095703178226 ], [ 75.930603376042285, 12.573907905916426 ], [ 75.930819438199876, 12.572758571817582 ], [ 75.930786328462304, 12.571279084767374 ], [ 75.930793370167876, 12.570087467757931 ], [ 75.931135224712776, 12.568897757372502 ], [ 75.931812866491057, 12.567545593317249 ], [ 75.93395365091196, 12.559936569398607 ], [ 75.935151848246946, 12.55546438648221 ], [ 75.935418037196598, 12.552270770740556 ], [ 75.935280379827844, 12.549332599421291 ], [ 75.932765830811732, 12.550163153957026 ], [ 75.927828330070497, 12.550718171198797 ], [ 75.924445097687411, 12.550128312561794 ], [ 75.922357865884763, 12.5483508584049 ], [ 75.920870002956434, 12.546576829900957 ], [ 75.920432678334592, 12.545676022205924 ], [ 75.92012987158725, 12.545052292069585 ], [ 75.920039313564573, 12.543482438889376 ], [ 75.919854698008294, 12.540931213044413 ], [ 75.919861696764045, 12.539754253013053 ], [ 75.919569035713323, 12.538575574651926 ], [ 75.919069224106721, 12.53802383879149 ], [ 75.916341814692387, 12.535013034980707 ], [ 75.915098221913041, 12.534172170649097 ], [ 75.912953622737945, 12.533669402590935 ], [ 75.909008614808727, 12.533573073715582 ], [ 75.904363682951058, 12.533595234790496 ], [ 75.903517903640719, 12.533050875521417 ], [ 75.903072844308525, 12.532312668951315 ], [ 75.90158638129337, 12.530342379013419 ], [ 75.898065350930125, 12.526202419995018 ], [ 75.8976837509354, 12.520201751097146 ], [ 75.897830330186238, 12.516692351776321 ], [ 75.899925348972758, 12.512455277250119 ], [ 75.902717112530325, 12.507052139716167 ], [ 75.904312311921558, 12.503697606453477 ], [ 75.904794222173024, 12.502039548127408 ], [ 75.905631476263409, 12.50015179821777 ], [ 75.907985154799334, 12.494603491966755 ], [ 75.908455924227454, 12.493453137013464 ], [ 75.906406788730081, 12.492954725766625 ], [ 75.902354451915883, 12.491164122870304 ], [ 75.90074380262206, 12.489089799368642 ], [ 75.900092907282342, 12.48993171616565 ], [ 75.899319920064855, 12.490681945684294 ], [ 75.898601487702948, 12.490879028484615 ], [ 75.897577492100979, 12.490772446050087 ], [ 75.895463477637477, 12.489845722254074 ], [ 75.894803131692086, 12.48950455615088 ], [ 75.89539293310321, 12.488985029711699 ], [ 75.896435881543823, 12.488248317553165 ], [ 75.896602149492054, 12.488087384870203 ], [ 75.897383989782398, 12.487344499192425 ], [ 75.897518597816074, 12.487273216639716 ], [ 75.89823343253866, 12.487252942176569 ], [ 75.899090787233604, 12.487555997339506 ], [ 75.899212717472068, 12.487564182509198 ], [ 75.899816891652904, 12.486861182182267 ], [ 75.900384362926545, 12.486330509033989 ], [ 75.900457672261979, 12.48625518993846 ], [ 75.901075181095763, 12.485448748616619 ], [ 75.901134208822114, 12.485361269410577 ], [ 75.901402477425165, 12.484724278461231 ], [ 75.901564371875438, 12.483592630596611 ], [ 75.901814103620808, 12.482627460516079 ], [ 75.901865956234559, 12.482529996535476 ], [ 75.902444009832195, 12.481817309592964 ], [ 75.902588973065789, 12.481635056866029 ], [ 75.902898662739119, 12.481221760193639 ], [ 75.903102460946968, 12.480891497275746 ], [ 75.903192469185001, 12.480788292954186 ], [ 75.903712559007232, 12.479898109796036 ], [ 75.903803961287451, 12.479716818958446 ], [ 75.90383798502728, 12.478379031150673 ], [ 75.90429564830167, 12.477347619684336 ], [ 75.904833788747325, 12.476326683353603 ], [ 75.905364340656476, 12.475092087305898 ], [ 75.905422141513426, 12.47497404030781 ], [ 75.905572613275183, 12.473893654087473 ], [ 75.905965925064891, 12.472949322308626 ], [ 75.906455352131943, 12.472606584452098 ], [ 75.90675515487284, 12.471305116571903 ], [ 75.90706012613181, 12.46991501361591 ], [ 75.907078763028949, 12.469252582405412 ], [ 75.907084670414022, 12.469042602676735 ], [ 75.907086634123871, 12.468972815007263 ], [ 75.907100321650972, 12.468486279004097 ], [ 75.907292547987353, 12.468100024368086 ], [ 75.907331822507217, 12.468021108171099 ], [ 75.907707986643899, 12.467265246564194 ], [ 75.907835926570698, 12.46679334534571 ], [ 75.907715340188759, 12.4658894359033 ], [ 75.907255204910243, 12.464271890524685 ], [ 75.907258295288216, 12.464196672014511 ], [ 75.906796259645219, 12.462829166013282 ], [ 75.906810344964157, 12.462718051628004 ], [ 75.906571712614522, 12.461360921997048 ], [ 75.906431450148446, 12.460919595291591 ], [ 75.90611034738086, 12.460208091749704 ], [ 75.905970133375277, 12.459168337028252 ], [ 75.905949799447228, 12.458874489639072 ], [ 75.905852044164732, 12.458705040135136 ], [ 75.905354693601723, 12.458309777844397 ], [ 75.905283885789842, 12.45797082223867 ], [ 75.904573124168607, 12.457360256573741 ], [ 75.904515082765769, 12.457300253338415 ], [ 75.90372838018132, 12.456428417631271 ], [ 75.902768141744573, 12.456128695922834 ], [ 75.901736875517756, 12.455776033952304 ], [ 75.901474429253966, 12.455704923706843 ], [ 75.901086307440735, 12.455599761128035 ], [ 75.900698451154213, 12.455472808415236 ], [ 75.900527984635929, 12.45462894578462 ], [ 75.900534864399063, 12.454530070450081 ], [ 75.900765278378742, 12.453872655983648 ], [ 75.900848024772785, 12.453636563104288 ], [ 75.901086554586442, 12.452711306163293 ], [ 75.901241849389535, 12.452202759000027 ], [ 75.901202184261933, 12.451775510606195 ], [ 75.901102078739044, 12.450868054851515 ], [ 75.901080778227026, 12.450723289058839 ], [ 75.900953624097511, 12.449967684469161 ], [ 75.900879424215702, 12.449685225910171 ], [ 75.900906700896954, 12.449247355931318 ], [ 75.900875592853879, 12.449014317893695 ], [ 75.900872298219355, 12.448763607597124 ], [ 75.900637480747761, 12.448057485938666 ], [ 75.900407924956326, 12.447294865127477 ], [ 75.900012071549497, 12.447008762274885 ], [ 75.898074134033536, 12.44606559676204 ], [ 75.897544863963475, 12.445685746077045 ], [ 75.896738341778672, 12.445322241109011 ], [ 75.896729631957086, 12.445318315879865 ], [ 75.895745951756822, 12.44456451558924 ], [ 75.89511767850739, 12.443952863536696 ], [ 75.894926352936423, 12.443765788195556 ], [ 75.893972746919104, 12.44283336135854 ], [ 75.892724836876667, 12.441966855731732 ], [ 75.891651541633394, 12.441345377997546 ], [ 75.890684971881115, 12.441062903414041 ], [ 75.889686663549028, 12.440996644869168 ], [ 75.889671881766944, 12.441039767331461 ], [ 75.889652862828669, 12.441402793392538 ], [ 75.889597039822576, 12.441515658697357 ], [ 75.889392382555798, 12.437995075131928 ], [ 75.88916779616045, 12.436995889132541 ], [ 75.888831009949996, 12.435497510151896 ], [ 75.88834492370421, 12.433334850706222 ], [ 75.887280905680043, 12.431416672883538 ], [ 75.886470855144665, 12.429852181727638 ], [ 75.88586538296461, 12.428339200374079 ], [ 75.885824832943555, 12.426577949861516 ], [ 75.886294628280581, 12.425121573236508 ], [ 75.88722719327049, 12.423366013539349 ], [ 75.887507024566901, 12.419443102170936 ], [ 75.886959633781359, 12.41679838048432 ], [ 75.885844472006994, 12.41487989951521 ], [ 75.884370823050034, 12.41295931603508 ], [ 75.88391507330914, 12.412101296642783 ], [ 75.883819660277567, 12.410943500131999 ], [ 75.883673644849139, 12.409684775423397 ], [ 75.882862765813883, 12.408271212945053 ], [ 75.881034952409664, 12.405644131590797 ], [ 75.877625396989288, 12.402051763035029 ], [ 75.87310692211301, 12.395559725133268 ], [ 75.869639816306474, 12.391433722311303 ], [ 75.8671583241006, 12.388480538002733 ], [ 75.863494976117224, 12.384584614096733 ], [ 75.862540379445051, 12.3815852286679 ], [ 75.862143066847679, 12.379570285253363 ], [ 75.861643036562086, 12.377605043797256 ], [ 75.861244498112981, 12.375791350347924 ], [ 75.865564431867568, 12.373760338441018 ], [ 75.867292449745278, 12.373466138645949 ], [ 75.8719435069019, 12.372884755222072 ], [ 75.874876734436512, 12.37092327849235 ], [ 75.875769346315209, 12.369710833991446 ], [ 75.876529697361661, 12.368410631080259 ], [ 75.877067159594844, 12.367370049610178 ], [ 75.877560093797655, 12.36637269594724 ], [ 75.87832042712607, 12.365072485348428 ], [ 75.879122367523038, 12.364207409027733 ], [ 75.880319731094374, 12.363823030551751 ], [ 75.882271333364358, 12.363138640779837 ], [ 75.885774867291119, 12.361984930176444 ], [ 75.889022397234683, 12.359242321936261 ], [ 75.89008773527469, 12.35872666104734 ], [ 75.891374624214592, 12.358168797408126 ], [ 75.892349343600017, 12.358000515900454 ], [ 75.894261056928045, 12.356576487175914 ], [ 75.901586991983933, 12.346024623438334 ], [ 75.901590511049605, 12.346025779136619 ], [ 75.902336239300766, 12.346416648522812 ], [ 75.903244930579874, 12.347060147196974 ], [ 75.90372256866759, 12.347553623038351 ], [ 75.903977697630339, 12.348195897410646 ], [ 75.904023710566889, 12.348539345683673 ], [ 75.904093111069827, 12.348998002573188 ], [ 75.904068639474445, 12.349571128686444 ], [ 75.904207725741045, 12.350235264466278 ], [ 75.904252703460287, 12.350946046141971 ], [ 75.904321855946591, 12.351496259704675 ], [ 75.904437898113684, 12.351977364087842 ], [ 75.904693207222763, 12.352505483373516 ], [ 75.904855297446261, 12.353169544783929 ], [ 75.905006184818234, 12.353754522843767 ], [ 75.905004867884216, 12.354373912687871 ], [ 75.904956802809139, 12.355106483476265 ], [ 75.904839102757165, 12.355816680302215 ], [ 75.90453460235797, 12.356365867862381 ], [ 75.904160876695258, 12.356846342426788 ], [ 75.903693567063513, 12.357189236554817 ], [ 75.903133309768151, 12.357418272369301 ], [ 75.902503018879187, 12.357508521942551 ], [ 75.90191986681991, 12.357599751452112 ], [ 75.901382932337228, 12.357758636389644 ], [ 75.90083402466675, 12.358113090568896 ], [ 75.900506705861119, 12.358548194662157 ], [ 75.900249253610227, 12.359074625325224 ], [ 75.900061427629652, 12.359623420099595 ], [ 75.89985051349808, 12.360311324708881 ], [ 75.899661988207399, 12.36115851643709 ], [ 75.8994508884102, 12.361960573809926 ], [ 75.899145737225282, 12.362830756840365 ], [ 75.898735978463066, 12.363871957997562 ], [ 75.898196627882001, 12.365178059729558 ], [ 75.897939025905259, 12.366001745657879 ], [ 75.897774090522063, 12.366689490987117 ], [ 75.897820342227845, 12.367101884736897 ], [ 75.898052611354032, 12.367445847679349 ], [ 75.898472132900068, 12.367745114435879 ], [ 75.898821625218304, 12.367905593618659 ], [ 75.899311715877346, 12.367997779927933 ], [ 75.899987978121914, 12.368228383114417 ], [ 75.900944298167431, 12.36832242454023 ], [ 75.901457125233676, 12.368506080367059 ], [ 75.901759716388653, 12.368735657150856 ], [ 75.902159646154729, 12.369058000336658 ], [ 75.902400744856223, 12.369252325166629 ], [ 75.902889023212907, 12.369986507516433 ], [ 75.90342489603745, 12.370514822558524 ], [ 75.904076859404896, 12.371203247204432 ], [ 75.904588721206267, 12.371937342941802 ], [ 75.904984667773192, 12.372396044215998 ], [ 75.905636488807843, 12.373039256182473 ], [ 75.906056102705477, 12.373361116731825 ], [ 75.906696850656246, 12.373625724439222 ], [ 75.907349194386313, 12.374084697124857 ], [ 75.908001700440877, 12.374590006508878 ], [ 75.908584131033791, 12.375278652653872 ], [ 75.909142592388818, 12.375852090679018 ], [ 75.90965481937684, 12.376517233296575 ], [ 75.910283847259549, 12.377046345947681 ], [ 75.911553356455414, 12.37809097200854 ], [ 75.912036853416382, 12.378427298674177 ], [ 75.912462858893093, 12.378762689808328 ], [ 75.912832191301007, 12.379168349403118 ], [ 75.913058959124754, 12.379574476434797 ], [ 75.913356727046931, 12.380064010311468 ], [ 75.913554761153549, 12.380637513760028 ], [ 75.913704174355601, 12.38117878172983 ], [ 75.913788234148413, 12.381483299723627 ], [ 75.913858434487324, 12.381832309737836 ], [ 75.913985895566071, 12.382279468875284 ], [ 75.913985817747346, 12.382343802666052 ], [ 75.91386685103285, 12.382198214629256 ], [ 75.912891946962944, 12.385542945963369 ], [ 75.912713095960157, 12.385843793753956 ], [ 75.911256132475529, 12.388294536148571 ], [ 75.910248259324035, 12.393061218239607 ], [ 75.909690556345367, 12.394556439235805 ], [ 75.909601033125057, 12.395451807156261 ], [ 75.909394758292109, 12.39751487950948 ], [ 75.908631104818028, 12.399620595121512 ], [ 75.908578624155126, 12.399765305828359 ], [ 75.908654258532749, 12.399896733438968 ], [ 75.909899885601845, 12.402061218096659 ], [ 75.910488015483779, 12.404783725281275 ], [ 75.912560575523642, 12.405991909536933 ], [ 75.916574970550982, 12.410239039968427 ], [ 75.916234305865061, 12.410636671863898 ], [ 75.916455550002524, 12.411107124193881 ], [ 75.916823264258696, 12.411631930263786 ], [ 75.917409387115597, 12.41245081590759 ], [ 75.9175960560829, 12.413417504436046 ], [ 75.917734072147354, 12.413942341000837 ], [ 75.917924306891464, 12.414665745922749 ], [ 75.918205969175602, 12.415691852840746 ], [ 75.918473984935943, 12.416100556276382 ], [ 75.918354969337088, 12.416274658214459 ], [ 75.918902565942844, 12.416865169996095 ], [ 75.919124627881814, 12.417092728936474 ], [ 75.919286538155973, 12.417258647661184 ], [ 75.919964583372533, 12.418175385639175 ], [ 75.920244742488237, 12.418733037814135 ], [ 75.920271644089681, 12.418784421039224 ], [ 75.9203896107975, 12.419009744312932 ], [ 75.920724396765777, 12.419649195448235 ], [ 75.920978989702263, 12.420373118982756 ], [ 75.921003538594547, 12.420445484932694 ], [ 75.92120100621301, 12.421019066707371 ], [ 75.921571176269993, 12.421514313884417 ], [ 75.922080133779914, 12.422195238501248 ], [ 75.922451972872153, 12.422692711913291 ], [ 75.922652913969074, 12.423350077473387 ], [ 75.922728447927938, 12.423585918708167 ], [ 75.922940388623815, 12.424247658067266 ], [ 75.923020887279719, 12.425960073877951 ], [ 75.922802752648522, 12.426973790888995 ], [ 75.923049526544659, 12.427083949189646 ], [ 75.923197500654922, 12.426383903360126 ], [ 75.92361270538774, 12.426306966210859 ], [ 75.923776679405634, 12.428128004203352 ], [ 75.925557249587754, 12.429302668692818 ], [ 75.925386940456008, 12.430875955827336 ], [ 75.925138514666202, 12.433526811088717 ], [ 75.92513446316002, 12.433570038582619 ], [ 75.925266014070417, 12.433937771260494 ], [ 75.926177331237227, 12.436485199862128 ], [ 75.927859501358441, 12.437900494843742 ], [ 75.928930681666074, 12.437790894144834 ], [ 75.930755365067384, 12.437617829178958 ], [ 75.932279923440433, 12.439493843743994 ], [ 75.934153547474438, 12.439087859981292 ], [ 75.935708529532661, 12.43873927274057 ], [ 75.936651613302843, 12.438309234535758 ], [ 75.934583925014095, 12.441179201773469 ], [ 75.934523747401329, 12.441177069548827 ], [ 75.928448938345312, 12.448495631696929 ], [ 75.924566366416073, 12.45209230701054 ], [ 75.921502986554245, 12.454928093445414 ], [ 75.920652295780712, 12.455123651497404 ], [ 75.922606466540941, 12.45893333242562 ], [ 75.922958037456311, 12.459387695649134 ], [ 75.923380049810106, 12.45991205505581 ], [ 75.923767666675417, 12.460262233836296 ], [ 75.925716441801583, 12.463084641525473 ], [ 75.926204511830917, 12.464799824401172 ], [ 75.926055744409638, 12.468896495216359 ], [ 75.926172704483889, 12.47018145957272 ], [ 75.926836684010368, 12.471259298336369 ], [ 75.927344735894266, 12.472084012894793 ], [ 75.929075825287455, 12.474234375745262 ], [ 75.930671613956193, 12.474691950769628 ], [ 75.930470942938072, 12.474759678122805 ], [ 75.929225037437675, 12.474939455558687 ], [ 75.92865835805128, 12.474984414197829 ], [ 75.927967568854015, 12.475075248885114 ], [ 75.928702910619137, 12.47571948321197 ], [ 75.928769043236329, 12.47587704830107 ], [ 75.928957191637892, 12.476208710116747 ], [ 75.929067116767897, 12.4766466041364 ], [ 75.929717531961003, 12.477259270795669 ], [ 75.930166020362748, 12.477885702888537 ], [ 75.93048785479715, 12.478246911935971 ], [ 75.930729984551618, 12.478305939317755 ], [ 75.931218529655212, 12.478343957071585 ], [ 75.931967059533477, 12.478247233072473 ], [ 75.932662315639675, 12.478184860815258 ], [ 75.933483802562392, 12.478287606014968 ], [ 75.933928472876957, 12.478332648849378 ], [ 75.934119909858225, 12.477939995736195 ], [ 75.934347737416118, 12.477918582202658 ], [ 75.934391520434744, 12.477914466592724 ], [ 75.934527235090101, 12.477901710371423 ], [ 75.935607317600457, 12.477800187679112 ], [ 75.936878075493922, 12.477126011900024 ], [ 75.938117738391583, 12.47679029810338 ], [ 75.93967582808142, 12.476529136110697 ], [ 75.940127065931264, 12.476441637839867 ], [ 75.940897162197857, 12.476173452169238 ], [ 75.942182595797448, 12.475963077600312 ], [ 75.94229098369776, 12.475946427271627 ], [ 75.943718959530088, 12.475763970288046 ], [ 75.943761013017749, 12.475758596982331 ], [ 75.945043199291959, 12.475624758741761 ], [ 75.945985010691842, 12.475868608208934 ], [ 75.946171343236628, 12.475916852057287 ], [ 75.946406939793391, 12.476135112372098 ], [ 75.946544880383684, 12.476276429846855 ], [ 75.946910790869254, 12.476651302935219 ], [ 75.947065158183193, 12.476673771181737 ], [ 75.947363506217172, 12.476717196790259 ], [ 75.947973304045519, 12.476800362494135 ], [ 75.948722561981043, 12.476778532482969 ], [ 75.948820628363578, 12.476771007495765 ], [ 75.949018163416866, 12.47674484084232 ], [ 75.94918869690926, 12.476684416879083 ], [ 75.949455219935984, 12.476589982021094 ], [ 75.949491202018891, 12.476577231970754 ], [ 75.949847085822526, 12.476451133915097 ], [ 75.949873082408615, 12.476434856437791 ], [ 75.949986562345842, 12.476363806891737 ], [ 75.950181688228966, 12.476276139201742 ], [ 75.950865704575349, 12.4757651110612 ], [ 75.951497025626637, 12.475355546768467 ], [ 75.951740640238171, 12.475196870746156 ], [ 75.951755356291955, 12.475189102463281 ], [ 75.952685334812188, 12.474698182630256 ], [ 75.952938369430385, 12.474558643972726 ], [ 75.953740890758084, 12.473803189698664 ], [ 75.953857742896119, 12.473687720915851 ], [ 75.95417531419703, 12.473591087665072 ], [ 75.954176763931542, 12.47359072538401 ], [ 75.954365764309856, 12.473528640794859 ], [ 75.954876519463241, 12.473384316462949 ], [ 75.955227902654784, 12.473285025246131 ], [ 75.956302697190893, 12.472830088987394 ], [ 75.956905153392654, 12.472423383022315 ], [ 75.957109979937357, 12.472288769480757 ], [ 75.957123567109761, 12.472282380205113 ], [ 75.957184276757744, 12.472253836598709 ], [ 75.957268245873962, 12.472214356574449 ], [ 75.957946326612202, 12.47189553904875 ], [ 75.957948912453773, 12.471894610309294 ], [ 75.957995873038016, 12.471877767646507 ], [ 75.958757564638162, 12.471789221382085 ], [ 75.959125303639198, 12.471750400187592 ], [ 75.959183703727362, 12.471728701859655 ], [ 75.959195680578219, 12.471707557271655 ], [ 75.959370330763505, 12.471399247366939 ], [ 75.959458578637907, 12.471219226497274 ], [ 75.959647799614416, 12.470800742219204 ], [ 75.960054359116768, 12.470673228935398 ], [ 75.960076246097614, 12.470675947770268 ], [ 75.960084075368385, 12.470676919964983 ], [ 75.960133435226936, 12.470683052074639 ], [ 75.960200300252112, 12.470691357984515 ], [ 75.960517766475817, 12.470730792571533 ], [ 75.960720973466493, 12.470757102162404 ], [ 75.960841140684053, 12.47077266153692 ], [ 75.960841380030914, 12.470772692331808 ], [ 75.960855861478677, 12.470774566721339 ], [ 75.961119437501651, 12.47080893811812 ], [ 75.961136257254552, 12.47081113148537 ], [ 75.962170719603776, 12.470955680825064 ], [ 75.962199036037731, 12.471067476298483 ], [ 75.962223544668916, 12.471164223318771 ], [ 75.962285451224446, 12.471213398638938 ], [ 75.962358647027756, 12.471332407795339 ], [ 75.962429703358779, 12.471460574064805 ], [ 75.962460954831542, 12.471516943862516 ], [ 75.962520515188885, 12.471587303641725 ], [ 75.962612984998103, 12.47169653930681 ], [ 75.962682142994439, 12.471798701392194 ], [ 75.962667942454999, 12.471813361952327 ], [ 75.962819243387145, 12.472142710181396 ], [ 75.96316334208656, 12.472307665771886 ], [ 75.963268427876812, 12.472358996974329 ], [ 75.963830348690479, 12.472633481977846 ], [ 75.963972980957635, 12.472742328221145 ], [ 75.963982249053942, 12.472761870854978 ], [ 75.964182620808941, 12.473184385218914 ], [ 75.964460142649756, 12.473198453981881 ], [ 75.964708124848798, 12.473281247054953 ], [ 75.964870141724276, 12.473318089704934 ], [ 75.965080914471642, 12.47336601872914 ], [ 75.965804703971443, 12.473706493341229 ], [ 75.965401776449255, 12.474343137536117 ], [ 75.965916295366227, 12.475497270432033 ], [ 75.965952289785392, 12.475586702543717 ], [ 75.966014952705692, 12.475742392279727 ], [ 75.966046638036403, 12.475821117910399 ], [ 75.966251069159853, 12.476329039971898 ], [ 75.966297779197006, 12.476445092786753 ], [ 75.967203211910743, 12.477452010005752 ], [ 75.967685950185682, 12.477988851686591 ], [ 75.967535164039617, 12.478736949212223 ], [ 75.967707786686347, 12.479889788389071 ], [ 75.967615931862312, 12.481670644890652 ], [ 75.967471892325506, 12.482468681838945 ], [ 75.96746164629981, 12.482506595982507 ], [ 75.967464884973708, 12.482507501214611 ], [ 75.967629961394593, 12.482580838326346 ], [ 75.967807984087784, 12.482735983322495 ], [ 75.968021402800872, 12.482996747888725 ], [ 75.968265218572981, 12.482850778448638 ], [ 75.968502016797558, 12.483053203574999 ], [ 75.968700918345178, 12.483465711822435 ], [ 75.968492398031387, 12.483716288959378 ], [ 75.968273436129792, 12.483974788876802 ], [ 75.968136738674062, 12.483766813371931 ], [ 75.968029870009929, 12.483674768931278 ], [ 75.967786360694191, 12.483538454680268 ], [ 75.967313673552894, 12.483866106927755 ], [ 75.966597573964705, 12.484418293893336 ], [ 75.966076093757508, 12.484842348309742 ], [ 75.965841447998912, 12.484901959244114 ], [ 75.965614400756337, 12.48508609037348 ], [ 75.965105604241487, 12.485016124373116 ], [ 75.964047468124249, 12.484863827604567 ], [ 75.962769203639553, 12.484802391553655 ], [ 75.962064010486728, 12.484665307361933 ], [ 75.96195532852964, 12.484644179813374 ], [ 75.961272238969698, 12.484684895180903 ], [ 75.961089042143058, 12.484969474811184 ], [ 75.960999509942823, 12.485269247355799 ], [ 75.960794726428773, 12.485400342318732 ], [ 75.960708842824047, 12.486203295691757 ], [ 75.960165819781281, 12.487361568582026 ], [ 75.960051613007892, 12.487588263444485 ], [ 75.96003543397903, 12.487620377325303 ], [ 75.959988953911363, 12.487722073491017 ], [ 75.959485488500775, 12.48882365005038 ], [ 75.959361086547133, 12.489015605783708 ], [ 75.959308113613076, 12.489481495062185 ], [ 75.959335201024842, 12.489627711221523 ], [ 75.959353619166777, 12.490398311913841 ], [ 75.95954160901411, 12.490700292672797 ], [ 75.95975871242878, 12.491484338302966 ], [ 75.96019595544945, 12.492285441002876 ], [ 75.960623477553185, 12.492939989170944 ], [ 75.961256867486426, 12.493782895595192 ], [ 75.96161814179932, 12.494369306812553 ], [ 75.962329574603359, 12.496024247570963 ], [ 75.9623585652038, 12.496091685199261 ], [ 75.962544225694174, 12.49647998275764 ], [ 75.962664396281212, 12.496624254542979 ], [ 75.96299949444689, 12.497026560761036 ], [ 75.962406070651454, 12.497349884378007 ], [ 75.961896714218355, 12.497505991447776 ], [ 75.96174354220949, 12.497841998037549 ], [ 75.960982802166654, 12.499510785286416 ], [ 75.959829918428966, 12.502039749076191 ], [ 75.959957243644837, 12.504877204348189 ], [ 75.960040249478467, 12.506726955422518 ], [ 75.963195569122846, 12.510192568624204 ], [ 75.965885830166712, 12.511182804274439 ], [ 75.966551306258609, 12.511239794330669 ], [ 75.966552213008555, 12.511239870643113 ], [ 75.96655559888309, 12.511222854331168 ], [ 75.96632906532794, 12.510452542029999 ], [ 75.969934247999788, 12.510419050583772 ], [ 75.972062187392027, 12.511707772555797 ], [ 75.97327675517802, 12.513353869014574 ], [ 75.973728880020573, 12.516134873145806 ], [ 75.974058606545839, 12.519364135273991 ], [ 75.97576127861123, 12.52023365122186 ], [ 75.977014590391292, 12.520314114119904 ], [ 75.980051326410404, 12.52050904879728 ], [ 75.982334166780234, 12.520063950156107 ], [ 75.984986383054064, 12.519593553888258 ], [ 75.986503804488109, 12.519472083387033 ], [ 75.990306153797803, 12.520314636601697 ], [ 75.993073727495513, 12.521305150129667 ], [ 75.99374127739938, 12.522591628780345 ], [ 75.993676202958014, 12.525461558944496 ], [ 75.993314921839854, 12.527974587683653 ], [ 75.992684026063046, 12.527859421705839 ], [ 75.992433503889032, 12.528350223373735 ], [ 75.992352334110791, 12.528582934410686 ], [ 75.992296664441042, 12.528742450137772 ], [ 75.9922307595658, 12.528959672250535 ], [ 75.991800091036509, 12.529545702048949 ], [ 75.991485060876812, 12.529985737124152 ], [ 75.990858348465068, 12.530720294201144 ], [ 75.990539650738498, 12.5308593275241 ], [ 75.989949554866868, 12.531202044117707 ], [ 75.989210532785336, 12.532189275201352 ], [ 75.988999194126791, 12.53245952784224 ], [ 75.988626382940893, 12.532958645732695 ], [ 75.988506341047312, 12.533197984573878 ], [ 75.988438725840396, 12.533422470145311 ], [ 75.98840182116669, 12.533539402549982 ], [ 75.98809717855795, 12.533953315879144 ], [ 75.987721756498132, 12.534484873500748 ], [ 75.987407513291132, 12.534922679188526 ], [ 75.98727193463435, 12.535122790732686 ], [ 75.98703377939627, 12.535375466594177 ], [ 75.98674873954775, 12.535699355980158 ], [ 75.986432481729992, 12.536058859690096 ], [ 75.986021517071478, 12.536522285555845 ], [ 75.985847792821644, 12.536872585378275 ], [ 75.985521360941235, 12.537185936312136 ], [ 75.985085882347406, 12.537502195897519 ], [ 75.984815260725398, 12.537713654453034 ], [ 75.984463761461228, 12.537937576747177 ], [ 75.983720636985893, 12.538630413096755 ], [ 75.983613934792444, 12.538729894924334 ], [ 75.983312888707218, 12.538959248787986 ], [ 75.983012520149146, 12.5390958208671 ], [ 75.982912088552723, 12.539190125659843 ], [ 75.982674956113257, 12.539715446834283 ], [ 75.982497186438835, 12.540317219896957 ], [ 75.982439661755762, 12.540850300868609 ], [ 75.98229326771542, 12.540799354037777 ], [ 75.981484789597189, 12.540913309934011 ], [ 75.981370020562395, 12.540928728812101 ], [ 75.981334275268978, 12.540999012204656 ], [ 75.981978764495224, 12.543679966281541 ], [ 75.98208550787993, 12.544123992065401 ], [ 75.983794069957824, 12.545544668287533 ], [ 75.986024241270727, 12.545598909649007 ], [ 75.988342335158535, 12.545396014370461 ], [ 75.993390861344125, 12.542118869186133 ], [ 75.99566788769107, 12.54403353527851 ], [ 75.997449001255902, 12.546379702078305 ], [ 75.99848510918973, 12.548251392939347 ], [ 75.998220580932212, 12.549274865848039 ], [ 75.997767146951929, 12.550114149315398 ], [ 75.997422786917895, 12.550478483720937 ], [ 75.997059703548786, 12.550818074866342 ], [ 75.996536129007509, 12.551206636911221 ], [ 75.996304494862841, 12.551342148921945 ], [ 75.995909255586014, 12.551521212792471 ], [ 75.994824125615438, 12.551987953539552 ], [ 75.994335066600684, 12.552384094532281 ], [ 75.993849017203061, 12.552805058645689 ], [ 75.993732386938888, 12.552877864646282 ], [ 75.993206296811806, 12.553144552284857 ], [ 75.9924976598802, 12.553471967087882 ], [ 75.991847280219844, 12.553886757097125 ], [ 75.991843533157365, 12.553889146226158 ], [ 75.991398940777358, 12.554191891750188 ], [ 75.991059010848844, 12.554607431500255 ], [ 75.990708067165244, 12.555026133685612 ], [ 75.990418447715243, 12.555433646825866 ], [ 75.99020267376477, 12.55583922526537 ], [ 75.990021663553634, 12.556205804619214 ], [ 75.989955264740104, 12.556585760523678 ], [ 75.989958316773198, 12.556602823776139 ], [ 75.989894889315508, 12.557015369779291 ], [ 75.989831460785027, 12.557427915773498 ], [ 75.989778987989538, 12.557848167428634 ], [ 75.989721866438586, 12.558256022754293 ], [ 75.989693554411659, 12.558562808435424 ], [ 75.989710395510329, 12.558646560963556 ], [ 75.98980721087095, 12.559058272359255 ], [ 75.989886809626668, 12.559457654556644 ], [ 75.989940849098218, 12.559728791009684 ], [ 75.98996640866369, 12.559857033987834 ], [ 75.990046008919748, 12.560256415170247 ], [ 75.990098493043476, 12.56043391422098 ], [ 75.99025757578994, 12.560655107398899 ], [ 75.99051186302691, 12.560996132239216 ], [ 75.990770748854032, 12.561358869912553 ], [ 75.991031142785701, 12.56173401878252 ], [ 75.991167160964096, 12.561859846944227 ], [ 75.991477261582403, 12.562042991041256 ], [ 75.991951636123758, 12.562356471967654 ], [ 75.992438717376686, 12.562643492087917 ], [ 75.993005277754492, 12.562753102033211 ], [ 75.993589403310253, 12.562808276549292 ], [ 75.994186132505291, 12.562857173258788 ], [ 75.994784341267035, 12.562923140331591 ], [ 75.995410895811958, 12.562976536732824 ], [ 75.995858341162304, 12.56303242067559 ], [ 75.996227746005374, 12.562861060406007 ], [ 75.996401653662716, 12.562780388207704 ], [ 75.996938785760634, 12.562508201886716 ], [ 75.99744777417834, 12.56220976793043 ], [ 75.997787446506308, 12.561843904889658 ], [ 75.998136438607901, 12.561498175350829 ], [ 75.998488644280584, 12.561138456689317 ], [ 75.998615080164967, 12.561007685004808 ], [ 75.998842451384377, 12.560772518160377 ], [ 75.99919625749132, 12.560406579230305 ], [ 75.999559458265466, 12.560046800296663 ], [ 75.999714044056319, 12.55992566393299 ], [ 76.000136212502056, 12.559706085772646 ], [ 76.000243328166832, 12.5596504067718 ], [ 76.00065040326237, 12.559614113631421 ], [ 76.00116433661924, 12.559571826864319 ], [ 76.001717512604287, 12.559535541853675 ], [ 76.002065698714318, 12.559343519728502 ], [ 76.002514727661307, 12.55909352156087 ], [ 76.003023671246126, 12.558801287028722 ], [ 76.003535766456423, 12.558507481920858 ], [ 76.00406209317778, 12.558194971309522 ], [ 76.004367721695459, 12.558029563713001 ], [ 76.004560053467017, 12.557899685642337 ], [ 76.004590385847393, 12.557879696460432 ], [ 76.004829610191052, 12.557722046251742 ], [ 76.005045837509414, 12.557528387346551 ], [ 76.005519053840757, 12.557157152551733 ], [ 76.005524803206555, 12.5571522801008 ], [ 76.005973487051577, 12.556772043264093 ], [ 76.006415311958619, 12.556394761924821 ], [ 76.006866486871971, 12.556031404401704 ], [ 76.00722774665013, 12.555739939285486 ], [ 76.007809754574978, 12.555594808914108 ], [ 76.00840116426393, 12.555454284017216 ], [ 76.008983193956652, 12.555304490994057 ], [ 76.009359438715265, 12.555152678972282 ], [ 76.009920146314712, 12.554872577799587 ], [ 76.010003573778803, 12.554840309323147 ], [ 76.010312949944023, 12.554860411533387 ], [ 76.010741621571611, 12.554899292137902 ], [ 76.011173445080018, 12.554936601372642 ], [ 76.011625642101762, 12.554983117135688 ], [ 76.0118730215966, 12.555007330194032 ], [ 76.011691020450385, 12.555781216095685 ], [ 76.01147443782817, 12.556405417073821 ], [ 76.011426988052861, 12.55653772648358 ], [ 76.011102340334759, 12.557419482545523 ], [ 76.010931062561411, 12.557958700943358 ], [ 76.010819685164449, 12.558392241563482 ], [ 76.010680637913651, 12.559100943264673 ], [ 76.010655117952595, 12.559229129184761 ], [ 76.010685238172385, 12.559412288049888 ], [ 76.010828208367386, 12.559950005541777 ], [ 76.010894914771413, 12.560187981215687 ], [ 76.010980096029385, 12.56037948412841 ], [ 76.011296172255044, 12.561049177251689 ], [ 76.011434579311654, 12.56133723571825 ], [ 76.011699117509465, 12.561652490459846 ], [ 76.011865650448485, 12.561838434609559 ], [ 76.012309497445344, 12.56226019081447 ], [ 76.012523516828978, 12.562406172500051 ], [ 76.012900519989557, 12.562616627949888 ], [ 76.013195892660775, 12.56278151447796 ], [ 76.013629319742634, 12.56301728762099 ], [ 76.01406396430238, 12.563188454082182 ], [ 76.014248700659223, 12.563261203962274 ], [ 76.014475063668471, 12.563366930508016 ], [ 76.01460394990734, 12.563459945982077 ], [ 76.01507684920945, 12.563934860905976 ], [ 76.015569794880378, 12.564445665070103 ], [ 76.015702431231958, 12.564705650925088 ], [ 76.015983270490622, 12.565304129574987 ], [ 76.016086988172972, 12.565471569754095 ], [ 76.016443526492509, 12.565758316166322 ], [ 76.016903285863052, 12.566172393763926 ], [ 76.017177714141212, 12.566382112224337 ], [ 76.017275545873431, 12.566456183213999 ], [ 76.017341410985708, 12.566873965143451 ], [ 76.017399970891262, 12.56717292595309 ], [ 76.017529907038394, 12.56735471456739 ], [ 76.017477475837026, 12.56834879406394 ], [ 76.017973968319296, 12.57036015777615 ], [ 76.018096762239509, 12.570857608288682 ], [ 76.018110418931542, 12.570912933255336 ], [ 76.017661007507641, 12.57102478287014 ], [ 76.017644259274562, 12.571342533298465 ], [ 76.017423185530873, 12.571424247282309 ], [ 76.017408558443734, 12.571429657321723 ], [ 76.017149623674626, 12.571464801745661 ], [ 76.016950510854215, 12.571425914110618 ], [ 76.016749793337297, 12.571214424310448 ], [ 76.016567978991304, 12.570760405461693 ], [ 76.016421629274646, 12.570394943897249 ], [ 76.016204097868084, 12.570135655942366 ], [ 76.015296588291577, 12.57003411868873 ], [ 76.014990527446898, 12.569885640350144 ], [ 76.014780655551363, 12.569783825206297 ], [ 76.014534227544758, 12.569490337243868 ], [ 76.014455815889747, 12.569396950101394 ], [ 76.01423513115175, 12.568967083928458 ], [ 76.013473953595351, 12.569157430889801 ], [ 76.012906625515157, 12.569915025257485 ], [ 76.012917865705504, 12.570530755758492 ], [ 76.012888855643112, 12.570661493895171 ], [ 76.012733608514807, 12.571361145993396 ], [ 76.01244123757742, 12.571747935492709 ], [ 76.012395237861298, 12.572219011284725 ], [ 76.011799990696531, 12.57264783200694 ], [ 76.011301402931664, 12.572690790028624 ], [ 76.011139530934059, 12.572606626643372 ], [ 76.011017959021913, 12.572238515706731 ], [ 76.009873418633347, 12.570964387402567 ], [ 76.009575717521656, 12.570990212085928 ], [ 76.009234572801148, 12.571019804101873 ], [ 76.008966031540993, 12.571333975776392 ], [ 76.008708016289845, 12.571777464954868 ], [ 76.008523423433559, 12.571866906217952 ], [ 76.007983941388758, 12.571949317238357 ], [ 76.00715303076818, 12.573000237915359 ], [ 76.006790974521962, 12.573417051999957 ], [ 76.006258047931837, 12.573579183300634 ], [ 76.006155108451708, 12.573918500359973 ], [ 76.006144735562188, 12.573925839615384 ], [ 76.005702170868446, 12.574239036252704 ], [ 76.004570309224249, 12.574194934878307 ], [ 76.004369915134262, 12.574021740295178 ], [ 76.004127095567853, 12.573811878440535 ], [ 76.00308744309875, 12.57432521030255 ], [ 76.002569283841538, 12.574471461628532 ], [ 76.002327071477112, 12.574563950015998 ], [ 76.002102208811365, 12.574837265209084 ], [ 76.0020550227418, 12.575084183769391 ], [ 76.001859202741386, 12.576108876008805 ], [ 76.001200072380684, 12.576515135918635 ], [ 76.001283944306834, 12.577107499956579 ], [ 76.000866912232752, 12.577745951274794 ], [ 76.000705213765897, 12.578161892736693 ], [ 76.000307903956951, 12.578588674645932 ], [ 75.999905627733355, 12.578884171196989 ], [ 75.999734627856043, 12.5790097801535 ], [ 75.998624756975644, 12.57921234775969 ], [ 75.998247330326564, 12.579281232610466 ], [ 75.99754709709687, 12.579838595170573 ], [ 75.997284664035078, 12.580232923382283 ], [ 75.997112040040591, 12.58111508770962 ], [ 75.997203301507625, 12.581329048306937 ], [ 75.997392468564939, 12.581772542547194 ], [ 75.99741731536318, 12.581830795528301 ], [ 75.997456674231145, 12.582207591508292 ], [ 75.997462760130787, 12.58226585740827 ], [ 75.997097254613948, 12.58269430432421 ], [ 75.997013811759885, 12.582792116835661 ], [ 75.996953530077832, 12.583097929124747 ], [ 75.996956716831363, 12.583133206323096 ], [ 75.997010758164379, 12.583731438123486 ], [ 75.996855256135348, 12.583806703898631 ], [ 75.996534270812191, 12.583962067194012 ], [ 75.996319916059292, 12.584573579577363 ], [ 75.995659858063888, 12.584495400999444 ], [ 75.995239007152435, 12.584819416755925 ], [ 75.995270806603571, 12.585009061518443 ], [ 75.995336231602309, 12.585399234116871 ], [ 75.995240766359117, 12.58642268742984 ], [ 75.994459012101174, 12.586928145803769 ], [ 75.99440243053516, 12.587592625096521 ], [ 75.994387544921068, 12.587767446742026 ], [ 75.994066925537339, 12.587960714608867 ], [ 75.994093780532907, 12.58814510742646 ], [ 75.993563926264528, 12.588315244549367 ], [ 75.992858951986335, 12.588102428252624 ], [ 75.992559541266374, 12.587604421802034 ], [ 75.992034310749617, 12.587332272601474 ], [ 75.991002085225659, 12.587067484726301 ], [ 75.990859154824861, 12.586917292164978 ], [ 75.991239227617172, 12.5856643514671 ], [ 75.991210065286879, 12.5853895020162 ], [ 75.991172211881135, 12.585032740093659 ], [ 75.990025193221911, 12.584173887996418 ], [ 75.989772828989871, 12.583617562278992 ], [ 75.98969985502147, 12.583492976935172 ], [ 75.988836149969558, 12.582018391574174 ], [ 75.98826974089728, 12.581561499595823 ], [ 75.987782375237458, 12.581267285516482 ], [ 75.987888242669612, 12.581254546590314 ], [ 75.987870485156847, 12.581121934851129 ], [ 75.987675887098419, 12.581101057328993 ], [ 75.987623256348016, 12.581095411371534 ], [ 75.9875301546315, 12.580576179721138 ], [ 75.987780164622507, 12.580284385354732 ], [ 75.987884873913146, 12.580162175577337 ], [ 75.988013338646965, 12.579733278616926 ], [ 75.987968875291642, 12.579464845746957 ], [ 75.988057238377891, 12.579012028401387 ], [ 75.987855220788944, 12.578312145075399 ], [ 75.987752963057062, 12.577490959769412 ], [ 75.98774773428579, 12.577448969127174 ], [ 75.987739309014756, 12.577381312517133 ], [ 75.98775239809865, 12.577339778744596 ], [ 75.98777389612674, 12.577271561500723 ], [ 75.988234262376864, 12.575810729647444 ], [ 75.988722301150048, 12.575241208892452 ], [ 75.988965136796182, 12.574399583364364 ], [ 75.989331084841879, 12.574345797105451 ], [ 75.989319733018377, 12.574137664706758 ], [ 75.988991897369232, 12.574174185104507 ], [ 75.988318812700129, 12.573789036054713 ], [ 75.986282369979577, 12.573683800478213 ], [ 75.986169749585926, 12.573877142389579 ], [ 75.98613740835016, 12.573932665894381 ], [ 75.985178393975417, 12.573993242464784 ], [ 75.984719049113764, 12.574022255520092 ], [ 75.984703343236276, 12.573883422291258 ], [ 75.984697978408391, 12.573836001538417 ], [ 75.983961009425087, 12.573721982399586 ], [ 75.982982318103524, 12.573446489169005 ], [ 75.981803207057638, 12.573607390428256 ], [ 75.980651924536105, 12.573764490256359 ], [ 75.979446983166994, 12.574268767878614 ], [ 75.977345085147107, 12.575799079328306 ], [ 75.975190878077868, 12.576153326813905 ], [ 75.974494347030372, 12.576410204345244 ], [ 75.974139728654606, 12.576540984795695 ], [ 75.973562708286877, 12.576753785042445 ], [ 75.973561151201139, 12.576771729666703 ], [ 75.973550804843796, 12.576890995382332 ], [ 75.97354105750847, 12.577003360917905 ], [ 75.972660860144231, 12.577067849582471 ], [ 75.970625692360571, 12.577216946696733 ], [ 75.970097063631286, 12.577255672021494 ], [ 75.969069052569537, 12.576972243932939 ], [ 75.969082060920485, 12.576909348028522 ], [ 75.969105903205815, 12.57679406526421 ], [ 75.969306723494313, 12.575823069133079 ], [ 75.970033718148684, 12.574571529763389 ], [ 75.970189896198065, 12.574261437164267 ], [ 75.97099981652714, 12.573290195735819 ], [ 75.971741438325026, 12.572437521232326 ], [ 75.972439645555625, 12.571571939801686 ], [ 75.972726160439521, 12.571189237296627 ], [ 75.973009916509184, 12.569366393786646 ], [ 75.973104369012788, 12.568882982410793 ], [ 75.973118866753268, 12.568098061524754 ], [ 75.97312002225172, 12.568035517747706 ], [ 75.973121019281152, 12.567770132079119 ], [ 75.973123998080013, 12.566977284395945 ], [ 75.973630246538661, 12.565124206756336 ], [ 75.974231881104615, 12.564270959456543 ], [ 75.974577508073452, 12.563924768601556 ], [ 75.974969913290053, 12.563512836867506 ], [ 75.975157645343714, 12.563315763058332 ], [ 75.975642234308353, 12.562807067768595 ], [ 75.975588808024142, 12.562484689769262 ], [ 75.973757523905988, 12.562126648028981 ], [ 75.972862906502698, 12.561459591120448 ], [ 75.972755545749379, 12.561363900316524 ], [ 75.972702769081891, 12.561316859053406 ], [ 75.972660554042335, 12.561279231798283 ], [ 75.972918373994901, 12.56104842339947 ], [ 75.972618309809349, 12.560801108408558 ], [ 75.972350448551651, 12.560663463087034 ], [ 75.971905611936521, 12.560434875109026 ], [ 75.969947655094359, 12.560050288629796 ], [ 75.96776275653032, 12.559899872765952 ], [ 75.966016262958732, 12.559620902687186 ], [ 75.965924689635401, 12.559646694352077 ], [ 75.964271254051027, 12.560112387993795 ], [ 75.962495279078198, 12.561193987963181 ], [ 75.962013883883685, 12.562377501149035 ], [ 75.962008940773728, 12.562394508527914 ], [ 75.961710443134905, 12.563421624552305 ], [ 75.961581327874413, 12.563865903457824 ], [ 75.961324471826828, 12.563976543847485 ], [ 75.961045527652502, 12.564096698359085 ], [ 75.960820663092193, 12.564684054025124 ], [ 75.960200638201215, 12.565380573392339 ], [ 75.958184253194332, 12.568847032973444 ], [ 75.957916716521936, 12.569105697707684 ], [ 75.95688550730128, 12.571059429874413 ], [ 75.955874685382909, 12.572259393550091 ], [ 75.95497639437923, 12.574140986080206 ], [ 75.955064976512887, 12.575712212983662 ], [ 75.954852554746878, 12.576294423511714 ], [ 75.95477174014492, 12.576057992900278 ], [ 75.954626014623059, 12.576239497825522 ], [ 75.954717962676725, 12.576663315763049 ], [ 75.953551424338414, 12.579885031191644 ], [ 75.952955404907968, 12.582024214564729 ], [ 75.95286862925883, 12.582927949295541 ], [ 75.952803655137131, 12.583934753242673 ], [ 75.952803408698841, 12.583938567977325 ], [ 75.952390124714839, 12.585135790587914 ], [ 75.951433085850795, 12.586943639851285 ], [ 75.950773435995444, 12.588122962575454 ], [ 75.949603024616479, 12.590837990719745 ], [ 75.949332924213536, 12.591913894984206 ], [ 75.949110372470798, 12.592064959459275 ], [ 75.94932014370228, 12.592307762393611 ], [ 75.949436905745614, 12.592286416148092 ], [ 75.949190442281719, 12.59310987073445 ] ] ] } }
]
}
