{
"type": "FeatureCollection",
"name": "wards_in_police_area.writing_20260805_172659",
"crs": { "type": "name", "properties": { "name": "urn:ogc:def:crs:OGC:1.3:CRS84" } },
"features": [
{ "type": "Feature", "properties": { "KGISWardID": 1014, "KGISWardCode": "0702035", "KGISWardName": " ", "SHAPE.STArea()": 1470223.10794712, "SHAPE.STLength()": 10110.055893231392, "OBJECTID": 16137, "KGISWardNo": "35", "KGISTownCode": "0702", "LGD_WardCode": 1891378, "created_user": "SA", "created_date": 1634898537000, "last_edited_user": "SURESHBV1", "last_edited_date": 1692253972000, "_overlap_percent": 57.181752588505766, "_police_station": "Gangavathi Rural PS", "_police_feature_index": "30", "_admin_layer": "Ward", "_geometry_clipped": true }, "geometry": { "type": "MultiPolygon", "coordinates": [ [ [ [ 76.529133562495986, 15.409321503806666 ], [ 76.530554457829453, 15.408664613146364 ], [ 76.530739981322156, 15.408578843461285 ], [ 76.53086101115295, 15.409497517315375 ], [ 76.531202556610765, 15.409550440361462 ], [ 76.530993278375846, 15.40982874668792 ], [ 76.531505834550984, 15.410140871596999 ], [ 76.532337264724731, 15.410572753955197 ], [ 76.532468174960272, 15.410567616815049 ], [ 76.533002644374065, 15.410546642104791 ], [ 76.533682889362581, 15.410362598771611 ], [ 76.533878857592057, 15.41019385240865 ], [ 76.534144442031106, 15.410847485211022 ], [ 76.535434559067141, 15.410868275327132 ], [ 76.535844717356113, 15.409788266565414 ], [ 76.536381221211769, 15.408375555787991 ], [ 76.536856293946357, 15.403264868401676 ], [ 76.536137902140197, 15.403764504892672 ], [ 76.5359826423702, 15.403830706249259 ], [ 76.535512695213114, 15.403284968924691 ], [ 76.536225035421992, 15.402542866924065 ], [ 76.537107473503625, 15.401492611827919 ], [ 76.535698769370015, 15.400434750288269 ], [ 76.534747420129364, 15.400739699516322 ], [ 76.534602979130767, 15.400757233538162 ], [ 76.533205614994372, 15.400728865155299 ], [ 76.533032434491489, 15.400695006823552 ], [ 76.533020361230896, 15.400589435479871 ], [ 76.532819263872625, 15.400254081866114 ], [ 76.532992705277522, 15.400197707539492 ], [ 76.534486703522788, 15.399124404169322 ], [ 76.534612072421581, 15.399003761485353 ], [ 76.535171215533737, 15.39895583928889 ], [ 76.534626430240806, 15.398380016008682 ], [ 76.53445530957822, 15.39819914505645 ], [ 76.533487142676719, 15.398899633292885 ], [ 76.531811847335234, 15.400109182552921 ], [ 76.531588072455463, 15.400270743924496 ], [ 76.531482619701521, 15.400346878909723 ], [ 76.531413527135214, 15.400387670222976 ], [ 76.53130918424327, 15.400659153640463 ], [ 76.531160590372309, 15.401045769225457 ], [ 76.531113622484497, 15.401167970763762 ], [ 76.530820655864432, 15.401930217530206 ], [ 76.529911051051172, 15.404296809712656 ], [ 76.529048450095786, 15.406541064181845 ], [ 76.528446295115785, 15.408107680033684 ], [ 76.528649281727553, 15.408117291438652 ], [ 76.528664808828282, 15.408182564085598 ], [ 76.528809095277836, 15.408188295525777 ], [ 76.529074139357121, 15.409350537306732 ], [ 76.529133562495986, 15.409321503806666 ] ] ], [ [ [ 76.541181476646813, 15.400561991836907 ], [ 76.541040095812164, 15.400546712297604 ], [ 76.540773506396889, 15.400740355186974 ], [ 76.540705927775633, 15.400789617379278 ], [ 76.540357705033443, 15.401008325933221 ], [ 76.539855112809377, 15.401323987340879 ], [ 76.539698897304845, 15.401261902977083 ], [ 76.539410014544089, 15.401014889687758 ], [ 76.53929057368083, 15.400912760204823 ], [ 76.539195026119444, 15.401016378146918 ], [ 76.538466941175543, 15.40180596058671 ], [ 76.538176953345598, 15.4021593065569 ], [ 76.537819294161267, 15.402595108468326 ], [ 76.537770944097829, 15.402628735600244 ], [ 76.540951958538756, 15.40225591693132 ], [ 76.541805955488755, 15.401079391554452 ], [ 76.542060164712979, 15.400371683378236 ], [ 76.541181476646813, 15.400561991836907 ] ] ], [ [ [ 76.542559278620885, 15.400457304988159 ], [ 76.542489351354362, 15.400410943975944 ], [ 76.542339032924119, 15.40031128453243 ], [ 76.542184083589262, 15.400344844385824 ], [ 76.542445281708808, 15.400586541354153 ], [ 76.542450889827492, 15.400833593940732 ], [ 76.542559278620885, 15.400457304988159 ] ] ], [ [ [ 76.542125609133379, 15.402348517211191 ], [ 76.54216021658975, 15.402131711330965 ], [ 76.542165908927743, 15.402096050321203 ], [ 76.542100931933135, 15.402291778344518 ], [ 76.54209070861134, 15.402359782137836 ], [ 76.542125609133379, 15.402348517211191 ] ] ] ] } },
{ "type": "Feature", "properties": { "KGISWardID": 996, "KGISWardCode": "0702017", "KGISWardName": " ", "SHAPE.STArea()": 1115318.5698864651, "SHAPE.STLength()": 6297.3886238287105, "OBJECTID": 16119, "KGISWardNo": "17", "KGISTownCode": "0702", "LGD_WardCode": 27866, "created_user": "SA", "created_date": 1634898537000, "last_edited_user": "SURESHBV1", "last_edited_date": 1692253972000, "_overlap_percent": 0.3389951826221192, "_police_station": "Gangavathi Rural PS", "_police_feature_index": "30", "_admin_layer": "Ward", "_geometry_clipped": true }, "geometry": { "type": "Polygon", "coordinates": [ [ [ 76.550887792324488, 15.435239301176084 ], [ 76.550958348607182, 15.435114212617503 ], [ 76.550959748176197, 15.434974874569678 ], [ 76.550992929054175, 15.434791143778613 ], [ 76.550947927602621, 15.434323174232587 ], [ 76.550886773011854, 15.433687228470053 ], [ 76.550876427315089, 15.433579646487521 ], [ 76.550721393912553, 15.433569724976163 ], [ 76.550701609392178, 15.433568458723293 ], [ 76.550787098749396, 15.434756723160154 ], [ 76.550746639596497, 15.435041064501913 ], [ 76.55073828909201, 15.435217274121362 ], [ 76.550887792324488, 15.435239301176084 ] ] ] } },
{ "type": "Feature", "properties": { "KGISWardID": 993, "KGISWardCode": "0702014", "KGISWardName": " ", "SHAPE.STArea()": 4805449.05541173, "SHAPE.STLength()": 10999.596224021458, "OBJECTID": 16116, "KGISWardNo": "14", "KGISTownCode": "0702", "LGD_WardCode": 27863, "created_user": "SA", "created_date": 1634898537000, "last_edited_user": "SURESHBV1", "last_edited_date": 1692253972000, "_overlap_percent": 0.47661035821443559, "_police_station": "Gangavathi Rural PS", "_police_feature_index": "30", "_admin_layer": "Ward", "_geometry_clipped": true }, "geometry": { "type": "MultiPolygon", "coordinates": [ [ [ [ 76.554138958366394, 15.443257254432133 ], [ 76.554078162385792, 15.443148242928771 ], [ 76.55388581529688, 15.442810784936979 ], [ 76.553153162640797, 15.442034303021545 ], [ 76.553083307893104, 15.441923836208622 ], [ 76.552173772791917, 15.440837900146956 ], [ 76.551859040255707, 15.440363642833596 ], [ 76.551792061657906, 15.440236039186923 ], [ 76.551173595320392, 15.43912242596865 ], [ 76.55113158942595, 15.438843558042684 ], [ 76.551111640177524, 15.438711115289305 ], [ 76.550882394337123, 15.43728909327119 ], [ 76.550820003331253, 15.436902070548712 ], [ 76.550673202626484, 15.436276975337494 ], [ 76.550669161271415, 15.436259139037386 ], [ 76.550670201819131, 15.436256846050469 ], [ 76.550603892792637, 15.435794583750868 ], [ 76.550787467549569, 15.435425636931216 ], [ 76.550866418215648, 15.435277194234322 ], [ 76.550887792324488, 15.435239301176084 ], [ 76.55073828909201, 15.435217274121362 ], [ 76.550736611681131, 15.435252670298089 ], [ 76.550671542592625, 15.435448644490448 ], [ 76.550613454719127, 15.435623594450913 ], [ 76.550472673609079, 15.436047595467619 ], [ 76.550568119700031, 15.436554405028872 ], [ 76.550567272733701, 15.436556918094047 ], [ 76.550572214301638, 15.436576148093446 ], [ 76.550742389783252, 15.437238465737522 ], [ 76.551089100065553, 15.43906482914182 ], [ 76.551164684794387, 15.439462971019681 ], [ 76.551633506287715, 15.440406100380823 ], [ 76.551724962414852, 15.440590080061401 ], [ 76.552115223295644, 15.441279610488499 ], [ 76.553028367760234, 15.442297748962154 ], [ 76.553147889323924, 15.442452276217381 ], [ 76.553880574022699, 15.443228966552947 ], [ 76.553907686280439, 15.443277248971874 ], [ 76.554138958366394, 15.443257254432133 ] ] ], [ [ [ 76.553071166843011, 15.444819398257403 ], [ 76.553007806248914, 15.444187228804664 ], [ 76.552979493854181, 15.443879442630498 ], [ 76.552915722495982, 15.443890282005379 ], [ 76.552837628300324, 15.443903555236139 ], [ 76.552933987703241, 15.444756525315524 ], [ 76.553011857801422, 15.445416840521249 ], [ 76.553004285642203, 15.44554740518044 ], [ 76.553071166843011, 15.444819398257403 ] ] ] ] } },
{ "type": "Feature", "properties": { "KGISWardID": 991, "KGISWardCode": "0702012", "KGISWardName": " ", "SHAPE.STArea()": 1434916.6229995301, "SHAPE.STLength()": 7670.7638987087576, "OBJECTID": 16114, "KGISWardNo": "12", "KGISTownCode": "0702", "LGD_WardCode": 27861, "created_user": "SA", "created_date": 1634898537000, "last_edited_user": "SURESHBV1", "last_edited_date": 1692253972000, "_overlap_percent": 0.54081695585200429, "_police_station": "Gangavathi Rural PS", "_police_feature_index": "30", "_admin_layer": "Ward", "_geometry_clipped": true }, "geometry": { "type": "MultiPolygon", "coordinates": [ [ [ [ 76.517678979663089, 15.457907557428003 ], [ 76.51764040806043, 15.458248865163924 ], [ 76.517527134554612, 15.458673803579964 ], [ 76.517323467406811, 15.459388751682191 ], [ 76.517288266552754, 15.459646562924698 ], [ 76.517238502885476, 15.459659385335009 ], [ 76.517162642728692, 15.459927688962484 ], [ 76.516987895464595, 15.46054573727627 ], [ 76.51697304998298, 15.460609347090537 ], [ 76.51677144144503, 15.461473259769408 ], [ 76.516608386881444, 15.462252402876794 ], [ 76.516467023388401, 15.462986683131021 ], [ 76.516341336072003, 15.463598042413009 ], [ 76.516155177973076, 15.464503536440672 ], [ 76.516090665397726, 15.464829113585921 ], [ 76.516021539265296, 15.464937948364376 ], [ 76.515886019589999, 15.465151314196918 ], [ 76.515874191407306, 15.465170000119226 ], [ 76.515932122912787, 15.465201819118986 ], [ 76.516098048331287, 15.464951441030609 ], [ 76.51616991689626, 15.464619112671505 ], [ 76.516509033088127, 15.463051033489544 ], [ 76.516668535653707, 15.462271601118873 ], [ 76.516803619369682, 15.461611511631951 ], [ 76.51697377386607, 15.460879066802507 ], [ 76.517186071794143, 15.460176668874347 ], [ 76.517231999857799, 15.460177160576896 ], [ 76.517278597783246, 15.459870543169339 ], [ 76.517529376224815, 15.459040821810875 ], [ 76.51757149415343, 15.45875598980874 ], [ 76.517765860334961, 15.457441536191814 ], [ 76.517732969733444, 15.457429822340874 ], [ 76.517678979663089, 15.457907557428003 ] ] ], [ [ [ 76.52314940503048, 15.460387365378132 ], [ 76.523265380979851, 15.459155144427783 ], [ 76.52313721837551, 15.459161047643594 ], [ 76.523126548228433, 15.459341506114219 ], [ 76.523122320738111, 15.459341837046519 ], [ 76.523057820668868, 15.460098514552026 ], [ 76.523064517940099, 15.460390098180618 ], [ 76.523081287284171, 15.4611201800172 ], [ 76.523082560515505, 15.461174448799225 ], [ 76.52314940503048, 15.460387365378132 ] ] ] ] } },
{ "type": "Feature", "properties": { "KGISWardID": 992, "KGISWardCode": "0702013", "KGISWardName": " ", "SHAPE.STArea()": 2813308.2513519102, "SHAPE.STLength()": 8495.1234561530091, "OBJECTID": 16115, "KGISWardNo": "13", "KGISTownCode": "0702", "LGD_WardCode": 27862, "created_user": "SA", "created_date": 1634898537000, "last_edited_user": "SURESHBV1", "last_edited_date": 1692253972000, "_overlap_percent": 26.902673993066433, "_police_station": "Gangavathi Rural PS", "_police_feature_index": "30", "_admin_layer": "Ward", "_geometry_clipped": true }, "geometry": { "type": "MultiPolygon", "coordinates": [ [ [ [ 76.547946471873246, 15.457231304315581 ], [ 76.548248641030739, 15.457285010337504 ], [ 76.548316216388528, 15.45729702060086 ], [ 76.548316218769344, 15.457297020635719 ], [ 76.547946435625462, 15.457231296568271 ], [ 76.547946471873246, 15.457231304315581 ] ] ], [ [ [ 76.523180392946784, 15.465593092974345 ], [ 76.523381660202816, 15.46559907576953 ], [ 76.523687412807575, 15.465618952436035 ], [ 76.524266178308054, 15.465645827271889 ], [ 76.524831632462465, 15.465729790028428 ], [ 76.524920309833306, 15.465742957195589 ], [ 76.525216621659013, 15.465800700326533 ], [ 76.525643384866413, 15.465995044563408 ], [ 76.525950899049349, 15.466131676154843 ], [ 76.526069736169703, 15.46617325957174 ], [ 76.526223151893333, 15.466226944347429 ], [ 76.526633793452703, 15.466169373383945 ], [ 76.527873503000464, 15.465995563856877 ], [ 76.528363869222218, 15.465935718945921 ], [ 76.528801092728671, 15.465882358559021 ], [ 76.529421927271926, 15.465068942651506 ], [ 76.530178208732536, 15.464160792647371 ], [ 76.530273600184259, 15.464046456441064 ], [ 76.530698265263894, 15.463529991907304 ], [ 76.53086697558247, 15.463324810638706 ], [ 76.53184800913624, 15.462121401645598 ], [ 76.532127412441113, 15.461836618742876 ], [ 76.533765251696991, 15.460167213967443 ], [ 76.534546288534798, 15.459245533887126 ], [ 76.535533226132756, 15.458346615201545 ], [ 76.535938508160925, 15.457925470857861 ], [ 76.53582044636714, 15.457931055928752 ], [ 76.535369668412287, 15.457952403135161 ], [ 76.534395889623639, 15.458016782850697 ], [ 76.533437044232116, 15.458085575832843 ], [ 76.533208282548756, 15.458121501596827 ], [ 76.532428803889857, 15.458243881310377 ], [ 76.530486406419286, 15.458548871148901 ], [ 76.529909110103716, 15.458639508486353 ], [ 76.52894632992755, 15.458748467540673 ], [ 76.528793768736136, 15.458765732675907 ], [ 76.528777195633253, 15.45876760854101 ], [ 76.528681106258773, 15.45877848359607 ], [ 76.528317504340507, 15.458819632248838 ], [ 76.526916183372293, 15.458918612857273 ], [ 76.526707190853813, 15.458933374152741 ], [ 76.524917417167444, 15.459079051044734 ], [ 76.523265380979851, 15.459155144427783 ], [ 76.52314940503048, 15.460387365378132 ], [ 76.523082560515505, 15.461174448799225 ], [ 76.523113558658409, 15.462495678813131 ], [ 76.523087900326118, 15.464095316530123 ], [ 76.522985380790161, 15.465583471335041 ], [ 76.523180392946784, 15.465593092974345 ] ] ] ] } }
]
}
