{
"type": "FeatureCollection",
"name": "hoblis_in_police_area.writing_20260805_172659",
"crs": { "type": "name", "properties": { "name": "urn:ogc:def:crs:OGC:1.3:CRS84" } },
"features": [
{ "type": "Feature", "properties": { "OBJECTID": 510, "KGISHobliID": 542, "KGISHobliCode": "260401", "KGISHobliName": "Kasaba", "BhuCodeHobli": null, "SHAPE.STArea()": 201338814.21669081, "SHAPE.STLength()": 83219.85104143215, "KGISTalukCode": "2604", "created_user": null, "created_date": null, "last_edited_user": "SURESHBV1", "last_edited_date": 1669190170000.0, "_overlap_percent": 6.4577328433144414, "_police_station": "Nazarbad PS", "_police_feature_index": "312", "_admin_layer": "Hobli", "_geometry_clipped": true }, "geometry": { "type": "Polygon", "coordinates": [ [ [ 76.691890031452886, 12.315534192132473 ], [ 76.691922548745893, 12.315148871432655 ], [ 76.691938916845331, 12.314954929044463 ], [ 76.691972574980426, 12.314556117846989 ], [ 76.691975971515319, 12.314515880648823 ], [ 76.69196091859186, 12.313962768268951 ], [ 76.691960904406471, 12.313958688797225 ], [ 76.691961340257308, 12.31395884609784 ], [ 76.692196317430742, 12.311771174159915 ], [ 76.692309654187454, 12.310670148054276 ], [ 76.692461508616589, 12.310154386509234 ], [ 76.693129583766179, 12.309465985245872 ], [ 76.693371451727899, 12.308329627945829 ], [ 76.693308626577803, 12.306655484488306 ], [ 76.693130138727298, 12.30535646643299 ], [ 76.692663048470621, 12.304043569609968 ], [ 76.692345389249354, 12.302973401796677 ], [ 76.692400659391467, 12.302506693312257 ], [ 76.692305610662601, 12.302338306660229 ], [ 76.686810261865745, 12.301193385123558 ], [ 76.685229085117712, 12.300848334595726 ], [ 76.687197576297265, 12.299623961285119 ], [ 76.687896283960015, 12.298111582675856 ], [ 76.688575139329956, 12.296273948948695 ], [ 76.689371619889897, 12.295182401565111 ], [ 76.687814130126583, 12.294457096597615 ], [ 76.689717060024648, 12.291144745545566 ], [ 76.694053832595586, 12.291998564508347 ], [ 76.694091510674966, 12.29093539976374 ], [ 76.694126506050523, 12.289947949922999 ], [ 76.694238322971984, 12.289334719523831 ], [ 76.694757876141153, 12.286465197947132 ], [ 76.694793922278606, 12.286266109462467 ], [ 76.694798296659627, 12.286247981526083 ], [ 76.694734240007719, 12.286247269886458 ], [ 76.694403584278689, 12.286243594879469 ], [ 76.693791618289069, 12.285949693603271 ], [ 76.69136083933239, 12.284782272158166 ], [ 76.691192273896547, 12.284878814183955 ], [ 76.691132727830393, 12.284779197800363 ], [ 76.688881728467877, 12.283819615719386 ], [ 76.687717440435577, 12.283322638533184 ], [ 76.686605712014469, 12.284477151707319 ], [ 76.685543270766786, 12.285564117698689 ], [ 76.670211308279988, 12.284564163091417 ], [ 76.669560855816428, 12.285771540762296 ], [ 76.669302218509912, 12.286281361849039 ], [ 76.669066703640979, 12.286721165018012 ], [ 76.669043867144197, 12.286762906719389 ], [ 76.668932847278043, 12.286969072044453 ], [ 76.668833502880972, 12.28715355768542 ], [ 76.668696978056488, 12.287407086424238 ], [ 76.667409814792833, 12.289797338479438 ], [ 76.667401286460546, 12.289813178267011 ], [ 76.667382972473092, 12.289911856854326 ], [ 76.667275174176751, 12.290492697408018 ], [ 76.665596171528065, 12.290213647638057 ], [ 76.664501390226903, 12.289945736285327 ], [ 76.664289422116951, 12.290723278564629 ], [ 76.66353024054672, 12.291531294555035 ], [ 76.662041194220592, 12.292160693132988 ], [ 76.660734202198412, 12.292461029249589 ], [ 76.659974457080494, 12.292760790427185 ], [ 76.65887960521728, 12.292433062540866 ], [ 76.6588218461943, 12.295273322148256 ], [ 76.658124880217841, 12.297426616504479 ], [ 76.656921475456599, 12.300058401356045 ], [ 76.656393026132903, 12.301166830499854 ], [ 76.656432109170581, 12.301697060517876 ], [ 76.656596156328021, 12.302018840989616 ], [ 76.656702223706191, 12.302151299249957 ], [ 76.657135771876469, 12.302349702583646 ], [ 76.657405817484118, 12.30273765699526 ], [ 76.658679451837131, 12.304242518149593 ], [ 76.660293963748074, 12.307110932058304 ], [ 76.660170082165322, 12.307369108519909 ], [ 76.658959158702885, 12.309892724955425 ], [ 76.65871691596557, 12.310819776723413 ], [ 76.658931387915445, 12.312344291588193 ], [ 76.659237207276277, 12.313988297423151 ], [ 76.659360887963516, 12.315901562926058 ], [ 76.659575819195538, 12.317844630492054 ], [ 76.660032161998274, 12.318083328903596 ], [ 76.661340188513719, 12.318620102554267 ], [ 76.66194839957052, 12.318709154909696 ], [ 76.663376652461352, 12.317960230960409 ], [ 76.664926781305354, 12.317450345064804 ], [ 76.665504256459727, 12.317240453945114 ], [ 76.664647366336695, 12.318904341975259 ], [ 76.664959650062428, 12.319009522022235 ], [ 76.666307811299703, 12.319463589730439 ], [ 76.669135615685562, 12.320276579701723 ], [ 76.671367162077544, 12.321294192364826 ], [ 76.672027219778826, 12.321688941996188 ], [ 76.67211176641446, 12.321339802676135 ], [ 76.672311322296977, 12.321409244165398 ], [ 76.672432134939172, 12.32144912644142 ], [ 76.672605031914401, 12.321506200251585 ], [ 76.672835388114137, 12.321582242289541 ], [ 76.672997808304416, 12.321635859085868 ], [ 76.67336716541061, 12.321650146820931 ], [ 76.673429086177876, 12.321733618114653 ], [ 76.673332685824789, 12.321974988203538 ], [ 76.673397712550837, 12.32213853534793 ], [ 76.673413181182724, 12.322177438464301 ], [ 76.673708057423198, 12.322213900874205 ], [ 76.674027426296064, 12.321422141496324 ], [ 76.675439203514728, 12.322245742050065 ], [ 76.676022011144653, 12.321378095269957 ], [ 76.677657962910558, 12.321471956119584 ], [ 76.677816053442044, 12.321453842676547 ], [ 76.678734534366455, 12.321644161582221 ], [ 76.679979585459819, 12.320261545250064 ], [ 76.68107976427747, 12.319817843272579 ], [ 76.683990368817916, 12.317706893437073 ], [ 76.684162366463184, 12.317708895297844 ], [ 76.686338644933286, 12.319127115497308 ], [ 76.686922519749558, 12.319198201065957 ], [ 76.686963735741472, 12.319543257912766 ], [ 76.688909901421368, 12.319708449000858 ], [ 76.691174052688751, 12.320380124241638 ], [ 76.69121036831946, 12.320054031709171 ], [ 76.691409769832788, 12.319640792611784 ], [ 76.691463665305193, 12.319529096612309 ], [ 76.691488882468235, 12.319497010808155 ], [ 76.691625843682743, 12.31932274621035 ], [ 76.691660704294321, 12.319278391801204 ], [ 76.691738487690955, 12.319179423727949 ], [ 76.691827181119962, 12.319066571052666 ], [ 76.691806876014311, 12.318918903493747 ], [ 76.691790116603258, 12.318797016512685 ], [ 76.691737772043595, 12.318416327404394 ], [ 76.691616103294777, 12.318012915580342 ], [ 76.691522005242319, 12.317700916392397 ], [ 76.691530975868545, 12.317247589494078 ], [ 76.69165182914081, 12.316875160727928 ], [ 76.691660238296677, 12.316830960264394 ], [ 76.691686180796694, 12.316694596693569 ], [ 76.691789908896098, 12.316149374079163 ], [ 76.691839229442792, 12.315846336860181 ], [ 76.691890031452886, 12.315534192132473 ] ] ] } }
]
}
