{
"type": "FeatureCollection",
"name": "villages_in_police_area.writing_20260805_172659",
"crs": { "type": "name", "properties": { "name": "urn:ogc:def:crs:OGC:1.3:CRS84" } },
"features": [
{ "type": "Feature", "properties": { "OBJECTID": 29509, "KGISVillageID": 15137, "KGISVillageCode": "2957205542803162", "KGISVillageName": "Lalbagh (Upparahalli)", "KGISHobliID": 574, "UniqueVillageCode": "2957205542803162_55", "Bhucode": "200101004059", "CensusVillageCode": "2957205542803162", "BhoomiVillageCode": null, "created_user": null, "created_date": null, "last_edited_user": "SURESHBV2", "last_edited_date": 1724225919000.0, "LGDGPCode": " ", "LGDGPCode_Secondary": null, "Category": "Cadastral data available and has no bhoomi data", "SHAPE.STArea()": 640351.81226163497, "SHAPE.STLength()": 5009.2570423327443, "LGD_VillageCode": 939456.0, "_overlap_percent": 4.4685830073023256, "_police_station": "Kalasipalya PS", "_police_feature_index": "790", "_admin_layer": "Village", "_geometry_clipped": true }, "geometry": { "type": "Polygon", "coordinates": [ [ [ 77.580123319662533, 12.949998063307799 ], [ 77.580252081515624, 12.94999872039414 ], [ 77.580264019000936, 12.950013629149483 ], [ 77.58026333290222, 12.950069732646085 ], [ 77.580360595790196, 12.95013424637288 ], [ 77.580517939759886, 12.950238613902004 ], [ 77.580589810708275, 12.950286286791982 ], [ 77.581599704272108, 12.950367396044419 ], [ 77.582195300459645, 12.950174098179319 ], [ 77.582183834279078, 12.950154483687193 ], [ 77.582031956942586, 12.949894675285565 ], [ 77.581966130966393, 12.94978206931666 ], [ 77.58195991245222, 12.949771430563731 ], [ 77.581829427160457, 12.949548215329642 ], [ 77.581760679249541, 12.949512379473498 ], [ 77.581515078389387, 12.949384357902444 ], [ 77.581509497733592, 12.949381449004457 ], [ 77.581042314012919, 12.949137923690545 ], [ 77.580955571355375, 12.949092707421761 ], [ 77.580862954516178, 12.949044429719134 ], [ 77.580740623057139, 12.948980662261592 ], [ 77.58059048847592, 12.948902401536001 ], [ 77.580480860035138, 12.948805058053603 ], [ 77.580289835961864, 12.948635439231026 ], [ 77.580243247051243, 12.948581628010892 ], [ 77.580229219071953, 12.948562728649582 ], [ 77.580201058682803, 12.948524448518123 ], [ 77.580185984859185, 12.948500502025986 ], [ 77.580163514675931, 12.94846423171159 ], [ 77.580149411223516, 12.948437463181147 ], [ 77.58013083700493, 12.948401334062952 ], [ 77.580118433262356, 12.948372619840969 ], [ 77.580105380335368, 12.948342404197156 ], [ 77.580102902438682, 12.948342396212919 ], [ 77.58007543741347, 12.948342309542726 ], [ 77.580068419171397, 12.948342287798845 ], [ 77.580040776359425, 12.948342200175334 ], [ 77.580040168068734, 12.948413747309163 ], [ 77.579999703643196, 12.948377817796235 ], [ 77.579998921108128, 12.948692906559526 ], [ 77.57999869204842, 12.948785095466647 ], [ 77.579998508196127, 12.948859037947656 ], [ 77.579998344008317, 12.948925047985359 ], [ 77.579995681727723, 12.949997413245923 ], [ 77.580123319662533, 12.949998063307799 ] ] ] } },
{ "type": "Feature", "properties": { "OBJECTID": 29508, "KGISVillageID": 15136, "KGISVillageCode": "2957205542803162", "KGISVillageName": "Lalbagh", "KGISHobliID": 574, "UniqueVillageCode": "2957205542803162_54", "Bhucode": "200101004058", "CensusVillageCode": "2957205542803162", "BhoomiVillageCode": null, "created_user": null, "created_date": null, "last_edited_user": "SURESHBV2", "last_edited_date": 1724225919000.0, "LGDGPCode": " ", "LGDGPCode_Secondary": null, "Category": "Cadastral data available and has no bhoomi data", "SHAPE.STArea()": 534941.77605852496, "SHAPE.STLength()": 3614.4036292384753, "LGD_VillageCode": 939455.0, "_overlap_percent": 0.27666299543193018, "_police_station": "Kalasipalya PS", "_police_feature_index": "790", "_admin_layer": "Village", "_geometry_clipped": true }, "geometry": { "type": "Polygon", "coordinates": [ [ [ 77.584051612955008, 12.954191087506839 ], [ 77.584067493387636, 12.95423537747809 ], [ 77.584069957391847, 12.954242249002428 ], [ 77.584509922180132, 12.954256617571364 ], [ 77.584614164068526, 12.954227796648606 ], [ 77.583918446669173, 12.953819733465807 ], [ 77.584051612955008, 12.954191087506839 ] ] ] } },
{ "type": "Feature", "properties": { "OBJECTID": 29515, "KGISVillageID": 15144, "KGISVillageCode": "2957205542803162", "KGISVillageName": "Mavalli", "KGISHobliID": 574, "UniqueVillageCode": "2957205542803162_61", "Bhucode": "200101004064", "CensusVillageCode": "2957205542803162", "BhoomiVillageCode": null, "created_user": null, "created_date": null, "last_edited_user": "SURESHBV2", "last_edited_date": 1724225919000.0, "LGDGPCode": " ", "LGDGPCode_Secondary": null, "Category": "Cadastral data available and has no bhoomi data", "SHAPE.STArea()": 448967.17576998501, "SHAPE.STLength()": 3907.6996632351475, "LGD_VillageCode": 939461.0, "_overlap_percent": 62.831605318953585, "_police_station": "Kalasipalya PS", "_police_feature_index": "790", "_admin_layer": "Village", "_geometry_clipped": true }, "geometry": { "type": "Polygon", "coordinates": [ [ [ 77.579990450311371, 12.955149247618349 ], [ 77.580048283391875, 12.955337215397179 ], [ 77.580579654100916, 12.95642065729689 ], [ 77.580838939961581, 12.956338736064225 ], [ 77.581027983076893, 12.956329369037784 ], [ 77.581062987303582, 12.95632763435875 ], [ 77.581103238472721, 12.956325638966662 ], [ 77.581336110151852, 12.956291368370097 ], [ 77.581578931628442, 12.95625563382265 ], [ 77.581719365088944, 12.95624515096916 ], [ 77.582402077661968, 12.956229485468903 ], [ 77.582724166686262, 12.95615555665214 ], [ 77.582866666238814, 12.956122848786775 ], [ 77.583058714873573, 12.95607876824573 ], [ 77.583821533675319, 12.955846019429829 ], [ 77.584132261752899, 12.955751182278087 ], [ 77.584165879022066, 12.955740921628784 ], [ 77.584220859397803, 12.955724134800695 ], [ 77.584353601036952, 12.95568360527408 ], [ 77.584415256289475, 12.955850663120094 ], [ 77.584419691243681, 12.955862680050791 ], [ 77.584450497130831, 12.955946151356539 ], [ 77.584593133466157, 12.955867653913494 ], [ 77.584669144404486, 12.95595342383317 ], [ 77.584946251582096, 12.955833540895553 ], [ 77.585006524513176, 12.956031558731077 ], [ 77.585023946421586, 12.956088795862962 ], [ 77.585132546597535, 12.956445586173075 ], [ 77.585164972534386, 12.956552115143847 ], [ 77.585402254658689, 12.956527223676607 ], [ 77.585414390526978, 12.956525950380131 ], [ 77.585535924047903, 12.956513201194255 ], [ 77.585675045588516, 12.956506040343402 ], [ 77.585794722162603, 12.956484738536588 ], [ 77.585883214408312, 12.956468988150723 ], [ 77.58593365876213, 12.956460009393755 ], [ 77.585718290027103, 12.955603531323952 ], [ 77.585708578294046, 12.955555067805111 ], [ 77.585706135790772, 12.955541540443194 ], [ 77.585683025281568, 12.955422063985884 ], [ 77.585671670706219, 12.955373198482713 ], [ 77.585670003027218, 12.955366020037454 ], [ 77.585639044194011, 12.955232778072315 ], [ 77.585424450396346, 12.954315877730199 ], [ 77.585386691373444, 12.954154542021671 ], [ 77.585283698393056, 12.954097372940762 ], [ 77.58514637615113, 12.954123631403572 ], [ 77.585125718005372, 12.954127581240812 ], [ 77.584707323101952, 12.954207587242268 ], [ 77.58462410802116, 12.954233629133125 ], [ 77.584614164068526, 12.954227796648606 ], [ 77.584509922180132, 12.954256617571364 ], [ 77.584069957391847, 12.954242249002428 ], [ 77.584067493387636, 12.95423537747809 ], [ 77.584051612955008, 12.954191087506839 ], [ 77.583918446669173, 12.953819733465807 ], [ 77.58391134738531, 12.953815569481446 ], [ 77.58254898605577, 12.950779126445019 ], [ 77.582195300459645, 12.950174098179319 ], [ 77.581599704272108, 12.950367396044419 ], [ 77.580589810708275, 12.950286286791982 ], [ 77.580517939759886, 12.950238613902004 ], [ 77.580360595790196, 12.95013424637288 ], [ 77.58026333290222, 12.950069732646085 ], [ 77.580264019000936, 12.950013629149483 ], [ 77.580252081515624, 12.94999872039414 ], [ 77.580123319662533, 12.949998063307799 ], [ 77.579995681727723, 12.949997413245923 ], [ 77.579992257986603, 12.951376494419163 ], [ 77.579987275936062, 12.953384618202623 ], [ 77.579983100148141, 12.955068456712562 ], [ 77.579982921907032, 12.955140320914561 ], [ 77.579990450311371, 12.955149247618349 ] ] ] } },
{ "type": "Feature", "properties": { "OBJECTID": 29473, "KGISVillageID": 15089, "KGISVillageCode": "2957205542803162", "KGISVillageName": "Doddabylakane", "KGISHobliID": 574, "UniqueVillageCode": "2957205542803162_20", "Bhucode": "200101004020", "CensusVillageCode": "2957205542803162", "BhoomiVillageCode": null, "created_user": null, "created_date": null, "last_edited_user": "SURESHBV2", "last_edited_date": 1724225862000.0, "LGDGPCode": " ", "LGDGPCode_Secondary": null, "Category": "Cadastral data available and has no bhoomi data", "SHAPE.STArea()": 1517346.7259185601, "SHAPE.STLength()": 9625.2742867152774, "LGD_VillageCode": 939426.0, "_overlap_percent": 34.566950287350522, "_police_station": "Kalasipalya PS", "_police_feature_index": "790", "_admin_layer": "Village", "_geometry_clipped": true }, "geometry": { "type": "Polygon", "coordinates": [ [ [ 77.576526497785196, 12.956883174493978 ], [ 77.576860974254387, 12.957263290763393 ], [ 77.577094120265343, 12.95721438336013 ], [ 77.576994753775892, 12.956946476786539 ], [ 77.576977437460613, 12.956899790013535 ], [ 77.57698065439638, 12.95689811480436 ], [ 77.577857232009137, 12.956441519637348 ], [ 77.578087490458543, 12.956268440673449 ], [ 77.57832074582268, 12.956093107600754 ], [ 77.57844716282375, 12.956272887324332 ], [ 77.578516903214478, 12.956500785614338 ], [ 77.578568092661428, 12.956723582423445 ], [ 77.57883267275227, 12.956765025757944 ], [ 77.57881131170457, 12.956956162457397 ], [ 77.578614206644176, 12.956975542100235 ], [ 77.578597000379389, 12.957114034544615 ], [ 77.578771268211767, 12.957072996026266 ], [ 77.57889327750739, 12.957224151807456 ], [ 77.578728458687053, 12.957412968274138 ], [ 77.578462841704862, 12.957566043456856 ], [ 77.578577607353921, 12.957908132116263 ], [ 77.578330310343517, 12.958006328504554 ], [ 77.578382474363508, 12.958418485088744 ], [ 77.578528980649224, 12.958857160189583 ], [ 77.578556942221724, 12.959046246312866 ], [ 77.578605000170683, 12.959371233804333 ], [ 77.578606508142457, 12.959381434124726 ], [ 77.578666968369149, 12.959355199961516 ], [ 77.578743654186468, 12.959321924415473 ], [ 77.578795551756414, 12.959513179228949 ], [ 77.578926218570558, 12.959461293633979 ], [ 77.578941649459708, 12.959570994280799 ], [ 77.578961357346884, 12.959711104978235 ], [ 77.578968494334077, 12.959868047624811 ], [ 77.578968574189119, 12.959869808551785 ], [ 77.578969234986715, 12.959884328500253 ], [ 77.578964471792759, 12.959889440404419 ], [ 77.578961390471406, 12.959892746824256 ], [ 77.578953086760563, 12.959901657557888 ], [ 77.578805274310511, 12.960109188768824 ], [ 77.57882131520067, 12.960123472329773 ], [ 77.579022992352265, 12.960303058593828 ], [ 77.57901632777407, 12.960324974445763 ], [ 77.579007972104563, 12.960352451495496 ], [ 77.578964043720816, 12.960496900401347 ], [ 77.578967344431604, 12.960502909036506 ], [ 77.579025233454175, 12.960608273454307 ], [ 77.579038679401066, 12.960632745558236 ], [ 77.579064701092037, 12.96068010832138 ], [ 77.579018047482748, 12.96068366667923 ], [ 77.578883566044311, 12.960693924231578 ], [ 77.5788121322487, 12.960591872287345 ], [ 77.578589480308139, 12.960537450095675 ], [ 77.578586917745753, 12.960583704782165 ], [ 77.578584096565748, 12.960634632843309 ], [ 77.578572872264004, 12.960837234155138 ], [ 77.578569675084211, 12.960894943588503 ], [ 77.578567387502744, 12.960927737828492 ], [ 77.578551949925313, 12.961149045158214 ], [ 77.578531962109011, 12.961435586571978 ], [ 77.578531061539749, 12.961448498500641 ], [ 77.578519716619581, 12.961665679003842 ], [ 77.578518797900529, 12.961683268249088 ], [ 77.578508476822464, 12.9618574680369 ], [ 77.578508455647096, 12.961857826914493 ], [ 77.578480194274178, 12.962334814369017 ], [ 77.578653374509798, 12.962405610003527 ], [ 77.578466417120822, 12.962544622462874 ], [ 77.578582262403685, 12.962675486151364 ], [ 77.578654621602126, 12.962757224859526 ], [ 77.578917529153543, 12.96309832011144 ], [ 77.578681557274464, 12.963161565006276 ], [ 77.578772501133685, 12.963467450344403 ], [ 77.578637221806275, 12.963606204416386 ], [ 77.578822492978816, 12.96360376636394 ], [ 77.578849988324606, 12.963700068562966 ], [ 77.578889447756936, 12.963706849080531 ], [ 77.579335652054397, 12.96371761835821 ], [ 77.579462103180759, 12.963720669926944 ], [ 77.580225733825145, 12.96364616356618 ], [ 77.580574201684655, 12.963612163797976 ], [ 77.580919938303396, 12.963597037405064 ], [ 77.581563544729136, 12.96355166105301 ], [ 77.581616516735522, 12.963547353756635 ], [ 77.581782029276141, 12.963533896571855 ], [ 77.582083070950048, 12.963425630728331 ], [ 77.582067268701238, 12.963355397560289 ], [ 77.582029283722932, 12.9631865758153 ], [ 77.581987684248958, 12.963001689654872 ], [ 77.581933382725964, 12.962760349557286 ], [ 77.581874732108886, 12.962499679135334 ], [ 77.581860582204911, 12.96228113837266 ], [ 77.581844281294238, 12.96210072436773 ], [ 77.581832711839454, 12.961972680293528 ], [ 77.581815909891233, 12.961786727718614 ], [ 77.581903240027557, 12.961620910762546 ], [ 77.582890066443625, 12.960897948476289 ], [ 77.583190381100309, 12.960759125738484 ], [ 77.582382834659398, 12.959200102406834 ], [ 77.582800251459986, 12.958941468713515 ], [ 77.582800443672099, 12.958941349358943 ], [ 77.582834294620412, 12.959003173080106 ], [ 77.582864402434311, 12.959058162346601 ], [ 77.582971775840136, 12.959253595773282 ], [ 77.583027524036396, 12.959355809215635 ], [ 77.583110922662044, 12.959515342727231 ], [ 77.583271248146872, 12.959820922196895 ], [ 77.58353024357973, 12.960315245077178 ], [ 77.583616694744279, 12.960274007672357 ], [ 77.58377407443372, 12.960198937895838 ], [ 77.583855492180788, 12.960160101143295 ], [ 77.585010983863796, 12.959608927433647 ], [ 77.586551209212203, 12.959080784555299 ], [ 77.586683549029786, 12.959035405209478 ], [ 77.586746047297666, 12.959013974352747 ], [ 77.586583952573307, 12.958760363078925 ], [ 77.586564640789177, 12.958730063844252 ], [ 77.586539646522269, 12.958651261145747 ], [ 77.586272416068681, 12.957805811251593 ], [ 77.586266402913452, 12.957781026369156 ], [ 77.586262809014642, 12.957767510461402 ], [ 77.586203968811674, 12.957533200395696 ], [ 77.586110916954951, 12.957163714008049 ], [ 77.586094122220985, 12.957098381372555 ], [ 77.586035270789367, 12.956862942013259 ], [ 77.586023866903076, 12.956817883239671 ], [ 77.585934421280314, 12.95646304177497 ], [ 77.58593365876213, 12.956460009393755 ], [ 77.585883214408312, 12.956468988150723 ], [ 77.585794722162603, 12.956484738536588 ], [ 77.585675045588516, 12.956506040343402 ], [ 77.585535924047903, 12.956513201194255 ], [ 77.585414390526978, 12.956525950380131 ], [ 77.585402254658689, 12.956527223676607 ], [ 77.585164972534386, 12.956552115143847 ], [ 77.585132546597535, 12.956445586173075 ], [ 77.585023946421586, 12.956088795862962 ], [ 77.585006524513176, 12.956031558731077 ], [ 77.584946251582096, 12.955833540895553 ], [ 77.584669144404486, 12.95595342383317 ], [ 77.584593133466157, 12.955867653913494 ], [ 77.584450497130831, 12.955946151356539 ], [ 77.584419691243681, 12.955862680050791 ], [ 77.584415256289475, 12.955850663120094 ], [ 77.584353601036952, 12.95568360527408 ], [ 77.584220859397803, 12.955724134800695 ], [ 77.584165879022066, 12.955740921628784 ], [ 77.584132261752899, 12.955751182278087 ], [ 77.583821533675319, 12.955846019429829 ], [ 77.583058714873573, 12.95607876824573 ], [ 77.582866666238814, 12.956122848786775 ], [ 77.582724166686262, 12.95615555665214 ], [ 77.582402077661968, 12.956229485468903 ], [ 77.581719365088944, 12.95624515096916 ], [ 77.581578931628442, 12.95625563382265 ], [ 77.581336110151852, 12.956291368370097 ], [ 77.581103238472721, 12.956325638966662 ], [ 77.581062987303582, 12.95632763435875 ], [ 77.581027983076893, 12.956329369037784 ], [ 77.580838939961581, 12.956338736064225 ], [ 77.580579654100916, 12.95642065729689 ], [ 77.580048283391875, 12.955337215397179 ], [ 77.579990450311371, 12.955149247618349 ], [ 77.579982921907032, 12.955140320914561 ], [ 77.579982906364009, 12.955146587635346 ], [ 77.579887062330613, 12.95517576987748 ], [ 77.579780879691072, 12.955207313126387 ], [ 77.579599518429859, 12.955262187225726 ], [ 77.579262054798832, 12.95536490905282 ], [ 77.579125455078369, 12.955405787802011 ], [ 77.579048700532283, 12.955443815146044 ], [ 77.578824135194253, 12.955552194097766 ], [ 77.57857608385271, 12.955672098538336 ], [ 77.578237508077521, 12.955834683507275 ], [ 77.578144452946091, 12.955879638842651 ], [ 77.577719633323866, 12.956084870577094 ], [ 77.577485326910036, 12.956197862238266 ], [ 77.577387743423614, 12.956225931590041 ], [ 77.577323455298369, 12.956244636875637 ], [ 77.577063424365903, 12.956319486364841 ], [ 77.576802817569728, 12.956394341319903 ], [ 77.576545652926598, 12.95646803266999 ], [ 77.576368272828176, 12.956518348164984 ], [ 77.576340722351247, 12.956526525935104 ], [ 77.57633628319293, 12.956764984117831 ], [ 77.576334990350631, 12.956834428623228 ], [ 77.576334003078443, 12.956887465596598 ], [ 77.576526497785196, 12.956883174493978 ] ] ] } },
{ "type": "Feature", "properties": { "OBJECTID": 31730, "KGISVillageID": 30092, "KGISVillageCode": "2957205542803162", "KGISVillageName": "Bbmp", "KGISHobliID": 574, "UniqueVillageCode": "2957205542803162_111", "Bhucode": null, "CensusVillageCode": "2957205542803162", "BhoomiVillageCode": null, "created_user": "SURESHBV1", "created_date": 1692267586000.0, "last_edited_user": "SURESHBV2", "last_edited_date": 1739169963000.0, "LGDGPCode": " ", "LGDGPCode_Secondary": null, "Category": "No cadastral data and has no bhoomi data", "SHAPE.STArea()": 29741477.92150493, "SHAPE.STLength()": 79377.51443618242, "LGD_VillageCode": null, "_overlap_percent": 0.89868379515755159, "_police_station": "Kalasipalya PS", "_police_feature_index": "790", "_admin_layer": "Village", "_geometry_clipped": true }, "geometry": { "type": "Polygon", "coordinates": [ [ [ 77.578772501133685, 12.963467450344403 ], [ 77.578681557274464, 12.963161565006276 ], [ 77.578917529153543, 12.96309832011144 ], [ 77.578654621602126, 12.962757224859526 ], [ 77.578582262403685, 12.962675486151364 ], [ 77.578466417120822, 12.962544622462874 ], [ 77.578653374509798, 12.962405610003527 ], [ 77.578480194274178, 12.962334814369017 ], [ 77.578508455647096, 12.961857826914493 ], [ 77.578508476822464, 12.9618574680369 ], [ 77.578518797900529, 12.961683268249088 ], [ 77.578519716619581, 12.961665679003842 ], [ 77.578531061539749, 12.961448498500641 ], [ 77.578531962109011, 12.961435586571978 ], [ 77.578551949925313, 12.961149045158214 ], [ 77.578567387502744, 12.960927737828492 ], [ 77.578569675084211, 12.960894943588503 ], [ 77.578572872264004, 12.960837234155138 ], [ 77.578584096565748, 12.960634632843309 ], [ 77.578586917745753, 12.960583704782165 ], [ 77.578589480308139, 12.960537450095675 ], [ 77.5788121322487, 12.960591872287345 ], [ 77.578883566044311, 12.960693924231578 ], [ 77.579018047482748, 12.96068366667923 ], [ 77.579064701092037, 12.96068010832138 ], [ 77.579038679401066, 12.960632745558236 ], [ 77.579025233454175, 12.960608273454307 ], [ 77.578967344431604, 12.960502909036506 ], [ 77.578964043720816, 12.960496900401347 ], [ 77.579007972104563, 12.960352451495496 ], [ 77.57901632777407, 12.960324974445763 ], [ 77.579022992352265, 12.960303058593828 ], [ 77.57882131520067, 12.960123472329773 ], [ 77.578805274310511, 12.960109188768824 ], [ 77.578953086760563, 12.959901657557888 ], [ 77.578961390471406, 12.959892746824256 ], [ 77.578964471792759, 12.959889440404419 ], [ 77.578969234986715, 12.959884328500253 ], [ 77.578968574189119, 12.959869808551785 ], [ 77.578968494334077, 12.959868047624811 ], [ 77.578961357346884, 12.959711104978235 ], [ 77.578941649459708, 12.959570994280799 ], [ 77.578926218570558, 12.959461293633979 ], [ 77.578795551756414, 12.959513179228949 ], [ 77.578743654186468, 12.959321924415473 ], [ 77.578666968369149, 12.959355199961516 ], [ 77.578606508142457, 12.959381434124726 ], [ 77.578605000170683, 12.959371233804333 ], [ 77.578556942221724, 12.959046246312866 ], [ 77.578528980649224, 12.958857160189583 ], [ 77.578382474363508, 12.958418485088744 ], [ 77.578330310343517, 12.958006328504554 ], [ 77.578577607353921, 12.957908132116263 ], [ 77.578462841704862, 12.957566043456856 ], [ 77.578728458687053, 12.957412968274138 ], [ 77.57889327750739, 12.957224151807456 ], [ 77.578771268211767, 12.957072996026266 ], [ 77.578597000379389, 12.957114034544615 ], [ 77.578614206644176, 12.956975542100235 ], [ 77.57881131170457, 12.956956162457397 ], [ 77.57883267275227, 12.956765025757944 ], [ 77.578568092661428, 12.956723582423445 ], [ 77.578516903214478, 12.956500785614338 ], [ 77.57844716282375, 12.956272887324332 ], [ 77.57832074582268, 12.956093107600754 ], [ 77.578087490458543, 12.956268440673449 ], [ 77.577857232009137, 12.956441519637348 ], [ 77.57698065439638, 12.95689811480436 ], [ 77.576977437460613, 12.956899790013535 ], [ 77.576994753775892, 12.956946476786539 ], [ 77.577094120265343, 12.95721438336013 ], [ 77.576860974254387, 12.957263290763393 ], [ 77.576526497785196, 12.956883174493978 ], [ 77.576334003078443, 12.956887465596598 ], [ 77.576331138690946, 12.957041342557222 ], [ 77.576328329899397, 12.957192209868049 ], [ 77.576327776951558, 12.957221914353919 ], [ 77.57632769143315, 12.957226495676613 ], [ 77.57632191670757, 12.95753667908005 ], [ 77.575500690059499, 12.957557262747159 ], [ 77.575078093139794, 12.957636265513523 ], [ 77.57503159310366, 12.95764495854989 ], [ 77.575038085418512, 12.957676940535258 ], [ 77.575050323887027, 12.957737228527714 ], [ 77.575285322515597, 12.958894805309136 ], [ 77.575355516386622, 12.959240568592941 ], [ 77.575394219631633, 12.959431213353406 ], [ 77.575403455196067, 12.959476708137659 ], [ 77.574502072055338, 12.959738401784387 ], [ 77.574625998133541, 12.960088391523259 ], [ 77.574901857154543, 12.960712429815619 ], [ 77.575073384580989, 12.961100344757881 ], [ 77.575181264758982, 12.961345466912798 ], [ 77.575266463026153, 12.961456425591759 ], [ 77.575525570437463, 12.961794913162503 ], [ 77.575950244891743, 12.962277442557511 ], [ 77.576040659790081, 12.96239173715327 ], [ 77.576166080145001, 12.962550857548679 ], [ 77.576233236487724, 12.962727900782196 ], [ 77.576341578803834, 12.96301351904448 ], [ 77.576342861819825, 12.96301690239949 ], [ 77.576416615280138, 12.963211333913062 ], [ 77.576528639548997, 12.963506657426937 ], [ 77.576570748849591, 12.963617666194201 ], [ 77.57660391499094, 12.96370510042253 ], [ 77.576654309551202, 12.963837952872508 ], [ 77.576693958243567, 12.963942223664391 ], [ 77.576695333955442, 12.963945840994038 ], [ 77.576728936328379, 12.964034209550588 ], [ 77.576753133101633, 12.964097844524156 ], [ 77.576813346947745, 12.964074662134063 ], [ 77.576830115859636, 12.964111860821077 ], [ 77.576924740679345, 12.964072688167207 ], [ 77.577248130054144, 12.963997774594924 ], [ 77.577525189719992, 12.963920929018624 ], [ 77.577731625352371, 12.963849563778137 ], [ 77.578054619222343, 12.963736406746882 ], [ 77.578160055294717, 12.963695335066481 ], [ 77.578256106241483, 12.963657918615622 ], [ 77.578596799074333, 12.96360673635419 ], [ 77.578637221806275, 12.963606204416386 ], [ 77.578772501133685, 12.963467450344403 ] ] ] } }
]
}
