{
"type": "FeatureCollection",
"name": "villages_in_police_area.writing_20260805_172659",
"crs": { "type": "name", "properties": { "name": "urn:ogc:def:crs:OGC:1.3:CRS84" } },
"features": [
{ "type": "Feature", "properties": { "OBJECTID": 1126, "KGISVillageID": 2366, "KGISVillageCode": "0504020011", "KGISVillageName": "B.Gunalli", "KGISHobliID": 131, "UniqueVillageCode": "0504020011_1", "Bhucode": "050401002003", "CensusVillageCode": "2955805457600183", "BhoomiVillageCode": "0504020011", "created_user": "SA", "created_date": 1556019584000.0, "last_edited_user": "SURESHBV2", "last_edited_date": 1724225585000.0, "LGDGPCode": "216415", "LGDGPCode_Secondary": null, "Category": "Cadastral data available and has bhoomi linkage", "SHAPE.STArea()": 10595886.421009855, "SHAPE.STLength()": 15026.46168390049, "LGD_VillageCode": 600183.0, "_overlap_percent": 0.20426081604566046, "_police_station": "Mangalapet Market PS", "_police_feature_index": "255", "_admin_layer": "Village", "_geometry_clipped": true }, "geometry": { "type": "MultiPolygon", "coordinates": [ [ [ [ 77.538287890392326, 17.857942707334775 ], [ 77.538322299280125, 17.857945927082106 ], [ 77.53842079467114, 17.857111970915696 ], [ 77.538439202260122, 17.856956118135397 ], [ 77.538482549635106, 17.85658909344982 ], [ 77.538483272893089, 17.85658297420877 ], [ 77.538529307433663, 17.856153059655639 ], [ 77.538578397304562, 17.855694628030331 ], [ 77.538578809445539, 17.855690775236049 ], [ 77.538578895222415, 17.855689974829566 ], [ 77.538602599164406, 17.85568978274403 ], [ 77.538614881411661, 17.855689270615827 ], [ 77.538706068424602, 17.855685467023786 ], [ 77.538913949257065, 17.855676516982111 ], [ 77.539323308257764, 17.855658894697601 ], [ 77.539859603932101, 17.855635806037689 ], [ 77.542708747294824, 17.855567701370493 ], [ 77.543056032556791, 17.855559399216002 ], [ 77.543139870050567, 17.855556355935338 ], [ 77.543229945967781, 17.855524654697145 ], [ 77.543492434589595, 17.855432278058522 ], [ 77.545305417063929, 17.854830343039641 ], [ 77.546108506499067, 17.854526119152322 ], [ 77.546122768566875, 17.854478936726384 ], [ 77.546184885330533, 17.854438616573912 ], [ 77.546760023186778, 17.854067339129909 ], [ 77.547730397984168, 17.854134463458042 ], [ 77.547958718692001, 17.854150805054481 ], [ 77.548087932184629, 17.854160305830558 ], [ 77.548312204883217, 17.854177023223905 ], [ 77.548392102958402, 17.854176290719938 ], [ 77.5484933592315, 17.854169679555113 ], [ 77.548509915061686, 17.85416967814362 ], [ 77.548907442624269, 17.854169777767694 ], [ 77.549673819372202, 17.854159205617172 ], [ 77.549719006943604, 17.85415739917044 ], [ 77.549747197605015, 17.854156274648609 ], [ 77.549747453543361, 17.854156156987699 ], [ 77.549739283359685, 17.854156481085209 ], [ 77.549694044717867, 17.854158277366587 ], [ 77.54892630575759, 17.854168555815797 ], [ 77.548527854986474, 17.854168328307352 ], [ 77.548511248085134, 17.854168319550013 ], [ 77.548409599014903, 17.854174831092053 ], [ 77.548329360194614, 17.854175476838055 ], [ 77.54810391838754, 17.854158450510834 ], [ 77.547973680646166, 17.854148614513207 ], [ 77.547742550643676, 17.854131158123877 ], [ 77.546743856520422, 17.854055728054163 ], [ 77.546129320730259, 17.854420813076334 ], [ 77.546062390044384, 17.854460575600633 ], [ 77.544917878054875, 17.85478324418283 ], [ 77.543720009666487, 17.855186814817248 ], [ 77.543061315877139, 17.855408729189229 ], [ 77.542985133642688, 17.85543439494219 ], [ 77.542930682879842, 17.855510780854662 ], [ 77.539787155535478, 17.855536224379847 ], [ 77.538650445569345, 17.85557240663934 ], [ 77.538505022370771, 17.855577034571013 ], [ 77.538202633557816, 17.857934514278075 ], [ 77.538287890392326, 17.857942707334775 ] ] ], [ [ [ 77.558544394314978, 17.849322870864029 ], [ 77.558599227150253, 17.849332627148961 ], [ 77.558803895400359, 17.849369042939813 ], [ 77.559704055394349, 17.849529206459859 ], [ 77.55976247256342, 17.849539600848306 ], [ 77.559820888781132, 17.849549994327766 ], [ 77.559932707484492, 17.849580567534776 ], [ 77.560304395301259, 17.849682194563286 ], [ 77.560328156107261, 17.849688691445312 ], [ 77.560329297907799, 17.849689004297488 ], [ 77.560531914844077, 17.849746980485271 ], [ 77.560833041311483, 17.849833143427709 ], [ 77.560921892993122, 17.849858567111109 ], [ 77.561038476886267, 17.849891925202495 ], [ 77.559885458235314, 17.849455983463717 ], [ 77.55975414088617, 17.849442402205668 ], [ 77.558553460180704, 17.849318210049002 ], [ 77.558469241617203, 17.849309498745484 ], [ 77.558544394314978, 17.849322870864029 ] ] ], [ [ [ 77.55429438375738, 17.850069673880888 ], [ 77.554323863543146, 17.849977126522134 ], [ 77.554405157857701, 17.8497219190725 ], [ 77.554441924670641, 17.849716227334337 ], [ 77.554475559832809, 17.84969754243383 ], [ 77.554476282153843, 17.849697141912863 ], [ 77.554479744949859, 17.849695218927149 ], [ 77.554480466315113, 17.849694817515527 ], [ 77.554498897415954, 17.849684580140146 ], [ 77.554540688513967, 17.849661365721349 ], [ 77.554555870126649, 17.849652932028786 ], [ 77.554578244002798, 17.849654770421274 ], [ 77.5546570694937, 17.849661246773756 ], [ 77.555037505633379, 17.849692503254637 ], [ 77.555093990535553, 17.84967887096634 ], [ 77.555355791606118, 17.849615690273126 ], [ 77.555429076612654, 17.849598003954558 ], [ 77.555469070479987, 17.849588351012667 ], [ 77.555549922848584, 17.849568837795388 ], [ 77.556185315670248, 17.849415487127239 ], [ 77.556756160818409, 17.849243728308217 ], [ 77.556989335204236, 17.849173570107656 ], [ 77.55704687049807, 17.849156257663484 ], [ 77.557316265457317, 17.849182423035572 ], [ 77.55774944720612, 17.849224495991347 ], [ 77.557893674296494, 17.849238503043232 ], [ 77.557109430891259, 17.849129151582645 ], [ 77.556998094513176, 17.849148382247723 ], [ 77.556113190621559, 17.84930122381212 ], [ 77.554935027248163, 17.849611869099554 ], [ 77.554351601766712, 17.849560843013037 ], [ 77.554321482423831, 17.849639241063954 ], [ 77.554210493804646, 17.850026933859958 ], [ 77.554011960633474, 17.850743812475137 ], [ 77.55429438375738, 17.850069673880888 ] ] ], [ [ [ 77.552241764316747, 17.852142883619447 ], [ 77.552580538163099, 17.851968946002213 ], [ 77.552581337288998, 17.851963022655774 ], [ 77.552587265694868, 17.851919095589754 ], [ 77.552588040996753, 17.851913353184045 ], [ 77.552621038341925, 17.851903459063912 ], [ 77.552761153251254, 17.851861443354938 ], [ 77.553072820445351, 17.852019854721963 ], [ 77.553410486104198, 17.852244547370194 ], [ 77.553413376050756, 17.852244111246975 ], [ 77.553795420783445, 17.852186508939941 ], [ 77.553796637338166, 17.85203588099635 ], [ 77.553427777306041, 17.852107668063312 ], [ 77.552779062746055, 17.851709172696758 ], [ 77.552541722182042, 17.851874963426141 ], [ 77.55249799784292, 17.851905506531473 ], [ 77.552149255822187, 17.852149112981017 ], [ 77.552116195468557, 17.852223216230467 ], [ 77.552241764316747, 17.852142883619447 ] ] ], [ [ [ 77.55191262711682, 17.852718776540879 ], [ 77.551937139343508, 17.852648700496239 ], [ 77.551947567808469, 17.852618886696835 ], [ 77.551954425380117, 17.852599281804661 ], [ 77.551947872445339, 17.852616310554001 ], [ 77.551911940011493, 17.852709682734432 ], [ 77.55190377303407, 17.852716049280424 ], [ 77.55191262711682, 17.852718776540879 ] ] ] ] } },
{ "type": "Feature", "properties": { "OBJECTID": 1149, "KGISVillageID": 2391, "KGISVillageCode": "0504020012", "KGISVillageName": "Shahapura", "KGISHobliID": 131, "UniqueVillageCode": "0504020012_1", "Bhucode": "050401002024", "CensusVillageCode": "2955805457600182", "BhoomiVillageCode": "0504020012", "created_user": "SA", "created_date": 1556019584000.0, "last_edited_user": "SURESHBV2", "last_edited_date": 1724225587000.0, "LGDGPCode": "216423", "LGDGPCode_Secondary": null, "Category": "Cadastral data available and has bhoomi linkage", "SHAPE.STArea()": 7245814.2392141102, "SHAPE.STLength()": 13230.067828671949, "LGD_VillageCode": 600182.0, "_overlap_percent": 99.498233645465234, "_police_station": "Mangalapet Market PS", "_police_feature_index": "255", "_admin_layer": "Village", "_geometry_clipped": true }, "geometry": { "type": "Polygon", "coordinates": [ [ [ 77.543201850571378, 17.864116281711155 ], [ 77.543862239812967, 17.863911754890495 ], [ 77.544878542775933, 17.863596998799505 ], [ 77.545279113946108, 17.863498468880874 ], [ 77.546412750659783, 17.863283046583835 ], [ 77.546628223253094, 17.86324209984684 ], [ 77.547581559962595, 17.862942893452395 ], [ 77.547683911721975, 17.862915982255121 ], [ 77.548331312716741, 17.862745759022715 ], [ 77.548443346866506, 17.862716302246483 ], [ 77.548490608705748, 17.8628599628491 ], [ 77.548533750622525, 17.862845761301951 ], [ 77.548588657641645, 17.862827692187349 ], [ 77.548633631056092, 17.862812892273038 ], [ 77.548658302650111, 17.862804773741775 ], [ 77.548694833424804, 17.862953174301193 ], [ 77.548736243811362, 17.863121401928368 ], [ 77.548849169870039, 17.863580160340753 ], [ 77.548923212526887, 17.863880951193721 ], [ 77.549024228055046, 17.864254273102524 ], [ 77.549076488785118, 17.864447411028912 ], [ 77.549090749806524, 17.864523976548092 ], [ 77.54910136364856, 17.864580962602414 ], [ 77.549075204923867, 17.865094134272297 ], [ 77.549058226387217, 17.865427212438629 ], [ 77.549003800479269, 17.866494963642033 ], [ 77.548998250638718, 17.866603846298542 ], [ 77.54897253283977, 17.867108374485937 ], [ 77.548961469179886, 17.867325423128957 ], [ 77.548944488683603, 17.867658551874204 ], [ 77.548934206924045, 17.867860260295494 ], [ 77.548890816974307, 17.868058956251449 ], [ 77.548835824763145, 17.868310786984395 ], [ 77.548791027038433, 17.869015616854291 ], [ 77.548785582808875, 17.869103735713345 ], [ 77.548784363019436, 17.869123486299085 ], [ 77.548744221164256, 17.869773131777144 ], [ 77.54901407324013, 17.869811657878621 ], [ 77.549427041643924, 17.869870615291724 ], [ 77.549633714314083, 17.869880744924082 ], [ 77.549724353552492, 17.870005393222446 ], [ 77.549752702392865, 17.870044391266909 ], [ 77.549921274913586, 17.872224118803469 ], [ 77.550115875238603, 17.87464659135135 ], [ 77.550084136858359, 17.874768751553425 ], [ 77.55004252281887, 17.874929203385499 ], [ 77.549482585285347, 17.877106525487591 ], [ 77.549193150420535, 17.878220959107452 ], [ 77.548757218545632, 17.879856375849311 ], [ 77.548724668789546, 17.881698032827902 ], [ 77.54871671493197, 17.881811912363847 ], [ 77.548641367263997, 17.882891380389719 ], [ 77.548625480235572, 17.883015529542931 ], [ 77.548585801914314, 17.883324162004119 ], [ 77.548511196772182, 17.883904465867708 ], [ 77.548487681823232, 17.884127276818337 ], [ 77.54849704705795, 17.884130102114877 ], [ 77.548594342365845, 17.883918654377545 ], [ 77.548605919306056, 17.883914132543794 ], [ 77.549617215601742, 17.883520735603643 ], [ 77.549744020703599, 17.883471583501244 ], [ 77.552455060934051, 17.882447712955543 ], [ 77.552575564816294, 17.882400829173562 ], [ 77.553344109202541, 17.882101814594545 ], [ 77.555010227904745, 17.881396915463082 ], [ 77.55507143703521, 17.88132068390993 ], [ 77.555288408915771, 17.881050464184838 ], [ 77.555289860905248, 17.881034539920591 ], [ 77.555935756532321, 17.880243112934359 ], [ 77.556035764856802, 17.880109312674875 ], [ 77.556002099910913, 17.880001100152914 ], [ 77.556144570065811, 17.879813974619662 ], [ 77.558316095028147, 17.878717214816795 ], [ 77.559020026884937, 17.878361665438586 ], [ 77.559145121530619, 17.878298480226992 ], [ 77.560368202654047, 17.875819618499627 ], [ 77.560224440994574, 17.875184543379497 ], [ 77.560218114340159, 17.875156594913769 ], [ 77.563712125453705, 17.873523351102467 ], [ 77.564268750215788, 17.873263153870635 ], [ 77.565564932710245, 17.872665167575938 ], [ 77.566937837732254, 17.872102010947735 ], [ 77.567058538829357, 17.870969722169701 ], [ 77.567054461042332, 17.870965814743325 ], [ 77.567164699455489, 17.86989958180455 ], [ 77.567175635148331, 17.869793816114449 ], [ 77.56726180450525, 17.868960402394997 ], [ 77.569756011656153, 17.867633825343468 ], [ 77.570087364271131, 17.867630699492715 ], [ 77.569587327031655, 17.867245159816076 ], [ 77.569596134477663, 17.867158491874481 ], [ 77.569539092805584, 17.867115805048488 ], [ 77.570191985227495, 17.861295139663508 ], [ 77.570196389461472, 17.861251800664526 ], [ 77.570196891535289, 17.861251398956817 ], [ 77.570198952602183, 17.861233024136776 ], [ 77.57045542976465, 17.861029453310714 ], [ 77.570416714161539, 17.859469110043786 ], [ 77.570377537927001, 17.859234865968318 ], [ 77.570242719323957, 17.85715135683456 ], [ 77.569922461120541, 17.85376234459941 ], [ 77.569612709484616, 17.85158241545594 ], [ 77.567225489863631, 17.851344174879394 ], [ 77.567015372769106, 17.851350227927092 ], [ 77.566025021155326, 17.851251735462956 ], [ 77.565916560686105, 17.851264407367299 ], [ 77.565796059601382, 17.851278486651928 ], [ 77.565678520183624, 17.851273927698891 ], [ 77.564875716975706, 17.851242786262699 ], [ 77.564797619431587, 17.851239762715885 ], [ 77.564703341350636, 17.851236114701205 ], [ 77.564706609672513, 17.851228543192921 ], [ 77.56259225974253, 17.85047781225871 ], [ 77.562523721527967, 17.850453476326688 ], [ 77.562354021757059, 17.850389316045167 ], [ 77.561038476886267, 17.849891925202495 ], [ 77.560921892993122, 17.849858567111109 ], [ 77.560833041311483, 17.849833143427709 ], [ 77.560531914844077, 17.849746980485271 ], [ 77.560329297907799, 17.849689004297488 ], [ 77.560328156107261, 17.849688691445312 ], [ 77.560304395301259, 17.849682194563286 ], [ 77.559932707484492, 17.849580567534776 ], [ 77.559820888781132, 17.849549994327766 ], [ 77.55976247256342, 17.849539600848306 ], [ 77.559704055394349, 17.849529206459859 ], [ 77.558803895400359, 17.849369042939813 ], [ 77.558599227150253, 17.849332627148961 ], [ 77.558544394314978, 17.849322870864029 ], [ 77.558469241617203, 17.849309498745484 ], [ 77.558212018833359, 17.849282892429155 ], [ 77.558189621922935, 17.84927976868218 ], [ 77.557893674296494, 17.849238503043232 ], [ 77.55774944720612, 17.849224495991347 ], [ 77.557316265457317, 17.849182423035572 ], [ 77.55704687049807, 17.849156257663484 ], [ 77.556989335204236, 17.849173570107656 ], [ 77.556756160818409, 17.849243728308217 ], [ 77.556185315670248, 17.849415487127239 ], [ 77.555549922848584, 17.849568837795388 ], [ 77.555469070479987, 17.849588351012667 ], [ 77.555429076612654, 17.849598003954558 ], [ 77.555355791606118, 17.849615690273126 ], [ 77.555093990535553, 17.84967887096634 ], [ 77.555037505633379, 17.849692503254637 ], [ 77.5546570694937, 17.849661246773756 ], [ 77.554578244002798, 17.849654770421274 ], [ 77.554555870126649, 17.849652932028786 ], [ 77.554540688513967, 17.849661365721349 ], [ 77.554498897415954, 17.849684580140146 ], [ 77.554480466315113, 17.849694817515527 ], [ 77.554479744949859, 17.849695218927149 ], [ 77.554476282153843, 17.849697141912863 ], [ 77.554475559832809, 17.84969754243383 ], [ 77.554441924670641, 17.849716227334337 ], [ 77.554405157857701, 17.8497219190725 ], [ 77.554323863543146, 17.849977126522134 ], [ 77.55429438375738, 17.850069673880888 ], [ 77.554011960633474, 17.850743812475137 ], [ 77.553996234361918, 17.850800598087872 ], [ 77.553964582927861, 17.850949455076787 ], [ 77.553863897269764, 17.851422966906416 ], [ 77.553838911912266, 17.85177953555494 ], [ 77.553821284408286, 17.852031084215135 ], [ 77.553796637338166, 17.85203588099635 ], [ 77.553795420783445, 17.852186508939941 ], [ 77.553413376050756, 17.852244111246975 ], [ 77.553410486104198, 17.852244547370194 ], [ 77.553072820445351, 17.852019854721963 ], [ 77.552761153251254, 17.851861443354938 ], [ 77.552621038341925, 17.851903459063912 ], [ 77.552588040996753, 17.851913353184045 ], [ 77.552587265694868, 17.851919095589754 ], [ 77.552581337288998, 17.851963022655774 ], [ 77.552580538163099, 17.851968946002213 ], [ 77.552241764316747, 17.852142883619447 ], [ 77.552116195468557, 17.852223216230467 ], [ 77.552083302682277, 17.852296943885467 ], [ 77.552060789144463, 17.852347405476237 ], [ 77.551992128146836, 17.852501305709087 ], [ 77.551954425380117, 17.852599281804661 ], [ 77.551947567808469, 17.852618886696835 ], [ 77.551937139343508, 17.852648700496239 ], [ 77.55191262711682, 17.852718776540879 ], [ 77.55190377303407, 17.852716049280424 ], [ 77.551542657905117, 17.852997555639426 ], [ 77.551386655104622, 17.853115629102607 ], [ 77.551243212157942, 17.85324607652035 ], [ 77.551099901402893, 17.853356251932187 ], [ 77.550491102619716, 17.853824280897065 ], [ 77.550386356143818, 17.853872207958464 ], [ 77.549767505213637, 17.854155361571511 ], [ 77.549747453543361, 17.854156156987699 ], [ 77.549747197605015, 17.854156274648609 ], [ 77.549719006943604, 17.85415739917044 ], [ 77.549673819372202, 17.854159205617172 ], [ 77.548907442624269, 17.854169777767694 ], [ 77.548509915061686, 17.85416967814362 ], [ 77.5484933592315, 17.854169679555113 ], [ 77.548392102958402, 17.854176290719938 ], [ 77.548312204883217, 17.854177023223905 ], [ 77.548087932184629, 17.854160305830558 ], [ 77.547958718692001, 17.854150805054481 ], [ 77.547730397984168, 17.854134463458042 ], [ 77.546760023186778, 17.854067339129909 ], [ 77.546184885330533, 17.854438616573912 ], [ 77.546122768566875, 17.854478936726384 ], [ 77.546108506499067, 17.854526119152322 ], [ 77.545305417063929, 17.854830343039641 ], [ 77.543492434589595, 17.855432278058522 ], [ 77.543229945967781, 17.855524654697145 ], [ 77.543139870050567, 17.855556355935338 ], [ 77.543056032556791, 17.855559399216002 ], [ 77.542708747294824, 17.855567701370493 ], [ 77.539859603932101, 17.855635806037689 ], [ 77.539323308257764, 17.855658894697601 ], [ 77.538913949257065, 17.855676516982111 ], [ 77.538706068424602, 17.855685467023786 ], [ 77.538614881411661, 17.855689270615827 ], [ 77.538602599164406, 17.85568978274403 ], [ 77.538578895222415, 17.855689974829566 ], [ 77.538578809445539, 17.855690775236049 ], [ 77.538578397304562, 17.855694628030331 ], [ 77.538529307433663, 17.856153059655639 ], [ 77.538483272893089, 17.85658297420877 ], [ 77.538482549635106, 17.85658909344982 ], [ 77.538439202260122, 17.856956118135397 ], [ 77.53842079467114, 17.857111970915696 ], [ 77.538322299280125, 17.857945927082106 ], [ 77.538444864925737, 17.858001790851226 ], [ 77.538428332170994, 17.858073003794164 ], [ 77.538240375902632, 17.858826385759279 ], [ 77.538128867224714, 17.859273338082883 ], [ 77.537967561688831, 17.859919888658922 ], [ 77.537918141631295, 17.860143615153966 ], [ 77.538520254828484, 17.860164161103928 ], [ 77.539130083254591, 17.860184966743972 ], [ 77.541161485772491, 17.859990142574887 ], [ 77.541171667318793, 17.859989585382309 ], [ 77.541244102399702, 17.860240443716457 ], [ 77.541272708578134, 17.860241389782555 ], [ 77.541312976132417, 17.860242720854814 ], [ 77.541791051984802, 17.861770116627781 ], [ 77.54181711274282, 17.86185337509599 ], [ 77.541825046021842, 17.861883067474501 ], [ 77.541840929570057, 17.861942518841005 ], [ 77.541870389531852, 17.862052779603658 ], [ 77.541893688786985, 17.862143525046395 ], [ 77.541900128605107, 17.862168604636508 ], [ 77.54190125086528, 17.862172977504887 ], [ 77.541902008633372, 17.862175926342942 ], [ 77.541907760112139, 17.862198326692631 ], [ 77.542082562455775, 17.862453602519722 ], [ 77.543058770100203, 17.863879205062645 ], [ 77.543050026976459, 17.863944670266751 ], [ 77.543201850571378, 17.864116281711155 ] ] ] } },
{ "type": "Feature", "properties": { "OBJECTID": 1146, "KGISVillageID": 2388, "KGISVillageCode": "0504020003", "KGISVillageName": "Malakapura", "KGISHobliID": 131, "UniqueVillageCode": "0504020003_1", "Bhucode": "050401002020", "CensusVillageCode": "2955805457600180", "BhoomiVillageCode": "0504020003", "created_user": "SA", "created_date": 1556019584000.0, "last_edited_user": "SURESHBV2", "last_edited_date": 1724225587000.0, "LGDGPCode": "216423", "LGDGPCode_Secondary": null, "Category": "Cadastral data available and has bhoomi linkage", "SHAPE.STArea()": 7750261.2296260903, "SHAPE.STLength()": 22415.001017034869, "LGD_VillageCode": 600180.0, "_overlap_percent": 7.4587156862693291, "_police_station": "Mangalapet Market PS", "_police_feature_index": "255", "_admin_layer": "Village", "_geometry_clipped": true }, "geometry": { "type": "MultiPolygon", "coordinates": [ [ [ [ 77.55518761654767, 17.898541265675593 ], [ 77.554886926617115, 17.898678872180561 ], [ 77.554685942197992, 17.898770850418739 ], [ 77.554630738871055, 17.898796113465053 ], [ 77.554569745651378, 17.898824025553104 ], [ 77.554299157712236, 17.898947855143213 ], [ 77.554240404222355, 17.89897474157522 ], [ 77.554098213264197, 17.899431599172619 ], [ 77.554084713689036, 17.899474973357492 ], [ 77.555262230357812, 17.898504237419267 ], [ 77.55518761654767, 17.898541265675593 ] ] ], [ [ [ 77.555299516751688, 17.89643670651563 ], [ 77.555458373203763, 17.896810747555769 ], [ 77.555632915428404, 17.897156388178921 ], [ 77.555642574327109, 17.897175515638715 ], [ 77.555680642358524, 17.896974089485003 ], [ 77.555235584545784, 17.896287151013254 ], [ 77.555299516751688, 17.89643670651563 ] ] ], [ [ [ 77.554618453223569, 17.894844616404864 ], [ 77.55461611635755, 17.89480137733829 ], [ 77.554531371596994, 17.89475907948162 ], [ 77.554618453223569, 17.894844616404864 ] ] ], [ [ [ 77.555935756532321, 17.880243112934359 ], [ 77.555289860905248, 17.881034539920591 ], [ 77.555288408915771, 17.881050464184838 ], [ 77.55507143703521, 17.88132068390993 ], [ 77.555010227904745, 17.881396915463082 ], [ 77.553344109202541, 17.882101814594545 ], [ 77.552575564816294, 17.882400829173562 ], [ 77.552455060934051, 17.882447712955543 ], [ 77.549744020703599, 17.883471583501244 ], [ 77.549617215601742, 17.883520735603643 ], [ 77.548605919306056, 17.883914132543794 ], [ 77.548594342365845, 17.883918654377545 ], [ 77.54849704705795, 17.884130102114877 ], [ 77.548365367664218, 17.884416495691674 ], [ 77.54816906661938, 17.884846520244437 ], [ 77.54824273900654, 17.885651873679901 ], [ 77.548592309278547, 17.886137682379054 ], [ 77.549308328973225, 17.887132752092661 ], [ 77.549672487088046, 17.886769693901698 ], [ 77.550106933731769, 17.886336557308894 ], [ 77.550666985587767, 17.888053050541838 ], [ 77.550695700784175, 17.888141060424005 ], [ 77.550950828241653, 17.888922988654951 ], [ 77.550955996402109, 17.888938827085838 ], [ 77.551125783351011, 17.889459195812673 ], [ 77.551321177109003, 17.889646527231186 ], [ 77.551516733850221, 17.889834013414234 ], [ 77.551658357695302, 17.889955540836109 ], [ 77.551866669928543, 17.890158782688605 ], [ 77.552379948321786, 17.890659562438085 ], [ 77.55249439409215, 17.890689439691066 ], [ 77.552447812947676, 17.891220824160808 ], [ 77.552366342764827, 17.892150205605788 ], [ 77.552366014369767, 17.892153955240492 ], [ 77.552314658002373, 17.892739800347851 ], [ 77.552314531543331, 17.892741247032756 ], [ 77.552313414768619, 17.892753979717806 ], [ 77.552283491623868, 17.893285082524514 ], [ 77.552272947399203, 17.893472220785622 ], [ 77.552267386441599, 17.893570919483881 ], [ 77.552721336559415, 17.893772263507746 ], [ 77.553209286492688, 17.893988688049497 ], [ 77.553249751927211, 17.894006160434607 ], [ 77.55372355960688, 17.894210745543013 ], [ 77.553784269761422, 17.894236959200068 ], [ 77.553792328300673, 17.894301474988396 ], [ 77.553813676501562, 17.894472389710351 ], [ 77.553922055088449, 17.89447263028428 ], [ 77.554240471540609, 17.894473339575629 ], [ 77.554348036307488, 17.894578996297597 ], [ 77.554465402703983, 17.893009017899171 ], [ 77.553889228930927, 17.890115255753113 ], [ 77.554293014356375, 17.88843743160081 ], [ 77.554863283395505, 17.885938225345399 ], [ 77.554889645444206, 17.885289348522878 ], [ 77.555789470943026, 17.883400214482936 ], [ 77.556224475810311, 17.881414779880046 ], [ 77.556176620449406, 17.880562078556679 ], [ 77.556035764856802, 17.880109312674875 ], [ 77.555935756532321, 17.880243112934359 ] ] ] ] } },
{ "type": "Feature", "properties": { "OBJECTID": 25659, "KGISVillageID": 35009, "KGISVillageCode": "0504020020", "KGISVillageName": "Mahalathe Gyrabi", "KGISHobliID": 131, "UniqueVillageCode": "0504020020_2", "Bhucode": "050401002019", "CensusVillageCode": "2955805457600178", "BhoomiVillageCode": "0504020020", "created_user": "SA", "created_date": 1568617007000.0, "last_edited_user": "SURESHBV2", "last_edited_date": 1724226193000.0, "LGDGPCode": " ", "LGDGPCode_Secondary": null, "Category": "Cadastral data available and has bhoomi linkage", "SHAPE.STArea()": 271964.03148668498, "SHAPE.STLength()": 2379.847568706296, "LGD_VillageCode": 938366.0, "_overlap_percent": 59.09762010862525, "_police_station": "Mangalapet Market PS", "_police_feature_index": "255", "_admin_layer": "Village", "_geometry_clipped": true }, "geometry": { "type": "Polygon", "coordinates": [ [ [ 77.544741035342668, 17.906577849783925 ], [ 77.544709899693814, 17.90626649054277 ], [ 77.544648983921263, 17.90565734387728 ], [ 77.544183229498515, 17.905530826256918 ], [ 77.543725236504457, 17.905406415948296 ], [ 77.543712356913346, 17.90540291759508 ], [ 77.543683903067034, 17.90542405930621 ], [ 77.543536921631542, 17.905533271313168 ], [ 77.543290082430175, 17.905716680826657 ], [ 77.542799505331772, 17.906081195250088 ], [ 77.542672027323391, 17.906176881838398 ], [ 77.542513182218968, 17.90629611153933 ], [ 77.5423835114036, 17.906393444167776 ], [ 77.542339166764549, 17.906426728488984 ], [ 77.542337953391723, 17.906427640268852 ], [ 77.542337341097678, 17.906428099844671 ], [ 77.541897799381857, 17.906919017184311 ], [ 77.541317397942862, 17.907567252744521 ], [ 77.541290096530744, 17.907597744747971 ], [ 77.541244102058485, 17.907650397641017 ], [ 77.541189229076537, 17.907713214031816 ], [ 77.541131242783678, 17.907779594261434 ], [ 77.541028100044599, 17.907897668080818 ], [ 77.540857237264092, 17.908093263968109 ], [ 77.540571950138755, 17.908829396908978 ], [ 77.540569159826845, 17.908836361399199 ], [ 77.540235833610154, 17.909668349442757 ], [ 77.540129168233165, 17.912609372579329 ], [ 77.541247445769827, 17.911940003001494 ], [ 77.541408321665187, 17.911672892171534 ], [ 77.542045429867727, 17.910614936743595 ], [ 77.542861399659884, 17.908746776632992 ], [ 77.543070896307043, 17.908267142241908 ], [ 77.543967962107331, 17.907495267167697 ], [ 77.544530433425095, 17.907011277711444 ], [ 77.544742149146515, 17.906829108211312 ], [ 77.544764259509037, 17.90681008288545 ], [ 77.544741035342668, 17.906577849783925 ] ] ] } },
{ "type": "Feature", "properties": { "OBJECTID": 1147, "KGISVillageID": 2389, "KGISVillageCode": "0504020002", "KGISVillageName": "Mirjapura.T", "KGISHobliID": 131, "UniqueVillageCode": "0504020002_1", "Bhucode": "050401002021", "CensusVillageCode": "2955805457600178", "BhoomiVillageCode": "0504020002", "created_user": "SURESHBV1", "created_date": 1692267586000.0, "last_edited_user": "SURESHBV2", "last_edited_date": 1724225587000.0, "LGDGPCode": "216423", "LGDGPCode_Secondary": null, "Category": "Cadastral data available and has bhoomi linkage", "SHAPE.STArea()": 3130930.65376965, "SHAPE.STLength()": 10507.978288973851, "LGD_VillageCode": 600178.0, "_overlap_percent": 0.71246876215308852, "_police_station": "Mangalapet Market PS", "_police_feature_index": "255", "_admin_layer": "Village", "_geometry_clipped": true }, "geometry": { "type": "MultiPolygon", "coordinates": [ [ [ [ 77.539811755748104, 17.912609776501224 ], [ 77.539813568093052, 17.912798281974027 ], [ 77.540126310851264, 17.912611082928024 ], [ 77.539811755748104, 17.912609776501224 ] ] ], [ [ [ 77.550515300212666, 17.901337958042465 ], [ 77.550520220484927, 17.901336076765411 ], [ 77.550522195619621, 17.901334068679446 ], [ 77.550515300212666, 17.901337958042465 ] ] ], [ [ [ 77.554098213264197, 17.899431599172619 ], [ 77.554240404222355, 17.89897474157522 ], [ 77.554081991426742, 17.899042502682192 ], [ 77.553486857496225, 17.899297072071921 ], [ 77.553317104054798, 17.899369684994639 ], [ 77.553151958650034, 17.899440325372556 ], [ 77.552815362176204, 17.899584303973128 ], [ 77.552107476721787, 17.89988709806115 ], [ 77.551237073906933, 17.90019231340521 ], [ 77.551012607858823, 17.900271025508587 ], [ 77.550875695135204, 17.900319035152702 ], [ 77.550470680146617, 17.900653737579123 ], [ 77.550463525590288, 17.900659650306629 ], [ 77.550432061009616, 17.900685653277808 ], [ 77.550335808140019, 17.900765195685786 ], [ 77.550214608333334, 17.900865354125642 ], [ 77.550410404362751, 17.901079486772431 ], [ 77.550584896587893, 17.901270321667614 ], [ 77.551153452061854, 17.900692280952736 ], [ 77.551797534457307, 17.900471600289279 ], [ 77.551996876669449, 17.900403305801877 ], [ 77.553778430398722, 17.899617333008468 ], [ 77.554065837219383, 17.899490534977954 ], [ 77.554084713689036, 17.899474973357492 ], [ 77.554098213264197, 17.899431599172619 ] ] ] ] } },
{ "type": "Feature", "properties": { "OBJECTID": 1196, "KGISVillageID": 2439, "KGISVillageCode": "0504010030", "KGISVillageName": "Seri Huseni", "KGISHobliID": 127, "UniqueVillageCode": "0504010030_1", "Bhucode": "050401005029", "CensusVillageCode": "2955805457803060", "BhoomiVillageCode": "0504010030", "created_user": "SA", "created_date": 1556019584000.0, "last_edited_user": "SURESHBV2", "last_edited_date": 1724225587000.0, "LGDGPCode": " ", "LGDGPCode_Secondary": null, "Category": "Cadastral data available and has bhoomi linkage", "SHAPE.STArea()": 302817.49972313503, "SHAPE.STLength()": 2269.7300455847985, "LGD_VillageCode": 938370.0, "_overlap_percent": 1.2143599168291623, "_police_station": "Mangalapet Market PS", "_police_feature_index": "255", "_admin_layer": "Village", "_geometry_clipped": true }, "geometry": { "type": "Polygon", "coordinates": [ [ [ 77.537854735974648, 17.860211615223633 ], [ 77.537888421517906, 17.86014292007037 ], [ 77.537918141631295, 17.860143615153966 ], [ 77.537967561688831, 17.859919888658922 ], [ 77.538128867224714, 17.859273338082883 ], [ 77.538240375902632, 17.858826385759279 ], [ 77.538428332170994, 17.858073003794164 ], [ 77.538444864925737, 17.858001790851226 ], [ 77.538322299280125, 17.857945927082106 ], [ 77.538287890392326, 17.857942707334775 ], [ 77.538202633557816, 17.857934514278075 ], [ 77.538200263860247, 17.857952988883287 ], [ 77.538195611484582, 17.857989263147743 ], [ 77.538288501060734, 17.858003329804774 ], [ 77.537818240287876, 17.860067930025657 ], [ 77.537767048616274, 17.860192312028005 ], [ 77.537747943849567, 17.860308855141323 ], [ 77.537812327666472, 17.860313332660869 ], [ 77.537854735974648, 17.860211615223633 ] ] ] } },
{ "type": "Feature", "properties": { "OBJECTID": 1139, "KGISVillageID": 2381, "KGISVillageCode": "0504020005", "KGISVillageName": "Halladhakeri.K", "KGISHobliID": 131, "UniqueVillageCode": "0504020005_2", "Bhucode": "050401002014", "CensusVillageCode": "2955805457803060", "BhoomiVillageCode": "0504020005", "created_user": "SURESHBV1", "created_date": 1692267586000.0, "last_edited_user": "SURESHBV2", "last_edited_date": 1769499876000.0, "LGDGPCode": "", "LGDGPCode_Secondary": null, "Category": "Cadastral data available and has bhoomi linkage", "SHAPE.STArea()": 9823383.4680709653, "SHAPE.STLength()": 22502.175360357462, "LGD_VillageCode": 938362.0, "_overlap_percent": 55.819787109934872, "_police_station": "Mangalapet Market PS", "_police_feature_index": "255", "_admin_layer": "Village", "_geometry_clipped": true }, "geometry": { "type": "MultiPolygon", "coordinates": [ [ [ [ 77.531667165275095, 17.903619361851256 ], [ 77.531719294059059, 17.903549850605952 ], [ 77.531730362270196, 17.90371322145208 ], [ 77.531731837700107, 17.903735016096903 ], [ 77.531753098351402, 17.903913959215554 ], [ 77.531785670615932, 17.904740397677465 ], [ 77.531787116064336, 17.90477708659671 ], [ 77.531991883428276, 17.904804798161933 ], [ 77.532146908420188, 17.904822025626345 ], [ 77.53239612212316, 17.904849719071738 ], [ 77.532585917264271, 17.905190632104578 ], [ 77.53267776940541, 17.905183695833149 ], [ 77.53273896688259, 17.905179413806376 ], [ 77.532899106048973, 17.905168209652004 ], [ 77.53305924517727, 17.905157005368164 ], [ 77.533136829631388, 17.905091622960192 ], [ 77.533382544606752, 17.905031995171509 ], [ 77.53373840202164, 17.904945637985875 ], [ 77.534157813878991, 17.904843856458708 ], [ 77.535070209474057, 17.904620921388553 ], [ 77.535151062890534, 17.905471833171092 ], [ 77.535330309676212, 17.905473692224177 ], [ 77.535328766230592, 17.905656323941294 ], [ 77.535328084165158, 17.905736994099417 ], [ 77.535327969085841, 17.905750661168476 ], [ 77.535327386318329, 17.905819672166153 ], [ 77.535326029901128, 17.905983742603198 ], [ 77.53618571035868, 17.905836171235745 ], [ 77.536518741974376, 17.906360605034454 ], [ 77.536718664297553, 17.906662010757881 ], [ 77.53680009852944, 17.906798965347349 ], [ 77.536822638238945, 17.906836871002838 ], [ 77.536899802641244, 17.906966644280427 ], [ 77.537008891711281, 17.907150106998582 ], [ 77.537067263690247, 17.907248274820226 ], [ 77.537067553387161, 17.907352289458803 ], [ 77.537068217621311, 17.90758928072162 ], [ 77.537317260318261, 17.907650086220503 ], [ 77.537790103487765, 17.90776322887595 ], [ 77.538035010454138, 17.90785342975677 ], [ 77.538388826966496, 17.907983741191373 ], [ 77.538403567037037, 17.908121931045319 ], [ 77.538405536614803, 17.908140401822195 ], [ 77.53842042051734, 17.908279944515744 ], [ 77.538151080265919, 17.908973893994489 ], [ 77.537410518328173, 17.90900404843023 ], [ 77.537326293032564, 17.909335617589889 ], [ 77.53700917646016, 17.909559189864279 ], [ 77.537098828961163, 17.909986219632678 ], [ 77.537273786237478, 17.910557600282328 ], [ 77.536901683262769, 17.910733932766416 ], [ 77.536848148860571, 17.910494597519136 ], [ 77.536624450171715, 17.910466214914646 ], [ 77.536565414716407, 17.910273504117985 ], [ 77.536331285124362, 17.910284426779086 ], [ 77.535442631851964, 17.910574169794305 ], [ 77.535573115400254, 17.910983363011482 ], [ 77.535729485305424, 17.91112239259385 ], [ 77.535883910107614, 17.911259693467983 ], [ 77.535906212829289, 17.911252129581019 ], [ 77.536025142756614, 17.911211813730496 ], [ 77.536892285598, 17.910916898806267 ], [ 77.536960917214486, 17.910893556647494 ], [ 77.536976419457531, 17.910888284140491 ], [ 77.537770706883336, 17.910617127742764 ], [ 77.537923001923204, 17.910565037309475 ], [ 77.53839051482656, 17.910404936372075 ], [ 77.538403538864742, 17.910400471007293 ], [ 77.538550336006736, 17.910350144380974 ], [ 77.53855038158116, 17.910350098628676 ], [ 77.538587246447733, 17.910337452929159 ], [ 77.538849607582506, 17.910247456877649 ], [ 77.53957880292198, 17.909942831026772 ], [ 77.540235833610154, 17.909668349442757 ], [ 77.540569159826845, 17.908836361399199 ], [ 77.540571950138755, 17.908829396908978 ], [ 77.540857237264092, 17.908093263968109 ], [ 77.541028100044599, 17.907897668080818 ], [ 77.541131242783678, 17.907779594261434 ], [ 77.541189229076537, 17.907713214031816 ], [ 77.541244102058485, 17.907650397641017 ], [ 77.541290096530744, 17.907597744747971 ], [ 77.541317397942862, 17.907567252744521 ], [ 77.541897799381857, 17.906919017184311 ], [ 77.542337341097678, 17.906428099844671 ], [ 77.542337953391723, 17.906427640268852 ], [ 77.542339166764549, 17.906426728488984 ], [ 77.5423835114036, 17.906393444167776 ], [ 77.542513182218968, 17.90629611153933 ], [ 77.542672027323391, 17.906176881838398 ], [ 77.542799505331772, 17.906081195250088 ], [ 77.543290082430175, 17.905716680826657 ], [ 77.543536921631542, 17.905533271313168 ], [ 77.543683903067034, 17.90542405930621 ], [ 77.543712356913346, 17.90540291759508 ], [ 77.543725236504457, 17.905406415948296 ], [ 77.544183229498515, 17.905530826256918 ], [ 77.544648983921263, 17.90565734387728 ], [ 77.544709899693814, 17.90626649054277 ], [ 77.544741035342668, 17.906577849783925 ], [ 77.544764259509037, 17.90681008288545 ], [ 77.545140865647497, 17.906486024223078 ], [ 77.546012736692347, 17.905125902904096 ], [ 77.547433174399572, 17.902909949510633 ], [ 77.548702753832103, 17.902030981681314 ], [ 77.54888177101455, 17.901962534558084 ], [ 77.549150163831158, 17.901859920877193 ], [ 77.54976010864101, 17.901626707221087 ], [ 77.550515300212666, 17.901337958042465 ], [ 77.550522195619621, 17.901334068679446 ], [ 77.550584896587893, 17.901270321667614 ], [ 77.550410404362751, 17.901079486772431 ], [ 77.550214608333334, 17.900865354125642 ], [ 77.550335808140019, 17.900765195685786 ], [ 77.550432061009616, 17.900685653277808 ], [ 77.550463525590288, 17.900659650306629 ], [ 77.550470680146617, 17.900653737579123 ], [ 77.550875695135204, 17.900319035152702 ], [ 77.551012607858823, 17.900271025508587 ], [ 77.551237073906933, 17.90019231340521 ], [ 77.552107476721787, 17.89988709806115 ], [ 77.552815362176204, 17.899584303973128 ], [ 77.553151958650034, 17.899440325372556 ], [ 77.553317104054798, 17.899369684994639 ], [ 77.553486857496225, 17.899297072071921 ], [ 77.554081991426742, 17.899042502682192 ], [ 77.554240404222355, 17.89897474157522 ], [ 77.554299157712236, 17.898947855143213 ], [ 77.554569745651378, 17.898824025553104 ], [ 77.554630738871055, 17.898796113465053 ], [ 77.554685942197992, 17.898770850418739 ], [ 77.554886926617115, 17.898678872180561 ], [ 77.55518761654767, 17.898541265675593 ], [ 77.555262230357812, 17.898504237419267 ], [ 77.555415306570509, 17.898378042533967 ], [ 77.555435643195509, 17.898270432826838 ], [ 77.555642574327109, 17.897175515638715 ], [ 77.555632915428404, 17.897156388178921 ], [ 77.555458373203763, 17.896810747555769 ], [ 77.555299516751688, 17.89643670651563 ], [ 77.555235584545784, 17.896287151013254 ], [ 77.554647344728593, 17.895379213775705 ], [ 77.554626786998028, 17.894998816356789 ], [ 77.554618453223569, 17.894844616404864 ], [ 77.554531371596994, 17.89475907948162 ], [ 77.554341652787258, 17.894664386913394 ], [ 77.554348036307488, 17.894578996297597 ], [ 77.554240471540609, 17.894473339575629 ], [ 77.553922055088449, 17.89447263028428 ], [ 77.553813676501562, 17.894472389710351 ], [ 77.553792328300673, 17.894301474988396 ], [ 77.553784269761422, 17.894236959200068 ], [ 77.55372355960688, 17.894210745543013 ], [ 77.553249751927211, 17.894006160434607 ], [ 77.553209286492688, 17.893988688049497 ], [ 77.552721336559415, 17.893772263507746 ], [ 77.552267386441599, 17.893570919483881 ], [ 77.552272947399203, 17.893472220785622 ], [ 77.552283491623868, 17.893285082524514 ], [ 77.552313414768619, 17.892753979717806 ], [ 77.552314531543331, 17.892741247032756 ], [ 77.552314658002373, 17.892739800347851 ], [ 77.552366014369767, 17.892153955240492 ], [ 77.552366342764827, 17.892150205605788 ], [ 77.552447812947676, 17.891220824160808 ], [ 77.55249439409215, 17.890689439691066 ], [ 77.552379948321786, 17.890659562438085 ], [ 77.551866669928543, 17.890158782688605 ], [ 77.551658357695302, 17.889955540836109 ], [ 77.551516733850221, 17.889834013414234 ], [ 77.551321177109003, 17.889646527231186 ], [ 77.551125783351011, 17.889459195812673 ], [ 77.550955996402109, 17.888938827085838 ], [ 77.550950828241653, 17.888922988654951 ], [ 77.550695700784175, 17.888141060424005 ], [ 77.550666985587767, 17.888053050541838 ], [ 77.550106933731769, 17.886336557308894 ], [ 77.549672487088046, 17.886769693901698 ], [ 77.549308328973225, 17.887132752092661 ], [ 77.548592309278547, 17.886137682379054 ], [ 77.54824273900654, 17.885651873679901 ], [ 77.54816906661938, 17.884846520244437 ], [ 77.548365367664218, 17.884416495691674 ], [ 77.54849704705795, 17.884130102114877 ], [ 77.548487681823232, 17.884127276818337 ], [ 77.548511196772182, 17.883904465867708 ], [ 77.548585801914314, 17.883324162004119 ], [ 77.548625480235572, 17.883015529542931 ], [ 77.548641367263997, 17.882891380389719 ], [ 77.54871671493197, 17.881811912363847 ], [ 77.548724668789546, 17.881698032827902 ], [ 77.548757218545632, 17.879856375849311 ], [ 77.549193150420535, 17.878220959107452 ], [ 77.549482585285347, 17.877106525487591 ], [ 77.55004252281887, 17.874929203385499 ], [ 77.550084136858359, 17.874768751553425 ], [ 77.550115875238603, 17.87464659135135 ], [ 77.549921274913586, 17.872224118803469 ], [ 77.549752702392865, 17.870044391266909 ], [ 77.549724353552492, 17.870005393222446 ], [ 77.549633714314083, 17.869880744924082 ], [ 77.549427041643924, 17.869870615291724 ], [ 77.54901407324013, 17.869811657878621 ], [ 77.548744221164256, 17.869773131777144 ], [ 77.548784363019436, 17.869123486299085 ], [ 77.548785582808875, 17.869103735713345 ], [ 77.548791027038433, 17.869015616854291 ], [ 77.548835824763145, 17.868310786984395 ], [ 77.548890816974307, 17.868058956251449 ], [ 77.548934206924045, 17.867860260295494 ], [ 77.548944488683603, 17.867658551874204 ], [ 77.548961469179886, 17.867325423128957 ], [ 77.54897253283977, 17.867108374485937 ], [ 77.548998250638718, 17.866603846298542 ], [ 77.549003800479269, 17.866494963642033 ], [ 77.549058226387217, 17.865427212438629 ], [ 77.549075204923867, 17.865094134272297 ], [ 77.54910136364856, 17.864580962602414 ], [ 77.549090749806524, 17.864523976548092 ], [ 77.549076488785118, 17.864447411028912 ], [ 77.549024228055046, 17.864254273102524 ], [ 77.548923212526887, 17.863880951193721 ], [ 77.548849169870039, 17.863580160340753 ], [ 77.548736243811362, 17.863121401928368 ], [ 77.548694833424804, 17.862953174301193 ], [ 77.548658302650111, 17.862804773741775 ], [ 77.548633631056092, 17.862812892273038 ], [ 77.548588657641645, 17.862827692187349 ], [ 77.548533750622525, 17.862845761301951 ], [ 77.548490608705748, 17.8628599628491 ], [ 77.548443346866506, 17.862716302246483 ], [ 77.548331312716741, 17.862745759022715 ], [ 77.547683911721975, 17.862915982255121 ], [ 77.547581559962595, 17.862942893452395 ], [ 77.546628223253094, 17.86324209984684 ], [ 77.546412750659783, 17.863283046583835 ], [ 77.545279113946108, 17.863498468880874 ], [ 77.544878542775933, 17.863596998799505 ], [ 77.543862239812967, 17.863911754890495 ], [ 77.543201850571378, 17.864116281711155 ], [ 77.543050026976459, 17.863944670266751 ], [ 77.541084093372802, 17.878664837618722 ], [ 77.539286712034382, 17.88633459236371 ], [ 77.543995407387186, 17.887528194008436 ], [ 77.540437406551973, 17.889195827679224 ], [ 77.539473702109788, 17.8946954570402 ], [ 77.538129384914129, 17.896334169726998 ], [ 77.531655961929545, 17.903610304392849 ], [ 77.531667165275095, 17.903619361851256 ] ] ], [ [ [ 77.538520254828484, 17.860164161103928 ], [ 77.537918141631295, 17.860143615153966 ], [ 77.537888421517906, 17.86014292007037 ], [ 77.537854735974648, 17.860211615223633 ], [ 77.537812327666472, 17.860313332660869 ], [ 77.537818916994894, 17.86031379091029 ], [ 77.538095863193135, 17.860284154897155 ], [ 77.539130083254591, 17.860184966743972 ], [ 77.538520254828484, 17.860164161103928 ] ] ], [ [ [ 77.541902008633372, 17.862175926342942 ], [ 77.54190125086528, 17.862172977504887 ], [ 77.541900128605107, 17.862168604636508 ], [ 77.541893688786985, 17.862143525046395 ], [ 77.541870389531852, 17.862052779603658 ], [ 77.541840929570057, 17.861942518841005 ], [ 77.541825046021842, 17.861883067474501 ], [ 77.54181711274282, 17.86185337509599 ], [ 77.541791051984802, 17.861770116627781 ], [ 77.541312976132417, 17.860242720854814 ], [ 77.541272708578134, 17.860241389782555 ], [ 77.541244102399702, 17.860240443716457 ], [ 77.541292380922826, 17.860407642672197 ], [ 77.541737770010371, 17.861950078511732 ], [ 77.541907760112139, 17.862198326692631 ], [ 77.541902008633372, 17.862175926342942 ] ] ] ] } },
{ "type": "Feature", "properties": { "OBJECTID": 1141, "KGISVillageID": 2383, "KGISVillageCode": "0504020018", "KGISVillageName": "Jungle Koyi", "KGISHobliID": 131, "UniqueVillageCode": "0504020018_1", "Bhucode": "050401002016", "CensusVillageCode": "2955805457803060", "BhoomiVillageCode": "0504020018", "created_user": "SA", "created_date": 1556019584000.0, "last_edited_user": "SURESHBV2", "last_edited_date": 1724225586000.0, "LGDGPCode": " ", "LGDGPCode_Secondary": null, "Category": "Cadastral data available and has bhoomi linkage", "SHAPE.STArea()": 1558131.0659132099, "SHAPE.STLength()": 8531.5100087094343, "LGD_VillageCode": 938363.0, "_overlap_percent": 10.314695849804471, "_police_station": "Mangalapet Market PS", "_police_feature_index": "255", "_admin_layer": "Village", "_geometry_clipped": true }, "geometry": { "type": "Polygon", "coordinates": [ [ [ 77.521161939008991, 17.911554530983985 ], [ 77.521197408026921, 17.911577327475889 ], [ 77.521218035386752, 17.911590585749902 ], [ 77.521323369984486, 17.911658450789464 ], [ 77.521229268075331, 17.911792164075514 ], [ 77.521109718741045, 17.911962037319938 ], [ 77.521025671151833, 17.912081462287354 ], [ 77.520789324669209, 17.912422828366317 ], [ 77.520649997058257, 17.912624065273913 ], [ 77.520645904204741, 17.9126258424551 ], [ 77.520264219890294, 17.912791558046088 ], [ 77.520179291661876, 17.912828224197824 ], [ 77.520007438766342, 17.91290241950097 ], [ 77.520005168247764, 17.913087652431855 ], [ 77.520002222874666, 17.913327837757652 ], [ 77.520025119084139, 17.91334675212445 ], [ 77.520095923032329, 17.913405240691276 ], [ 77.520531590755922, 17.913224302769976 ], [ 77.520519816066852, 17.91326079486862 ], [ 77.520604303630904, 17.91332957166733 ], [ 77.520714896215893, 17.913520788054246 ], [ 77.520843263776129, 17.913742736885823 ], [ 77.520865972481957, 17.913781999911986 ], [ 77.520898456354274, 17.913838165252177 ], [ 77.520961666494472, 17.913974165177379 ], [ 77.521050892068899, 17.913955221592083 ], [ 77.521107627670958, 17.913943175758504 ], [ 77.521146507997486, 17.913934920757935 ], [ 77.521329576887197, 17.91389608841672 ], [ 77.521618378519122, 17.913590249895126 ], [ 77.522054176103808, 17.91312874114379 ], [ 77.522055107947978, 17.913127657010207 ], [ 77.523336989275236, 17.911635931069981 ], [ 77.524097851321571, 17.910880307339102 ], [ 77.524698916616671, 17.910264490675946 ], [ 77.525159745733021, 17.909919407158572 ], [ 77.525630081509732, 17.909567202537161 ], [ 77.525764562429472, 17.909466498285447 ], [ 77.526715164281839, 17.908848709234672 ], [ 77.526862318220196, 17.908677911126258 ], [ 77.526903818940781, 17.908629742273561 ], [ 77.527183410756606, 17.90830583469252 ], [ 77.527370687114527, 17.908088874954416 ], [ 77.527721272177871, 17.907874269800054 ], [ 77.527791553788376, 17.907831201698954 ], [ 77.528148170638246, 17.907612667347049 ], [ 77.528826563414739, 17.907283044138843 ], [ 77.52899335055335, 17.907082544620998 ], [ 77.529005210328904, 17.907084246322004 ], [ 77.529037456523909, 17.90704638780608 ], [ 77.528880814249518, 17.907022292519933 ], [ 77.52924918325256, 17.906662438923835 ], [ 77.529028963335577, 17.906470472068811 ], [ 77.529010876570027, 17.906429941560649 ], [ 77.528958425133084, 17.906312432240924 ], [ 77.528951482899771, 17.906297271837701 ], [ 77.52892302511296, 17.906235152584884 ], [ 77.528806366407792, 17.905777541162603 ], [ 77.528759985311595, 17.905777835830005 ], [ 77.52829099512654, 17.905899813886137 ], [ 77.526782534620153, 17.906743338037657 ], [ 77.52500162706923, 17.908606564207123 ], [ 77.524300513059529, 17.909741696794377 ], [ 77.523192389805644, 17.910497609552802 ], [ 77.522454413040393, 17.911056467544714 ], [ 77.521116802445363, 17.911525539983685 ], [ 77.521161939008991, 17.911554530983985 ] ] ] } },
{ "type": "Feature", "properties": { "OBJECTID": 25658, "KGISVillageID": 35002, "KGISVillageCode": "0504020021", "KGISVillageName": "Baga-Karidi", "KGISHobliID": 131, "UniqueVillageCode": "0504020021_2", "Bhucode": "050401002005", "CensusVillageCode": "2955805457803060", "BhoomiVillageCode": "0504020021", "created_user": "SA", "created_date": 1568353612000.0, "last_edited_user": "SURESHBV2", "last_edited_date": 1724226193000.0, "LGDGPCode": " ", "LGDGPCode_Secondary": null, "Category": "Cadastral data available and has bhoomi linkage", "SHAPE.STArea()": 9415.6480632849998, "SHAPE.STLength()": 478.60296649120573, "LGD_VillageCode": 938357.0, "_overlap_percent": 2.6962493199925768, "_police_station": "Mangalapet Market PS", "_police_feature_index": "255", "_admin_layer": "Village", "_geometry_clipped": true }, "geometry": { "type": "Polygon", "coordinates": [ [ [ 77.530478000173588, 17.904966156894211 ], [ 77.530684027625071, 17.904794106680022 ], [ 77.530682203700422, 17.904668511432792 ], [ 77.530457268451968, 17.904912823418663 ], [ 77.530478000173588, 17.904966156894211 ] ] ] } },
{ "type": "Feature", "properties": { "OBJECTID": 1145, "KGISVillageID": 2387, "KGISVillageCode": "0504020020", "KGISVillageName": "Mahalathe Gyrabi", "KGISHobliID": 131, "UniqueVillageCode": "0504020020_1", "Bhucode": "050401002019", "CensusVillageCode": "2955805457803060", "BhoomiVillageCode": "0504020020", "created_user": "SA", "created_date": 1556019584000.0, "last_edited_user": "SURESHBV2", "last_edited_date": 1724225587000.0, "LGDGPCode": " ", "LGDGPCode_Secondary": null, "Category": "Cadastral data available and has bhoomi linkage", "SHAPE.STArea()": 239913.152482465, "SHAPE.STLength()": 2944.0264217250769, "LGD_VillageCode": 938366.0, "_overlap_percent": 68.843468312269223, "_police_station": "Mangalapet Market PS", "_police_feature_index": "255", "_admin_layer": "Village", "_geometry_clipped": true }, "geometry": { "type": "Polygon", "coordinates": [ [ [ 77.52892302511296, 17.906235152584884 ], [ 77.528951482899771, 17.906297271837701 ], [ 77.528958425133084, 17.906312432240924 ], [ 77.529010876570027, 17.906429941560649 ], [ 77.529028963335577, 17.906470472068811 ], [ 77.52924918325256, 17.906662438923835 ], [ 77.528880814249518, 17.907022292519933 ], [ 77.529037456523909, 17.90704638780608 ], [ 77.529187651698436, 17.907069412559547 ], [ 77.529860176853873, 17.907172510628353 ], [ 77.530221709245026, 17.907227706178457 ], [ 77.530388944827948, 17.907545171040574 ], [ 77.530972507513567, 17.907573171795708 ], [ 77.530974093825321, 17.907539051718256 ], [ 77.531442068105164, 17.907321569045571 ], [ 77.531486412044259, 17.907308385729348 ], [ 77.531553937571886, 17.907288294138016 ], [ 77.532093496593333, 17.907214622954484 ], [ 77.532184867366865, 17.907202146807506 ], [ 77.532239573077135, 17.907194465009614 ], [ 77.53253780352631, 17.907166927846522 ], [ 77.532785587544723, 17.907117790744234 ], [ 77.53293352300679, 17.907075840326044 ], [ 77.533024207402335, 17.907050125307698 ], [ 77.534302077398138, 17.906922949925608 ], [ 77.534465842433164, 17.906923301658544 ], [ 77.534465978279329, 17.906923301694825 ], [ 77.534466099977521, 17.906923301915434 ], [ 77.53500517345573, 17.906908531789671 ], [ 77.53532150520887, 17.906920557281321 ], [ 77.535318592911622, 17.906884130545023 ], [ 77.535318919691761, 17.906843890034349 ], [ 77.535321923951201, 17.906480463810794 ], [ 77.535326029901128, 17.905983742603198 ], [ 77.535327386318329, 17.905819672166153 ], [ 77.535327969085841, 17.905750661168476 ], [ 77.535328084165158, 17.905736994099417 ], [ 77.535328766230592, 17.905656323941294 ], [ 77.535330309676212, 17.905473692224177 ], [ 77.535151062890534, 17.905471833171092 ], [ 77.535070209474057, 17.904620921388553 ], [ 77.534157813878991, 17.904843856458708 ], [ 77.53373840202164, 17.904945637985875 ], [ 77.533382544606752, 17.905031995171509 ], [ 77.533136829631388, 17.905091622960192 ], [ 77.53305924517727, 17.905157005368164 ], [ 77.532899106048973, 17.905168209652004 ], [ 77.53273896688259, 17.905179413806376 ], [ 77.53267776940541, 17.905183695833149 ], [ 77.532585917264271, 17.905190632104578 ], [ 77.53239612212316, 17.904849719071738 ], [ 77.532146908420188, 17.904822025626345 ], [ 77.531991883428276, 17.904804798161933 ], [ 77.531787116064336, 17.90477708659671 ], [ 77.531785670615932, 17.904740397677465 ], [ 77.531753098351402, 17.903913959215554 ], [ 77.531731837700107, 17.903735016096903 ], [ 77.531730362270196, 17.90371322145208 ], [ 77.531719294059059, 17.903549850605952 ], [ 77.531667165275095, 17.903619361851256 ], [ 77.531655961929545, 17.903610304392849 ], [ 77.531641017772316, 17.903627101642275 ], [ 77.530682203700422, 17.904668511432792 ], [ 77.530684027625071, 17.904794106680022 ], [ 77.530478000173588, 17.904966156894211 ], [ 77.530457268451968, 17.904912823418663 ], [ 77.529666161925718, 17.905772078727832 ], [ 77.528806366407792, 17.905777541162603 ], [ 77.52892302511296, 17.906235152584884 ] ] ] } },
{ "type": "Feature", "properties": { "OBJECTID": 25660, "KGISVillageID": 35010, "KGISVillageCode": "0504010034", "KGISVillageName": "Killaraka", "KGISHobliID": 2010, "UniqueVillageCode": "0504010034_2", "Bhucode": "050401005023", "CensusVillageCode": "2955805457803060", "BhoomiVillageCode": "0504010034", "created_user": "SA", "created_date": 1568617301000.0, "last_edited_user": "SURESHBV2", "last_edited_date": 1724226193000.0, "LGDGPCode": " ", "LGDGPCode_Secondary": null, "Category": "Cadastral data available and has bhoomi linkage", "SHAPE.STArea()": 114807.339310575, "SHAPE.STLength()": 2147.7307434661548, "LGD_VillageCode": 938364.0, "_overlap_percent": 100.0, "_police_station": "Mangalapet Market PS", "_police_feature_index": "255", "_admin_layer": "Village", "_geometry_clipped": true }, "geometry": { "type": "Polygon", "coordinates": [ [ [ 77.536565414716407, 17.910273504117985 ], [ 77.536624450171715, 17.910466214914646 ], [ 77.536848148860571, 17.910494597519136 ], [ 77.536901683262769, 17.910733932766416 ], [ 77.537273786237478, 17.910557600282328 ], [ 77.537098828961163, 17.909986219632678 ], [ 77.53700917646016, 17.909559189864279 ], [ 77.537326293032564, 17.909335617589889 ], [ 77.537410518328173, 17.90900404843023 ], [ 77.538151080265919, 17.908973893994489 ], [ 77.53842042051734, 17.908279944515744 ], [ 77.538405536614803, 17.908140401822195 ], [ 77.538403567037037, 17.908121931045319 ], [ 77.538388826966496, 17.907983741191373 ], [ 77.538035010454138, 17.90785342975677 ], [ 77.537790103487765, 17.90776322887595 ], [ 77.537317260318261, 17.907650086220503 ], [ 77.537068217621311, 17.90758928072162 ], [ 77.537067553387161, 17.907352289458803 ], [ 77.537067263690247, 17.907248274820226 ], [ 77.537008891711281, 17.907150106998582 ], [ 77.536899802641244, 17.906966644280427 ], [ 77.536822638238945, 17.906836871002838 ], [ 77.53680009852944, 17.906798965347349 ], [ 77.536718664297553, 17.906662010757881 ], [ 77.536518741974376, 17.906360605034454 ], [ 77.53618571035868, 17.905836171235745 ], [ 77.535326029901128, 17.905983742603198 ], [ 77.535321923951201, 17.906480463810794 ], [ 77.535318919691761, 17.906843890034349 ], [ 77.535318592911622, 17.906884130545023 ], [ 77.53532150520887, 17.906920557281321 ], [ 77.535322094379836, 17.906927956338009 ], [ 77.535319527939095, 17.906950079943595 ], [ 77.53528123877409, 17.907280602788965 ], [ 77.535681513113644, 17.907245974073604 ], [ 77.535819849030801, 17.907233944288826 ], [ 77.536174718846681, 17.907202988051928 ], [ 77.536402885675713, 17.90718308428994 ], [ 77.536663958985002, 17.907160186184722 ], [ 77.536759501157292, 17.907151783624467 ], [ 77.536854332888765, 17.90714344266646 ], [ 77.536788791449439, 17.907398310054084 ], [ 77.53669393151506, 17.907767399084062 ], [ 77.536655356761017, 17.907917490815109 ], [ 77.536608892476622, 17.908098277818883 ], [ 77.535371882035761, 17.908173186938487 ], [ 77.535228265406772, 17.908181779289688 ], [ 77.534697120421029, 17.908213357735288 ], [ 77.534549472396847, 17.908222068056968 ], [ 77.534386675054293, 17.908231671994862 ], [ 77.534464853487734, 17.908961203787854 ], [ 77.534466846258738, 17.90910912654515 ], [ 77.534479008400041, 17.910011684274767 ], [ 77.534631689136049, 17.910147281376524 ], [ 77.535573115400254, 17.910983363011482 ], [ 77.535442631851964, 17.910574169794305 ], [ 77.536331285124362, 17.910284426779086 ], [ 77.536565414716407, 17.910273504117985 ] ] ] } },
{ "type": "Feature", "properties": { "OBJECTID": 25651, "KGISVillageID": 34094, "KGISVillageCode": "0504020014", "KGISVillageName": "Brahmapura", "KGISHobliID": 131, "UniqueVillageCode": "0504020014_1", "Bhucode": "050401002009", "CensusVillageCode": "2955805457803060", "BhoomiVillageCode": "0504020014", "created_user": "SA", "created_date": 1567071248000.0, "last_edited_user": "SURESHBV2", "last_edited_date": 1724226193000.0, "LGDGPCode": " ", "LGDGPCode_Secondary": null, "Category": "Cadastral data available and has bhoomi linkage", "SHAPE.STArea()": 347179.22848260502, "SHAPE.STLength()": 3218.6089230682387, "LGD_VillageCode": 938358.0, "_overlap_percent": 4.3838724915759508, "_police_station": "Mangalapet Market PS", "_police_feature_index": "255", "_admin_layer": "Village", "_geometry_clipped": true }, "geometry": { "type": "Polygon", "coordinates": [ [ [ 77.519653416245916, 17.911614484591215 ], [ 77.51972249405155, 17.911816461637365 ], [ 77.519767852650602, 17.911929005406218 ], [ 77.519937842561731, 17.912350777950554 ], [ 77.519981182283772, 17.912436478825757 ], [ 77.520130237115822, 17.912731222170688 ], [ 77.520179291661876, 17.912828224197824 ], [ 77.520264219890294, 17.912791558046088 ], [ 77.520645904204741, 17.9126258424551 ], [ 77.520649997058257, 17.912624065273913 ], [ 77.520789324669209, 17.912422828366317 ], [ 77.521025671151833, 17.912081462287354 ], [ 77.521109718741045, 17.911962037319938 ], [ 77.521229268075331, 17.911792164075514 ], [ 77.521323369984486, 17.911658450789464 ], [ 77.521218035386752, 17.911590585749902 ], [ 77.521197408026921, 17.911577327475889 ], [ 77.521161939008991, 17.911554530983985 ], [ 77.521116802445363, 17.911525539983685 ], [ 77.521066371601592, 17.911543225040141 ], [ 77.52003601336969, 17.911612998886046 ], [ 77.519944094818143, 17.911613154956417 ], [ 77.519937750455128, 17.911495852721384 ], [ 77.519626278414279, 17.911535136377982 ], [ 77.519653416245916, 17.911614484591215 ] ] ] } },
{ "type": "Feature", "properties": { "OBJECTID": 1130, "KGISVillageID": 2370, "KGISVillageCode": "0504020015", "KGISVillageName": "Bagahamama", "KGISHobliID": 131, "UniqueVillageCode": "0504020015_1", "Bhucode": "050401002007", "CensusVillageCode": "2955805457803060", "BhoomiVillageCode": "0504020015", "created_user": "SA", "created_date": 1556019584000.0, "last_edited_user": "SURESHBV2", "last_edited_date": 1724225585000.0, "LGDGPCode": " ", "LGDGPCode_Secondary": null, "Category": "Cadastral data available and has bhoomi linkage", "SHAPE.STArea()": 280735.05960817001, "SHAPE.STLength()": 3645.8779503348619, "LGD_VillageCode": 938354.0, "_overlap_percent": 99.593957605561073, "_police_station": "Mangalapet Market PS", "_police_feature_index": "255", "_admin_layer": "Village", "_geometry_clipped": true }, "geometry": { "type": "Polygon", "coordinates": [ [ [ 77.534652229744978, 17.910548002554222 ], [ 77.535133294633823, 17.911582730228336 ], [ 77.535176877100824, 17.911676471720682 ], [ 77.535347731283821, 17.912043959608315 ], [ 77.535372267805954, 17.912425322611558 ], [ 77.535936192169203, 17.913277460757467 ], [ 77.536832503991221, 17.913136669021423 ], [ 77.539206534568507, 17.913014601899942 ], [ 77.539499774943238, 17.912999521827146 ], [ 77.539499655831719, 17.912989819292552 ], [ 77.539786226835005, 17.912892344383273 ], [ 77.53979462908184, 17.912809618335103 ], [ 77.539813568093052, 17.912798281974027 ], [ 77.539811755748104, 17.912609776501224 ], [ 77.540126310851264, 17.912611082928024 ], [ 77.540129168233165, 17.912609372579329 ], [ 77.540235833610154, 17.909668349442757 ], [ 77.53957880292198, 17.909942831026772 ], [ 77.538849607582506, 17.910247456877649 ], [ 77.538587246447733, 17.910337452929159 ], [ 77.53855038158116, 17.910350098628676 ], [ 77.538550336006736, 17.910350144380974 ], [ 77.538403538864742, 17.910400471007293 ], [ 77.53839051482656, 17.910404936372075 ], [ 77.537923001923204, 17.910565037309475 ], [ 77.537770706883336, 17.910617127742764 ], [ 77.536976419457531, 17.910888284140491 ], [ 77.536960917214486, 17.910893556647494 ], [ 77.536892285598, 17.910916898806267 ], [ 77.536025142756614, 17.911211813730496 ], [ 77.535906212829289, 17.911252129581019 ], [ 77.535883910107614, 17.911259693467983 ], [ 77.535729485305424, 17.91112239259385 ], [ 77.535573115400254, 17.910983363011482 ], [ 77.534631689136049, 17.910147281376524 ], [ 77.534479008400041, 17.910011684274767 ], [ 77.534466846258738, 17.90910912654515 ], [ 77.534464853487734, 17.908961203787854 ], [ 77.534386675054293, 17.908231671994862 ], [ 77.534549472396847, 17.908222068056968 ], [ 77.534697120421029, 17.908213357735288 ], [ 77.535228265406772, 17.908181779289688 ], [ 77.535371882035761, 17.908173186938487 ], [ 77.536608892476622, 17.908098277818883 ], [ 77.536655356761017, 17.907917490815109 ], [ 77.53669393151506, 17.907767399084062 ], [ 77.536788791449439, 17.907398310054084 ], [ 77.536854332888765, 17.90714344266646 ], [ 77.536759501157292, 17.907151783624467 ], [ 77.536663958985002, 17.907160186184722 ], [ 77.536402885675713, 17.90718308428994 ], [ 77.536174718846681, 17.907202988051928 ], [ 77.535819849030801, 17.907233944288826 ], [ 77.535681513113644, 17.907245974073604 ], [ 77.53528123877409, 17.907280602788965 ], [ 77.535319527939095, 17.906950079943595 ], [ 77.535322094379836, 17.906927956338009 ], [ 77.53532150520887, 17.906920557281321 ], [ 77.53500517345573, 17.906908531789671 ], [ 77.534466099977521, 17.906923301915434 ], [ 77.534465978279329, 17.906923301694825 ], [ 77.534465842433164, 17.906923301658544 ], [ 77.534302077398138, 17.906922949925608 ], [ 77.533024207402335, 17.907050125307698 ], [ 77.53293352300679, 17.907075840326044 ], [ 77.532785587544723, 17.907117790744234 ], [ 77.53253780352631, 17.907166927846522 ], [ 77.532239573077135, 17.907194465009614 ], [ 77.532184867366865, 17.907202146807506 ], [ 77.532093496593333, 17.907214622954484 ], [ 77.531553937571886, 17.907288294138016 ], [ 77.531486412044259, 17.907308385729348 ], [ 77.531442068105164, 17.907321569045571 ], [ 77.530974093825321, 17.907539051718256 ], [ 77.530972507513567, 17.907573171795708 ], [ 77.531039269563379, 17.907613182471124 ], [ 77.53147424009093, 17.908073818655236 ], [ 77.531838618446272, 17.909483199114753 ], [ 77.531958966739325, 17.909721058022441 ], [ 77.532176597797289, 17.909867208602968 ], [ 77.532200378264832, 17.909883178298742 ], [ 77.532490752963767, 17.909960760569788 ], [ 77.532500735175304, 17.91002537753781 ], [ 77.533631222612669, 17.910379544042677 ], [ 77.534652229744978, 17.910548002554222 ] ] ] } },
{ "type": "Feature", "properties": { "OBJECTID": 25654, "KGISVillageID": 34097, "KGISVillageCode": "0504020016", "KGISVillageName": "Seri Champa", "KGISHobliID": 131, "UniqueVillageCode": "0504020016_2", "Bhucode": "050401002023", "CensusVillageCode": "2955805457803060", "BhoomiVillageCode": "0504020016", "created_user": "SA", "created_date": 1567074386000.0, "last_edited_user": "SURESHBV2", "last_edited_date": 1724226193000.0, "LGDGPCode": " ", "LGDGPCode_Secondary": null, "Category": "Cadastral data available and has bhoomi linkage", "SHAPE.STArea()": 235017.50088956999, "SHAPE.STLength()": 2995.745241470665, "LGD_VillageCode": 938369.0, "_overlap_percent": 44.747141332520265, "_police_station": "Mangalapet Market PS", "_police_feature_index": "255", "_admin_layer": "Village", "_geometry_clipped": true }, "geometry": { "type": "Polygon", "coordinates": [ [ [ 77.518415183446891, 17.914233796007967 ], [ 77.520519816066852, 17.91326079486862 ], [ 77.520531590755922, 17.913224302769976 ], [ 77.520095923032329, 17.913405240691276 ], [ 77.520025119084139, 17.91334675212445 ], [ 77.520002222874666, 17.913327837757652 ], [ 77.520005168247764, 17.913087652431855 ], [ 77.520007438766342, 17.91290241950097 ], [ 77.520179291661876, 17.912828224197824 ], [ 77.520130237115822, 17.912731222170688 ], [ 77.519981182283772, 17.912436478825757 ], [ 77.519937842561731, 17.912350777950554 ], [ 77.519767852650602, 17.911929005406218 ], [ 77.51972249405155, 17.911816461637365 ], [ 77.519653416245916, 17.911614484591215 ], [ 77.519626278414279, 17.911535136377982 ], [ 77.518994952709491, 17.91161476080309 ], [ 77.515711438088644, 17.911620278036423 ], [ 77.515709025739696, 17.91199928568648 ], [ 77.515786200416883, 17.912125732371628 ], [ 77.515809956829514, 17.912164656547461 ], [ 77.51588590556608, 17.912593805303697 ], [ 77.516900966475021, 17.912850670912981 ], [ 77.516928015540756, 17.912857515391078 ], [ 77.516986567216151, 17.913468499614414 ], [ 77.516679667729051, 17.91365408202682 ], [ 77.517071402849226, 17.914546830038748 ], [ 77.51707291477787, 17.914547220109675 ], [ 77.518415183446891, 17.914233796007967 ] ] ] } },
{ "type": "Feature", "properties": { "OBJECTID": 25652, "KGISVillageID": 34095, "KGISVillageCode": "0504010030", "KGISVillageName": "Seri Huseni", "KGISHobliID": 130, "UniqueVillageCode": "0504010030_5", "Bhucode": "050401005029", "CensusVillageCode": "2955805457803060", "BhoomiVillageCode": "0504010030", "created_user": "SA", "created_date": 1567074051000.0, "last_edited_user": "SURESHBV2", "last_edited_date": 1724226193000.0, "LGDGPCode": " ", "LGDGPCode_Secondary": null, "Category": "Cadastral data available and has bhoomi linkage", "SHAPE.STArea()": 24415.118587944999, "SHAPE.STLength()": 695.17589294245704, "LGD_VillageCode": 938370.0, "_overlap_percent": 100.00000000000004, "_police_station": "Mangalapet Market PS", "_police_feature_index": "255", "_admin_layer": "Village", "_geometry_clipped": true }, "geometry": { "type": "Polygon", "coordinates": [ [ [ 77.519802095085282, 17.914463893445433 ], [ 77.520111680885378, 17.91475097016038 ], [ 77.520769902393354, 17.914261537086094 ], [ 77.520961666494472, 17.913974165177379 ], [ 77.520898456354274, 17.913838165252177 ], [ 77.520865972481957, 17.913781999911986 ], [ 77.520843263776129, 17.913742736885823 ], [ 77.520714896215893, 17.913520788054246 ], [ 77.520604303630904, 17.91332957166733 ], [ 77.520519816066852, 17.91326079486862 ], [ 77.518415183446891, 17.914233796007967 ], [ 77.518488176476026, 17.914364876255785 ], [ 77.518891200490302, 17.914622513067737 ], [ 77.519066022030984, 17.914813162151543 ], [ 77.519253098932808, 17.914724393716128 ], [ 77.519802095085282, 17.914463893445433 ] ] ] } },
{ "type": "Feature", "properties": { "OBJECTID": 23907, "KGISVillageID": 30122, "KGISVillageCode": "0504020019", "KGISVillageName": "Baga Ibrahim", "KGISHobliID": 131, "UniqueVillageCode": "0504020019_1", "Bhucode": "050401002004", "CensusVillageCode": "2955805457803060", "BhoomiVillageCode": "0504020019", "created_user": "SA", "created_date": 1556019584000.0, "last_edited_user": "SURESHBV2", "last_edited_date": 1724226173000.0, "LGDGPCode": " ", "LGDGPCode_Secondary": null, "Category": "Cadastral data available and has bhoomi linkage", "SHAPE.STArea()": 218894.19764264501, "SHAPE.STLength()": 2718.0462785562372, "LGD_VillageCode": 938356.0, "_overlap_percent": 47.174564361828466, "_police_station": "Mangalapet Market PS", "_police_feature_index": "255", "_admin_layer": "Village", "_geometry_clipped": true }, "geometry": { "type": "Polygon", "coordinates": [ [ [ 77.536817034723441, 17.916331547021553 ], [ 77.537110773523693, 17.916404134950533 ], [ 77.538465317611596, 17.916238470023753 ], [ 77.538422736157884, 17.915635092768387 ], [ 77.538443220949873, 17.915639339481118 ], [ 77.538442855163993, 17.91563401275382 ], [ 77.539038014173201, 17.915762646369227 ], [ 77.539534960707272, 17.915865668610014 ], [ 77.539499774943238, 17.912999521827146 ], [ 77.539206534568507, 17.913014601899942 ], [ 77.536832503991221, 17.913136669021423 ], [ 77.535936192169203, 17.913277460757467 ], [ 77.536369551944489, 17.913932296217059 ], [ 77.536746443358084, 17.914502297271365 ], [ 77.536794549888867, 17.91457513630851 ], [ 77.537077328225692, 17.915004529246378 ], [ 77.53697302857212, 17.915060352725774 ], [ 77.536868896427876, 17.915116085462046 ], [ 77.536679951172019, 17.91521721147604 ], [ 77.536656449832108, 17.915500528838137 ], [ 77.536635279619162, 17.915755744110925 ], [ 77.536635266712565, 17.915755897814627 ], [ 77.537140373202831, 17.916084836079367 ], [ 77.537076602805357, 17.916124902644739 ], [ 77.536904064002414, 17.916235076481524 ], [ 77.536817034723441, 17.916331547021553 ] ] ] } },
{ "type": "Feature", "properties": { "OBJECTID": 23908, "KGISVillageID": 30123, "KGISVillageCode": "0504020017", "KGISVillageName": "Gullara Haveli", "KGISHobliID": 131, "UniqueVillageCode": "0504020017_1", "Bhucode": "050401002012", "CensusVillageCode": "2955805457803060", "BhoomiVillageCode": "0504020017", "created_user": "SA", "created_date": 1556019584000.0, "last_edited_user": "SURESHBV2", "last_edited_date": 1769499826000.0, "LGDGPCode": "", "LGDGPCode_Secondary": null, "Category": "Cadastral data available and has bhoomi linkage", "SHAPE.STArea()": 2877694.6944348849, "SHAPE.STLength()": 13485.009328076381, "LGD_VillageCode": 938360.0, "_overlap_percent": 6.8636479670719801, "_police_station": "Mangalapet Market PS", "_police_feature_index": "255", "_admin_layer": "Village", "_geometry_clipped": true }, "geometry": { "type": "MultiPolygon", "coordinates": [ [ [ [ 77.516679667729051, 17.91365408202682 ], [ 77.516986567216151, 17.913468499614414 ], [ 77.516928015540756, 17.912857515391078 ], [ 77.516900966475021, 17.912850670912981 ], [ 77.51588590556608, 17.912593805303697 ], [ 77.515809956829514, 17.912164656547461 ], [ 77.515786200416883, 17.912125732371628 ], [ 77.515709025739696, 17.91199928568648 ], [ 77.515711438088644, 17.911620278036423 ], [ 77.515244322645273, 17.911621062922496 ], [ 77.515210464573642, 17.912092024430333 ], [ 77.51552647912392, 17.914308978064042 ], [ 77.515468225234628, 17.914463676379452 ], [ 77.516953514632263, 17.914516415398225 ], [ 77.517071402849226, 17.914546830038748 ], [ 77.516679667729051, 17.91365408202682 ] ] ], [ [ [ 77.518805741264003, 17.914936665007769 ], [ 77.519066022030984, 17.914813162151543 ], [ 77.518891200490302, 17.914622513067737 ], [ 77.518488176476026, 17.914364876255785 ], [ 77.518415183446891, 17.914233796007967 ], [ 77.51707291477787, 17.914547220109675 ], [ 77.518727082825805, 17.914973988177259 ], [ 77.518805741264003, 17.914936665007769 ] ] ], [ [ [ 77.519910887640606, 17.922905040444082 ], [ 77.520072677979869, 17.92259437261054 ], [ 77.520595552326029, 17.921899463334377 ], [ 77.520682901452474, 17.921853314519481 ], [ 77.520840485792135, 17.921770058067139 ], [ 77.521115254338667, 17.921557495712165 ], [ 77.521321642928328, 17.921397831027289 ], [ 77.521900443588351, 17.920901311796218 ], [ 77.522146430636838, 17.920541835743748 ], [ 77.522241838536772, 17.92065527073234 ], [ 77.522335299326571, 17.920766377298541 ], [ 77.52286823754585, 17.921399515481273 ], [ 77.52295451442474, 17.921501941635327 ], [ 77.523095645858646, 17.92166943980623 ], [ 77.523294069461429, 17.921761307119326 ], [ 77.523598500433735, 17.921526484785222 ], [ 77.524224020346253, 17.921043989280726 ], [ 77.524380408666588, 17.920862676598464 ], [ 77.524509501083131, 17.920713009945736 ], [ 77.524709065860648, 17.920481638892607 ], [ 77.524905056387269, 17.920150358305719 ], [ 77.524868005024288, 17.920101747643873 ], [ 77.523823221383751, 17.918730994644129 ], [ 77.523040193375323, 17.918814754985625 ], [ 77.522668315619526, 17.918856791032852 ], [ 77.522577497994632, 17.918867057063071 ], [ 77.522498678718875, 17.918875966168372 ], [ 77.521963663805934, 17.918936442189615 ], [ 77.521843205193917, 17.918950058378858 ], [ 77.521754584010651, 17.918960075170943 ], [ 77.520800146765708, 17.91906795528914 ], [ 77.519523740484459, 17.91831323829647 ], [ 77.519184869443052, 17.918118079005119 ], [ 77.519864069885472, 17.920741693466535 ], [ 77.519724139680207, 17.923263630042303 ], [ 77.519910887640606, 17.922905040444082 ] ] ] ] } },
{ "type": "Feature", "properties": { "OBJECTID": 25653, "KGISVillageID": 34096, "KGISVillageCode": "0504020016", "KGISVillageName": "Seri Champa", "KGISHobliID": 131, "UniqueVillageCode": "0504020016_1", "Bhucode": "050401002023", "CensusVillageCode": "2955805457803060", "BhoomiVillageCode": "0504020016", "created_user": "SA", "created_date": 1567074170000.0, "last_edited_user": "SURESHBV2", "last_edited_date": 1724226193000.0, "LGDGPCode": " ", "LGDGPCode_Secondary": null, "Category": "Cadastral data available and has bhoomi linkage", "SHAPE.STArea()": 29690.445066780001, "SHAPE.STLength()": 1069.434312570464, "LGD_VillageCode": 938369.0, "_overlap_percent": 43.196258225848361, "_police_station": "Mangalapet Market PS", "_police_feature_index": "255", "_admin_layer": "Village", "_geometry_clipped": true }, "geometry": { "type": "Polygon", "coordinates": [ [ [ 77.519523740484459, 17.91831323829647 ], [ 77.520800146765708, 17.91906795528914 ], [ 77.520900049421627, 17.918575451351934 ], [ 77.520928447352532, 17.918435455838949 ], [ 77.520834182407356, 17.918405381947924 ], [ 77.520611667404481, 17.918334392407203 ], [ 77.520499603455519, 17.918298640654257 ], [ 77.520421065068845, 17.918273583808197 ], [ 77.520013690444301, 17.918143615943425 ], [ 77.519709220448618, 17.917704134149258 ], [ 77.519396854585963, 17.917613132090576 ], [ 77.51920408593331, 17.917556971694804 ], [ 77.518930382746589, 17.916859574925972 ], [ 77.519111982466157, 17.917836531298903 ], [ 77.519184869443052, 17.918118079005119 ], [ 77.519523740484459, 17.91831323829647 ] ] ] } },
{ "type": "Feature", "properties": { "OBJECTID": 1223, "KGISVillageID": 2466, "KGISVillageCode": "0504010034", "KGISVillageName": "Killaraka", "KGISHobliID": 130, "UniqueVillageCode": "0504010034_1", "Bhucode": "050401005023", "CensusVillageCode": "2955805457803060", "BhoomiVillageCode": "0504010034", "created_user": "SA", "created_date": 1556019584000.0, "last_edited_user": "SURESHBV2", "last_edited_date": 1724225587000.0, "LGDGPCode": " ", "LGDGPCode_Secondary": null, "Category": "Cadastral data available and has bhoomi linkage", "SHAPE.STArea()": 2783960.5672339201, "SHAPE.STLength()": 8060.5892436652493, "LGD_VillageCode": 938364.0, "_overlap_percent": 10.376893595595799, "_police_station": "Mangalapet Market PS", "_police_feature_index": "255", "_admin_layer": "Village", "_geometry_clipped": true }, "geometry": { "type": "MultiPolygon", "coordinates": [ [ [ [ 77.51920408593331, 17.917556971694804 ], [ 77.519396854585963, 17.917613132090576 ], [ 77.519709220448618, 17.917704134149258 ], [ 77.520013690444301, 17.918143615943425 ], [ 77.520421065068845, 17.918273583808197 ], [ 77.520499603455519, 17.918298640654257 ], [ 77.520611667404481, 17.918334392407203 ], [ 77.520834182407356, 17.918405381947924 ], [ 77.520928447352532, 17.918435455838949 ], [ 77.520900049421627, 17.918575451351934 ], [ 77.520800146765708, 17.91906795528914 ], [ 77.521754584010651, 17.918960075170943 ], [ 77.521843205193917, 17.918950058378858 ], [ 77.521963663805934, 17.918936442189615 ], [ 77.522498678718875, 17.918875966168372 ], [ 77.522577497994632, 17.918867057063071 ], [ 77.522668315619526, 17.918856791032852 ], [ 77.523040193375323, 17.918814754985625 ], [ 77.523823221383751, 17.918730994644129 ], [ 77.524868005024288, 17.920101747643873 ], [ 77.524905056387269, 17.920150358305719 ], [ 77.524709065860648, 17.920481638892607 ], [ 77.524509501083131, 17.920713009945736 ], [ 77.524380408666588, 17.920862676598464 ], [ 77.524224020346253, 17.921043989280726 ], [ 77.523598500433735, 17.921526484785222 ], [ 77.523294069461429, 17.921761307119326 ], [ 77.522789103388334, 17.92215166337586 ], [ 77.522352188308673, 17.922489412585502 ], [ 77.522291718611143, 17.922536157128462 ], [ 77.522227548444093, 17.922585820809964 ], [ 77.522165600340841, 17.922633769446609 ], [ 77.522137814043461, 17.922701504589188 ], [ 77.521914527693539, 17.923246053861632 ], [ 77.5217084446775, 17.923748646729106 ], [ 77.521350918244252, 17.924620570549436 ], [ 77.521350005346306, 17.924622796933555 ], [ 77.521298385960407, 17.92474875072876 ], [ 77.521213924935751, 17.924954868491525 ], [ 77.521195655456225, 17.924999453215495 ], [ 77.521142328897611, 17.92512958907767 ], [ 77.521159009175761, 17.925162889986083 ], [ 77.521309713051124, 17.92479364873542 ], [ 77.52136052469892, 17.924669152273598 ], [ 77.522136900499504, 17.922766914016986 ], [ 77.522164304580457, 17.92269976998212 ], [ 77.522225835265857, 17.922652523997083 ], [ 77.522289575066196, 17.922603581198501 ], [ 77.52328538271594, 17.921838940481408 ], [ 77.524209661063708, 17.921129215975871 ], [ 77.524691313361615, 17.920570802267164 ], [ 77.525322659740823, 17.920012336997342 ], [ 77.523472858445075, 17.916390421682443 ], [ 77.523335623433596, 17.916037736477804 ], [ 77.522756306504562, 17.914348879790232 ], [ 77.521936395895978, 17.913336488433877 ], [ 77.522011262242387, 17.91325754607487 ], [ 77.523284817957645, 17.911779791778663 ], [ 77.524041576619609, 17.911028871776796 ], [ 77.524641327329263, 17.910409115555712 ], [ 77.525708813858728, 17.909590751365474 ], [ 77.526662673056492, 17.908949795799256 ], [ 77.526852139464836, 17.908724658808602 ], [ 77.5273212249013, 17.908167283799681 ], [ 77.527673081029633, 17.907943305512326 ], [ 77.528101375051875, 17.907670664711787 ], [ 77.528797623275381, 17.907317833895629 ], [ 77.528826563414739, 17.907283044138843 ], [ 77.528148170638246, 17.907612667347049 ], [ 77.527791553788376, 17.907831201698954 ], [ 77.527721272177871, 17.907874269800054 ], [ 77.527370687114527, 17.908088874954416 ], [ 77.527183410756606, 17.90830583469252 ], [ 77.526903818940781, 17.908629742273561 ], [ 77.526862318220196, 17.908677911126258 ], [ 77.526715164281839, 17.908848709234672 ], [ 77.525764562429472, 17.909466498285447 ], [ 77.525630081509732, 17.909567202537161 ], [ 77.525159745733021, 17.909919407158572 ], [ 77.524698916616671, 17.910264490675946 ], [ 77.524097851321571, 17.910880307339102 ], [ 77.523336989275236, 17.911635931069981 ], [ 77.522055107947978, 17.913127657010207 ], [ 77.522054176103808, 17.91312874114379 ], [ 77.521618378519122, 17.913590249895126 ], [ 77.521329576887197, 17.91389608841672 ], [ 77.521146507997486, 17.913934920757935 ], [ 77.521107627670958, 17.913943175758504 ], [ 77.521050892068899, 17.913955221592083 ], [ 77.520961666494472, 17.913974165177379 ], [ 77.520769902393354, 17.914261537086094 ], [ 77.520111680885378, 17.91475097016038 ], [ 77.519802095085282, 17.914463893445433 ], [ 77.519253098932808, 17.914724393716128 ], [ 77.519066022030984, 17.914813162151543 ], [ 77.518805741264003, 17.914936665007769 ], [ 77.518727082825805, 17.914973988177259 ], [ 77.51884568553082, 17.915004587152552 ], [ 77.518835726752627, 17.916350351801881 ], [ 77.518930382746589, 17.916859574925972 ], [ 77.51920408593331, 17.917556971694804 ] ] ], [ [ [ 77.532490752963767, 17.909960760569788 ], [ 77.532200378264832, 17.909883178298742 ], [ 77.532176597797289, 17.909867208602968 ], [ 77.531958966739325, 17.909721058022441 ], [ 77.531838618446272, 17.909483199114753 ], [ 77.53147424009093, 17.908073818655236 ], [ 77.531039269563379, 17.907613182471124 ], [ 77.530972507513567, 17.907573171795708 ], [ 77.530388944827948, 17.907545171040574 ], [ 77.530221709245026, 17.907227706178457 ], [ 77.529860176853873, 17.907172510628353 ], [ 77.529187651698436, 17.907069412559547 ], [ 77.529037456523909, 17.90704638780608 ], [ 77.529005210328904, 17.907084246322004 ], [ 77.529817281542933, 17.907200766436169 ], [ 77.530179347134847, 17.907252714611513 ], [ 77.530346516679472, 17.907572973827051 ], [ 77.530931057573, 17.907595048127455 ], [ 77.530997898611773, 17.907634907866008 ], [ 77.531433307172662, 17.90809702955195 ], [ 77.531798077016049, 17.909518780011361 ], [ 77.531918663066818, 17.909757771113821 ], [ 77.53216059234569, 17.909918815365476 ], [ 77.532500735175304, 17.91002537753781 ], [ 77.532490752963767, 17.909960760569788 ] ] ], [ [ [ 77.537140373202831, 17.916084836079367 ], [ 77.536635266712565, 17.915755897814627 ], [ 77.536635279619162, 17.915755744110925 ], [ 77.536656449832108, 17.915500528838137 ], [ 77.536679951172019, 17.91521721147604 ], [ 77.536868896427876, 17.915116085462046 ], [ 77.53697302857212, 17.915060352725774 ], [ 77.537077328225692, 17.915004529246378 ], [ 77.536794549888867, 17.91457513630851 ], [ 77.536746443358084, 17.914502297271365 ], [ 77.536369551944489, 17.913932296217059 ], [ 77.535936192169203, 17.913277460757467 ], [ 77.535372267805954, 17.912425322611558 ], [ 77.535347731283821, 17.912043959608315 ], [ 77.535176877100824, 17.911676471720682 ], [ 77.535133294633823, 17.911582730228336 ], [ 77.534652229744978, 17.910548002554222 ], [ 77.533631222612669, 17.910379544042677 ], [ 77.534407530560713, 17.910622750878574 ], [ 77.534714803826986, 17.912124230254939 ], [ 77.535158856338882, 17.913190527889348 ], [ 77.53574228127458, 17.914004093313437 ], [ 77.536583868460383, 17.914540564020232 ], [ 77.536655323558392, 17.915234724214603 ], [ 77.536611419515097, 17.915774623237738 ], [ 77.537118224158377, 17.916098325526576 ], [ 77.537076602805357, 17.916124902644739 ], [ 77.537140373202831, 17.916084836079367 ] ] ], [ [ [ 77.536904064002414, 17.916235076481524 ], [ 77.536885347734383, 17.916247027665971 ], [ 77.536811153892344, 17.916330093766657 ], [ 77.536817034723441, 17.916331547021553 ], [ 77.536904064002414, 17.916235076481524 ] ] ] ] } },
{ "type": "Feature", "properties": { "OBJECTID": 1227, "KGISVillageID": 2470, "KGISVillageCode": "0504010018", "KGISVillageName": "Navadhageri", "KGISHobliID": 130, "UniqueVillageCode": "0504010018_1", "Bhucode": "050401005027", "CensusVillageCode": "2955805457803060", "BhoomiVillageCode": "0504010018", "created_user": "SA", "created_date": 1556019584000.0, "last_edited_user": "SURESHBV2", "last_edited_date": 1769494314000.0, "LGDGPCode": "", "LGDGPCode_Secondary": null, "Category": "Cadastral data available and has bhoomi linkage", "SHAPE.STArea()": 1166816.9943169949, "SHAPE.STLength()": 7158.9663676788878, "LGD_VillageCode": 600156.0, "_overlap_percent": 14.600149757455801, "_police_station": "Mangalapet Market PS", "_police_feature_index": "255", "_admin_layer": "Village", "_geometry_clipped": true }, "geometry": { "type": "Polygon", "coordinates": [ [ [ 77.521142328897611, 17.92512958907767 ], [ 77.521195655456225, 17.924999453215495 ], [ 77.521213924935751, 17.924954868491525 ], [ 77.521298385960407, 17.92474875072876 ], [ 77.521350005346306, 17.924622796933555 ], [ 77.521350918244252, 17.924620570549436 ], [ 77.5217084446775, 17.923748646729106 ], [ 77.521914527693539, 17.923246053861632 ], [ 77.522137814043461, 17.922701504589188 ], [ 77.522165600340841, 17.922633769446609 ], [ 77.522227548444093, 17.922585820809964 ], [ 77.522291718611143, 17.922536157128462 ], [ 77.522352188308673, 17.922489412585502 ], [ 77.522789103388334, 17.92215166337586 ], [ 77.523294069461429, 17.921761307119326 ], [ 77.523095645858646, 17.92166943980623 ], [ 77.52295451442474, 17.921501941635327 ], [ 77.52286823754585, 17.921399515481273 ], [ 77.522335299326571, 17.920766377298541 ], [ 77.522241838536772, 17.92065527073234 ], [ 77.522146430636838, 17.920541835743748 ], [ 77.521900443588351, 17.920901311796218 ], [ 77.521321642928328, 17.921397831027289 ], [ 77.521115254338667, 17.921557495712165 ], [ 77.520840485792135, 17.921770058067139 ], [ 77.520682901452474, 17.921853314519481 ], [ 77.520595552326029, 17.921899463334377 ], [ 77.520072677979869, 17.92259437261054 ], [ 77.519910887640606, 17.922905040444082 ], [ 77.519724139680207, 17.923263630042303 ], [ 77.519720200408415, 17.923334626819621 ], [ 77.520206079316182, 17.925557724882477 ], [ 77.519750328367678, 17.926058818750047 ], [ 77.518843442528862, 17.92617124667186 ], [ 77.518433821821574, 17.926603778321212 ], [ 77.517991584062258, 17.926904225924272 ], [ 77.517947419550296, 17.926987776785293 ], [ 77.518055300620688, 17.927488157597164 ], [ 77.518252113916503, 17.927928667828834 ], [ 77.518445612190021, 17.928134658740383 ], [ 77.519126145954033, 17.92812583750311 ], [ 77.519532253926315, 17.927964198668324 ], [ 77.52004613915426, 17.92772297323263 ], [ 77.520614466382128, 17.927481041314547 ], [ 77.521287248476966, 17.926925004817846 ], [ 77.521665761108395, 17.926737656753321 ], [ 77.522068863702003, 17.926732425594889 ], [ 77.522062205945488, 17.926719198572449 ], [ 77.521895529139243, 17.926388041827206 ], [ 77.521330016561024, 17.925479641905437 ], [ 77.521313284224917, 17.925481526212426 ], [ 77.521156162469012, 17.925169864734137 ], [ 77.521159009175761, 17.925162889986083 ], [ 77.521142328897611, 17.92512958907767 ] ] ] } }
]
}
