{
"type": "FeatureCollection",
"name": "villages_in_police_area.writing_20260805_172659",
"crs": { "type": "name", "properties": { "name": "urn:ogc:def:crs:OGC:1.3:CRS84" } },
"features": [
{ "type": "Feature", "properties": { "OBJECTID": 29595, "KGISVillageID": 15546, "KGISVillageCode": "2002150008", "KGISVillageName": "Venkoji Rao Kere", "KGISHobliID": 1138, "UniqueVillageCode": "2002150008_1", "Bhucode": "200201001041", "CensusVillageCode": "2957205542803162", "BhoomiVillageCode": "2002150008", "created_user": "SA", "created_date": 1556019584000.0, "last_edited_user": "SURESHBV2", "last_edited_date": 1724225863000.0, "LGDGPCode": " ", "LGDGPCode_Secondary": null, "Category": "Cadastral data available and has bhoomi linkage", "SHAPE.STArea()": 1359616.12178505, "SHAPE.STLength()": 10172.073889958408, "LGD_VillageCode": 938415.0, "_overlap_percent": 0.40779942375145206, "_police_station": "Koramangala PS", "_police_feature_index": "829", "_admin_layer": "Village", "_geometry_clipped": true }, "geometry": { "type": "Polygon", "coordinates": [ [ [ 77.639760814327857, 12.926015051220341 ], [ 77.639759443354805, 12.925992777626409 ], [ 77.639589104161814, 12.925892316775148 ], [ 77.639465716658606, 12.925281655251103 ], [ 77.639250861225293, 12.924026327067516 ], [ 77.639152960047767, 12.92406375583537 ], [ 77.639167735096294, 12.924460761084692 ], [ 77.639342991828755, 12.925140137355523 ], [ 77.639354685671051, 12.925184816362854 ], [ 77.639270532160296, 12.925225270198434 ], [ 77.639163490364396, 12.925276622034925 ], [ 77.639183092617415, 12.925396549028159 ], [ 77.639193451597777, 12.925459946606056 ], [ 77.639239874007188, 12.925744476065901 ], [ 77.639253043051369, 12.925825313506566 ], [ 77.639274797410025, 12.925958956828271 ], [ 77.639294783432405, 12.926116775153391 ], [ 77.639373234257775, 12.926066935620318 ], [ 77.639375803680039, 12.926088120740586 ], [ 77.639400469303538, 12.926146060638489 ], [ 77.640046761528382, 12.926040663235009 ], [ 77.639844113887463, 12.926042713719436 ], [ 77.639788276523461, 12.926009782548272 ], [ 77.639760814327857, 12.926015051220341 ] ] ] } },
{ "type": "Feature", "properties": { "OBJECTID": 29589, "KGISVillageID": 15540, "KGISVillageCode": "2002150005", "KGISVillageName": "Roopena Agrahara", "KGISHobliID": 1138, "UniqueVillageCode": "2002150005_1", "Bhucode": "200201001035", "CensusVillageCode": "2957205542803162", "BhoomiVillageCode": "2002150005", "created_user": null, "created_date": null, "last_edited_user": "SURESHBV2", "last_edited_date": 1724225863000.0, "LGDGPCode": " ", "LGDGPCode_Secondary": null, "Category": "Cadastral data available and has bhoomi linkage", "SHAPE.STArea()": 1061472.9178830001, "SHAPE.STLength()": 6248.3924304312386, "LGD_VillageCode": 938412.0, "_overlap_percent": 0.10220534112429244, "_police_station": "Koramangala PS", "_police_feature_index": "829", "_admin_layer": "Village", "_geometry_clipped": true }, "geometry": { "type": "Polygon", "coordinates": [ [ [ 77.628016147263665, 12.924532046708649 ], [ 77.628016559675302, 12.924535987770051 ], [ 77.628018923579091, 12.924558573738796 ], [ 77.628020876970481, 12.924557864761496 ], [ 77.628391398832235, 12.924423367477059 ], [ 77.628518394709602, 12.924377269057398 ], [ 77.628965958524702, 12.92421480499369 ], [ 77.628937062523903, 12.924165752477087 ], [ 77.628917624539568, 12.924132756382276 ], [ 77.628808368875994, 12.924153381097298 ], [ 77.628011599884516, 12.924488599035008 ], [ 77.628016147263665, 12.924532046708649 ] ] ] } },
{ "type": "Feature", "properties": { "OBJECTID": 29594, "KGISVillageID": 15545, "KGISVillageCode": "2002150007", "KGISVillageName": "Tavarekere", "KGISHobliID": 1138, "UniqueVillageCode": "2002150007_1", "Bhucode": "200201001040", "CensusVillageCode": "2957205542803162", "BhoomiVillageCode": "2002150007", "created_user": null, "created_date": null, "last_edited_user": "SURESHBV2", "last_edited_date": 1724225863000.0, "LGDGPCode": " ", "LGDGPCode_Secondary": null, "Category": "Cadastral data available and has bhoomi linkage", "SHAPE.STArea()": 3938769.6607773649, "SHAPE.STLength()": 10323.816190395286, "LGD_VillageCode": 939494.0, "_overlap_percent": 0.13331954729285025, "_police_station": "Koramangala PS", "_police_feature_index": "829", "_admin_layer": "Village", "_geometry_clipped": true }, "geometry": { "type": "MultiPolygon", "coordinates": [ [ [ [ 77.615477887152494, 12.929649043351617 ], [ 77.615721919223816, 12.929578261663805 ], [ 77.616558203186287, 12.929472862818939 ], [ 77.616540968421376, 12.929425457839084 ], [ 77.616517007954656, 12.92935955136709 ], [ 77.616433941092296, 12.929131067395934 ], [ 77.615407996316847, 12.929508463122913 ], [ 77.615034497441158, 12.92967952956251 ], [ 77.61495610096074, 12.929800387046923 ], [ 77.615477887152494, 12.929649043351617 ] ] ], [ [ [ 77.614519644123533, 12.930473237092185 ], [ 77.614382138163705, 12.930685218858562 ], [ 77.614326965469047, 12.930781560769271 ], [ 77.614519644123533, 12.930473237092185 ] ] ], [ [ [ 77.613097233424426, 12.932788482751388 ], [ 77.613174641689938, 12.932848294443065 ], [ 77.613214982802887, 12.932879464931728 ], [ 77.613222674608394, 12.932885408283662 ], [ 77.613257245240334, 12.932814415005863 ], [ 77.613483585672611, 12.932349608233146 ], [ 77.613828821766347, 12.931652021680993 ], [ 77.613831038093338, 12.931647543321885 ], [ 77.613820652572343, 12.93166567839654 ], [ 77.613086145343388, 12.932780111711038 ], [ 77.613097233424426, 12.932788482751388 ] ] ] ] } },
{ "type": "Feature", "properties": { "OBJECTID": 29573, "KGISVillageID": 15524, "KGISVillageCode": "2002150039", "KGISVillageName": "Jakkasandra", "KGISHobliID": 1138, "UniqueVillageCode": "2002150039_2", "Bhucode": "200201001020", "CensusVillageCode": "2957205542803162", "BhoomiVillageCode": "2002150039", "created_user": null, "created_date": null, "last_edited_user": "SURESHBV2", "last_edited_date": 1724225863000.0, "LGDGPCode": " ", "LGDGPCode_Secondary": null, "Category": "Cadastral data available and has bhoomi linkage", "SHAPE.STArea()": 2940142.2128893551, "SHAPE.STLength()": 9571.8407308670558, "LGD_VillageCode": 938408.0, "_overlap_percent": 61.841491759764011, "_police_station": "Koramangala PS", "_police_feature_index": "829", "_admin_layer": "Village", "_geometry_clipped": true }, "geometry": { "type": "MultiPolygon", "coordinates": [ [ [ [ 77.639400469303538, 12.926146060638489 ], [ 77.639375803680039, 12.926088120740586 ], [ 77.639373234257775, 12.926066935620318 ], [ 77.639294783432405, 12.926116775153391 ], [ 77.639274797410025, 12.925958956828271 ], [ 77.639253043051369, 12.925825313506566 ], [ 77.639239874007188, 12.925744476065901 ], [ 77.639193451597777, 12.925459946606056 ], [ 77.639183092617415, 12.925396549028159 ], [ 77.639163490364396, 12.925276622034925 ], [ 77.639270532160296, 12.925225270198434 ], [ 77.639354685671051, 12.925184816362854 ], [ 77.639342991828755, 12.925140137355523 ], [ 77.639167735096294, 12.924460761084692 ], [ 77.639152960047767, 12.92406375583537 ], [ 77.638537632132497, 12.924299002910821 ], [ 77.637957481646751, 12.924744678925691 ], [ 77.637308152936626, 12.9251002217053 ], [ 77.636836164466075, 12.925171918688317 ], [ 77.636504341577108, 12.925132246558732 ], [ 77.634068747863125, 12.924783959934631 ], [ 77.630912002696618, 12.92421661453287 ], [ 77.630860975412446, 12.924207443451818 ], [ 77.62945041845019, 12.924032178323321 ], [ 77.628917624539568, 12.924132756382276 ], [ 77.628937062523903, 12.924165752477087 ], [ 77.628965958524702, 12.92421480499369 ], [ 77.628518394709602, 12.924377269057398 ], [ 77.628391398832235, 12.924423367477059 ], [ 77.628020876970481, 12.924557864761496 ], [ 77.628018923579091, 12.924558573738796 ], [ 77.628016559675302, 12.924535987770051 ], [ 77.628016147263665, 12.924532046708649 ], [ 77.628011599884516, 12.924488599035008 ], [ 77.626037713776697, 12.925319055588187 ], [ 77.622971112572543, 12.926616756225831 ], [ 77.619408352526747, 12.928010240799384 ], [ 77.61729179709593, 12.928815503441731 ], [ 77.616433941092296, 12.929131067395934 ], [ 77.616517007954656, 12.92935955136709 ], [ 77.616540968421376, 12.929425457839084 ], [ 77.616558203186287, 12.929472862818939 ], [ 77.61656053716402, 12.929477201133055 ], [ 77.616560761249616, 12.929477139259594 ], [ 77.616601253456594, 12.929544831299527 ], [ 77.616723317464761, 12.929516410317705 ], [ 77.617031025041754, 12.930796384563672 ], [ 77.617132841308432, 12.931327182309046 ], [ 77.61714740923037, 12.931403129570885 ], [ 77.617163131569257, 12.931484497523343 ], [ 77.617255528947538, 12.931861430251281 ], [ 77.617304819225723, 12.932064289591395 ], [ 77.617436952184235, 12.932611073247243 ], [ 77.617737559604677, 12.933375285233787 ], [ 77.617775045365761, 12.933505269082625 ], [ 77.61780673061061, 12.933615139547866 ], [ 77.618676066849346, 12.933269149528925 ], [ 77.618778902968387, 12.933227868644568 ], [ 77.618959471423764, 12.933155383561981 ], [ 77.61961366748784, 12.93278164170051 ], [ 77.619622871072906, 12.932781697419593 ], [ 77.619849932246538, 12.932787230369806 ], [ 77.619958677068041, 12.932790830368718 ], [ 77.62015910504374, 12.932797466250056 ], [ 77.620200468670802, 12.932805744309594 ], [ 77.622421357922377, 12.933004951143474 ], [ 77.623114544967308, 12.933169509471245 ], [ 77.623154614464184, 12.933177685313732 ], [ 77.623240783779522, 12.933207808555926 ], [ 77.624050068871981, 12.933490359860309 ], [ 77.624140651981904, 12.933873630259166 ], [ 77.625248799637177, 12.93376184404681 ], [ 77.62527189580139, 12.93380869762148 ], [ 77.625425421622538, 12.934120026902365 ], [ 77.625702751484425, 12.934072741518365 ], [ 77.626186687946841, 12.933984944047431 ], [ 77.626250665983562, 12.934070828041092 ], [ 77.626728562705253, 12.934712242562874 ], [ 77.626945699002022, 12.935198447092924 ], [ 77.627777341122837, 12.935637601451168 ], [ 77.628112066704631, 12.935631138357651 ], [ 77.628122833139088, 12.935598468072067 ], [ 77.628138856951395, 12.935574508823272 ], [ 77.628408468788095, 12.935171689831657 ], [ 77.628368444429228, 12.935147723652648 ], [ 77.629047369392268, 12.934241335769421 ], [ 77.629104629728388, 12.934164644060393 ], [ 77.630091445288471, 12.933297367789438 ], [ 77.630199516069041, 12.933202966144959 ], [ 77.630878967031464, 12.932452025921663 ], [ 77.631823449715668, 12.932107484704408 ], [ 77.633341169480445, 12.931255548071441 ], [ 77.633343041583359, 12.931222951262766 ], [ 77.633344820257648, 12.931191984237364 ], [ 77.633346230906923, 12.931190765403876 ], [ 77.633204324841628, 12.93087159476184 ], [ 77.633226711929126, 12.930856655805675 ], [ 77.634127168346012, 12.930252859591901 ], [ 77.634146408633839, 12.930239892879095 ], [ 77.634167954139727, 12.930262984216084 ], [ 77.634289090353505, 12.930392846723816 ], [ 77.634491221224494, 12.930210677965738 ], [ 77.634912520147736, 12.929847622476379 ], [ 77.635198613106937, 12.929492220078183 ], [ 77.635400469378666, 12.929241461278977 ], [ 77.635441063501759, 12.929181593249226 ], [ 77.635466800557978, 12.929143636650942 ], [ 77.635597023760113, 12.929010686085824 ], [ 77.63564615164411, 12.928960529306371 ], [ 77.635999941996104, 12.928803551264714 ], [ 77.636176838964303, 12.928731390008222 ], [ 77.636368020266488, 12.928653400951093 ], [ 77.636733349824198, 12.928579979235689 ], [ 77.636918816803231, 12.928640860921481 ], [ 77.637163769714618, 12.929193135211049 ], [ 77.637315874161018, 12.929118125814218 ], [ 77.637616241096879, 12.929627523312037 ], [ 77.637720624851696, 12.929586749514408 ], [ 77.637907513545301, 12.929515013634985 ], [ 77.638267148097327, 12.929367832428087 ], [ 77.637999232356449, 12.928708769778893 ], [ 77.63792089408031, 12.928368298416197 ], [ 77.637901979178721, 12.928322711244434 ], [ 77.63836532876995, 12.928087999151495 ], [ 77.638385949758941, 12.927942854116599 ], [ 77.638568120874126, 12.927797895704499 ], [ 77.638672318332112, 12.927732915848136 ], [ 77.63868532141754, 12.927724798212219 ], [ 77.639642821555583, 12.927337990609058 ], [ 77.639670000817773, 12.927465298450343 ], [ 77.639682273123597, 12.927523011336964 ], [ 77.639746277735625, 12.927514372231794 ], [ 77.639820605182322, 12.927640631152716 ], [ 77.640315986662699, 12.927559442258211 ], [ 77.640406930001589, 12.927881816939173 ], [ 77.640413483391825, 12.927904974498903 ], [ 77.640477460806707, 12.92789278328001 ], [ 77.640675669989363, 12.927854841485091 ], [ 77.64077678652535, 12.928181686905594 ], [ 77.640797953446508, 12.928413452129778 ], [ 77.640802042390803, 12.928555591591403 ], [ 77.640804236483319, 12.928632302936563 ], [ 77.64080609061358, 12.92869736016298 ], [ 77.640950040911491, 12.928988985236064 ], [ 77.641080009607862, 12.92895472316714 ], [ 77.641074881773676, 12.92906950860316 ], [ 77.641118117298618, 12.929044531663264 ], [ 77.641257879118683, 12.928987780336893 ], [ 77.641265090847668, 12.929014759824669 ], [ 77.641292880242503, 12.929118718006821 ], [ 77.641546024347875, 12.929009251221556 ], [ 77.641365170572712, 12.928471081238825 ], [ 77.641343419830989, 12.928406376351468 ], [ 77.641248799880202, 12.928124934884718 ], [ 77.641198405259104, 12.927902166358047 ], [ 77.641175844151491, 12.927802359652761 ], [ 77.641720377382143, 12.927816587863504 ], [ 77.64176697898391, 12.927823116268385 ], [ 77.641753389814809, 12.927782627921156 ], [ 77.641444705638548, 12.92623685955818 ], [ 77.641208383149845, 12.926009786522172 ], [ 77.640682288092378, 12.926034232677431 ], [ 77.640046761528382, 12.926040663235009 ], [ 77.639400469303538, 12.926146060638489 ] ] ], [ [ [ 77.639760814327857, 12.926015051220341 ], [ 77.639788276523461, 12.926009782548272 ], [ 77.639759443354805, 12.925992777626409 ], [ 77.639760814327857, 12.926015051220341 ] ] ] ] } },
{ "type": "Feature", "properties": { "OBJECTID": 29572, "KGISVillageID": 15523, "KGISVillageCode": "2002150039", "KGISVillageName": "Jakkasandra", "KGISHobliID": 1138, "UniqueVillageCode": "2002150039_1", "Bhucode": "200201001020", "CensusVillageCode": "2957205542803162", "BhoomiVillageCode": "2002150039", "created_user": "SA", "created_date": 1556019584000.0, "last_edited_user": "SURESHBV2", "last_edited_date": 1724225863000.0, "LGDGPCode": " ", "LGDGPCode_Secondary": null, "Category": "Cadastral data available and has bhoomi linkage", "SHAPE.STArea()": 2504.4544357200002, "SHAPE.STLength()": 242.00646910345637, "LGD_VillageCode": 938408.0, "_overlap_percent": 100.00000000000003, "_police_station": "Koramangala PS", "_police_feature_index": "829", "_admin_layer": "Village", "_geometry_clipped": true }, "geometry": { "type": "Polygon", "coordinates": [ [ [ 77.640155399691963, 12.928114565887947 ], [ 77.640110422442191, 12.928128410431725 ], [ 77.640087957179333, 12.928135321172038 ], [ 77.639287710111432, 12.928379531632732 ], [ 77.639441882562934, 12.92855430532355 ], [ 77.639466684079366, 12.928582390682523 ], [ 77.640229316626304, 12.928345184933718 ], [ 77.64016663214484, 12.928149579398443 ], [ 77.640155399691963, 12.928114565887947 ] ] ] } },
{ "type": "Feature", "properties": { "OBJECTID": 29592, "KGISVillageID": 15543, "KGISVillageCode": "2002150041", "KGISVillageName": "Shinivagilu Amanikere", "KGISHobliID": 1138, "UniqueVillageCode": "2002150041_1", "Bhucode": "200201001038", "CensusVillageCode": "2957205542803162", "BhoomiVillageCode": "2002150041", "created_user": "SURESHBV1", "created_date": 1692267586000.0, "last_edited_user": "SURESHBV2", "last_edited_date": 1724225863000.0, "LGDGPCode": " ", "LGDGPCode_Secondary": null, "Category": "Cadastral data available and has bhoomi linkage", "SHAPE.STArea()": 481201.63484821498, "SHAPE.STLength()": 6499.683029071758, "LGD_VillageCode": 939491.0, "_overlap_percent": 31.242724111550196, "_police_station": "Koramangala PS", "_police_feature_index": "829", "_admin_layer": "Village", "_geometry_clipped": true }, "geometry": { "type": "MultiPolygon", "coordinates": [ [ [ [ 77.631823449715668, 12.932107484704408 ], [ 77.630878967031464, 12.932452025921663 ], [ 77.630199516069041, 12.933202966144959 ], [ 77.630091445288471, 12.933297367789438 ], [ 77.629104629728388, 12.934164644060393 ], [ 77.629047369392268, 12.934241335769421 ], [ 77.628368444429228, 12.935147723652648 ], [ 77.628408468788095, 12.935171689831657 ], [ 77.628601249175972, 12.935239753993931 ], [ 77.62882951617334, 12.93532766058531 ], [ 77.629535188209871, 12.935576832239708 ], [ 77.629509519719903, 12.935720679657976 ], [ 77.629393859472842, 12.936432634937479 ], [ 77.629530821635171, 12.936097386191021 ], [ 77.629556448538935, 12.936044822813573 ], [ 77.629694804999801, 12.935761040297834 ], [ 77.629802331201489, 12.935405295609637 ], [ 77.629806608443531, 12.935391142960828 ], [ 77.629838710578781, 12.935284935529239 ], [ 77.629963273067062, 12.934917253875334 ], [ 77.629971102763619, 12.934894141480811 ], [ 77.629994832259356, 12.934790452287389 ], [ 77.630122997056702, 12.934588344425348 ], [ 77.630599974805804, 12.934116138110028 ], [ 77.630669481297559, 12.934047325953705 ], [ 77.630983919326638, 12.933720283997554 ], [ 77.630983947563081, 12.93372025390007 ], [ 77.631461160746824, 12.933223909534401 ], [ 77.631901978855353, 12.932799249971797 ], [ 77.631904242902991, 12.932797069776093 ], [ 77.632271891068669, 12.932442896123446 ], [ 77.633223823321345, 12.93152049457256 ], [ 77.63324918612787, 12.931479295914968 ], [ 77.63332588576688, 12.931354706336458 ], [ 77.633336461212892, 12.931337527804024 ], [ 77.633341169480445, 12.931255548071441 ], [ 77.631823449715668, 12.932107484704408 ] ] ], [ [ [ 77.634167954139727, 12.930262984216084 ], [ 77.634146408633839, 12.930239892879095 ], [ 77.634127168346012, 12.930252859591901 ], [ 77.633226711929126, 12.930856655805675 ], [ 77.633204324841628, 12.93087159476184 ], [ 77.633346230906923, 12.931190765403876 ], [ 77.633399665384459, 12.931144596783918 ], [ 77.633412765124646, 12.931133278491005 ], [ 77.633468991213292, 12.931084698133661 ], [ 77.633509405789113, 12.931049779789999 ], [ 77.633567363314143, 12.930999703052832 ], [ 77.633699532449299, 12.930885505428238 ], [ 77.63371060860969, 12.930875935782355 ], [ 77.633844492667009, 12.930760257265819 ], [ 77.633934911762765, 12.930697928573629 ], [ 77.634001538015795, 12.930652001233703 ], [ 77.634128217780201, 12.93053783178593 ], [ 77.634289090353505, 12.930392846723816 ], [ 77.634167954139727, 12.930262984216084 ] ] ], [ [ [ 77.641720377382143, 12.927816587863504 ], [ 77.641175844151491, 12.927802359652761 ], [ 77.641198405259104, 12.927902166358047 ], [ 77.641248799880202, 12.928124934884718 ], [ 77.641343419830989, 12.928406376351468 ], [ 77.641365170572712, 12.928471081238825 ], [ 77.641546024347875, 12.929009251221556 ], [ 77.641292880242503, 12.929118718006821 ], [ 77.641265090847668, 12.929014759824669 ], [ 77.641257879118683, 12.928987780336893 ], [ 77.641118117298618, 12.929044531663264 ], [ 77.641074881773676, 12.92906950860316 ], [ 77.641080009607862, 12.92895472316714 ], [ 77.640950040911491, 12.928988985236064 ], [ 77.64080609061358, 12.92869736016298 ], [ 77.640804236483319, 12.928632302936563 ], [ 77.640802042390803, 12.928555591591403 ], [ 77.640797953446508, 12.928413452129778 ], [ 77.64077678652535, 12.928181686905594 ], [ 77.640675669989363, 12.927854841485091 ], [ 77.640477460806707, 12.92789278328001 ], [ 77.640413483391825, 12.927904974498903 ], [ 77.640406930001589, 12.927881816939173 ], [ 77.640315986662699, 12.927559442258211 ], [ 77.639820605182322, 12.927640631152716 ], [ 77.639746277735625, 12.927514372231794 ], [ 77.639682273123597, 12.927523011336964 ], [ 77.639670000817773, 12.927465298450343 ], [ 77.639642821555583, 12.927337990609058 ], [ 77.63868532141754, 12.927724798212219 ], [ 77.638672318332112, 12.927732915848136 ], [ 77.638568120874126, 12.927797895704499 ], [ 77.638385949758941, 12.927942854116599 ], [ 77.63836532876995, 12.928087999151495 ], [ 77.637901979178721, 12.928322711244434 ], [ 77.63792089408031, 12.928368298416197 ], [ 77.637999232356449, 12.928708769778893 ], [ 77.638267148097327, 12.929367832428087 ], [ 77.637907513545301, 12.929515013634985 ], [ 77.637720624851696, 12.929586749514408 ], [ 77.637616241096879, 12.929627523312037 ], [ 77.637315874161018, 12.929118125814218 ], [ 77.637163769714618, 12.929193135211049 ], [ 77.637188222488973, 12.92924826678107 ], [ 77.637786284612943, 12.93001272481882 ], [ 77.63802301136684, 12.930216031637588 ], [ 77.638063806155927, 12.930230513574028 ], [ 77.638347672489701, 12.930331287063375 ], [ 77.638670612146484, 12.930282696595064 ], [ 77.63916209125702, 12.930037160693468 ], [ 77.639583238729244, 12.929746332390447 ], [ 77.639579195287183, 12.929688426043231 ], [ 77.639590739975503, 12.929682626795463 ], [ 77.63993625975445, 12.929572137187829 ], [ 77.640183739405117, 12.929532223447241 ], [ 77.640302316461089, 12.929513098839099 ], [ 77.640305057901728, 12.929512622099304 ], [ 77.640736374954457, 12.929439717560136 ], [ 77.640968167568346, 12.929444008402475 ], [ 77.641237244380619, 12.929448988471114 ], [ 77.641570549489288, 12.929371430453166 ], [ 77.641768766409569, 12.929324346904789 ], [ 77.641850656174967, 12.929281561645231 ], [ 77.64190100990136, 12.929255252246204 ], [ 77.64222481784094, 12.929187227530543 ], [ 77.64176697898391, 12.927823116268385 ], [ 77.641720377382143, 12.927816587863504 ] ], [ [ 77.640155399691963, 12.928114565887947 ], [ 77.64016663214484, 12.928149579398443 ], [ 77.640229316626304, 12.928345184933718 ], [ 77.639466684079366, 12.928582390682523 ], [ 77.639441882562934, 12.92855430532355 ], [ 77.639287710111432, 12.928379531632732 ], [ 77.640087957179333, 12.928135321172038 ], [ 77.640110422442191, 12.928128410431725 ], [ 77.640155399691963, 12.928114565887947 ] ] ] ] } },
{ "type": "Feature", "properties": { "OBJECTID": 29549, "KGISVillageID": 15500, "KGISVillageCode": "2002150006", "KGISVillageName": "Adugodi", "KGISHobliID": 1138, "UniqueVillageCode": "2002150006_1", "Bhucode": "200201001001", "CensusVillageCode": "2957205542803162", "BhoomiVillageCode": "2002150006", "created_user": null, "created_date": null, "last_edited_user": "SURESHBV2", "last_edited_date": 1724225863000.0, "LGDGPCode": " ", "LGDGPCode_Secondary": null, "Category": "Cadastral data available and has bhoomi linkage", "SHAPE.STArea()": 2322515.5361390249, "SHAPE.STLength()": 8662.9697287471008, "LGD_VillageCode": 938405.0, "_overlap_percent": 0.92188711086928399, "_police_station": "Koramangala PS", "_police_feature_index": "829", "_admin_layer": "Village", "_geometry_clipped": true }, "geometry": { "type": "Polygon", "coordinates": [ [ [ 77.61169006848155, 12.937928180199062 ], [ 77.611590582455221, 12.937501310032562 ], [ 77.611548747349445, 12.937170917303556 ], [ 77.61148735564764, 12.936841323002033 ], [ 77.611411620256533, 12.936434721577783 ], [ 77.611410485667889, 12.936428631205244 ], [ 77.611372099436267, 12.9361309529859 ], [ 77.611356111558521, 12.936006968881552 ], [ 77.611351003744971, 12.935967362363623 ], [ 77.611343601408578, 12.935916058684239 ], [ 77.611342443121771, 12.935908030803233 ], [ 77.610705636642393, 12.937085072028628 ], [ 77.610103372073482, 12.938224113076402 ], [ 77.610233212597336, 12.938250315244808 ], [ 77.610690817172554, 12.938282704195368 ], [ 77.61128225107035, 12.938029577617684 ], [ 77.611724758573914, 12.938079335713379 ], [ 77.61169006848155, 12.937928180199062 ] ] ] } },
{ "type": "Feature", "properties": { "OBJECTID": 29579, "KGISVillageID": 15530, "KGISVillageCode": "2002150001", "KGISVillageName": "K.G.Koramangala", "KGISHobliID": 1138, "UniqueVillageCode": "2002150001_1", "Bhucode": "200201001025", "CensusVillageCode": "2957205542803162", "BhoomiVillageCode": "2002150001", "created_user": null, "created_date": null, "last_edited_user": "SURESHBV2", "last_edited_date": 1724225863000.0, "LGDGPCode": " ", "LGDGPCode_Secondary": null, "Category": "Cadastral data available and has bhoomi linkage", "SHAPE.STArea()": 2608165.9697216102, "SHAPE.STLength()": 8407.5519726295224, "LGD_VillageCode": 938409.0, "_overlap_percent": 63.677104405212823, "_police_station": "Koramangala PS", "_police_feature_index": "829", "_admin_layer": "Village", "_geometry_clipped": true }, "geometry": { "type": "Polygon", "coordinates": [ [ [ 77.611343601408578, 12.935916058684239 ], [ 77.611351003744971, 12.935967362363623 ], [ 77.611356111558521, 12.936006968881552 ], [ 77.611372099436267, 12.9361309529859 ], [ 77.611410485667889, 12.936428631205244 ], [ 77.611411620256533, 12.936434721577783 ], [ 77.61148735564764, 12.936841323002033 ], [ 77.611548747349445, 12.937170917303556 ], [ 77.611590582455221, 12.937501310032562 ], [ 77.61169006848155, 12.937928180199062 ], [ 77.611724758573914, 12.938079335713379 ], [ 77.611931084654884, 12.938102536207831 ], [ 77.612800213584507, 12.937875782336956 ], [ 77.612748285342832, 12.937558360537587 ], [ 77.614182041409876, 12.937255394513793 ], [ 77.614277224092135, 12.93733923458306 ], [ 77.61474633279802, 12.937284576573155 ], [ 77.615197019477733, 12.93709134218483 ], [ 77.61535492770156, 12.937039804414146 ], [ 77.615637894128952, 12.937042516505738 ], [ 77.616015081279187, 12.936855567942553 ], [ 77.616517673336332, 12.93675616782156 ], [ 77.616907565415048, 12.9367023011238 ], [ 77.61689174783308, 12.936405962229331 ], [ 77.617275624060653, 12.936399526382576 ], [ 77.617417418369001, 12.93702981334263 ], [ 77.617731365538731, 12.938429223075337 ], [ 77.617951836081303, 12.939200563554682 ], [ 77.616568178392541, 12.93949975661735 ], [ 77.615609486157553, 12.939992219809639 ], [ 77.615330943175266, 12.940156360418396 ], [ 77.615023187553234, 12.940440309476937 ], [ 77.614698214546266, 12.940826019120518 ], [ 77.614355525402488, 12.941265688818667 ], [ 77.61404155049317, 12.941537748133126 ], [ 77.613824048186999, 12.941713226806224 ], [ 77.613606235082401, 12.941858829533183 ], [ 77.613744367560628, 12.942251846607238 ], [ 77.613881503924432, 12.942549260583972 ], [ 77.614113679005939, 12.942672781554432 ], [ 77.614302652104342, 12.942784027179638 ], [ 77.614538227162654, 12.942939425200601 ], [ 77.615123549842252, 12.942981358141598 ], [ 77.615469919826722, 12.943011346937002 ], [ 77.615578334490351, 12.943124993557234 ], [ 77.615639409992767, 12.943372973514531 ], [ 77.615733503535409, 12.943515447416999 ], [ 77.615822473985787, 12.943634069942416 ], [ 77.615959980703977, 12.943733082483638 ], [ 77.616286557873664, 12.943734585016456 ], [ 77.617512810417466, 12.943408273045387 ], [ 77.61752743928912, 12.943559783418415 ], [ 77.617623903589404, 12.943524297518248 ], [ 77.617792366518984, 12.94348121063927 ], [ 77.618360218037267, 12.945512091421582 ], [ 77.618396540617113, 12.945821387333259 ], [ 77.618551716229504, 12.946211838282483 ], [ 77.619137937901783, 12.947272021468386 ], [ 77.61953465386226, 12.947992324430659 ], [ 77.620252933290374, 12.949410772435559 ], [ 77.620702667761336, 12.950177120172642 ], [ 77.62078403488772, 12.950354301202871 ], [ 77.621029652742919, 12.950889145193303 ], [ 77.621182781504942, 12.951222589972769 ], [ 77.621305108204055, 12.951488959519896 ], [ 77.621311059641613, 12.951501918783537 ], [ 77.621382423443222, 12.951603982440796 ], [ 77.621457115740526, 12.951573772935873 ], [ 77.621774573014832, 12.951345190203542 ], [ 77.621822355188371, 12.951270974072482 ], [ 77.621850078582199, 12.951216209077025 ], [ 77.621791740677111, 12.951074603640258 ], [ 77.621654731018978, 12.950834518039839 ], [ 77.621351712493478, 12.950303527416521 ], [ 77.621099431005419, 12.949861442416722 ], [ 77.621177273938613, 12.949805782795504 ], [ 77.621280437288277, 12.949732019529284 ], [ 77.621300244739814, 12.949717856977799 ], [ 77.621314575767059, 12.949707609840134 ], [ 77.621361363938036, 12.949674155212117 ], [ 77.6213803860323, 12.949660554354574 ], [ 77.621406784370137, 12.949641679192309 ], [ 77.621435001165807, 12.949621503777992 ], [ 77.621446795520697, 12.949609133594699 ], [ 77.621443871348106, 12.949587957324669 ], [ 77.62143706256289, 12.949538645906641 ], [ 77.621442315149679, 12.949535258532036 ], [ 77.621485526188593, 12.949507395006071 ], [ 77.621542511413168, 12.949470648673087 ], [ 77.621636811167676, 12.949409840932745 ], [ 77.622033194436057, 12.948994105292224 ], [ 77.62272293714976, 12.948184023039994 ], [ 77.623351888050678, 12.947503626657973 ], [ 77.623761711818091, 12.946843363491329 ], [ 77.62400510559111, 12.946717502019846 ], [ 77.624015556401716, 12.946707289368623 ], [ 77.624044721565241, 12.946603132511971 ], [ 77.624029643501515, 12.94646078393245 ], [ 77.624003360565396, 12.946383465004615 ], [ 77.623974732171277, 12.946299245001745 ], [ 77.623957981259167, 12.946249964273935 ], [ 77.623960265267172, 12.946233043765824 ], [ 77.623966482160341, 12.946186985501337 ], [ 77.623978755319342, 12.946096066714167 ], [ 77.623988513627609, 12.946023773700679 ], [ 77.624019088551108, 12.945987481803131 ], [ 77.624086001826356, 12.945908058010598 ], [ 77.624273629641408, 12.945817314657001 ], [ 77.624456989431806, 12.945728635122471 ], [ 77.624922298514619, 12.945480137744978 ], [ 77.625242149714751, 12.945304814731916 ], [ 77.625454332628792, 12.94516395383601 ], [ 77.625458062848125, 12.945161477029458 ], [ 77.625499901171864, 12.945133701860261 ], [ 77.62552602084898, 12.945106325371764 ], [ 77.625731315478774, 12.944891146465078 ], [ 77.625983871073842, 12.944573082732077 ], [ 77.625994052880344, 12.944473390312593 ], [ 77.626056243554928, 12.943864463943868 ], [ 77.626029662960491, 12.943400892250216 ], [ 77.626028688091381, 12.943373771600861 ], [ 77.626017258839866, 12.943055726387156 ], [ 77.626015781306691, 12.942902256387363 ], [ 77.626031454011397, 12.942896358225193 ], [ 77.625996235845562, 12.942887184699742 ], [ 77.626067553150335, 12.942337702574525 ], [ 77.626078763330469, 12.942251328792738 ], [ 77.626105098176723, 12.942243998737593 ], [ 77.626146161241664, 12.942232568738968 ], [ 77.626180659988393, 12.942222965783721 ], [ 77.626167589916719, 12.94210523322289 ], [ 77.62614791781732, 12.941928033147033 ], [ 77.626095944630819, 12.941782291118738 ], [ 77.626080936283415, 12.941740204944972 ], [ 77.626041642838672, 12.941631778102137 ], [ 77.625585348655221, 12.940372672168312 ], [ 77.625645699600412, 12.940327303627342 ], [ 77.625743411257261, 12.94025384916919 ], [ 77.625700708619291, 12.940215805536489 ], [ 77.624514856344405, 12.939159361687837 ], [ 77.624499655552626, 12.939144871239137 ], [ 77.624341019131379, 12.938993652578908 ], [ 77.624146951087283, 12.938829786654074 ], [ 77.624064731104383, 12.938760323890731 ], [ 77.623509945047033, 12.938332757678147 ], [ 77.623278378408031, 12.938154291392838 ], [ 77.62325847422818, 12.938131199755045 ], [ 77.623251260502144, 12.938122830804559 ], [ 77.623218287341913, 12.938084577606764 ], [ 77.623093360522105, 12.937939647112268 ], [ 77.623081366922946, 12.937923124116052 ], [ 77.622997548058919, 12.937807636106573 ], [ 77.62292000365548, 12.937700795687489 ], [ 77.622780235510987, 12.937508223467775 ], [ 77.622609959459595, 12.937273617511538 ], [ 77.621923853417243, 12.936328293159349 ], [ 77.621909482573287, 12.936308491988763 ], [ 77.621767223771599, 12.936112485683664 ], [ 77.621718617387273, 12.93604551341514 ], [ 77.621709076100089, 12.936032367035674 ], [ 77.621542518663333, 12.935868099843081 ], [ 77.621527328890863, 12.935855156596016 ], [ 77.621294298792321, 12.935656596062502 ], [ 77.620822570689128, 12.935380356243762 ], [ 77.620816517851353, 12.935372359480773 ], [ 77.620667750251044, 12.935175797981831 ], [ 77.620629195543728, 12.935124856764453 ], [ 77.620546936474796, 12.935016170906113 ], [ 77.62029734139999, 12.93466877823966 ], [ 77.620328093459648, 12.934636172885499 ], [ 77.620339450862986, 12.934625150873911 ], [ 77.620265439199571, 12.934552894614475 ], [ 77.62012776979256, 12.934422350551943 ], [ 77.619610313765506, 12.9339316725138 ], [ 77.61956856784488, 12.93389861741232 ], [ 77.619122129483031, 12.933545112839214 ], [ 77.619078909140214, 12.933441647189468 ], [ 77.618972870636426, 12.933187498418421 ], [ 77.618959471423764, 12.933155383561981 ], [ 77.618778902968387, 12.933227868644568 ], [ 77.618676066849346, 12.933269149528925 ], [ 77.61780673061061, 12.933615139547866 ], [ 77.617775045365761, 12.933505269082625 ], [ 77.617737559604677, 12.933375285233787 ], [ 77.617436952184235, 12.932611073247243 ], [ 77.617304819225723, 12.932064289591395 ], [ 77.617255528947538, 12.931861430251281 ], [ 77.617163131569257, 12.931484497523343 ], [ 77.61714740923037, 12.931403129570885 ], [ 77.617132841308432, 12.931327182309046 ], [ 77.617031025041754, 12.930796384563672 ], [ 77.616723317464761, 12.929516410317705 ], [ 77.616601253456594, 12.929544831299527 ], [ 77.616560761249616, 12.929477139259594 ], [ 77.61656053716402, 12.929477201133055 ], [ 77.616558203186287, 12.929472862818939 ], [ 77.615721919223816, 12.929578261663805 ], [ 77.615477887152494, 12.929649043351617 ], [ 77.61495610096074, 12.929800387046923 ], [ 77.614519644123533, 12.930473237092185 ], [ 77.614326965469047, 12.930781560769271 ], [ 77.613831038093338, 12.931647543321885 ], [ 77.613828821766347, 12.931652021680993 ], [ 77.613483585672611, 12.932349608233146 ], [ 77.613257245240334, 12.932814415005863 ], [ 77.613222674608394, 12.932885408283662 ], [ 77.613214982802887, 12.932879464931728 ], [ 77.613174641689938, 12.932848294443065 ], [ 77.613097233424426, 12.932788482751388 ], [ 77.613086145343388, 12.932780111711038 ], [ 77.612675359739654, 12.933403377410649 ], [ 77.612011100051433, 12.934672118799597 ], [ 77.611342443121771, 12.935908030803233 ], [ 77.611343601408578, 12.935916058684239 ] ] ] } },
{ "type": "Feature", "properties": { "OBJECTID": 29565, "KGISVillageID": 15516, "KGISVillageCode": "2002150042", "KGISVillageName": "Ejipura", "KGISHobliID": 1138, "UniqueVillageCode": "2002150042_1", "Bhucode": "200201001014", "CensusVillageCode": "2957205542803162", "BhoomiVillageCode": "2002150042", "created_user": null, "created_date": null, "last_edited_user": "SURESHBV2", "last_edited_date": 1724225863000.0, "LGDGPCode": " ", "LGDGPCode_Secondary": null, "Category": "Cadastral data available and has bhoomi linkage", "SHAPE.STArea()": 1181287.447144795, "SHAPE.STLength()": 6730.1734790777655, "LGD_VillageCode": 938406.0, "_overlap_percent": 44.24705036432799, "_police_station": "Koramangala PS", "_police_feature_index": "829", "_admin_layer": "Village", "_geometry_clipped": true }, "geometry": { "type": "MultiPolygon", "coordinates": [ [ [ [ 77.621435001165807, 12.949621503777992 ], [ 77.621406784370137, 12.949641679192309 ], [ 77.6213803860323, 12.949660554354574 ], [ 77.621361363938036, 12.949674155212117 ], [ 77.621314575767059, 12.949707609840134 ], [ 77.621300244739814, 12.949717856977799 ], [ 77.621280437288277, 12.949732019529284 ], [ 77.621177273938613, 12.949805782795504 ], [ 77.621099431005419, 12.949861442416722 ], [ 77.621351712493478, 12.950303527416521 ], [ 77.621654731018978, 12.950834518039839 ], [ 77.621791740677111, 12.951074603640258 ], [ 77.621850078582199, 12.951216209077025 ], [ 77.622008184706331, 12.950903885080134 ], [ 77.622046526982942, 12.950828143227232 ], [ 77.622052477813469, 12.95081507681784 ], [ 77.622099891654742, 12.950710959440805 ], [ 77.622118832764102, 12.950607494571123 ], [ 77.622127407909915, 12.950566799622072 ], [ 77.621989781581519, 12.950403510017775 ], [ 77.621803084017316, 12.95033619465482 ], [ 77.62175704413427, 12.950319594292578 ], [ 77.621611751069636, 12.950187747353933 ], [ 77.621489457667323, 12.949961569710005 ], [ 77.621465406505209, 12.949747844382623 ], [ 77.621463014006224, 12.949726585733615 ], [ 77.621460923129931, 12.949711442900572 ], [ 77.621446795520697, 12.949609133594699 ], [ 77.621435001165807, 12.949621503777992 ] ] ], [ [ [ 77.62400510559111, 12.946717502019846 ], [ 77.623761711818091, 12.946843363491329 ], [ 77.623351888050678, 12.947503626657973 ], [ 77.62272293714976, 12.948184023039994 ], [ 77.622033194436057, 12.948994105292224 ], [ 77.621636811167676, 12.949409840932745 ], [ 77.621659426042939, 12.949395258079697 ], [ 77.621874534204153, 12.949322518140175 ], [ 77.622033189139898, 12.949203296267616 ], [ 77.622151462361387, 12.949045271559989 ], [ 77.622586388724145, 12.948586076889331 ], [ 77.622791532178326, 12.948325235858716 ], [ 77.622814139815645, 12.948294288449466 ], [ 77.622976199776403, 12.948072442554563 ], [ 77.623025311525339, 12.948005212655962 ], [ 77.623059162061594, 12.947958875253724 ], [ 77.623114700253467, 12.947882848211865 ], [ 77.623265113249673, 12.947740183849413 ], [ 77.623274198225033, 12.947732817155108 ], [ 77.623431597490296, 12.94760519926094 ], [ 77.623566185871852, 12.947478377446345 ], [ 77.623756487279337, 12.947327468653533 ], [ 77.623779090634287, 12.947270351061183 ], [ 77.623865533181686, 12.947051912467975 ], [ 77.62396765271474, 12.946878366669607 ], [ 77.624015556401716, 12.946707289368623 ], [ 77.62400510559111, 12.946717502019846 ] ] ], [ [ [ 77.626015781306691, 12.942902256387363 ], [ 77.626017258839866, 12.943055726387156 ], [ 77.626028688091381, 12.943373771600861 ], [ 77.626029662960491, 12.943400892250216 ], [ 77.626056243554928, 12.943864463943868 ], [ 77.626081928133374, 12.943612979019731 ], [ 77.626094159112697, 12.943493217358897 ], [ 77.626114066560902, 12.94329829548276 ], [ 77.626133270627079, 12.943110262915452 ], [ 77.626151912470107, 12.942927735105235 ], [ 77.6261254340656, 12.942920837829796 ], [ 77.62604013222375, 12.942898618700715 ], [ 77.626031454011397, 12.942896358225193 ], [ 77.626015781306691, 12.942902256387363 ] ] ], [ [ [ 77.629509519719903, 12.935720679657976 ], [ 77.629535188209871, 12.935576832239708 ], [ 77.62882951617334, 12.93532766058531 ], [ 77.628601249175972, 12.935239753993931 ], [ 77.628408468788095, 12.935171689831657 ], [ 77.628138856951395, 12.935574508823272 ], [ 77.628122833139088, 12.935598468072067 ], [ 77.628112066704631, 12.935631138357651 ], [ 77.627777341122837, 12.935637601451168 ], [ 77.626945699002022, 12.935198447092924 ], [ 77.626728562705253, 12.934712242562874 ], [ 77.626250665983562, 12.934070828041092 ], [ 77.626186687946841, 12.933984944047431 ], [ 77.625702751484425, 12.934072741518365 ], [ 77.625425421622538, 12.934120026902365 ], [ 77.62527189580139, 12.93380869762148 ], [ 77.625248799637177, 12.93376184404681 ], [ 77.624140651981904, 12.933873630259166 ], [ 77.624050068871981, 12.933490359860309 ], [ 77.623240783779522, 12.933207808555926 ], [ 77.623154614464184, 12.933177685313732 ], [ 77.623114544967308, 12.933169509471245 ], [ 77.622421357922377, 12.933004951143474 ], [ 77.620200468670802, 12.932805744309594 ], [ 77.62015910504374, 12.932797466250056 ], [ 77.619958677068041, 12.932790830368718 ], [ 77.619849932246538, 12.932787230369806 ], [ 77.619622871072906, 12.932781697419593 ], [ 77.61961366748784, 12.93278164170051 ], [ 77.618959471423764, 12.933155383561981 ], [ 77.618972870636426, 12.933187498418421 ], [ 77.619078909140214, 12.933441647189468 ], [ 77.619122129483031, 12.933545112839214 ], [ 77.61956856784488, 12.93389861741232 ], [ 77.619610313765506, 12.9339316725138 ], [ 77.62012776979256, 12.934422350551943 ], [ 77.620265439199571, 12.934552894614475 ], [ 77.620339450862986, 12.934625150873911 ], [ 77.620328093459648, 12.934636172885499 ], [ 77.62029734139999, 12.93466877823966 ], [ 77.620546936474796, 12.935016170906113 ], [ 77.620629195543728, 12.935124856764453 ], [ 77.620667750251044, 12.935175797981831 ], [ 77.620816517851353, 12.935372359480773 ], [ 77.620822570689128, 12.935380356243762 ], [ 77.621294298792321, 12.935656596062502 ], [ 77.621527328890863, 12.935855156596016 ], [ 77.621542518663333, 12.935868099843081 ], [ 77.621709076100089, 12.936032367035674 ], [ 77.621718617387273, 12.93604551341514 ], [ 77.621767223771599, 12.936112485683664 ], [ 77.621909482573287, 12.936308491988763 ], [ 77.621923853417243, 12.936328293159349 ], [ 77.622609959459595, 12.937273617511538 ], [ 77.622780235510987, 12.937508223467775 ], [ 77.62292000365548, 12.937700795687489 ], [ 77.622997548058919, 12.937807636106573 ], [ 77.623081366922946, 12.937923124116052 ], [ 77.623093360522105, 12.937939647112268 ], [ 77.623218287341913, 12.938084577606764 ], [ 77.623251260502144, 12.938122830804559 ], [ 77.62325847422818, 12.938131199755045 ], [ 77.623278378408031, 12.938154291392838 ], [ 77.623509945047033, 12.938332757678147 ], [ 77.624064731104383, 12.938760323890731 ], [ 77.624146951087283, 12.938829786654074 ], [ 77.624341019131379, 12.938993652578908 ], [ 77.624499655552626, 12.939144871239137 ], [ 77.624514856344405, 12.939159361687837 ], [ 77.625700708619291, 12.940215805536489 ], [ 77.625743411257261, 12.94025384916919 ], [ 77.625645699600412, 12.940327303627342 ], [ 77.625585348655221, 12.940372672168312 ], [ 77.626041642838672, 12.941631778102137 ], [ 77.626080936283415, 12.941740204944972 ], [ 77.626095944630819, 12.941782291118738 ], [ 77.62614791781732, 12.941928033147033 ], [ 77.626167589916719, 12.94210523322289 ], [ 77.626180659988393, 12.942222965783721 ], [ 77.626259913027681, 12.942200905173934 ], [ 77.626227438473364, 12.941938798328575 ], [ 77.626238851470902, 12.941766967531542 ], [ 77.626320812921534, 12.941707823493754 ], [ 77.626607178286648, 12.94161097993052 ], [ 77.626866849328493, 12.941488486145822 ], [ 77.626974961538792, 12.941403158508974 ], [ 77.627008815230269, 12.941166303254349 ], [ 77.627041176544537, 12.940786905959568 ], [ 77.627078776771413, 12.940698256132173 ], [ 77.627385701585496, 12.940384811614042 ], [ 77.627530221200388, 12.940169591610243 ], [ 77.627535178364113, 12.940162209528685 ], [ 77.627587293854205, 12.94008459944285 ], [ 77.627763943824192, 12.939772468730474 ], [ 77.627859947784216, 12.93946115004133 ], [ 77.627883040688431, 12.939296614147498 ], [ 77.628055144036622, 12.939142746003551 ], [ 77.628474684668234, 12.938919445513161 ], [ 77.628590318562317, 12.938705294300014 ], [ 77.628595139974991, 12.93867433085482 ], [ 77.628636821356196, 12.938406645457079 ], [ 77.62871990674202, 12.938046774694589 ], [ 77.628772228427835, 12.937818152252081 ], [ 77.628814826041079, 12.937632016950785 ], [ 77.628877548709511, 12.937435881205833 ], [ 77.628882620333727, 12.937424576240069 ], [ 77.628888645983508, 12.93741114495575 ], [ 77.628894364745875, 12.937398399746758 ], [ 77.628903894189278, 12.937377159255837 ], [ 77.628911457974155, 12.937360299364126 ], [ 77.629045645847441, 12.937161121236203 ], [ 77.629173303057655, 12.936910336367793 ], [ 77.629345020359935, 12.936543323855775 ], [ 77.629373550684235, 12.93648234571751 ], [ 77.629393859472842, 12.936432634937479 ], [ 77.629509519719903, 12.935720679657976 ] ] ] ] } }
]
}
