{
"type": "FeatureCollection",
"name": "police_station_boundary.writing_20260805_172659",
"crs": { "type": "name", "properties": { "name": "urn:ogc:def:crs:OGC:1.3:CRS84" } },
"features": [
{ "type": "Feature", "properties": { "Shape.STArea()": 31609968.3890788, "Shape.STLength()": 27220.218448416912, "OBJECTID": 360, "KGISPS_BOUNDID": 460, "PS_BOUNDName": "Basaweshwar Chowk PS", "PS_BOUNDCode": "PSB - 460", "KGISPS_SUB_DIVID": 36, "_source_layer": "Police Station Boundary", "_source_layer_url": "https://kgis.ksrsac.in/kgismaps/rest/services/Home/Home_Department/MapServer/82", "_police_station": "Basaweshwar Chowk PS" }, "geometry": { "type": "Polygon", "coordinates": [ [ [ 74.403738992770172, 16.468261936599689 ], [ 74.403664501893758, 16.468387647060521 ], [ 74.403781654139522, 16.469377791425543 ], [ 74.403984867141844, 16.469859347009471 ], [ 74.404366410246922, 16.470234755953111 ], [ 74.404528638724557, 16.470578355046722 ], [ 74.404269428380417, 16.471442253652608 ], [ 74.404051784402938, 16.471996549991484 ], [ 74.404041607488125, 16.47201402259385 ], [ 74.403880661254561, 16.472279884584541 ], [ 74.403679199953444, 16.472606962914323 ], [ 74.40366004496741, 16.472691891418066 ], [ 74.403646693637512, 16.472886491267484 ], [ 74.403621371591399, 16.473234718395489 ], [ 74.403568266893572, 16.47343789205323 ], [ 74.403545131721671, 16.473537007691245 ], [ 74.403484801916136, 16.473804767626063 ], [ 74.403476939394366, 16.473924328221006 ], [ 74.403445090408312, 16.474082240562534 ], [ 74.403438475637998, 16.474180708100786 ], [ 74.403460191448517, 16.474255849227426 ], [ 74.403531700469472, 16.474400354706102 ], [ 74.403617121920277, 16.474539636936832 ], [ 74.403669404639643, 16.474589028134975 ], [ 74.40389670247329, 16.474682994722698 ], [ 74.403987110610856, 16.474725945196891 ], [ 74.404165548047558, 16.474810713832113 ], [ 74.403844179458943, 16.475247314529533 ], [ 74.403379466685678, 16.475629597728048 ], [ 74.402611099166748, 16.47631835431741 ], [ 74.401984535897, 16.476853773963466 ], [ 74.401570588380423, 16.47716886558343 ], [ 74.401207568249148, 16.477434357150106 ], [ 74.400866448074467, 16.477686818692568 ], [ 74.400230005399195, 16.478289010628053 ], [ 74.399665698729507, 16.479005035854513 ], [ 74.398598574348227, 16.480154777269686 ], [ 74.398213165763678, 16.480575460099679 ], [ 74.397401669728097, 16.481091125045161 ], [ 74.396503371427471, 16.481492811292291 ], [ 74.395413512640559, 16.481991689761479 ], [ 74.39476468038805, 16.482367440980621 ], [ 74.393523827622971, 16.482821178210578 ], [ 74.392911313911725, 16.482888874199997 ], [ 74.392581559508756, 16.482967397846682 ], [ 74.392342152346473, 16.482912508832875 ], [ 74.392167708216249, 16.482801541417441 ], [ 74.392007815324689, 16.482699822033126 ], [ 74.391955861023405, 16.482666783329883 ], [ 74.391440747110593, 16.482196493107409 ], [ 74.390563994657342, 16.481384785651397 ], [ 74.390210563259089, 16.481080983092916 ], [ 74.390113465555089, 16.480866693790279 ], [ 74.389629354416982, 16.480100077618228 ], [ 74.389390111312778, 16.479662362742388 ], [ 74.388854437663568, 16.47864269620964 ], [ 74.388299431237783, 16.477749119095943 ], [ 74.388126463855826, 16.477451381703712 ], [ 74.387991275478456, 16.476988524832013 ], [ 74.387758728091327, 16.476337504745622 ], [ 74.387661636233872, 16.476123215285778 ], [ 74.387268197609458, 16.475318275530423 ], [ 74.387206930387606, 16.475130442865538 ], [ 74.387066710740612, 16.474719804944989 ], [ 74.387161127169023, 16.474311385115076 ], [ 74.386780230585188, 16.473162544459132 ], [ 74.386613513550074, 16.472695045655662 ], [ 74.386368636653415, 16.4719263415254 ], [ 74.386227850483834, 16.471558802970662 ], [ 74.386238625310554, 16.471294144107681 ], [ 74.386235048616399, 16.471261064155534 ], [ 74.386179631448158, 16.470748500764248 ], [ 74.385967957308551, 16.470139111991443 ], [ 74.385611354900547, 16.469497194770735 ], [ 74.385342244730353, 16.468980701117356 ], [ 74.385122108187062, 16.468410164996641 ], [ 74.384858764484605, 16.468119546856418 ], [ 74.384442028496338, 16.467835256440541 ], [ 74.38393510005605, 16.46769027187754 ], [ 74.382950181467152, 16.467727625004034 ], [ 74.381829519305271, 16.467623517659643 ], [ 74.381103212680358, 16.467624388477113 ], [ 74.38026266514413, 16.467748759966007 ], [ 74.379269200106535, 16.467832735413086 ], [ 74.378867813414345, 16.467626451331551 ], [ 74.378372629708096, 16.467123366923822 ], [ 74.37817606964164, 16.466846462983931 ], [ 74.378005439801598, 16.466606086105642 ], [ 74.377600170274135, 16.466231559150575 ], [ 74.377234436238979, 16.465145905174502 ], [ 74.376800594686443, 16.464301136811606 ], [ 74.376420144639013, 16.463643682588216 ], [ 74.375851184443263, 16.462490728323321 ], [ 74.375296195594061, 16.461324560442925 ], [ 74.374973250411742, 16.460454161994608 ], [ 74.374732719785541, 16.459637921874215 ], [ 74.374101905825256, 16.459124850325271 ], [ 74.373675273446992, 16.459102595701111 ], [ 74.373456352118424, 16.459091175147115 ], [ 74.372655282504326, 16.459052086029271 ], [ 74.371674035366311, 16.459233727718072 ], [ 74.370859061570954, 16.459457173006577 ], [ 74.370130529463125, 16.459379823223575 ], [ 74.369517627892947, 16.459203039299066 ], [ 74.368820764911703, 16.45908577391431 ], [ 74.368300282240071, 16.459040573443211 ], [ 74.367520594696856, 16.45887224002918 ], [ 74.366751614904814, 16.458583260758125 ], [ 74.365888258996236, 16.458151250481126 ], [ 74.364993867104005, 16.457737990182373 ], [ 74.364207016600702, 16.45754736849532 ], [ 74.363111063067663, 16.457315236174594 ], [ 74.361728759795596, 16.45677201971321 ], [ 74.361010512883453, 16.456707303630601 ], [ 74.358498448453972, 16.456307366687703 ], [ 74.357207118263915, 16.455659009178952 ], [ 74.355527327378041, 16.454920184411883 ], [ 74.354630382444341, 16.454757374127237 ], [ 74.35366394972111, 16.454555349217173 ], [ 74.352406195618514, 16.454523940770517 ], [ 74.351355202099697, 16.454773943557729 ], [ 74.350474231992152, 16.454996676786056 ], [ 74.349263893743455, 16.455206587327677 ], [ 74.348731652022224, 16.455500130050254 ], [ 74.348723857692121, 16.456146510930363 ], [ 74.348647255552422, 16.456896414674496 ], [ 74.348371985586084, 16.457442956709997 ], [ 74.347374267934157, 16.458329373224455 ], [ 74.346880748872238, 16.458738907247348 ], [ 74.346285583678039, 16.459320889961635 ], [ 74.34609742861231, 16.459497215433093 ], [ 74.34596350281916, 16.459319224168407 ], [ 74.346034360669321, 16.459291978718877 ], [ 74.345868694088423, 16.459076656349119 ], [ 74.345838094797386, 16.459036883648938 ], [ 74.345775800473504, 16.458872327133871 ], [ 74.345652292034472, 16.458546063065938 ], [ 74.34536220955485, 16.457736030222797 ], [ 74.344781631775291, 16.456156153627902 ], [ 74.344515291589261, 16.455399941995864 ], [ 74.344169840655027, 16.454241028405505 ], [ 74.34382404494562, 16.453115603714178 ], [ 74.343607659211031, 16.45222924708218 ], [ 74.343080088226088, 16.450227849740212 ], [ 74.342833798432665, 16.449213921364745 ], [ 74.343437370797346, 16.448248429043808 ], [ 74.343935635692119, 16.447395792825265 ], [ 74.344314156363481, 16.446709468889793 ], [ 74.344473582688053, 16.446064565510884 ], [ 74.34458597464787, 16.445603427864558 ], [ 74.344924851532525, 16.445057396033608 ], [ 74.345143782700035, 16.44469777387846 ], [ 74.345525276204739, 16.444058367224777 ], [ 74.345857068448993, 16.443525662921122 ], [ 74.346206246091796, 16.442989776950331 ], [ 74.347027658179996, 16.441765116197672 ], [ 74.347292494434114, 16.441328895866935 ], [ 74.347866481398256, 16.440533920571518 ], [ 74.348064437095857, 16.440187489765279 ], [ 74.348425020095803, 16.439554573780711 ], [ 74.348661294539468, 16.438860164721333 ], [ 74.348970269644568, 16.438183205769885 ], [ 74.349170617600464, 16.437605680588046 ], [ 74.349299270395278, 16.436913580710051 ], [ 74.34934579268473, 16.436745350755853 ], [ 74.349294850951807, 16.43673729401231 ], [ 74.349137447913932, 16.436719428150834 ], [ 74.349962438160233, 16.4355586635855 ], [ 74.350520963070394, 16.434772806927516 ], [ 74.350573243141042, 16.434700156057875 ], [ 74.350910986671792, 16.433951640513442 ], [ 74.350931968036306, 16.433934600771675 ], [ 74.350944877111772, 16.433924117757783 ], [ 74.351074698013988, 16.433834630855692 ], [ 74.351384055555926, 16.43361962604261 ], [ 74.351323162577629, 16.433559376309535 ], [ 74.351556551530592, 16.433361346772429 ], [ 74.351728302632367, 16.433202122285991 ], [ 74.352332269432353, 16.432699036734263 ], [ 74.352816052622956, 16.432303137696692 ], [ 74.353046036806177, 16.432105072378299 ], [ 74.353577272371595, 16.431726047256813 ], [ 74.354063332014206, 16.431438515687873 ], [ 74.354370873951396, 16.431306864332154 ], [ 74.354928231357704, 16.43103315092122 ], [ 74.355379455527071, 16.430824079157624 ], [ 74.355687609119244, 16.430633330637612 ], [ 74.356133554335713, 16.430276459483686 ], [ 74.356387481929048, 16.430065488338624 ], [ 74.357093430815596, 16.429238318816203 ], [ 74.357307688518631, 16.429023755561907 ], [ 74.357585723718756, 16.428708786837774 ], [ 74.358011773103541, 16.428121339682029 ], [ 74.358692839955737, 16.427299826398841 ], [ 74.359048685601664, 16.426658273870864 ], [ 74.359591572689396, 16.425856234135363 ], [ 74.359803596992592, 16.425599217735538 ], [ 74.360214992024069, 16.424993623586197 ], [ 74.360543898868229, 16.42449074347472 ], [ 74.360907275344388, 16.423919190082003 ], [ 74.361012117334766, 16.423766851537135 ], [ 74.361097007669144, 16.42362654807771 ], [ 74.361072343500823, 16.423627307375437 ], [ 74.36104578627031, 16.423628124186202 ], [ 74.361446328460545, 16.42274994100848 ], [ 74.361477122272177, 16.422682423132425 ], [ 74.361491448664225, 16.422614945570011 ], [ 74.361534456537683, 16.422614588214593 ], [ 74.36180052501129, 16.422612381497718 ], [ 74.361955623286008, 16.422611095569106 ], [ 74.363310210271308, 16.422599855559529 ], [ 74.363498876219296, 16.422598289708876 ], [ 74.363596497680604, 16.422597479172936 ], [ 74.363685181881067, 16.422596742750446 ], [ 74.364373922422601, 16.422570268309471 ], [ 74.365259282173227, 16.422536231471028 ], [ 74.366381430617665, 16.422507111692358 ], [ 74.367095717828889, 16.422489777518663 ], [ 74.367326148059902, 16.422475911908229 ], [ 74.367616994134067, 16.422455197924691 ], [ 74.367768444145554, 16.422444411469133 ], [ 74.368466486714425, 16.422345015652965 ], [ 74.369051432336903, 16.422257328353098 ], [ 74.369219774386252, 16.422232093906974 ], [ 74.369373762457727, 16.422251196082669 ], [ 74.369859862717277, 16.422311497776732 ], [ 74.370060296997408, 16.422336361461923 ], [ 74.37023255234628, 16.422363706781894 ], [ 74.370257739137429, 16.422366970587198 ], [ 74.370438505855248, 16.422390396389119 ], [ 74.371137258944188, 16.422480945445436 ], [ 74.371435415418006, 16.422525953239479 ], [ 74.371502708343144, 16.422527654345625 ], [ 74.371754746359798, 16.422534029435145 ], [ 74.371829853410901, 16.422526960100388 ], [ 74.3728109149951, 16.42243462639242 ], [ 74.373668289902525, 16.422366747311536 ], [ 74.373813555456792, 16.42235737442595 ], [ 74.374373949965346, 16.422314513146343 ], [ 74.374880576009801, 16.422275763310836 ], [ 74.375736256233296, 16.422198844653224 ], [ 74.3764475544927, 16.422134901305032 ], [ 74.376473213388437, 16.422132595567142 ], [ 74.376828162504253, 16.42209319799387 ], [ 74.377468613293331, 16.422007709233053 ], [ 74.378203908198628, 16.421903923899748 ], [ 74.378917166190817, 16.421798948969922 ], [ 74.379991686575536, 16.421792642851731 ], [ 74.380991741161992, 16.421526750916534 ], [ 74.381053624279048, 16.421514796757027 ], [ 74.381277841804106, 16.421471485278353 ], [ 74.381770179747349, 16.421414706762711 ], [ 74.382468444800594, 16.421334176463869 ], [ 74.382663863434871, 16.421311638597309 ], [ 74.382644592675206, 16.421459522394485 ], [ 74.383363021960022, 16.421342033900771 ], [ 74.384455539632711, 16.421205166935216 ], [ 74.384466712791166, 16.421207382754233 ], [ 74.38462184610853, 16.421238202408311 ], [ 74.384762454609628, 16.421228870628479 ], [ 74.385077650831789, 16.421196334666007 ], [ 74.385126115679199, 16.421191328525566 ], [ 74.38532868322163, 16.421311180309058 ], [ 74.38550319593638, 16.421414427197906 ], [ 74.387037785936101, 16.42232241575352 ], [ 74.388597835833608, 16.422153353764713 ], [ 74.389684208235423, 16.42202464338024 ], [ 74.389771326387333, 16.422014322033153 ], [ 74.3896534431981, 16.421886752184733 ], [ 74.389798740102123, 16.421841569590672 ], [ 74.389927953999319, 16.421801387890618 ], [ 74.389968799333289, 16.42178868566565 ], [ 74.390166526457435, 16.421750842528699 ], [ 74.390189587087164, 16.42174642946566 ], [ 74.390486786786127, 16.42168954636621 ], [ 74.390650405914315, 16.421658230704505 ], [ 74.391883700806673, 16.421584236130482 ], [ 74.393166531207513, 16.421488645280341 ], [ 74.393292084466765, 16.421524112564843 ], [ 74.394342117020344, 16.421435233441464 ], [ 74.394819407458385, 16.421394826596398 ], [ 74.39541018381405, 16.421339413329296 ], [ 74.39669433113788, 16.421246592433182 ], [ 74.397141872923513, 16.421268689730436 ], [ 74.398102637144902, 16.421299045663954 ], [ 74.398356300438252, 16.421289303812696 ], [ 74.399771418756615, 16.420964108436358 ], [ 74.400578319976688, 16.420939200412722 ], [ 74.40195181164907, 16.420852506007773 ], [ 74.402018000770369, 16.421657065877273 ], [ 74.402086886636937, 16.422312162964957 ], [ 74.402069759527421, 16.422569035134913 ], [ 74.402088940731943, 16.422807238079237 ], [ 74.403596223415278, 16.423087850355184 ], [ 74.403623503316098, 16.423092052629283 ], [ 74.403576672890438, 16.423690379808193 ], [ 74.403567549799092, 16.423806948044085 ], [ 74.403436922697765, 16.425058752866551 ], [ 74.403394904909746, 16.425454875073481 ], [ 74.403311947721676, 16.425866812348346 ], [ 74.403269125595955, 16.426079470090571 ], [ 74.40326089726382, 16.426120329355978 ], [ 74.403090304213436, 16.426762424093063 ], [ 74.402972049490529, 16.427328491392686 ], [ 74.402966291659439, 16.42748996626699 ], [ 74.402936573455364, 16.428340181293041 ], [ 74.402927808281021, 16.428522729826476 ], [ 74.403353333810117, 16.428509443858626 ], [ 74.403496964415069, 16.428764287932239 ], [ 74.403608548480904, 16.428674909243767 ], [ 74.404068723554019, 16.428298598165455 ], [ 74.404148087522387, 16.428166322310876 ], [ 74.40417889597957, 16.428115348481725 ], [ 74.404762691966837, 16.428083462305747 ], [ 74.405030689269282, 16.428056647593735 ], [ 74.405165827187801, 16.428043125821723 ], [ 74.405681913247406, 16.427993881631831 ], [ 74.406031898660103, 16.42796015463076 ], [ 74.406479589961251, 16.427917011933786 ], [ 74.406560051192656, 16.427729377657183 ], [ 74.406907691701804, 16.427901277157861 ], [ 74.407369729131858, 16.428160338401 ], [ 74.408488760537708, 16.428787766040603 ], [ 74.410105450199808, 16.429547011990024 ], [ 74.411179082996853, 16.430051214320869 ], [ 74.41285595087804, 16.430668608274189 ], [ 74.414183473584913, 16.42940678176539 ], [ 74.414602466548644, 16.429802486207269 ], [ 74.415997036400839, 16.431430527617241 ], [ 74.417159571921189, 16.4330302536397 ], [ 74.417332580086679, 16.433364782544693 ], [ 74.417355825630764, 16.433408287118421 ], [ 74.417354221625615, 16.433452740560007 ], [ 74.417301597913394, 16.434910920136151 ], [ 74.417302036970128, 16.43493927420861 ], [ 74.417314736548221, 16.435761635295012 ], [ 74.417371325377943, 16.436414807442279 ], [ 74.417413147730272, 16.43675823214889 ], [ 74.417472240396137, 16.43724344281706 ], [ 74.417397109971901, 16.437226349047656 ], [ 74.41717806693444, 16.437176537886117 ], [ 74.417138317976011, 16.437178481269829 ], [ 74.416889041498493, 16.437190669191256 ], [ 74.415602112583898, 16.437253588601692 ], [ 74.415539743323208, 16.437256634786426 ], [ 74.415308631518528, 16.43726793311048 ], [ 74.415035848370977, 16.437281267335763 ], [ 74.41491970038625, 16.437286944882938 ], [ 74.414799598578, 16.437469996225015 ], [ 74.41437975704315, 16.438109888936022 ], [ 74.414330743341353, 16.438184591295322 ], [ 74.414266529329225, 16.438260482402239 ], [ 74.414066167449633, 16.438498266563986 ], [ 74.413976637432924, 16.438603230663038 ], [ 74.413982052590569, 16.438616281853776 ], [ 74.413998665193986, 16.438656390132678 ], [ 74.413789168853413, 16.4388576861957 ], [ 74.413725911374826, 16.438896537160332 ], [ 74.413490447972492, 16.439179503071127 ], [ 74.413402257486396, 16.439196879263331 ], [ 74.413320708550359, 16.439177914759743 ], [ 74.413307009807866, 16.438977558971693 ], [ 74.413219296737338, 16.438946403511554 ], [ 74.413099615479766, 16.438969551892292 ], [ 74.41302567344178, 16.439132684943004 ], [ 74.413059003578951, 16.439257378756995 ], [ 74.413107221316807, 16.439464124520647 ], [ 74.413193155679181, 16.439671223466451 ], [ 74.413153640791805, 16.439849841021669 ], [ 74.413081415067495, 16.440155573721082 ], [ 74.412993741247277, 16.440433854069198 ], [ 74.412879979899031, 16.440493461249783 ], [ 74.412791837914895, 16.440504770799929 ], [ 74.412766205372037, 16.440553067425419 ], [ 74.412732824402283, 16.440746915748807 ], [ 74.412692972473607, 16.440958904763836 ], [ 74.412697734634548, 16.441110639342035 ], [ 74.412620989003926, 16.441240371016516 ], [ 74.412524214391638, 16.441485189818938 ], [ 74.412693742064889, 16.441508017767688 ], [ 74.412765490748214, 16.441563293531029 ], [ 74.412686447026886, 16.441920538262885 ], [ 74.412606167381824, 16.44208966740015 ], [ 74.412755056272331, 16.442288260218099 ], [ 74.41272896631088, 16.442382062871388 ], [ 74.412703242448913, 16.442439454897404 ], [ 74.412512142434593, 16.442686430324994 ], [ 74.412354463230614, 16.443049006732391 ], [ 74.412251138318297, 16.443321072319055 ], [ 74.412154697641171, 16.443532530125914 ], [ 74.412065559767939, 16.443643944137847 ], [ 74.411947244410783, 16.443843063785039 ], [ 74.411962070410638, 16.44393118210726 ], [ 74.412042248259212, 16.444086650827682 ], [ 74.412062507114456, 16.444259759626732 ], [ 74.412026718366633, 16.444380767762869 ], [ 74.411869707036715, 16.444676611378497 ], [ 74.411820143771138, 16.444915804751925 ], [ 74.411725392055089, 16.444960427081611 ], [ 74.411495677225417, 16.444982543468903 ], [ 74.411441200663262, 16.445085175708694 ], [ 74.411442916010344, 16.445227775268911 ], [ 74.411460432587788, 16.445361428356573 ], [ 74.411435647650833, 16.44563726819657 ], [ 74.411587821062, 16.44582374708823 ], [ 74.411846820854365, 16.446014266114691 ], [ 74.411952084482678, 16.446176037139427 ], [ 74.4119480503239, 16.446263978716832 ], [ 74.411939934685833, 16.446445928231917 ], [ 74.412035579232239, 16.446625810259654 ], [ 74.412044119280722, 16.446713870256868 ], [ 74.412021025053136, 16.446822862309283 ], [ 74.411840147127236, 16.446991059851797 ], [ 74.411810266280384, 16.447148537680711 ], [ 74.411793872590081, 16.447215121898058 ], [ 74.411654412684427, 16.447329091900105 ], [ 74.411540177201374, 16.447434202344521 ], [ 74.411547781710908, 16.447616299883588 ], [ 74.411583730309033, 16.447792595778683 ], [ 74.411588613426332, 16.447932185862701 ], [ 74.41129817327888, 16.448053846737338 ], [ 74.411190113722597, 16.448171149779473 ], [ 74.411241284213915, 16.448396124369911 ], [ 74.411398909610455, 16.448664567459485 ], [ 74.411360001027106, 16.448782517571146 ], [ 74.411254680989799, 16.448939288098281 ], [ 74.411259228129381, 16.449112249719647 ], [ 74.411257671301357, 16.449266954039881 ], [ 74.411165321483608, 16.449384402391406 ], [ 74.411160626565035, 16.449539088851822 ], [ 74.411137152838549, 16.449684479550225 ], [ 74.410925327553954, 16.449803849380633 ], [ 74.410895841734842, 16.449921888226324 ], [ 74.410964296410825, 16.450304771299088 ], [ 74.411062908707351, 16.450502894092946 ], [ 74.411157456813839, 16.450791974792629 ], [ 74.41119651282564, 16.450971339349174 ], [ 74.411125192719581, 16.451186059731175 ], [ 74.411114963802774, 16.451264837543967 ], [ 74.41124253147467, 16.451396481022403 ], [ 74.41123786816307, 16.451548127518592 ], [ 74.41119209120491, 16.451723657841029 ], [ 74.411050912700546, 16.451695026907629 ], [ 74.410878288613375, 16.451666101412286 ], [ 74.410910092715412, 16.451942470621475 ], [ 74.410889187220462, 16.452145529509913 ], [ 74.41074599243197, 16.452317118550024 ], [ 74.410140008875786, 16.452241660044013 ], [ 74.409937971267851, 16.45232470525486 ], [ 74.409774084059379, 16.452403534935215 ], [ 74.409650695138325, 16.452435288998071 ], [ 74.409367046183633, 16.452620975593987 ], [ 74.409286396023788, 16.452719048801246 ], [ 74.409165593188376, 16.452851392813162 ], [ 74.409097500302536, 16.453057048409523 ], [ 74.40905395408717, 16.453323605300689 ], [ 74.408977891839143, 16.453383573033609 ], [ 74.408766335955093, 16.453475635262855 ], [ 74.408545527746398, 16.453549396671594 ], [ 74.408467674208609, 16.453788335478269 ], [ 74.408389715161533, 16.454036366899622 ], [ 74.408160184674159, 16.454352753728344 ], [ 74.408115035806205, 16.454464578297028 ], [ 74.408248492060594, 16.454635710776031 ], [ 74.408335172579527, 16.45477001210164 ], [ 74.408265365224409, 16.454833067958663 ], [ 74.408176740582007, 16.454892906794136 ], [ 74.40806907122753, 16.454970769234684 ], [ 74.407995973787251, 16.455048967007126 ], [ 74.40786553168023, 16.455202460056654 ], [ 74.407769915877608, 16.455332011466172 ], [ 74.407727779512769, 16.455768471528575 ], [ 74.407652415931537, 16.456383605998241 ], [ 74.407598758235324, 16.456716806431132 ], [ 74.407537498535859, 16.45686792026649 ], [ 74.407359683850359, 16.457042208424589 ], [ 74.407324684610941, 16.457084349763448 ], [ 74.407141837721113, 16.457134197720297 ], [ 74.407065264502322, 16.457245725189356 ], [ 74.406977541019302, 16.457527040164965 ], [ 74.406855755610707, 16.457756458086443 ], [ 74.406760352259695, 16.457864780920676 ], [ 74.406665499855336, 16.457918494253324 ], [ 74.406592002610083, 16.458036118411869 ], [ 74.406498849415541, 16.458232430939869 ], [ 74.406396332002686, 16.458422587131661 ], [ 74.406393944786018, 16.458659194023681 ], [ 74.406268314793294, 16.458958353002128 ], [ 74.406332177222893, 16.459171314635412 ], [ 74.406308893428019, 16.459298516455899 ], [ 74.406277123080358, 16.459331581026575 ], [ 74.405972838285649, 16.459265010656239 ], [ 74.405778333759599, 16.459223752026361 ], [ 74.405691010025024, 16.459363971800606 ], [ 74.405723545603053, 16.459441403362305 ], [ 74.405803159084527, 16.459565004440773 ], [ 74.405787162680411, 16.459661876359331 ], [ 74.405780116478525, 16.459704544130066 ], [ 74.405626830713672, 16.459868474821015 ], [ 74.405537321427957, 16.460119262623991 ], [ 74.405334650528843, 16.460687101795134 ], [ 74.405171577504504, 16.461143996111012 ], [ 74.405047355555993, 16.461492037147643 ], [ 74.40506783074099, 16.46152222700977 ], [ 74.405065505359033, 16.46154412608842 ], [ 74.405097843529958, 16.461617813872767 ], [ 74.405189918274871, 16.461852155916951 ], [ 74.405358031486301, 16.461940933794047 ], [ 74.40548864585476, 16.462101676127595 ], [ 74.405463276955146, 16.462274605962524 ], [ 74.40534732547215, 16.462533289678593 ], [ 74.405445434269694, 16.462639020551155 ], [ 74.405531598366338, 16.462742811035721 ], [ 74.405340340347237, 16.463179409205907 ], [ 74.405354626651274, 16.463417854010988 ], [ 74.405374727865791, 16.463753361815975 ], [ 74.405347012593353, 16.463843093446094 ], [ 74.405296613565213, 16.464006261716683 ], [ 74.405523128505408, 16.464062303821375 ], [ 74.40611489916617, 16.464224025719528 ], [ 74.406377308108645, 16.464568565574321 ], [ 74.406593389328535, 16.464920107951087 ], [ 74.406627680764515, 16.465340593804076 ], [ 74.406445428341826, 16.465454143763825 ], [ 74.406191165755914, 16.465448033767736 ], [ 74.405945036332298, 16.465401095645952 ], [ 74.405375776358184, 16.465299075874334 ], [ 74.405243832871946, 16.465390781438092 ], [ 74.405241993002207, 16.465572958596976 ], [ 74.405325077723589, 16.465741056312272 ], [ 74.405921020614755, 16.466252341401578 ], [ 74.406404581674451, 16.466446511653587 ], [ 74.406783470445347, 16.466702907748157 ], [ 74.40691275002041, 16.466875159217238 ], [ 74.406897582709021, 16.467231967355239 ], [ 74.406693591397811, 16.467590709427185 ], [ 74.406570844452631, 16.467916761935083 ], [ 74.406414695364887, 16.468116075744039 ], [ 74.40619289304378, 16.468329638646402 ], [ 74.405806579917865, 16.468426403102484 ], [ 74.405143947714834, 16.468412730066952 ], [ 74.40493641202697, 16.468358725542011 ], [ 74.404490591847065, 16.468242986384126 ], [ 74.404174902619587, 16.46821398808725 ], [ 74.403738992770172, 16.468261936599689 ] ] ] } }
]
}
