{
"type": "FeatureCollection",
"name": "wards_in_police_area.writing_20260805_172659",
"crs": { "type": "name", "properties": { "name": "urn:ogc:def:crs:OGC:1.3:CRS84" } },
"features": [
{ "type": "Feature", "properties": { "KGISWardID": 7000, "KGISWardCode": "2104031", "KGISWardName": null, "SHAPE.STArea()": 770803.64972356998, "SHAPE.STLength()": 4614.4095559553261, "OBJECTID": 21066, "KGISWardNo": "31", "KGISTownCode": "2104", "LGD_WardCode": 3044494, "created_user": "SURESHBV1", "created_date": 1665480451000, "last_edited_user": "SURESHBV1", "last_edited_date": 1692256796000, "_overlap_percent": 96.973132110672864, "_police_station": "Nelamangala Town PS", "_police_feature_index": "642", "_admin_layer": "Ward", "_geometry_clipped": true }, "geometry": { "type": "Polygon", "coordinates": [ [ [ 77.419322969121239, 13.068849902794682 ], [ 77.420045180376306, 13.072391448460877 ], [ 77.420244886368309, 13.073364947639002 ], [ 77.420461227882356, 13.074503191406457 ], [ 77.421859292260052, 13.074266367346526 ], [ 77.423271003498641, 13.073990155759049 ], [ 77.423302157932653, 13.07468314002519 ], [ 77.423454649466294, 13.075315220997549 ], [ 77.423781802071787, 13.07635206414907 ], [ 77.423798767912785, 13.076590965856225 ], [ 77.423817321887825, 13.076992413998139 ], [ 77.423792474634695, 13.077444472741023 ], [ 77.423759681987832, 13.077832059332501 ], [ 77.4219337169434, 13.078143242024618 ], [ 77.421858194933236, 13.078151121942973 ], [ 77.421893732850734, 13.078294225827484 ], [ 77.421275485436638, 13.078414774726113 ], [ 77.421383617578726, 13.078499822310482 ], [ 77.421521197900375, 13.078603718747049 ], [ 77.421649024826394, 13.078707706591519 ], [ 77.421806533387155, 13.078854446798525 ], [ 77.421900407661369, 13.078977877274186 ], [ 77.421960425267883, 13.079130313555821 ], [ 77.422054906612018, 13.079315894308968 ], [ 77.42208612882726, 13.079516413153007 ], [ 77.422152330248693, 13.079802665551739 ], [ 77.42220905844583, 13.080117693171335 ], [ 77.422294860805252, 13.080413323643084 ], [ 77.422435106350875, 13.080669338928155 ], [ 77.42257466999061, 13.080604130017013 ], [ 77.422972076061811, 13.08042650146518 ], [ 77.423035607712592, 13.08039810505784 ], [ 77.423492489220095, 13.080193891123155 ], [ 77.424615275660841, 13.079796067746448 ], [ 77.426482261593719, 13.079190434841266 ], [ 77.428016795345386, 13.078633482652348 ], [ 77.428001997559889, 13.07855765609377 ], [ 77.427950990117751, 13.078470869967239 ], [ 77.427886722563329, 13.07836151722061 ], [ 77.427606568901425, 13.077546966134003 ], [ 77.42746589025414, 13.07727350834644 ], [ 77.427447967597232, 13.077237778601582 ], [ 77.427368958053719, 13.077080279434576 ], [ 77.427220484692555, 13.076686554922846 ], [ 77.427205526516815, 13.076646891301543 ], [ 77.427140843365621, 13.076271203103802 ], [ 77.42711077289924, 13.076022253358426 ], [ 77.426933455685159, 13.075734820245433 ], [ 77.426908259948618, 13.075693977030305 ], [ 77.426899897059158, 13.07551621946887 ], [ 77.426873470383214, 13.074954589285703 ], [ 77.426869709429397, 13.074874629389923 ], [ 77.426560537073996, 13.073617982885397 ], [ 77.426403124615263, 13.073168892285455 ], [ 77.425851217568464, 13.07147747320723 ], [ 77.425850775686456, 13.071476112117383 ], [ 77.425850697926137, 13.071475888771252 ], [ 77.425626345852265, 13.070828373657909 ], [ 77.425602135441537, 13.070758495786503 ], [ 77.425602027281599, 13.070758179661656 ], [ 77.425506588614411, 13.070482726279238 ], [ 77.425421478897078, 13.070225146230007 ], [ 77.42540141041755, 13.07016439759002 ], [ 77.425306459148857, 13.069736428222171 ], [ 77.425210296844668, 13.069319453493625 ], [ 77.425206570588443, 13.069309080661293 ], [ 77.425053530991022, 13.068882868978028 ], [ 77.424894030189293, 13.068428909657946 ], [ 77.424883387414312, 13.06839896521376 ], [ 77.424872739849249, 13.068369001839395 ], [ 77.424752311790982, 13.068030159988339 ], [ 77.424668078821753, 13.067793157299441 ], [ 77.424628823987561, 13.067682706228794 ], [ 77.423848321189453, 13.067655244452498 ], [ 77.422912872851555, 13.067654601245005 ], [ 77.422769556004013, 13.067651752059344 ], [ 77.42136704086488, 13.067623858460463 ], [ 77.420796651802164, 13.067612511215303 ], [ 77.420375867266372, 13.067750652808094 ], [ 77.420287599916421, 13.067779630416464 ], [ 77.419453369464932, 13.068053499001637 ], [ 77.419027738422358, 13.068200310783856 ], [ 77.419322969121239, 13.068849902794682 ] ] ] } },
{ "type": "Feature", "properties": { "KGISWardID": 6999, "KGISWardCode": "2104030", "KGISWardName": null, "SHAPE.STArea()": 530364.49314705504, "SHAPE.STLength()": 3608.5236421415025, "OBJECTID": 21067, "KGISWardNo": "30", "KGISTownCode": "2104", "LGD_WardCode": 3044493, "created_user": "SURESHBV1", "created_date": 1665480451000, "last_edited_user": "SURESHBV1", "last_edited_date": 1692256794000, "_overlap_percent": 99.999999999999915, "_police_station": "Nelamangala Town PS", "_police_feature_index": "642", "_admin_layer": "Ward", "_geometry_clipped": true }, "geometry": { "type": "Polygon", "coordinates": [ [ [ 77.422294860805252, 13.080413323643084 ], [ 77.42220905844583, 13.080117693171335 ], [ 77.422152330248693, 13.079802665551739 ], [ 77.42208612882726, 13.079516413153007 ], [ 77.422054906612018, 13.079315894308968 ], [ 77.421960425267883, 13.079130313555821 ], [ 77.421900407661369, 13.078977877274186 ], [ 77.421806533387155, 13.078854446798525 ], [ 77.421649024826394, 13.078707706591519 ], [ 77.421521197900375, 13.078603718747049 ], [ 77.421383617578726, 13.078499822310482 ], [ 77.421275485436638, 13.078414774726113 ], [ 77.421893732850734, 13.078294225827484 ], [ 77.421858194933236, 13.078151121942973 ], [ 77.4219337169434, 13.078143242024618 ], [ 77.423759681987832, 13.077832059332501 ], [ 77.423792474634695, 13.077444472741023 ], [ 77.423817321887825, 13.076992413998139 ], [ 77.423798767912785, 13.076590965856225 ], [ 77.423781802071787, 13.07635206414907 ], [ 77.423454649466294, 13.075315220997549 ], [ 77.423302157932653, 13.07468314002519 ], [ 77.423271003498641, 13.073990155759049 ], [ 77.421859292260052, 13.074266367346526 ], [ 77.420461227882356, 13.074503191406457 ], [ 77.420824552052991, 13.076414718493739 ], [ 77.419199726555533, 13.0767204084091 ], [ 77.416881228668501, 13.07716526395955 ], [ 77.416900600126738, 13.077276245962677 ], [ 77.415976205709043, 13.077569195607706 ], [ 77.41579639883544, 13.077626177664726 ], [ 77.415293857284794, 13.077744342056704 ], [ 77.41530100800604, 13.077783169854687 ], [ 77.415600007204503, 13.079406611578744 ], [ 77.415604028342599, 13.079428445038058 ], [ 77.415710979924199, 13.080009137735622 ], [ 77.415118673778224, 13.080452763044837 ], [ 77.415212642424692, 13.080706219471699 ], [ 77.415521338155344, 13.081538843064672 ], [ 77.415942427305851, 13.082707500892468 ], [ 77.416173785250905, 13.083175091345964 ], [ 77.416302333763554, 13.083523956812821 ], [ 77.419770752243565, 13.081914193703176 ], [ 77.422435106350875, 13.080669338928155 ], [ 77.422294860805252, 13.080413323643084 ] ] ] } },
{ "type": "Feature", "properties": { "KGISWardID": 6998, "KGISWardCode": "2104029", "KGISWardName": null, "SHAPE.STArea()": 2281339.3724228698, "SHAPE.STLength()": 7863.6620669073818, "OBJECTID": 21061, "KGISWardNo": "29", "KGISTownCode": "2104", "LGD_WardCode": 3044492, "created_user": "SURESHBV1", "created_date": 1665480451000, "last_edited_user": "SURESHBV1", "last_edited_date": 1692256787000, "_overlap_percent": 99.764595257550042, "_police_station": "Nelamangala Town PS", "_police_feature_index": "642", "_admin_layer": "Ward", "_geometry_clipped": true }, "geometry": { "type": "Polygon", "coordinates": [ [ [ 77.404833122446846, 13.088613095896076 ], [ 77.410284884273295, 13.086270672751059 ], [ 77.410731288995322, 13.086070081653638 ], [ 77.415281431271879, 13.083994665903615 ], [ 77.415498721726564, 13.083895552880467 ], [ 77.415670294687189, 13.083817292213599 ], [ 77.416302333763554, 13.083523956812821 ], [ 77.416173785250905, 13.083175091345964 ], [ 77.415942427305851, 13.082707500892468 ], [ 77.415521338155344, 13.081538843064672 ], [ 77.415212642424692, 13.080706219471699 ], [ 77.415118673778224, 13.080452763044837 ], [ 77.415710979924199, 13.080009137735622 ], [ 77.415604028342599, 13.079428445038058 ], [ 77.415600007204503, 13.079406611578744 ], [ 77.41530100800604, 13.077783169854687 ], [ 77.415293857284794, 13.077744342056704 ], [ 77.41579639883544, 13.077626177664726 ], [ 77.415976205709043, 13.077569195607706 ], [ 77.416900600126738, 13.077276245962677 ], [ 77.416881228668501, 13.07716526395955 ], [ 77.419199726555533, 13.0767204084091 ], [ 77.420824552052991, 13.076414718493739 ], [ 77.420461227882356, 13.074503191406457 ], [ 77.420244886368309, 13.073364947639002 ], [ 77.420045180376306, 13.072391448460877 ], [ 77.419322969121239, 13.068849902794682 ], [ 77.419027738422358, 13.068200310783856 ], [ 77.418600815409704, 13.068347568201872 ], [ 77.417689235604044, 13.068677547376986 ], [ 77.41692935546223, 13.068911731424084 ], [ 77.416722074657571, 13.068992418819791 ], [ 77.416714632258675, 13.069004168511491 ], [ 77.416273721913498, 13.069700497221131 ], [ 77.41545830931129, 13.070988261144043 ], [ 77.415447400236303, 13.071005490685412 ], [ 77.415265747273011, 13.071375259463727 ], [ 77.414788527196279, 13.072346693280004 ], [ 77.414751106477141, 13.072348659379474 ], [ 77.414722965670961, 13.072407296917406 ], [ 77.413989147085701, 13.072443945328738 ], [ 77.412273943081388, 13.072528721384504 ], [ 77.412196390371079, 13.072532409411286 ], [ 77.411626554678122, 13.072445089385264 ], [ 77.411357271039634, 13.072403565242526 ], [ 77.410655585634387, 13.072294910769118 ], [ 77.410152918845029, 13.07221683965208 ], [ 77.409481489855054, 13.072112423480633 ], [ 77.409321294597021, 13.072087502014451 ], [ 77.408456832326749, 13.071953016149475 ], [ 77.408354713831955, 13.07351088514927 ], [ 77.408281018800665, 13.074045192451509 ], [ 77.408316360046641, 13.075264621102773 ], [ 77.408310902083088, 13.075471290995177 ], [ 77.408333148849593, 13.075829913594667 ], [ 77.408326353159097, 13.075976907799474 ], [ 77.408329642992953, 13.075990704959061 ], [ 77.408227474196565, 13.076465503905954 ], [ 77.408200907874772, 13.076584481098052 ], [ 77.408202871302677, 13.076759504685461 ], [ 77.408206015922559, 13.077039499201609 ], [ 77.408250744738524, 13.077301871584215 ], [ 77.408296841926045, 13.077572261877767 ], [ 77.408230792801291, 13.078676610134725 ], [ 77.408229938165675, 13.078677109774638 ], [ 77.408229875918821, 13.078678152003761 ], [ 77.407970273698936, 13.078829503266547 ], [ 77.407583998672592, 13.07908100291745 ], [ 77.407515443579811, 13.079124042081755 ], [ 77.407179772085613, 13.079334940134702 ], [ 77.406823054112422, 13.079548561306041 ], [ 77.406816412127029, 13.079556815684741 ], [ 77.406576130191581, 13.07985543977416 ], [ 77.406289112262328, 13.080212147462227 ], [ 77.405676742648993, 13.080973200323397 ], [ 77.404690891682677, 13.081262766175778 ], [ 77.404356651853163, 13.081360937826387 ], [ 77.403521679643575, 13.081775722541735 ], [ 77.403455464479535, 13.081808615720192 ], [ 77.403362436459219, 13.081873678197576 ], [ 77.403345148368231, 13.081884313114459 ], [ 77.402753057901265, 13.082259210134058 ], [ 77.402514813469125, 13.082410059095402 ], [ 77.401605039537827, 13.082863438889987 ], [ 77.400112948734048, 13.083470911777029 ], [ 77.40016501944001, 13.084288498974791 ], [ 77.400167622238641, 13.084320949220045 ], [ 77.40016168441764, 13.08437522643052 ], [ 77.400161275395092, 13.084378963699818 ], [ 77.400182325438749, 13.084504110925504 ], [ 77.400295307253259, 13.085175785552808 ], [ 77.400338237601574, 13.085573101280923 ], [ 77.400350815378502, 13.085689500504188 ], [ 77.400387373476107, 13.086027831263618 ], [ 77.400484553782775, 13.086493689532098 ], [ 77.400548945919141, 13.086586768507374 ], [ 77.400480281121645, 13.08675990028271 ], [ 77.400656449895649, 13.087260150649415 ], [ 77.400734801470506, 13.087482778717973 ], [ 77.401095215145673, 13.08819248935335 ], [ 77.401152176783043, 13.088304779793697 ], [ 77.401249823738695, 13.088497373818489 ], [ 77.4017149048845, 13.088601004469952 ], [ 77.402328317658046, 13.08921380504267 ], [ 77.402517220737479, 13.08930056526297 ], [ 77.402561383799707, 13.089320333739311 ], [ 77.402698692633976, 13.089530141711352 ], [ 77.404833122446846, 13.088613095896076 ] ] ] } },
{ "type": "Feature", "properties": { "KGISWardID": 6699, "KGISWardCode": "2104001", "KGISWardName": null, "SHAPE.STArea()": 1524189.371369635, "SHAPE.STLength()": 7272.0703367772894, "OBJECTID": 21037, "KGISWardNo": "01", "KGISTownCode": "2104", "LGD_WardCode": 26452, "created_user": "SURESHBV1", "created_date": 1665480451000, "last_edited_user": "SURESHBV1", "last_edited_date": 1692254035000, "_overlap_percent": 98.336487397860111, "_police_station": "Nelamangala Town PS", "_police_feature_index": "642", "_admin_layer": "Ward", "_geometry_clipped": true }, "geometry": { "type": "Polygon", "coordinates": [ [ [ 77.408483935638174, 13.09371835007102 ], [ 77.408560656606767, 13.093704729955633 ], [ 77.408591946414916, 13.093699174546753 ], [ 77.408767156695518, 13.09356554556884 ], [ 77.40873357475725, 13.093486934752136 ], [ 77.408604980131784, 13.093053341785836 ], [ 77.408505077987613, 13.092716489647486 ], [ 77.409414329714565, 13.092170104940925 ], [ 77.409458932886494, 13.092266703434783 ], [ 77.409524344344234, 13.092408365961361 ], [ 77.409779171087322, 13.092960249641411 ], [ 77.409794134021411, 13.092992655425371 ], [ 77.40986276526138, 13.093141291067022 ], [ 77.409902796185889, 13.093131011423969 ], [ 77.410062003373071, 13.093080297606178 ], [ 77.410221639435989, 13.093049138676751 ], [ 77.410405983430991, 13.093013155996589 ], [ 77.411123125669405, 13.092873175577189 ], [ 77.411235069557506, 13.092851324822297 ], [ 77.411278910163105, 13.092842767652236 ], [ 77.411372863100055, 13.092824428172056 ], [ 77.412084857586407, 13.09270669791494 ], [ 77.4128229671295, 13.092654450446897 ], [ 77.41295496093359, 13.092645107040127 ], [ 77.413124112200222, 13.092635231541681 ], [ 77.413473853627266, 13.092614811159283 ], [ 77.413506611153181, 13.092612631540653 ], [ 77.413572384121068, 13.092608254517026 ], [ 77.414011993630339, 13.092579061016979 ], [ 77.414036066604766, 13.092575682312212 ], [ 77.414488001705919, 13.092512251351158 ], [ 77.414813345980534, 13.092464936065124 ], [ 77.414818459120553, 13.092463006157631 ], [ 77.414818329860339, 13.0924628473957 ], [ 77.4151579751193, 13.092334517986608 ], [ 77.415982502135932, 13.091767415788805 ], [ 77.416479450706532, 13.091433666576055 ], [ 77.416559665773605, 13.09137981488724 ], [ 77.416680468241836, 13.091298723358896 ], [ 77.416910768822262, 13.091172955709713 ], [ 77.41695315665612, 13.091149807372863 ], [ 77.416987188102055, 13.091131620788786 ], [ 77.416832978232591, 13.090925415768584 ], [ 77.417152827577311, 13.090715163733847 ], [ 77.417361011477126, 13.090578309754312 ], [ 77.417690816966399, 13.090412879665603 ], [ 77.418175986590441, 13.090169517182337 ], [ 77.418274578310047, 13.090120068306049 ], [ 77.418489520899186, 13.090014364741821 ], [ 77.419020622504561, 13.089753184362287 ], [ 77.419155227824675, 13.089706325808043 ], [ 77.419464869776235, 13.089598540672727 ], [ 77.419821259207112, 13.089474478549882 ], [ 77.419959418119234, 13.08943561421103 ], [ 77.420132166272097, 13.089387014931871 ], [ 77.420561266897522, 13.089256645142612 ], [ 77.420844977209939, 13.089181258741545 ], [ 77.421128686393018, 13.089105873873375 ], [ 77.421505848257823, 13.089057957155138 ], [ 77.421883009869262, 13.08901003900665 ], [ 77.421806087781462, 13.088777517082347 ], [ 77.421800162902272, 13.088759601382417 ], [ 77.421785877178849, 13.0887164317458 ], [ 77.421780653715558, 13.088701625754569 ], [ 77.421675702208333, 13.088404245460287 ], [ 77.421327236061231, 13.087328046640334 ], [ 77.421307399181913, 13.08710070163281 ], [ 77.42130327188184, 13.087053353510747 ], [ 77.421291053050979, 13.086913280934352 ], [ 77.421394800439359, 13.086877195774143 ], [ 77.421195968340399, 13.086286318615306 ], [ 77.421122759838298, 13.086097196150101 ], [ 77.421103690153259, 13.086047932691388 ], [ 77.421083040585728, 13.085719382881935 ], [ 77.4210735200122, 13.085567892241082 ], [ 77.420883757147891, 13.085338066631987 ], [ 77.420890635597615, 13.085119874814026 ], [ 77.420818043753201, 13.084999309435881 ], [ 77.420888347293754, 13.084926395796204 ], [ 77.420958659912714, 13.084853472119716 ], [ 77.421072178700996, 13.084735736008744 ], [ 77.421409360084496, 13.084386029631714 ], [ 77.421477708712914, 13.084315140081539 ], [ 77.421593631912017, 13.084239979371194 ], [ 77.422027057237329, 13.083958955893962 ], [ 77.422114645094908, 13.08390216601893 ], [ 77.422326938552459, 13.083807276162064 ], [ 77.422568600241476, 13.083783475296974 ], [ 77.423024342782156, 13.083738432299189 ], [ 77.423210513822326, 13.083780656409512 ], [ 77.423210828824836, 13.083780727541257 ], [ 77.423566492251524, 13.083861476593519 ], [ 77.423567464057612, 13.083861696963892 ], [ 77.423568701449653, 13.083863345135718 ], [ 77.423568903004323, 13.083864634394208 ], [ 77.423770139935954, 13.084128277775498 ], [ 77.424051655591057, 13.084498526553045 ], [ 77.424339652784312, 13.084739255550664 ], [ 77.424383017010939, 13.084777884404234 ], [ 77.424673322483756, 13.085036838142699 ], [ 77.425092251596524, 13.085008872332242 ], [ 77.425180192293212, 13.085003004945499 ], [ 77.425184811126087, 13.085003859644218 ], [ 77.425195471995238, 13.085005839883188 ], [ 77.42519581168915, 13.085005814496045 ], [ 77.425200346493696, 13.085006653720667 ], [ 77.425605835710414, 13.085082064270654 ], [ 77.425675463563351, 13.085094997530211 ], [ 77.42595736138189, 13.085106487460573 ], [ 77.426422348714766, 13.085044215716012 ], [ 77.42669267869779, 13.084974622148819 ], [ 77.426967428621595, 13.084898296989854 ], [ 77.426967538846881, 13.084898258004664 ], [ 77.427271029058218, 13.084789474761635 ], [ 77.427396407093809, 13.084782848764998 ], [ 77.427541732568855, 13.084775137828585 ], [ 77.427791598547032, 13.084683985001098 ], [ 77.428077220800304, 13.084580890517156 ], [ 77.428187814999632, 13.08452803942475 ], [ 77.42889880020283, 13.084200252259505 ], [ 77.428947849624379, 13.084178430146467 ], [ 77.429018057991968, 13.084147193722924 ], [ 77.429511188249606, 13.083931292789838 ], [ 77.429739735026118, 13.083798863353369 ], [ 77.429925273709514, 13.083691686769823 ], [ 77.430018638726438, 13.08363776807176 ], [ 77.430069215981689, 13.083486034725345 ], [ 77.430007863766065, 13.083429231033941 ], [ 77.429816586317983, 13.083252116771721 ], [ 77.429563947812909, 13.083018188631934 ], [ 77.429499222210865, 13.082609425964691 ], [ 77.429342108236881, 13.082173763820212 ], [ 77.42928419967717, 13.082008340112706 ], [ 77.429109021489154, 13.081646774693391 ], [ 77.428869496302298, 13.080918230735534 ], [ 77.428713084402744, 13.080420994513963 ], [ 77.428644265596702, 13.080218660878913 ], [ 77.428516419417278, 13.079842773737807 ], [ 77.42846741742926, 13.079738888550835 ], [ 77.428066734895623, 13.078889378203517 ], [ 77.428037053173753, 13.07873728746889 ], [ 77.428016795345386, 13.078633482652348 ], [ 77.426482261593719, 13.079190434841266 ], [ 77.424615275660841, 13.079796067746448 ], [ 77.423492489220095, 13.080193891123155 ], [ 77.423035607712592, 13.08039810505784 ], [ 77.422972076061811, 13.08042650146518 ], [ 77.42257466999061, 13.080604130017013 ], [ 77.422435106350875, 13.080669338928155 ], [ 77.419770752243565, 13.081914193703176 ], [ 77.416302333763554, 13.083523956812821 ], [ 77.415670294687189, 13.083817292213599 ], [ 77.415498721726564, 13.083895552880467 ], [ 77.415281431271879, 13.083994665903615 ], [ 77.410731288995322, 13.086070081653638 ], [ 77.410822040636504, 13.086275671444126 ], [ 77.41128175789872, 13.087055930892504 ], [ 77.411295033540156, 13.087078462225282 ], [ 77.41142168078018, 13.08738175587758 ], [ 77.411638888943372, 13.087901922994504 ], [ 77.411680200877029, 13.088000855010581 ], [ 77.411775376789365, 13.08813312197104 ], [ 77.411775587950672, 13.088133414551463 ], [ 77.411722841334409, 13.08817929531615 ], [ 77.410757456416974, 13.088985927549354 ], [ 77.410442495663929, 13.08931340361619 ], [ 77.410411833952892, 13.089345283419886 ], [ 77.410247510195674, 13.089516135636087 ], [ 77.409025752419851, 13.090651489565479 ], [ 77.408147736124292, 13.091467403114258 ], [ 77.407916802181006, 13.091682001531064 ], [ 77.407758740510161, 13.091811126362515 ], [ 77.407717963257085, 13.091854539257008 ], [ 77.407643640698637, 13.091933664375897 ], [ 77.407383567496851, 13.092210543833801 ], [ 77.407293650516763, 13.092358666344063 ], [ 77.407215514019327, 13.092487381876495 ], [ 77.407169456852202, 13.092536503803995 ], [ 77.407098234213009, 13.092612466938737 ], [ 77.407436983155577, 13.092957134399187 ], [ 77.407745776026971, 13.093162430645252 ], [ 77.408112568398209, 13.093406282044871 ], [ 77.408423226028532, 13.093500620083034 ], [ 77.408459299304639, 13.093626252488351 ], [ 77.408484404655809, 13.093713687019839 ], [ 77.408482818001474, 13.09371444065733 ], [ 77.408483935638174, 13.09371835007102 ] ] ] } },
{ "type": "Feature", "properties": { "KGISWardID": 6996, "KGISWardCode": "2104027", "KGISWardName": null, "SHAPE.STArea()": 1718013.577230735, "SHAPE.STLength()": 5516.0276046602794, "OBJECTID": 21064, "KGISWardNo": "27", "KGISTownCode": "2104", "LGD_WardCode": 3044490, "created_user": "SURESHBV1", "created_date": 1665480451000, "last_edited_user": "SURESHBV1", "last_edited_date": 1692256773000, "_overlap_percent": 98.009444443871956, "_police_station": "Nelamangala Town PS", "_police_feature_index": "642", "_admin_layer": "Ward", "_geometry_clipped": true }, "geometry": { "type": "Polygon", "coordinates": [ [ [ 77.379863394888986, 13.094622128933848 ], [ 77.380121839135114, 13.094767144830524 ], [ 77.380503141325676, 13.094991171945686 ], [ 77.380532172881686, 13.095064523714406 ], [ 77.380563324928417, 13.095057449920153 ], [ 77.380869272073994, 13.094910536098157 ], [ 77.381718133065135, 13.094769179240007 ], [ 77.382252845551747, 13.094467926321089 ], [ 77.382304109537543, 13.094435877817025 ], [ 77.383059866880586, 13.09396340784051 ], [ 77.383705469580946, 13.093796158973724 ], [ 77.384293587342682, 13.093643800404992 ], [ 77.384431402415387, 13.09360809691105 ], [ 77.384607952803421, 13.093562359849736 ], [ 77.384613043911415, 13.093561125494611 ], [ 77.385084317686236, 13.093492047824807 ], [ 77.385159095165662, 13.093458988033824 ], [ 77.385550715294684, 13.093428092435266 ], [ 77.385673021369541, 13.093424308096488 ], [ 77.385917579105381, 13.093416740653284 ], [ 77.386936499631432, 13.093164766704243 ], [ 77.386957087384303, 13.093159675246914 ], [ 77.387196568605361, 13.093131561579263 ], [ 77.387452549355643, 13.093101511321031 ], [ 77.387594372242219, 13.093096559787911 ], [ 77.38770038154442, 13.093055493631415 ], [ 77.388270278547552, 13.092835062447048 ], [ 77.388450687483868, 13.092765305044537 ], [ 77.388794678036618, 13.09258248386824 ], [ 77.389075898089345, 13.09243295433768 ], [ 77.389093501357337, 13.092423597584194 ], [ 77.389601585792846, 13.092153762693458 ], [ 77.390458105079944, 13.091888845772701 ], [ 77.390702331684892, 13.09180488160729 ], [ 77.390855789401314, 13.091759230930599 ], [ 77.390911818002792, 13.09174256770409 ], [ 77.391162331468507, 13.091685618957165 ], [ 77.391568085261611, 13.091593468255249 ], [ 77.391757358831484, 13.091524791303238 ], [ 77.391856346066902, 13.091348416729465 ], [ 77.391781965462215, 13.091186417190617 ], [ 77.391679665211669, 13.090963545691977 ], [ 77.391682983461521, 13.090873753184198 ], [ 77.391687691476008, 13.090743149627535 ], [ 77.391690169363685, 13.090672870829948 ], [ 77.391705138270609, 13.090145286144558 ], [ 77.391719508310644, 13.089721067229835 ], [ 77.391736789307714, 13.089720919349663 ], [ 77.391736969409308, 13.089715635793727 ], [ 77.391818672568334, 13.089714942519842 ], [ 77.391853542388063, 13.089432656914681 ], [ 77.391899038567985, 13.089162524253645 ], [ 77.389249394885496, 13.089738089417361 ], [ 77.38916528385235, 13.089614553777148 ], [ 77.388973734246818, 13.089477669250217 ], [ 77.388683119965535, 13.089183918564595 ], [ 77.388504591050364, 13.088879567262598 ], [ 77.388124432737328, 13.087898133369556 ], [ 77.387999278226999, 13.08756459941657 ], [ 77.387915858583369, 13.087512777402127 ], [ 77.387798299176424, 13.087461270448056 ], [ 77.387733375589164, 13.08730408785361 ], [ 77.387334221079115, 13.086375422734163 ], [ 77.386999808370845, 13.085584815524241 ], [ 77.386889840806631, 13.085308515907508 ], [ 77.386795287412312, 13.085113355788627 ], [ 77.386705013371298, 13.08485599943327 ], [ 77.38666378653798, 13.084626876380927 ], [ 77.386612667790445, 13.084383501734157 ], [ 77.386507624857387, 13.084111936948348 ], [ 77.386393978548739, 13.083959985039822 ], [ 77.386344240638266, 13.083860037215109 ], [ 77.386294180702109, 13.08372662278091 ], [ 77.386142116004109, 13.083130362771946 ], [ 77.386081934428745, 13.082958790635319 ], [ 77.386022396977651, 13.082854151670864 ], [ 77.385894717363612, 13.082764486673652 ], [ 77.385649757146211, 13.082651999484929 ], [ 77.385145251926261, 13.082431939820321 ], [ 77.384713813060301, 13.082201641500804 ], [ 77.384428595189007, 13.08196042903611 ], [ 77.384171650562948, 13.081719938665787 ], [ 77.3841496995895, 13.081730960040339 ], [ 77.38374794772659, 13.081812947323904 ], [ 77.383738246095035, 13.081814927178042 ], [ 77.383318662571781, 13.08194503855589 ], [ 77.382986496828082, 13.082008911795326 ], [ 77.382159982323913, 13.081934084255483 ], [ 77.381711688236777, 13.081973920560637 ], [ 77.381275037706402, 13.082138205378504 ], [ 77.380290955739852, 13.082301217091052 ], [ 77.379753963735354, 13.082400051247319 ], [ 77.379617630656938, 13.08242514433889 ], [ 77.37957178958662, 13.082431006468701 ], [ 77.378575634494211, 13.082558415448149 ], [ 77.377979442688272, 13.082523374192318 ], [ 77.377525862642401, 13.08273948304292 ], [ 77.377121817811272, 13.082931987457039 ], [ 77.376048723870696, 13.083427036510228 ], [ 77.375546338182303, 13.083668565501362 ], [ 77.374573435881928, 13.084128175004652 ], [ 77.374572041189481, 13.084135263222446 ], [ 77.374415337017851, 13.084931608713411 ], [ 77.374290400170267, 13.085085700214615 ], [ 77.374227519204567, 13.085203366322322 ], [ 77.37418874562573, 13.08526205294187 ], [ 77.375174832428158, 13.087153802323035 ], [ 77.375319651215335, 13.087179599553446 ], [ 77.375492498682334, 13.087752089756759 ], [ 77.375510969087173, 13.087786563272676 ], [ 77.375640399592925, 13.088042471317944 ], [ 77.375819131323269, 13.088395853510537 ], [ 77.376547489862219, 13.089809782501396 ], [ 77.377148255953131, 13.090976005126747 ], [ 77.377213795801978, 13.090958478227522 ], [ 77.377388775605667, 13.090965371492938 ], [ 77.377417330146415, 13.090966496152724 ], [ 77.377927794076896, 13.091701895036786 ], [ 77.378555077797657, 13.092573368338853 ], [ 77.378623704120926, 13.09267242619188 ], [ 77.378627347135676, 13.092678393140728 ], [ 77.379170707598121, 13.093567919713371 ], [ 77.379553018485851, 13.094112240825977 ], [ 77.379685880476742, 13.094522523452728 ], [ 77.379863394888986, 13.094622128933848 ] ] ] } },
{ "type": "Feature", "properties": { "KGISWardID": 6701, "KGISWardCode": "2104003", "KGISWardName": null, "SHAPE.STArea()": 401066.26148523501, "SHAPE.STLength()": 3027.6742729730131, "OBJECTID": 21039, "KGISWardNo": "03", "KGISTownCode": "2104", "LGD_WardCode": 26454, "created_user": "SURESHBV1", "created_date": 1665480451000, "last_edited_user": "SURESHBV1", "last_edited_date": 1692254035000, "_overlap_percent": 78.266736726626107, "_police_station": "Nelamangala Town PS", "_police_feature_index": "642", "_admin_layer": "Ward", "_geometry_clipped": true }, "geometry": { "type": "Polygon", "coordinates": [ [ [ 77.407169456852202, 13.092536503803995 ], [ 77.407215514019327, 13.092487381876495 ], [ 77.407293650516763, 13.092358666344063 ], [ 77.407383567496851, 13.092210543833801 ], [ 77.407643640698637, 13.091933664375897 ], [ 77.407717963257085, 13.091854539257008 ], [ 77.407758740510161, 13.091811126362515 ], [ 77.407916802181006, 13.091682001531064 ], [ 77.408147736124292, 13.091467403114258 ], [ 77.409025752419851, 13.090651489565479 ], [ 77.410247510195674, 13.089516135636087 ], [ 77.410411833952892, 13.089345283419886 ], [ 77.410442495663929, 13.08931340361619 ], [ 77.410757456416974, 13.088985927549354 ], [ 77.411722841334409, 13.08817929531615 ], [ 77.411775587950672, 13.088133414551463 ], [ 77.411775376789365, 13.08813312197104 ], [ 77.411680200877029, 13.088000855010581 ], [ 77.411638888943372, 13.087901922994504 ], [ 77.41142168078018, 13.08738175587758 ], [ 77.411295033540156, 13.087078462225282 ], [ 77.41128175789872, 13.087055930892504 ], [ 77.410822040636504, 13.086275671444126 ], [ 77.410731288995322, 13.086070081653638 ], [ 77.410284884273295, 13.086270672751059 ], [ 77.404833122446846, 13.088613095896076 ], [ 77.402698692633976, 13.089530141711352 ], [ 77.403031842877681, 13.090039195461562 ], [ 77.403191117863955, 13.09014088660655 ], [ 77.403450203052415, 13.090233284340954 ], [ 77.403536823819536, 13.090326367398285 ], [ 77.403611872519051, 13.09038415278364 ], [ 77.403752939733238, 13.090348164510772 ], [ 77.404020505701624, 13.09027990339273 ], [ 77.404889221841216, 13.090672924106977 ], [ 77.405149995789984, 13.090846059483466 ], [ 77.405950359247782, 13.091459811594072 ], [ 77.406178506420986, 13.0917569516764 ], [ 77.406396003983986, 13.092040220223209 ], [ 77.406739326418773, 13.092487363848557 ], [ 77.406793193184257, 13.092501097366878 ], [ 77.407054181074258, 13.092567642544932 ], [ 77.407096486090978, 13.092610688274059 ], [ 77.407098234213009, 13.092612466938737 ], [ 77.407169456852202, 13.092536503803995 ] ] ] } },
{ "type": "Feature", "properties": { "KGISWardID": 6703, "KGISWardCode": "2104005", "KGISWardName": null, "SHAPE.STArea()": 173043.198540835, "SHAPE.STLength()": 2039.355547453742, "OBJECTID": 21041, "KGISWardNo": "05", "KGISTownCode": "2104", "LGD_WardCode": 26456, "created_user": "SURESHBV1", "created_date": 1665480451000, "last_edited_user": "SURESHBV1", "last_edited_date": 1692254035000, "_overlap_percent": 5.9760768948632572, "_police_station": "Nelamangala Town PS", "_police_feature_index": "642", "_admin_layer": "Ward", "_geometry_clipped": true }, "geometry": { "type": "MultiPolygon", "coordinates": [ [ [ [ 77.406030509074228, 13.098104142590323 ], [ 77.406131224472716, 13.098061264495815 ], [ 77.405737732885768, 13.097203297644445 ], [ 77.405774547572818, 13.09717440387476 ], [ 77.406109422938172, 13.097031864321862 ], [ 77.406252998281957, 13.096957605483384 ], [ 77.406418690940328, 13.09687207441689 ], [ 77.40643216145007, 13.09686406254035 ], [ 77.406580558342142, 13.096776039124185 ], [ 77.406837876550441, 13.096530360335462 ], [ 77.406968936748811, 13.095711540301318 ], [ 77.40705951522726, 13.09549553818664 ], [ 77.407121921513848, 13.095141142084934 ], [ 77.407139989447586, 13.095093542750545 ], [ 77.407159900305658, 13.095041092662516 ], [ 77.407034117483306, 13.095121180288317 ], [ 77.406997969725765, 13.095144196710763 ], [ 77.406915072223001, 13.09548227996525 ], [ 77.406861910501235, 13.095680078716411 ], [ 77.406596624553103, 13.096639752099142 ], [ 77.406592905894186, 13.09665320444822 ], [ 77.406445434563736, 13.096732026557365 ], [ 77.406432050657557, 13.096739179257675 ], [ 77.406267391554735, 13.09681447796676 ], [ 77.406124778249549, 13.096879397817551 ], [ 77.405792104844608, 13.097000734100025 ], [ 77.405646864520037, 13.097125861565713 ], [ 77.405617222162789, 13.097161108981185 ], [ 77.405506043720976, 13.0973183503908 ], [ 77.405368670454962, 13.097456667481124 ], [ 77.405344645031519, 13.097485234963269 ], [ 77.405684592650957, 13.098181735502031 ], [ 77.405703816834119, 13.098243227358145 ], [ 77.406030509074228, 13.098104142590323 ] ] ], [ [ [ 77.40739842723687, 13.094893858151918 ], [ 77.407521649436291, 13.094864877549519 ], [ 77.407538146650296, 13.094580436932217 ], [ 77.407580039491961, 13.094486830743453 ], [ 77.40766377395461, 13.094257932932511 ], [ 77.407865565562332, 13.094115788797799 ], [ 77.407889266682631, 13.094007913834309 ], [ 77.408365100418706, 13.093776016412052 ], [ 77.408483935638174, 13.09371835007102 ], [ 77.408482818001474, 13.09371444065733 ], [ 77.408365698003337, 13.093770070935108 ], [ 77.407833913852997, 13.094022654313152 ], [ 77.407752601018331, 13.094067348424833 ], [ 77.407723857059992, 13.094083147843556 ], [ 77.407711612470735, 13.094116177381695 ], [ 77.407582209675155, 13.094465238366263 ], [ 77.407540531217464, 13.094556717417433 ], [ 77.407423845800835, 13.094812823196708 ], [ 77.407385545658286, 13.094896887824564 ], [ 77.40739842723687, 13.094893858151918 ] ] ] ] } },
{ "type": "Feature", "properties": { "KGISWardID": 6700, "KGISWardCode": "2104002", "KGISWardName": null, "SHAPE.STArea()": 1000519.762292495, "SHAPE.STLength()": 4595.499929968455, "OBJECTID": 21038, "KGISWardNo": "02", "KGISTownCode": "2104", "LGD_WardCode": 26453, "created_user": "SURESHBV1", "created_date": 1665480451000, "last_edited_user": "SURESHBV1", "last_edited_date": 1692254035000, "_overlap_percent": 99.96228541382753, "_police_station": "Nelamangala Town PS", "_police_feature_index": "642", "_admin_layer": "Ward", "_geometry_clipped": true }, "geometry": { "type": "Polygon", "coordinates": [ [ [ 77.41490943291339, 13.092581920207571 ], [ 77.414895314594091, 13.092564736079435 ], [ 77.414813345980534, 13.092464936065124 ], [ 77.414488001705919, 13.092512251351158 ], [ 77.414036066604766, 13.092575682312212 ], [ 77.414011993630339, 13.092579061016979 ], [ 77.413572384121068, 13.092608254517026 ], [ 77.413506611153181, 13.092612631540653 ], [ 77.413473853627266, 13.092614811159283 ], [ 77.413124112200222, 13.092635231541681 ], [ 77.41295496093359, 13.092645107040127 ], [ 77.4128229671295, 13.092654450446897 ], [ 77.412084857586407, 13.09270669791494 ], [ 77.411372863100055, 13.092824428172056 ], [ 77.411278910163105, 13.092842767652236 ], [ 77.411235069557506, 13.092851324822297 ], [ 77.411123125669405, 13.092873175577189 ], [ 77.410405983430991, 13.093013155996589 ], [ 77.410221639435989, 13.093049138676751 ], [ 77.410062003373071, 13.093080297606178 ], [ 77.409902796185889, 13.093131011423969 ], [ 77.40986276526138, 13.093141291067022 ], [ 77.409794134021411, 13.092992655425371 ], [ 77.409779171087322, 13.092960249641411 ], [ 77.409524344344234, 13.092408365961361 ], [ 77.409458932886494, 13.092266703434783 ], [ 77.409414329714565, 13.092170104940925 ], [ 77.408505077987613, 13.092716489647486 ], [ 77.408604980131784, 13.093053341785836 ], [ 77.40873357475725, 13.093486934752136 ], [ 77.408767156695518, 13.09356554556884 ], [ 77.408591946414916, 13.093699174546753 ], [ 77.408560656606767, 13.093704729955633 ], [ 77.408483935638174, 13.09371835007102 ], [ 77.408365100418706, 13.093776016412052 ], [ 77.407889266682631, 13.094007913834309 ], [ 77.407865565562332, 13.094115788797799 ], [ 77.40766377395461, 13.094257932932511 ], [ 77.407580039491961, 13.094486830743453 ], [ 77.407538146650296, 13.094580436932217 ], [ 77.407521649436291, 13.094864877549519 ], [ 77.40739842723687, 13.094893858151918 ], [ 77.407385545658286, 13.094896887824564 ], [ 77.407385203343409, 13.094897639168304 ], [ 77.407159900305658, 13.095041092662516 ], [ 77.407139989447586, 13.095093542750545 ], [ 77.407121921513848, 13.095141142084934 ], [ 77.40705951522726, 13.09549553818664 ], [ 77.406968936748811, 13.095711540301318 ], [ 77.406837876550441, 13.096530360335462 ], [ 77.406580558342142, 13.096776039124185 ], [ 77.40643216145007, 13.09686406254035 ], [ 77.406418690940328, 13.09687207441689 ], [ 77.406252998281957, 13.096957605483384 ], [ 77.406109422938172, 13.097031864321862 ], [ 77.405774547572818, 13.09717440387476 ], [ 77.405737732885768, 13.097203297644445 ], [ 77.406131224472716, 13.098061264495815 ], [ 77.406292728341455, 13.098413404302757 ], [ 77.406872378280184, 13.098229547190506 ], [ 77.408054472354962, 13.097899358450329 ], [ 77.408609268698626, 13.097768666781612 ], [ 77.409352734908651, 13.100272177276139 ], [ 77.410488651690258, 13.100234363166738 ], [ 77.410562045848948, 13.100257582653523 ], [ 77.410691696184998, 13.100548027008211 ], [ 77.410765239541519, 13.101087620034226 ], [ 77.410784107418849, 13.101522537726506 ], [ 77.410834697056018, 13.101708532893754 ], [ 77.410923747083189, 13.101836793342358 ], [ 77.41121965007143, 13.102168712944032 ], [ 77.411397100048347, 13.102358302434514 ], [ 77.411766073308669, 13.102679974338539 ], [ 77.411889032634861, 13.102784011058285 ], [ 77.412016172071233, 13.102816290017817 ], [ 77.412260183174652, 13.102828349646659 ], [ 77.412299528247502, 13.102861449384234 ], [ 77.412515798469826, 13.103951586607137 ], [ 77.412608431852675, 13.103935921098822 ], [ 77.412691739177021, 13.103921848181521 ], [ 77.412785056589456, 13.103906096696726 ], [ 77.412876193048191, 13.103890728825951 ], [ 77.412878447721639, 13.10389034448967 ], [ 77.413466547489008, 13.103790315643622 ], [ 77.413644444381987, 13.103760056816039 ], [ 77.41369714770974, 13.10375109245075 ], [ 77.414133893267348, 13.103673678746214 ], [ 77.414335552998921, 13.103641902063268 ], [ 77.415538728392505, 13.103424255876437 ], [ 77.415911764690179, 13.10337100896483 ], [ 77.415934753704093, 13.103367727722111 ], [ 77.416066131844502, 13.103338302820323 ], [ 77.416148826407778, 13.10331978014827 ], [ 77.416173789485015, 13.103314189002425 ], [ 77.416890230743277, 13.103192128207139 ], [ 77.416890565709295, 13.103192069949596 ], [ 77.417096798634716, 13.103155229175755 ], [ 77.417160924138571, 13.103126682147511 ], [ 77.417836145416317, 13.102826096997951 ], [ 77.417905175749127, 13.102787372800416 ], [ 77.417881218413228, 13.10276341223142 ], [ 77.417859352114476, 13.102689939346538 ], [ 77.417709041840013, 13.102184875296805 ], [ 77.417690796352048, 13.102123567068478 ], [ 77.417638169090623, 13.101946729804636 ], [ 77.417597553511058, 13.101809890577616 ], [ 77.417402965863218, 13.101152194853203 ], [ 77.417278394926413, 13.100775613095504 ], [ 77.417236220274503, 13.100619803221644 ], [ 77.417236202065411, 13.100619732012937 ], [ 77.41723422536964, 13.10061242195647 ], [ 77.417228803025665, 13.100592363672972 ], [ 77.417206835303574, 13.100511094078112 ], [ 77.417046638850351, 13.100087560442299 ], [ 77.416943845691733, 13.099810471947027 ], [ 77.41673120146632, 13.09925653721578 ], [ 77.416731132366053, 13.099256351734784 ], [ 77.416703127977172, 13.099181101092229 ], [ 77.416526516269826, 13.098706512675754 ], [ 77.416517967274416, 13.098684366679928 ], [ 77.416304881972607, 13.098132153555561 ], [ 77.416333648017599, 13.098122396263829 ], [ 77.416430005785386, 13.098088644460114 ], [ 77.41647960851688, 13.098071147413245 ], [ 77.416478081271038, 13.098036970388284 ], [ 77.416476923711571, 13.097994831974567 ], [ 77.416440144771542, 13.097652178264537 ], [ 77.416373385480767, 13.09729450672951 ], [ 77.416335474093586, 13.097047833722948 ], [ 77.416311822012759, 13.096894450230925 ], [ 77.416095806930571, 13.096249022409518 ], [ 77.415984406374406, 13.095850411255716 ], [ 77.415972620200122, 13.095808311978578 ], [ 77.415871790853075, 13.09546469402782 ], [ 77.415755356227763, 13.095069455733517 ], [ 77.415704273118763, 13.094926474926636 ], [ 77.415612742357055, 13.09467056380926 ], [ 77.415498429010398, 13.094351171051736 ], [ 77.415417467488766, 13.094092776334133 ], [ 77.415277522442636, 13.093645175408289 ], [ 77.415124879262066, 13.093192314467348 ], [ 77.4151002842178, 13.093119344558204 ], [ 77.41490943291339, 13.092581920207571 ] ] ] } },
{ "type": "Feature", "properties": { "KGISWardID": 6706, "KGISWardCode": "2104008", "KGISWardName": null, "SHAPE.STArea()": 215232.80318081501, "SHAPE.STLength()": 1992.9382550676435, "OBJECTID": 21049, "KGISWardNo": "08", "KGISTownCode": "2104", "LGD_WardCode": 26459, "created_user": "SURESHBV1", "created_date": 1665480451000, "last_edited_user": "SURESHBV1", "last_edited_date": 1692254035000, "_overlap_percent": 0.47615109352184332, "_police_station": "Nelamangala Town PS", "_police_feature_index": "642", "_admin_layer": "Ward", "_geometry_clipped": true }, "geometry": { "type": "Polygon", "coordinates": [ [ [ 77.401614952986961, 13.101264536128937 ], [ 77.401830188835348, 13.10116693324437 ], [ 77.402035145066691, 13.101045339259713 ], [ 77.402057097884821, 13.101026160169612 ], [ 77.402401085112928, 13.100905893101396 ], [ 77.402490478512462, 13.100857732935902 ], [ 77.402550827807886, 13.100837311313764 ], [ 77.402771853697956, 13.100731174000421 ], [ 77.403134739356261, 13.10038794427434 ], [ 77.403198492641025, 13.100368945497836 ], [ 77.403395309540585, 13.100310389245321 ], [ 77.403412561099501, 13.100305275134927 ], [ 77.403388350405379, 13.10025691038631 ], [ 77.403209953963056, 13.100309644601202 ], [ 77.403145807641067, 13.100328605479518 ], [ 77.402781603956711, 13.100674120816544 ], [ 77.402559134454293, 13.100779294853037 ], [ 77.402498272557139, 13.100799231530811 ], [ 77.402414101288912, 13.100848924224371 ], [ 77.402087054537901, 13.1009743724657 ], [ 77.402066711116021, 13.100993924178995 ], [ 77.401874157871774, 13.10111866529806 ], [ 77.401670504114179, 13.101219268480989 ], [ 77.400978788511409, 13.101517535793151 ], [ 77.401614952986961, 13.101264536128937 ] ] ] } },
{ "type": "Feature", "properties": { "KGISWardID": 6994, "KGISWardCode": "2104025", "KGISWardName": null, "SHAPE.STArea()": 4195073.0401889896, "SHAPE.STLength()": 10038.042831378862, "OBJECTID": 21060, "KGISWardNo": "25", "KGISTownCode": "2104", "LGD_WardCode": 3044488, "created_user": "SURESHBV1", "created_date": 1665480451000, "last_edited_user": "SURESHBV1", "last_edited_date": 1692256759000, "_overlap_percent": 0.40821766371725704, "_police_station": "Nelamangala Town PS", "_police_feature_index": "642", "_admin_layer": "Ward", "_geometry_clipped": true }, "geometry": { "type": "MultiPolygon", "coordinates": [ [ [ [ 77.37418874562573, 13.08526205294187 ], [ 77.373872641115753, 13.085740500009996 ], [ 77.37378930219262, 13.085796063452827 ], [ 77.374733380937855, 13.087155596687538 ], [ 77.375106417788288, 13.087141615311511 ], [ 77.375174832428158, 13.087153802323035 ], [ 77.37418874562573, 13.08526205294187 ] ] ], [ [ [ 77.375640399592925, 13.088042471317944 ], [ 77.375510969087173, 13.087786563272676 ], [ 77.375492498682334, 13.087752089756759 ], [ 77.375499564916552, 13.087775493917292 ], [ 77.375819131323269, 13.088395853510537 ], [ 77.375640399592925, 13.088042471317944 ] ] ], [ [ [ 77.380503141325676, 13.094991171945686 ], [ 77.380121839135114, 13.094767144830524 ], [ 77.379863394888986, 13.094622128933848 ], [ 77.379685880476742, 13.094522523452728 ], [ 77.379703068206069, 13.094575599781679 ], [ 77.379895214416408, 13.09508515124244 ], [ 77.3799352487205, 13.095195593462748 ], [ 77.380051280173291, 13.095173721549957 ], [ 77.380532172881686, 13.095064523714406 ], [ 77.380503141325676, 13.094991171945686 ] ] ], [ [ [ 77.379475851014604, 13.107370660536183 ], [ 77.379627125074521, 13.107279829770214 ], [ 77.379775132616999, 13.107213795682952 ], [ 77.38013417484926, 13.107053606298896 ], [ 77.380370878919692, 13.106986774118923 ], [ 77.380460139837112, 13.10696037680488 ], [ 77.38056742388649, 13.106928649980659 ], [ 77.380834549613084, 13.106701540351843 ], [ 77.380966156470606, 13.106589647113251 ], [ 77.381499487897798, 13.10613620629265 ], [ 77.381561135016113, 13.106079834450771 ], [ 77.381638267224716, 13.105973185491832 ], [ 77.381705117622289, 13.105880751481294 ], [ 77.381717306440109, 13.105863929291294 ], [ 77.381731524005261, 13.105844308096069 ], [ 77.381862762391805, 13.105788383459636 ], [ 77.382107696586203, 13.105684009611883 ], [ 77.382185114191373, 13.105651019609185 ], [ 77.382308587351545, 13.105598403121135 ], [ 77.382361433848104, 13.105575883910209 ], [ 77.382435853489739, 13.105542979391574 ], [ 77.382797823579182, 13.105437578740442 ], [ 77.383342168804205, 13.105279071897263 ], [ 77.383727371438837, 13.105225535310241 ], [ 77.384283532525288, 13.105073572929548 ], [ 77.38435477480985, 13.105058921168911 ], [ 77.384331526069019, 13.1050319223112 ], [ 77.384274810284339, 13.105042858603587 ], [ 77.383716791464508, 13.105188279217774 ], [ 77.383330142324937, 13.105236719540878 ], [ 77.382423214210888, 13.105499103816115 ], [ 77.382348979597481, 13.105533225518728 ], [ 77.381718312871868, 13.105814472733847 ], [ 77.381691663492333, 13.105852008055782 ], [ 77.38154610087642, 13.106057032065028 ], [ 77.381483852997619, 13.106115348493605 ], [ 77.380540029366429, 13.106931105095095 ], [ 77.380341829312101, 13.106991298297157 ], [ 77.380103237351435, 13.107060244152695 ], [ 77.379591528970948, 13.107291208209542 ], [ 77.379450788548922, 13.107376206402062 ], [ 77.379475851014604, 13.107370660536183 ] ] ], [ [ [ 77.378968271807523, 13.109294084762315 ], [ 77.378852936872917, 13.108916137146739 ], [ 77.378770360624415, 13.10862101535607 ], [ 77.378667318162272, 13.108126233895907 ], [ 77.378601063364655, 13.107842009081994 ], [ 77.378611857766302, 13.107703471293332 ], [ 77.378609517483525, 13.107625326786744 ], [ 77.378607779345856, 13.107567290879842 ], [ 77.378565512971008, 13.107576639038019 ], [ 77.378566744754508, 13.107640063035376 ], [ 77.378568283610832, 13.10771932361307 ], [ 77.378556028502373, 13.107859824774712 ], [ 77.378619519996661, 13.108148792612585 ], [ 77.37871833261319, 13.108651976520733 ], [ 77.378798993023793, 13.108952159702453 ], [ 77.378912458418114, 13.109336629348659 ], [ 77.378921751083197, 13.109367782434814 ], [ 77.378968271807523, 13.109294084762315 ] ] ] ] } },
{ "type": "Feature", "properties": { "KGISWardID": 6704, "KGISWardCode": "2104006", "KGISWardName": null, "SHAPE.STArea()": 349442.04433400999, "SHAPE.STLength()": 3195.1105043094026, "OBJECTID": 21047, "KGISWardNo": "06", "KGISTownCode": "2104", "LGD_WardCode": 26457, "created_user": "SURESHBV1", "created_date": 1665480451000, "last_edited_user": "SURESHBV1", "last_edited_date": 1692254035000, "_overlap_percent": 93.250619336923251, "_police_station": "Nelamangala Town PS", "_police_feature_index": "642", "_admin_layer": "Ward", "_geometry_clipped": true }, "geometry": { "type": "Polygon", "coordinates": [ [ [ 77.412446775055471, 13.10396325965792 ], [ 77.412515798469826, 13.103951586607137 ], [ 77.412299528247502, 13.102861449384234 ], [ 77.412260183174652, 13.102828349646659 ], [ 77.412016172071233, 13.102816290017817 ], [ 77.411889032634861, 13.102784011058285 ], [ 77.411766073308669, 13.102679974338539 ], [ 77.411397100048347, 13.102358302434514 ], [ 77.41121965007143, 13.102168712944032 ], [ 77.410923747083189, 13.101836793342358 ], [ 77.410834697056018, 13.101708532893754 ], [ 77.410784107418849, 13.101522537726506 ], [ 77.410765239541519, 13.101087620034226 ], [ 77.410691696184998, 13.100548027008211 ], [ 77.410562045848948, 13.100257582653523 ], [ 77.410488651690258, 13.100234363166738 ], [ 77.409352734908651, 13.100272177276139 ], [ 77.408609268698626, 13.097768666781612 ], [ 77.408054472354962, 13.097899358450329 ], [ 77.406872378280184, 13.098229547190506 ], [ 77.406292728341455, 13.098413404302757 ], [ 77.406131224472716, 13.098061264495815 ], [ 77.406030509074228, 13.098104142590323 ], [ 77.405703816834119, 13.098243227358145 ], [ 77.405765776663173, 13.098441416527498 ], [ 77.405917085667838, 13.098778400824221 ], [ 77.405446653624693, 13.099038947197931 ], [ 77.404864847459592, 13.099564585913797 ], [ 77.404648354169197, 13.099652953061637 ], [ 77.404102379135978, 13.100020452881859 ], [ 77.403708243639869, 13.10017344617914 ], [ 77.403664128779042, 13.100175390007296 ], [ 77.403408018083752, 13.100251096595606 ], [ 77.403388350405379, 13.10025691038631 ], [ 77.403412561099501, 13.100305275134927 ], [ 77.403867945144199, 13.10149250891974 ], [ 77.403942415556941, 13.101513872545725 ], [ 77.404049050881781, 13.101506901793266 ], [ 77.404104542695265, 13.101494975976962 ], [ 77.404179870802182, 13.10147878649723 ], [ 77.404614804502373, 13.101373126867674 ], [ 77.405326618329639, 13.101211092729828 ], [ 77.405454562968828, 13.10120093361396 ], [ 77.405679976989461, 13.101181697495944 ], [ 77.406233853492537, 13.101080901080978 ], [ 77.406568536811363, 13.101012034223 ], [ 77.407037987429192, 13.101007650194338 ], [ 77.407221064572965, 13.101023869292565 ], [ 77.407525612128225, 13.100991141656621 ], [ 77.40771977853403, 13.100893703065466 ], [ 77.407786378353123, 13.100845268060427 ], [ 77.408246029514942, 13.102341093698161 ], [ 77.409081180643753, 13.105423770599685 ], [ 77.409941044652655, 13.105032444385106 ], [ 77.410246740571168, 13.104893350650999 ], [ 77.410643391335284, 13.10471255291791 ], [ 77.410742666349449, 13.104667302657775 ], [ 77.411639905288425, 13.104317496905187 ], [ 77.41189249580006, 13.104205187066304 ], [ 77.412184337905288, 13.104075424510549 ], [ 77.412216495858388, 13.104061125807107 ], [ 77.412428649285616, 13.103966820347928 ], [ 77.41243076505431, 13.103966465325581 ], [ 77.412446775055471, 13.10396325965792 ] ] ] } },
{ "type": "Feature", "properties": { "KGISWardID": 6718, "KGISWardCode": "2104020", "KGISWardName": null, "SHAPE.STArea()": 393356.82431161002, "SHAPE.STLength()": 4063.3420939056032, "OBJECTID": 21056, "KGISWardNo": "20", "KGISTownCode": "2104", "LGD_WardCode": 2176837, "created_user": "SURESHBV1", "created_date": 1665480451000, "last_edited_user": "SURESHBV1", "last_edited_date": 1692254035000, "_overlap_percent": 30.05956615054728, "_police_station": "Nelamangala Town PS", "_police_feature_index": "642", "_admin_layer": "Ward", "_geometry_clipped": true }, "geometry": { "type": "Polygon", "coordinates": [ [ [ 77.388111366874611, 13.105670915421573 ], [ 77.38813147425472, 13.106617430546878 ], [ 77.388124013855233, 13.10824553933789 ], [ 77.389457533571516, 13.108149966574675 ], [ 77.389661364860174, 13.108135357341133 ], [ 77.39043682654399, 13.107674343658442 ], [ 77.390713521899826, 13.107509846525897 ], [ 77.392804856599611, 13.106266521264811 ], [ 77.392834128523347, 13.106262598484571 ], [ 77.391920926477127, 13.10576654158405 ], [ 77.390371796028589, 13.104957851169887 ], [ 77.390278641469536, 13.104913089535493 ], [ 77.390258846952662, 13.104920224207664 ], [ 77.390251813039967, 13.104922758873148 ], [ 77.390220521935547, 13.104934037273532 ], [ 77.390181277366793, 13.104948181433413 ], [ 77.389377932981091, 13.105238444111381 ], [ 77.388870716511548, 13.105348985260383 ], [ 77.388789960872401, 13.105366065749271 ], [ 77.388721226532482, 13.105376630366901 ], [ 77.388575780178428, 13.105398982830286 ], [ 77.388317259944372, 13.105438715158268 ], [ 77.388235753145707, 13.105446550948022 ], [ 77.388152779112545, 13.105503795845356 ], [ 77.388111366874611, 13.105670915421573 ] ] ] } },
{ "type": "Feature", "properties": { "KGISWardID": 6719, "KGISWardCode": "2104021", "KGISWardName": null, "SHAPE.STArea()": 201769.92197575001, "SHAPE.STLength()": 2624.2701750015135, "OBJECTID": 21059, "KGISWardNo": "21", "KGISTownCode": "2104", "LGD_WardCode": 2176838, "created_user": "SURESHBV1", "created_date": 1665480451000, "last_edited_user": "SURESHBV1", "last_edited_date": 1692254035000, "_overlap_percent": 51.285469438558039, "_police_station": "Nelamangala Town PS", "_police_feature_index": "642", "_admin_layer": "Ward", "_geometry_clipped": true }, "geometry": { "type": "Polygon", "coordinates": [ [ [ 77.384663324392946, 13.104995462259964 ], [ 77.384482384047274, 13.105150122626489 ], [ 77.384454916594308, 13.105175215613507 ], [ 77.386186293191784, 13.107066960463477 ], [ 77.386898608750329, 13.107838283259944 ], [ 77.386290109170346, 13.109486306191998 ], [ 77.387452044111384, 13.109332099430247 ], [ 77.388092646834309, 13.109242488146451 ], [ 77.388124013855233, 13.10824553933789 ], [ 77.38813147425472, 13.106617430546878 ], [ 77.388111366874611, 13.105670915421573 ], [ 77.388152779112545, 13.105503795845356 ], [ 77.388120953624309, 13.105525752676149 ], [ 77.388070119412404, 13.105559751167347 ], [ 77.387946912970108, 13.105657419910212 ], [ 77.387880430307831, 13.105726063853643 ], [ 77.387796287478167, 13.105812504338656 ], [ 77.38773089526012, 13.105817886575249 ], [ 77.387441448798128, 13.105820718906859 ], [ 77.387186490287746, 13.106015740193239 ], [ 77.387111760743323, 13.106073307813443 ], [ 77.387026856792872, 13.105867032055514 ], [ 77.386974029416223, 13.105899317619036 ], [ 77.386792617389304, 13.10552407007679 ], [ 77.386692216030099, 13.105153517631646 ], [ 77.386626920728148, 13.104670126419803 ], [ 77.386105365644966, 13.104741791127024 ], [ 77.385520729462073, 13.104971461009008 ], [ 77.385311631667832, 13.104913262460132 ], [ 77.384704074418138, 13.104960630600688 ], [ 77.384663324392946, 13.104995462259964 ] ] ] } },
{ "type": "Feature", "properties": { "KGISWardID": 6993, "KGISWardCode": "2104024", "KGISWardName": null, "SHAPE.STArea()": 1024709.20646248, "SHAPE.STLength()": 8694.0800505346724, "OBJECTID": 21062, "KGISWardNo": "24", "KGISTownCode": "2104", "LGD_WardCode": 3044487, "created_user": "SURESHBV1", "created_date": 1665480451000, "last_edited_user": "SURESHBV1", "last_edited_date": 1692256753000, "_overlap_percent": 12.192700842313114, "_police_station": "Nelamangala Town PS", "_police_feature_index": "642", "_admin_layer": "Ward", "_geometry_clipped": true }, "geometry": { "type": "Polygon", "coordinates": [ [ [ 77.378609517483525, 13.107625326786744 ], [ 77.378611857766302, 13.107703471293332 ], [ 77.378601063364655, 13.107842009081994 ], [ 77.378667318162272, 13.108126233895907 ], [ 77.378770360624415, 13.10862101535607 ], [ 77.378852936872917, 13.108916137146739 ], [ 77.378968271807523, 13.109294084762315 ], [ 77.378921751083197, 13.109367782434814 ], [ 77.379056279508958, 13.109818780678882 ], [ 77.379204942408506, 13.110116709943304 ], [ 77.379316939503454, 13.110441802666905 ], [ 77.379752577604876, 13.11143718710365 ], [ 77.379955480156013, 13.112066345411966 ], [ 77.380286016450398, 13.113169765113557 ], [ 77.380080462023457, 13.112443949788952 ], [ 77.379965724359678, 13.112038804217381 ], [ 77.379954746599083, 13.111997084419825 ], [ 77.379792424264906, 13.111380215412085 ], [ 77.379490571567743, 13.110658162516822 ], [ 77.379374596582565, 13.110380741448893 ], [ 77.379349420662848, 13.110308624179121 ], [ 77.379262794304282, 13.110060477388963 ], [ 77.37922201403093, 13.109980655917591 ], [ 77.380631915619745, 13.108657228893115 ], [ 77.380749704952493, 13.108552317695727 ], [ 77.381087852278228, 13.108251137898158 ], [ 77.38146166220065, 13.107909655556556 ], [ 77.381715416807197, 13.109011029889089 ], [ 77.382314451592421, 13.108907314146196 ], [ 77.382307600446239, 13.108842578830675 ], [ 77.382218451585871, 13.108000183716474 ], [ 77.382777642165962, 13.10794122126045 ], [ 77.382598234640525, 13.106871368239563 ], [ 77.383943544282161, 13.105642377500615 ], [ 77.384039756101984, 13.105554483704395 ], [ 77.384454916594308, 13.105175215613507 ], [ 77.384482384047274, 13.105150122626489 ], [ 77.384663324392946, 13.104995462259964 ], [ 77.384704074418138, 13.104960630600688 ], [ 77.384699326148905, 13.104961000799026 ], [ 77.384331526069019, 13.1050319223112 ], [ 77.38435477480985, 13.105058921168911 ], [ 77.384283532525288, 13.105073572929548 ], [ 77.383727371438837, 13.105225535310241 ], [ 77.383342168804205, 13.105279071897263 ], [ 77.382797823579182, 13.105437578740442 ], [ 77.382435853489739, 13.105542979391574 ], [ 77.382361433848104, 13.105575883910209 ], [ 77.382308587351545, 13.105598403121135 ], [ 77.382185114191373, 13.105651019609185 ], [ 77.382107696586203, 13.105684009611883 ], [ 77.381862762391805, 13.105788383459636 ], [ 77.381731524005261, 13.105844308096069 ], [ 77.381717306440109, 13.105863929291294 ], [ 77.381705117622289, 13.105880751481294 ], [ 77.381638267224716, 13.105973185491832 ], [ 77.381561135016113, 13.106079834450771 ], [ 77.381499487897798, 13.10613620629265 ], [ 77.380966156470606, 13.106589647113251 ], [ 77.380834549613084, 13.106701540351843 ], [ 77.38056742388649, 13.106928649980659 ], [ 77.380460139837112, 13.10696037680488 ], [ 77.380370878919692, 13.106986774118923 ], [ 77.38013417484926, 13.107053606298896 ], [ 77.379775132616999, 13.107213795682952 ], [ 77.379627125074521, 13.107279829770214 ], [ 77.379475851014604, 13.107370660536183 ], [ 77.379450788548922, 13.107376206402062 ], [ 77.379438681705324, 13.10738351815947 ], [ 77.378607779345856, 13.107567290879842 ], [ 77.378609517483525, 13.107625326786744 ] ] ] } },
{ "type": "Feature", "properties": { "KGISWardID": 6721, "KGISWardCode": "2104023", "KGISWardName": null, "SHAPE.STArea()": 80018.969300944998, "SHAPE.STLength()": 1410.6158574864805, "OBJECTID": 21058, "KGISWardNo": "23", "KGISTownCode": "2104", "LGD_WardCode": 2176840, "created_user": "SURESHBV1", "created_date": 1665480451000, "last_edited_user": "SURESHBV1", "last_edited_date": 1692254035000, "_overlap_percent": 99.999999999999972, "_police_station": "Nelamangala Town PS", "_police_feature_index": "642", "_admin_layer": "Ward", "_geometry_clipped": true }, "geometry": { "type": "Polygon", "coordinates": [ [ [ 77.384454916594308, 13.105175215613507 ], [ 77.384039756101984, 13.105554483704395 ], [ 77.383943544282161, 13.105642377500615 ], [ 77.382598234640525, 13.106871368239563 ], [ 77.382777642165962, 13.10794122126045 ], [ 77.382218451585871, 13.108000183716474 ], [ 77.382307600446239, 13.108842578830675 ], [ 77.382314451592421, 13.108907314146196 ], [ 77.382318955137322, 13.108949867133029 ], [ 77.38232188182954, 13.108977525089019 ], [ 77.38232309160054, 13.108988952947323 ], [ 77.382363551096475, 13.108983864880567 ], [ 77.382431765067793, 13.10897558353898 ], [ 77.382585760267844, 13.108911217308114 ], [ 77.382787252778343, 13.108872463915951 ], [ 77.382801216777139, 13.108869778576242 ], [ 77.383437058334138, 13.108792176027078 ], [ 77.383333208362316, 13.107885878287027 ], [ 77.383325511644031, 13.107846503781802 ], [ 77.385378319528257, 13.107504762763705 ], [ 77.385959007324672, 13.107398977454881 ], [ 77.386186293191784, 13.107066960463477 ], [ 77.384454916594308, 13.105175215613507 ] ] ] } },
{ "type": "Feature", "properties": { "KGISWardID": 6720, "KGISWardCode": "2104022", "KGISWardName": null, "SHAPE.STArea()": 1896070.1284841651, "SHAPE.STLength()": 6542.8888238555865, "OBJECTID": 21057, "KGISWardNo": "22", "KGISTownCode": "2104", "LGD_WardCode": 2176839, "created_user": "SURESHBV1", "created_date": 1665480451000, "last_edited_user": "SURESHBV1", "last_edited_date": 1692254035000, "_overlap_percent": 99.839794394292753, "_police_station": "Nelamangala Town PS", "_police_feature_index": "642", "_admin_layer": "Ward", "_geometry_clipped": true }, "geometry": { "type": "Polygon", "coordinates": [ [ [ 77.388548939016715, 13.120043815085706 ], [ 77.390558380504359, 13.121178698664936 ], [ 77.390931943806208, 13.121313349788366 ], [ 77.391164095660727, 13.121391351750283 ], [ 77.392498307752035, 13.121857246713654 ], [ 77.392532724092163, 13.121961612217728 ], [ 77.392628241232345, 13.122001411096427 ], [ 77.392653156049022, 13.122011791663208 ], [ 77.392831527283718, 13.122083660582781 ], [ 77.393037107330372, 13.121992322710195 ], [ 77.393208108590031, 13.121916347681141 ], [ 77.39329304967049, 13.121896127790638 ], [ 77.393447502811298, 13.121859367024221 ], [ 77.393896430939961, 13.121694936747057 ], [ 77.394408114083774, 13.121499720745721 ], [ 77.394530845603796, 13.121440105570564 ], [ 77.3945780744301, 13.121439530597153 ], [ 77.394920933753838, 13.121388308595925 ], [ 77.394855638714972, 13.120940841002982 ], [ 77.39465436847911, 13.119864511825014 ], [ 77.39432757165423, 13.118960709054335 ], [ 77.394294981234864, 13.118858414043691 ], [ 77.394274823286665, 13.118811253691538 ], [ 77.394233133917638, 13.118650485089622 ], [ 77.393907280531991, 13.117433772766733 ], [ 77.393695593965589, 13.116903429514915 ], [ 77.393552615079031, 13.116530180058286 ], [ 77.393553447526415, 13.116516559417473 ], [ 77.393645138996746, 13.115016702061522 ], [ 77.393684438348231, 13.114373846778147 ], [ 77.393542198280315, 13.113724792862751 ], [ 77.393435231275376, 13.113236690276914 ], [ 77.393271206638545, 13.11242341011679 ], [ 77.393003530736323, 13.11092801307756 ], [ 77.393000824668164, 13.11090451786483 ], [ 77.393001220050493, 13.11089356010315 ], [ 77.393000686599038, 13.11088890758008 ], [ 77.393013017503122, 13.11054614390209 ], [ 77.392836721377321, 13.110017167979567 ], [ 77.392830634385319, 13.109784618395313 ], [ 77.392819261112393, 13.109369327123714 ], [ 77.392832381880908, 13.109049413793844 ], [ 77.392840511415031, 13.10885119745468 ], [ 77.392842908973833, 13.10879274247511 ], [ 77.392842103371478, 13.108375932382959 ], [ 77.392850712478108, 13.108246377020938 ], [ 77.392954571306348, 13.108044419811097 ], [ 77.393070384041977, 13.107936627238113 ], [ 77.393114766622375, 13.107787919473751 ], [ 77.393156403064438, 13.107473240283756 ], [ 77.392804856599611, 13.106266521264811 ], [ 77.390713521899826, 13.107509846525897 ], [ 77.39043682654399, 13.107674343658442 ], [ 77.389661364860174, 13.108135357341133 ], [ 77.389457533571516, 13.108149966574675 ], [ 77.388124013855233, 13.10824553933789 ], [ 77.388092646834309, 13.109242488146451 ], [ 77.387452044111384, 13.109332099430247 ], [ 77.386290109170346, 13.109486306191998 ], [ 77.386898608750329, 13.107838283259944 ], [ 77.386186293191784, 13.107066960463477 ], [ 77.385959007324672, 13.107398977454881 ], [ 77.385378319528257, 13.107504762763705 ], [ 77.383325511644031, 13.107846503781802 ], [ 77.383333208362316, 13.107885878287027 ], [ 77.383437058334138, 13.108792176027078 ], [ 77.382801216777139, 13.108869778576242 ], [ 77.382787252778343, 13.108872463915951 ], [ 77.382585760267844, 13.108911217308114 ], [ 77.382431765067793, 13.10897558353898 ], [ 77.382363551096475, 13.108983864880567 ], [ 77.38232309160054, 13.108988952947323 ], [ 77.38232188182954, 13.108977525089019 ], [ 77.382318955137322, 13.108949867133029 ], [ 77.382314451592421, 13.108907314146196 ], [ 77.381715416807197, 13.109011029889089 ], [ 77.38146166220065, 13.107909655556556 ], [ 77.381087852278228, 13.108251137898158 ], [ 77.380749704952493, 13.108552317695727 ], [ 77.380631915619745, 13.108657228893115 ], [ 77.37922201403093, 13.109980655917591 ], [ 77.379262794304282, 13.110060477388963 ], [ 77.379349420662848, 13.110308624179121 ], [ 77.379374596582565, 13.110380741448893 ], [ 77.379490571567743, 13.110658162516822 ], [ 77.379792424264906, 13.111380215412085 ], [ 77.379954746599083, 13.111997084419825 ], [ 77.379965724359678, 13.112038804217381 ], [ 77.380080462023457, 13.112443949788952 ], [ 77.380286016450398, 13.113169765113557 ], [ 77.38061496970036, 13.114267900183942 ], [ 77.380665478797269, 13.11443651074849 ], [ 77.380764587132873, 13.114595771872983 ], [ 77.380953471625361, 13.114899295325678 ], [ 77.381143381936482, 13.115204467101353 ], [ 77.38116333030068, 13.115318432779249 ], [ 77.381303107768389, 13.11611694465719 ], [ 77.381670860345139, 13.116854293936481 ], [ 77.382004744853319, 13.117522047299234 ], [ 77.382050939973652, 13.117612302723469 ], [ 77.382097002419968, 13.117700169450567 ], [ 77.382244081842472, 13.117995197026895 ], [ 77.382277770227859, 13.118062788527416 ], [ 77.382428589139153, 13.118365457035281 ], [ 77.383036886553029, 13.119609679996593 ], [ 77.3830830927363, 13.119704053409794 ], [ 77.384150844489227, 13.11946197462216 ], [ 77.384829193931012, 13.119520017228748 ], [ 77.384837688696919, 13.119520745396729 ], [ 77.386114038703525, 13.119536353643445 ], [ 77.387327949590684, 13.119791579977148 ], [ 77.388113332975635, 13.119956703081925 ], [ 77.38854806668175, 13.120043504226649 ], [ 77.388548436203351, 13.120043715343371 ], [ 77.388548939016715, 13.120043815085706 ] ] ] } }
]
}
