{
"type": "FeatureCollection",
"name": "police_station_boundary.writing_20260805_172659",
"crs": { "type": "name", "properties": { "name": "urn:ogc:def:crs:OGC:1.3:CRS84" } },
"features": [
{ "type": "Feature", "properties": { "Shape.STArea()": 247888204.89114064, "Shape.STLength()": 83857.633067114686, "OBJECTID": 352, "KGISPS_BOUNDID": 452, "PS_BOUNDName": "Nesaragi PS", "PS_BOUNDCode": "PSB - 452", "KGISPS_SUB_DIVID": 10, "_source_layer": "Police Station Boundary", "_source_layer_url": "https://kgis.ksrsac.in/kgismaps/rest/services/Home/Home_Department/MapServer/82", "_police_station": "Nesaragi PS" }, "geometry": { "type": "Polygon", "coordinates": [ [ [ 74.802000541951287, 15.991513107341307 ], [ 74.80199954068388, 15.991655848487627 ], [ 74.801938095975032, 15.991705896353267 ], [ 74.801617186478111, 15.991740042503947 ], [ 74.801029134066567, 15.991863438997461 ], [ 74.801037917165729, 15.991645525327939 ], [ 74.801109279818959, 15.991553272875551 ], [ 74.800987075363395, 15.991476401606633 ], [ 74.800977955693213, 15.99147710283442 ], [ 74.799319211189498, 15.991624424294093 ], [ 74.796990717664016, 15.991370454045549 ], [ 74.796069912908251, 15.991270013820589 ], [ 74.794148589532895, 15.991060426174965 ], [ 74.792797835141926, 15.990913068900621 ], [ 74.792659430939395, 15.99089797005249 ], [ 74.792319858766334, 15.990860925774589 ], [ 74.792193426719564, 15.990922940786566 ], [ 74.790547066664345, 15.990852000062862 ], [ 74.789576077135379, 15.990810154273788 ], [ 74.788164183067479, 15.990749300352135 ], [ 74.788085275178503, 15.990745899357563 ], [ 74.78619402590877, 15.991063674518429 ], [ 74.785441449794405, 15.991101877971369 ], [ 74.785428954369152, 15.991102511888004 ], [ 74.784299743085654, 15.991123104210274 ], [ 74.782308799397327, 15.991091127048092 ], [ 74.780565423232815, 15.99104637969775 ], [ 74.778135503943091, 15.991083707950754 ], [ 74.777087481988985, 15.991038233082813 ], [ 74.777003505052789, 15.991043990597168 ], [ 74.776419238709863, 15.991084049190299 ], [ 74.775805645355263, 15.991109677032904 ], [ 74.775588848930937, 15.991129511427072 ], [ 74.775475418889926, 15.99111923797088 ], [ 74.774531550229298, 15.990855019390624 ], [ 74.773689426903275, 15.99061319371453 ], [ 74.772926368845248, 15.990394069962916 ], [ 74.77280620676197, 15.990359562543174 ], [ 74.77078803839548, 15.990168577490353 ], [ 74.76871683747855, 15.989978355446539 ], [ 74.767118515670219, 15.989761817886189 ], [ 74.766098398408175, 15.989607294889222 ], [ 74.762727881387363, 15.986417606165043 ], [ 74.761016860290979, 15.984795957217894 ], [ 74.75972283321812, 15.983558985222134 ], [ 74.759426715906741, 15.983956847650024 ], [ 74.759286641420189, 15.983629405581919 ], [ 74.759132182697925, 15.983290869257122 ], [ 74.758975726292121, 15.982952410134123 ], [ 74.758825202842999, 15.982611763450242 ], [ 74.75867460746818, 15.982269167474687 ], [ 74.758530082401379, 15.981928277790686 ], [ 74.75837555941041, 15.98158778720806 ], [ 74.758215888610735, 15.981272840587886 ], [ 74.758192196694893, 15.981233087908738 ], [ 74.757526307752116, 15.980115725664918 ], [ 74.756448061125852, 15.980846422422823 ], [ 74.754395910088618, 15.979210724524073 ], [ 74.75204453684367, 15.977486643889605 ], [ 74.751871115551594, 15.977423253678618 ], [ 74.750081566525097, 15.976710140381192 ], [ 74.749625456924889, 15.976880222510415 ], [ 74.747912958701946, 15.977352265068042 ], [ 74.745836505568633, 15.978198822017186 ], [ 74.741785356598399, 15.978964434429331 ], [ 74.739477750485364, 15.978618339913156 ], [ 74.739123620027868, 15.978565225478027 ], [ 74.734768675362602, 15.973502039822867 ], [ 74.73370627169038, 15.97259200175349 ], [ 74.733479346368881, 15.972433291421781 ], [ 74.733445664875632, 15.972368767594753 ], [ 74.732553442588085, 15.970659514307144 ], [ 74.73247102547478, 15.970628582480943 ], [ 74.732345184409283, 15.970383281512065 ], [ 74.730781667517888, 15.9698540477909 ], [ 74.730640999735826, 15.969566531456076 ], [ 74.730570249061984, 15.969331342222576 ], [ 74.728943809660819, 15.968170532550802 ], [ 74.728284176311902, 15.967877051266589 ], [ 74.727475514664206, 15.967517259156622 ], [ 74.724986825829376, 15.96643480137913 ], [ 74.719400726725453, 15.966377091649893 ], [ 74.717107996988503, 15.965105498449562 ], [ 74.716360429235053, 15.964690874820052 ], [ 74.716046331341815, 15.964618418321461 ], [ 74.71176348062302, 15.962477622634806 ], [ 74.71111400891202, 15.962152971500281 ], [ 74.707850411837057, 15.960208870820352 ], [ 74.704221174271311, 15.958460270253475 ], [ 74.703435848503602, 15.958081879958453 ], [ 74.701123918493153, 15.95696791212978 ], [ 74.698933420202678, 15.955982829409693 ], [ 74.698266798013734, 15.95568303933641 ], [ 74.697340238403257, 15.955266346776671 ], [ 74.694686054679082, 15.95275675659005 ], [ 74.693742441553781, 15.951056852883999 ], [ 74.693273044143339, 15.950211230518452 ], [ 74.697250662397224, 15.948599889741399 ], [ 74.697254501392464, 15.948598333866114 ], [ 74.69672247280846, 15.947754132295945 ], [ 74.69495879909465, 15.944975676262452 ], [ 74.693677217863367, 15.944499387999906 ], [ 74.69232701023536, 15.943997583651688 ], [ 74.687088804121885, 15.943511709457994 ], [ 74.686929214695809, 15.942277716600692 ], [ 74.686689361762674, 15.940670733297539 ], [ 74.686417777977837, 15.939001117988528 ], [ 74.686262331735875, 15.937927875806528 ], [ 74.686202789167396, 15.937746323163235 ], [ 74.684210678699984, 15.934454983981071 ], [ 74.685934274629446, 15.933177069464234 ], [ 74.686891644303785, 15.932481198701479 ], [ 74.687352567494685, 15.932176701045709 ], [ 74.689462235716078, 15.930068910070521 ], [ 74.689841393835266, 15.929922806420945 ], [ 74.691704279949036, 15.929354010042205 ], [ 74.691811209310544, 15.92930873500219 ], [ 74.692654930761165, 15.925842788965745 ], [ 74.691464601445261, 15.924061946930379 ], [ 74.690193696657488, 15.922255233068794 ], [ 74.687531455097044, 15.921491928088106 ], [ 74.68528998713748, 15.92025635550903 ], [ 74.685142223445027, 15.920164768186519 ], [ 74.682536063462777, 15.918419076962241 ], [ 74.682238983848251, 15.915755653682192 ], [ 74.68216048702034, 15.914888691977081 ], [ 74.682090182888857, 15.914112225454096 ], [ 74.682082467353595, 15.914027016789452 ], [ 74.681939635094224, 15.913352694435114 ], [ 74.681974448132152, 15.91308923441221 ], [ 74.681910996906922, 15.912245636821799 ], [ 74.681884521921518, 15.912167068680874 ], [ 74.681803951302911, 15.912121627010423 ], [ 74.68277813075467, 15.911238990843371 ], [ 74.683314874042978, 15.910722653183464 ], [ 74.684809969389619, 15.909284373789113 ], [ 74.685257589348439, 15.90884891807046 ], [ 74.685394808546476, 15.908715427142051 ], [ 74.685602141966484, 15.908513727322887 ], [ 74.685794939966271, 15.908326163375207 ], [ 74.68605777498091, 15.908070466118462 ], [ 74.686266377660928, 15.907867528037285 ], [ 74.686410720310903, 15.907727103768091 ], [ 74.686559873732676, 15.907582000751946 ], [ 74.686696456859465, 15.907449126391272 ], [ 74.686830811163475, 15.907318416590247 ], [ 74.68693175149852, 15.90722021809189 ], [ 74.687055160626997, 15.907100158115275 ], [ 74.687153268629174, 15.907004714527149 ], [ 74.68724686031986, 15.906913661592036 ], [ 74.687325924614285, 15.906836740295251 ], [ 74.687411555928207, 15.906753434213021 ], [ 74.687483189438566, 15.906683745251934 ], [ 74.687567711921389, 15.906601516921251 ], [ 74.687646905083454, 15.906524471833976 ], [ 74.687734833067026, 15.90643892782836 ], [ 74.687799853445739, 15.906375674081442 ], [ 74.687871398746339, 15.906306067124712 ], [ 74.687938668249444, 15.906240624292185 ], [ 74.688004395828557, 15.906176678105128 ], [ 74.688184595139631, 15.906001368738742 ], [ 74.68876219432947, 15.905439434549042 ], [ 74.689250280576687, 15.905442094387057 ], [ 74.689374252044388, 15.905442768984146 ], [ 74.689447762947395, 15.905443169381094 ], [ 74.689530457928853, 15.905443618208853 ], [ 74.689619708155249, 15.905444106255901 ], [ 74.689711789001322, 15.905444605563822 ], [ 74.689810523183851, 15.905445144218515 ], [ 74.689900967320185, 15.905445635671654 ], [ 74.690023901841485, 15.905446304791463 ], [ 74.690135116878125, 15.905446912734945 ], [ 74.690253960565272, 15.90544755687168 ], [ 74.690354873298915, 15.90544810744143 ], [ 74.690475609666336, 15.905448764113361 ], [ 74.690587170365959, 15.905449371415342 ], [ 74.690719300184682, 15.905450091278199 ], [ 74.690857871288131, 15.905450843782306 ], [ 74.691032226754629, 15.905451792926359 ], [ 74.691174854138936, 15.905452569108858 ], [ 74.691364735946479, 15.905453601652843 ], [ 74.691557793091789, 15.905454650315852 ], [ 74.691768648536481, 15.90545579742712 ], [ 74.691972742279958, 15.905456906666995 ], [ 74.692267674424798, 15.905458509450426 ], [ 74.692348935445395, 15.905458951540819 ], [ 74.691321833827189, 15.902870536472911 ], [ 74.69467073269638, 15.892587818531393 ], [ 74.697112771111094, 15.885098865232019 ], [ 74.697366767256412, 15.885170479014748 ], [ 74.697547923104651, 15.880437635093793 ], [ 74.697528883109754, 15.880270851885085 ], [ 74.697374073505017, 15.880152929329046 ], [ 74.697524255838815, 15.879713721426677 ], [ 74.697583149251571, 15.879578949837958 ], [ 74.697929591323998, 15.878632973822203 ], [ 74.697966315974497, 15.878531193048634 ], [ 74.698055050882829, 15.878285316585178 ], [ 74.698626379122899, 15.877029512723903 ], [ 74.698979847243692, 15.876413095375485 ], [ 74.699273715881617, 15.875900625271228 ], [ 74.699506784813835, 15.874611091329207 ], [ 74.699425852844669, 15.873445663614955 ], [ 74.69878960763576, 15.87244258075423 ], [ 74.698718382124881, 15.87233028197406 ], [ 74.698585757149701, 15.87192938377121 ], [ 74.698609010444954, 15.871787271938647 ], [ 74.698680797877998, 15.871348406509764 ], [ 74.698612342102038, 15.870957806047278 ], [ 74.69854597975214, 15.870579153566879 ], [ 74.699269323001914, 15.87057180363106 ], [ 74.699042412974336, 15.869936223806199 ], [ 74.699123663618096, 15.869967461992635 ], [ 74.698771533701816, 15.869220711392616 ], [ 74.698410304729791, 15.868391308196067 ], [ 74.69825146244871, 15.868031997955354 ], [ 74.698236758405699, 15.868030464999482 ], [ 74.698232710037757, 15.868017467375873 ], [ 74.696842181281554, 15.867882502263258 ], [ 74.696297914442283, 15.867746985764969 ], [ 74.695738213162201, 15.866576225664906 ], [ 74.69563703605624, 15.866535035458989 ], [ 74.694954836104586, 15.866257308543975 ], [ 74.693870021353305, 15.86581567025515 ], [ 74.693521384214833, 15.865544182521562 ], [ 74.691887168984621, 15.864271580328163 ], [ 74.691522098979675, 15.863872044740475 ], [ 74.690375609155794, 15.86261730594072 ], [ 74.69028726436305, 15.862520618952825 ], [ 74.690139648089684, 15.861765600096154 ], [ 74.690025680639778, 15.861182681925737 ], [ 74.689891376467699, 15.860188166020389 ], [ 74.689722050328243, 15.858934307089172 ], [ 74.689688950580702, 15.858902009795303 ], [ 74.688908964603257, 15.858140919242592 ], [ 74.6879718311978, 15.857098326948739 ], [ 74.685823785745768, 15.854871307065819 ], [ 74.685674280903086, 15.854805918756098 ], [ 74.685499433262962, 15.854729447073323 ], [ 74.685437377266027, 15.8546790009585 ], [ 74.685399571133274, 15.854648268314863 ], [ 74.685390338437486, 15.854634072302217 ], [ 74.685357171945839, 15.854583065116575 ], [ 74.684999502979309, 15.854033012807568 ], [ 74.684964880964145, 15.853727205609188 ], [ 74.683557313832225, 15.852454811367851 ], [ 74.683075023542955, 15.852710101297498 ], [ 74.681697644511019, 15.852682467256768 ], [ 74.680515925859908, 15.852504635326401 ], [ 74.678587540798858, 15.852228471051664 ], [ 74.678811567693117, 15.85115364570211 ], [ 74.678878433635376, 15.850178267689738 ], [ 74.678739053495249, 15.849111296520036 ], [ 74.67688499759393, 15.847852940465614 ], [ 74.67702973407458, 15.847223603261263 ], [ 74.677184051664767, 15.846552602044264 ], [ 74.677561309916101, 15.845412656009126 ], [ 74.67947280561981, 15.845920497703172 ], [ 74.679845245109533, 15.846191193924668 ], [ 74.680234124515181, 15.846473837178873 ], [ 74.680263942814719, 15.846296601238029 ], [ 74.680370768400294, 15.845661646639558 ], [ 74.680563314538901, 15.844506974134527 ], [ 74.680594399990724, 15.844320554904753 ], [ 74.680764262397958, 15.843843973448722 ], [ 74.681179961959629, 15.843620106953624 ], [ 74.681363536599349, 15.843521245884858 ], [ 74.681595482342999, 15.842558955089972 ], [ 74.682033313436889, 15.842550230854668 ], [ 74.682279607018273, 15.842545323159873 ], [ 74.682292297785537, 15.842495269555762 ], [ 74.682559910428296, 15.841439695542517 ], [ 74.682993812488434, 15.839419950394841 ], [ 74.683198971191203, 15.838465154256046 ], [ 74.683308086388152, 15.837943821895585 ], [ 74.683481344410438, 15.837024228267834 ], [ 74.683529298030422, 15.836769703453283 ], [ 74.68358855705263, 15.836770779842199 ], [ 74.683590273706102, 15.836759272974449 ], [ 74.683680689816754, 15.836772453821546 ], [ 74.683881952747413, 15.836801795075706 ], [ 74.684065790909614, 15.836839184770582 ], [ 74.684563023939504, 15.836940314269539 ], [ 74.685553017385786, 15.837026011425786 ], [ 74.685606947785601, 15.837030680342703 ], [ 74.685932294935782, 15.83700876310029 ], [ 74.686706092887775, 15.836956635030811 ], [ 74.688273425582025, 15.836823068173336 ], [ 74.689434091487726, 15.836778926329918 ], [ 74.689786914946708, 15.836777066293854 ], [ 74.690128961816939, 15.836629732392097 ], [ 74.690281907645073, 15.836563852617033 ], [ 74.690320174981665, 15.83642566814885 ], [ 74.690551729206788, 15.835589515097135 ], [ 74.690592422649672, 15.83544256932031 ], [ 74.690502569644636, 15.835078028344306 ], [ 74.690496110052649, 15.835078608563537 ], [ 74.690608120697945, 15.834375930402818 ], [ 74.690916781504185, 15.833970050661414 ], [ 74.691061374209241, 15.833973712802454 ], [ 74.691414764765327, 15.833982659593769 ], [ 74.691516197354005, 15.833985227609832 ], [ 74.691871434162593, 15.833994220581548 ], [ 74.691981236097092, 15.83400729983474 ], [ 74.692016138537554, 15.833952560715899 ], [ 74.692139515276651, 15.833759051674566 ], [ 74.692282399990049, 15.83353494845281 ], [ 74.692598413358212, 15.833196292314287 ], [ 74.692987277974396, 15.832779564303952 ], [ 74.693382665902732, 15.832406191883308 ], [ 74.693903330745769, 15.831863896745498 ], [ 74.694361200425377, 15.831424380317316 ], [ 74.694705078952879, 15.831037282618761 ], [ 74.694843326525913, 15.830764930339525 ], [ 74.694916315284559, 15.830354058922426 ], [ 74.694946111377106, 15.830186336389589 ], [ 74.695156458875687, 15.829002237009206 ], [ 74.695223119015097, 15.828729370669089 ], [ 74.695269420372085, 15.828539844893076 ], [ 74.695349145602691, 15.827773943551827 ], [ 74.695378368835563, 15.827014950455496 ], [ 74.695404656432302, 15.826332235574123 ], [ 74.695463820170161, 15.825561143057371 ], [ 74.695568713056261, 15.825217519022264 ], [ 74.69583974708199, 15.82432960707926 ], [ 74.695826475032078, 15.8239514707523 ], [ 74.695818483086498, 15.823723695351465 ], [ 74.695820515497275, 15.82369345066096 ], [ 74.695837893757883, 15.823435070914261 ], [ 74.696042348890387, 15.822173559851826 ], [ 74.696048732497516, 15.822134175926058 ], [ 74.697321772886383, 15.822131860409838 ], [ 74.697888923671613, 15.822138342392781 ], [ 74.697892067618625, 15.822115227617662 ], [ 74.699086594254965, 15.822129995538196 ], [ 74.699094006785543, 15.822130087178168 ], [ 74.699140698563653, 15.821392026826516 ], [ 74.699263597420085, 15.820570660236138 ], [ 74.699266805010936, 15.820549218911374 ], [ 74.701225203900719, 15.820313764058655 ], [ 74.701584475861338, 15.820270568412674 ], [ 74.701735049281652, 15.82024574774395 ], [ 74.701963215017912, 15.820208136393813 ], [ 74.701981912436736, 15.820227463439824 ], [ 74.702079213118409, 15.820328031054569 ], [ 74.702259927083048, 15.820335185896672 ], [ 74.70426203274711, 15.820414442895498 ], [ 74.70428088435493, 15.82062467823393 ], [ 74.70448989377536, 15.820635973232992 ], [ 74.704490113372984, 15.821127065722258 ], [ 74.706143113591992, 15.821293339812174 ], [ 74.706229096195145, 15.82129625150249 ], [ 74.706300384972238, 15.821298666846211 ], [ 74.706364122473786, 15.821305264013215 ], [ 74.709457377398465, 15.821625455490119 ], [ 74.709516722472145, 15.821274926818278 ], [ 74.709527845771944, 15.821220217074133 ], [ 74.709591709619588, 15.820906119338625 ], [ 74.711187197116132, 15.821142210611209 ], [ 74.711348774710714, 15.821156534074122 ], [ 74.711889687430343, 15.82120448186275 ], [ 74.712138193539687, 15.821226509567389 ], [ 74.712322309442072, 15.82126030371235 ], [ 74.712412639371038, 15.821276882472995 ], [ 74.712410125209175, 15.821497757564124 ], [ 74.712409102833163, 15.82158749004487 ], [ 74.712395250653884, 15.821893928942954 ], [ 74.712392884108979, 15.821946285459463 ], [ 74.712343438912797, 15.822252962858025 ], [ 74.712317699737071, 15.822384547039599 ], [ 74.712470878989109, 15.822403934770882 ], [ 74.713483663481398, 15.822532119847585 ], [ 74.713601084839837, 15.822546981839084 ], [ 74.715414311502798, 15.822857162037534 ], [ 74.715463098551623, 15.822864290217593 ], [ 74.716546181298341, 15.823022535909194 ], [ 74.717136132056538, 15.823092513924154 ], [ 74.718630531329794, 15.823180867801609 ], [ 74.718741231734668, 15.823183618549384 ], [ 74.720903311405081, 15.823237314537685 ], [ 74.72100897873753, 15.823239937419535 ], [ 74.721278328097526, 15.823269905468793 ], [ 74.72160521353841, 15.823640296213449 ], [ 74.721945392292085, 15.823917790994507 ], [ 74.722010497645371, 15.824128511875475 ], [ 74.722013124413664, 15.824318545876295 ], [ 74.721730846021117, 15.824673928345634 ], [ 74.721835151120104, 15.824691963990535 ], [ 74.721862955056778, 15.824696765759104 ], [ 74.722028877745672, 15.824728854119726 ], [ 74.722995422881553, 15.824751547465215 ], [ 74.723042028118087, 15.824752641174058 ], [ 74.723283860083413, 15.824758317878167 ], [ 74.724340248876757, 15.824840941459184 ], [ 74.725559469312543, 15.824957660407309 ], [ 74.726189000437941, 15.825017235796066 ], [ 74.726848700083323, 15.825077092332995 ], [ 74.727644991645192, 15.825150038969378 ], [ 74.728605718299363, 15.825407859900182 ], [ 74.729145291183997, 15.825438231031519 ], [ 74.730331675436943, 15.825574550721516 ], [ 74.731961858278382, 15.825687371203998 ], [ 74.732361105629295, 15.825638127780199 ], [ 74.73260527156539, 15.825601361010756 ], [ 74.732930138505807, 15.825556998945492 ], [ 74.732932822525953, 15.825624434238829 ], [ 74.733062758694032, 15.825610222460007 ], [ 74.733078299066491, 15.825608522980264 ], [ 74.735224859467067, 15.825124049887009 ], [ 74.735159177629953, 15.825236986537295 ], [ 74.734873861650897, 15.825727565804508 ], [ 74.73509733333114, 15.825741046834029 ], [ 74.735755731924556, 15.825780768756061 ], [ 74.735966753650516, 15.825856936662516 ], [ 74.737727782137753, 15.825998614542517 ], [ 74.739051330497048, 15.826030006584629 ], [ 74.739884887758507, 15.826112144677914 ], [ 74.74002512769998, 15.826157934593292 ], [ 74.740308407203173, 15.826250426976491 ], [ 74.740922486427962, 15.826549121557184 ], [ 74.741158260545276, 15.826639289672567 ], [ 74.742870551386645, 15.827034385441735 ], [ 74.743582773013927, 15.827053076814758 ], [ 74.743834916391393, 15.827170730880095 ], [ 74.745946013493025, 15.82781771669833 ], [ 74.746211103002608, 15.827898955472213 ], [ 74.747200365907588, 15.828576522598988 ], [ 74.747256059183513, 15.828387067370898 ], [ 74.747451393712851, 15.827722570863353 ], [ 74.747491493700949, 15.827755261802913 ], [ 74.747549396415025, 15.827809174279578 ], [ 74.747831531279317, 15.828071858901051 ], [ 74.748222463440896, 15.828503504928387 ], [ 74.748220953888065, 15.828506882508488 ], [ 74.747572109998373, 15.829958821648312 ], [ 74.747428434951942, 15.830155646480854 ], [ 74.747381281936853, 15.830298889502199 ], [ 74.747350980505729, 15.830390933302796 ], [ 74.747348697290789, 15.830417176057683 ], [ 74.747123497938617, 15.833007150617052 ], [ 74.746591435965371, 15.834859512562378 ], [ 74.745947588037637, 15.835918087763146 ], [ 74.748261532935942, 15.836586133978763 ], [ 74.749029073295048, 15.83724607136779 ], [ 74.749485354720136, 15.837596180472648 ], [ 74.750037916043297, 15.838019829062423 ], [ 74.751120681512177, 15.838817550085588 ], [ 74.751236179516397, 15.8388269283003 ], [ 74.751268248442528, 15.838824872215435 ], [ 74.75153387152487, 15.839650304379846 ], [ 74.751479925289459, 15.839768050777923 ], [ 74.751523611139461, 15.839912686034257 ], [ 74.751264512418004, 15.840238212150748 ], [ 74.751218811419605, 15.840295630912243 ], [ 74.751140528526761, 15.840393982790651 ], [ 74.751075816336268, 15.840458662705428 ], [ 74.750558216654809, 15.84164221510232 ], [ 74.75054603317291, 15.841670071954395 ], [ 74.751108509751575, 15.84225630493734 ], [ 74.751530907496146, 15.842696541434792 ], [ 74.75164311842417, 15.842800684236625 ], [ 74.752118442667054, 15.843223440802968 ], [ 74.752434346750221, 15.843498768587651 ], [ 74.75244491499582, 15.84350797933439 ], [ 74.752467015691224, 15.84351074835201 ], [ 74.752763913776747, 15.843547946038289 ], [ 74.753147217254906, 15.843685307078252 ], [ 74.753469172721537, 15.843830386058002 ], [ 74.753518702432842, 15.843852706343601 ], [ 74.75352737197764, 15.843856612643137 ], [ 74.753554052530475, 15.843843346249301 ], [ 74.753898225839109, 15.843672212355111 ], [ 74.754285801303283, 15.84351760064704 ], [ 74.754648568584031, 15.843348938390164 ], [ 74.754839569364947, 15.843455889890491 ], [ 74.75522536939188, 15.843653079038328 ], [ 74.755374212217887, 15.844098433338145 ], [ 74.755452503961621, 15.844135000875943 ], [ 74.755582082377359, 15.84419552198969 ], [ 74.755697793908922, 15.844241314936195 ], [ 74.755712985386452, 15.844247326792003 ], [ 74.756342671709547, 15.844496524562754 ], [ 74.756361252533765, 15.844484554163335 ], [ 74.756824805093217, 15.84418590008047 ], [ 74.758020524516041, 15.843415524192576 ], [ 74.758568427637684, 15.842953441735188 ], [ 74.759454456372893, 15.842923329159968 ], [ 74.759541264528352, 15.842904925026501 ], [ 74.759905329509195, 15.842827740426886 ], [ 74.760151147954687, 15.841226856432419 ], [ 74.760159695880901, 15.841112281455551 ], [ 74.760169560889821, 15.840980063634163 ], [ 74.760232484670212, 15.840136672923141 ], [ 74.760303372098889, 15.839186485803129 ], [ 74.760312683701855, 15.839061674202231 ], [ 74.760306571353482, 15.838476517001467 ], [ 74.760300540422577, 15.837899143712782 ], [ 74.760294592311624, 15.837329948503864 ], [ 74.76043966776264, 15.837248636895318 ], [ 74.760882088811954, 15.837269242016376 ], [ 74.761527364960443, 15.837299291580749 ], [ 74.762571100223056, 15.837347893843317 ], [ 74.763182215998043, 15.837376348838692 ], [ 74.763454044406004, 15.837370985246322 ], [ 74.763791795256992, 15.837359392809775 ], [ 74.764570665986994, 15.837349040361371 ], [ 74.76488056732066, 15.837351781321612 ], [ 74.766145121268494, 15.837386739385078 ], [ 74.766267359544472, 15.837390118500917 ], [ 74.766376062079914, 15.837385263359403 ], [ 74.766391386167996, 15.835873355576737 ], [ 74.76630304157554, 15.835285865724439 ], [ 74.766125412603984, 15.834664371410518 ], [ 74.76615097452455, 15.834481176344223 ], [ 74.766292514325912, 15.834229551347585 ], [ 74.766336968160772, 15.834045767274207 ], [ 74.766429549166588, 15.833663009600828 ], [ 74.766464028956023, 15.83322314204492 ], [ 74.766460835331358, 15.832756319473765 ], [ 74.76630833301428, 15.83244176685754 ], [ 74.766210487537322, 15.832184299534397 ], [ 74.766150289104246, 15.831957124934132 ], [ 74.766210657946644, 15.831727505545224 ], [ 74.766287350007332, 15.831611375410878 ], [ 74.76628888064657, 15.831417997391727 ], [ 74.766180387559615, 15.831200464870875 ], [ 74.765913308283501, 15.831001762541979 ], [ 74.765681699714321, 15.830673284010508 ], [ 74.765553547785231, 15.830272073308015 ], [ 74.765548718282233, 15.830098378592066 ], [ 74.765545854249197, 15.829995416979116 ], [ 74.765537845947577, 15.829707483196156 ], [ 74.765493350430233, 15.82917459044109 ], [ 74.765494750429269, 15.829168794287868 ], [ 74.765520330410823, 15.829062901741603 ], [ 74.765490714513703, 15.828932966929861 ], [ 74.765428660075543, 15.828660703343246 ], [ 74.764962072215312, 15.826613584025552 ], [ 74.764890687359653, 15.825303932599516 ], [ 74.764713228682353, 15.824577605151861 ], [ 74.764684324185936, 15.824459297037105 ], [ 74.764568685134762, 15.823985990376048 ], [ 74.764545109936961, 15.823268455129497 ], [ 74.764482173275354, 15.822521768543542 ], [ 74.764477096329585, 15.820765465006012 ], [ 74.764266550887925, 15.818798155353893 ], [ 74.764262918957797, 15.818739611472953 ], [ 74.764274531946342, 15.818151028875103 ], [ 74.764281295778986, 15.817808175303185 ], [ 74.764478881679864, 15.815926267965764 ], [ 74.764482277678965, 15.815675492680558 ], [ 74.764815853645985, 15.815677021358335 ], [ 74.765119541803656, 15.815678413230602 ], [ 74.765476876255036, 15.815667051330847 ], [ 74.765560762074017, 15.815154515640554 ], [ 74.765781911937168, 15.814340823402727 ], [ 74.765880776003911, 15.814007069666641 ], [ 74.766015938650213, 15.813550780223329 ], [ 74.766145184143639, 15.813074241705468 ], [ 74.76641507618757, 15.812428310585608 ], [ 74.766338485367811, 15.812166608649648 ], [ 74.7662895223757, 15.811999303012184 ], [ 74.766519804393383, 15.811517159280832 ], [ 74.766586190886045, 15.811378165060265 ], [ 74.766652014183379, 15.811245720961839 ], [ 74.766848159166798, 15.810707585745455 ], [ 74.767116755951577, 15.810011265795124 ], [ 74.767206997690991, 15.809777325497723 ], [ 74.767390027139442, 15.809234869633809 ], [ 74.767372010594059, 15.808783302283212 ], [ 74.767350144161156, 15.808470719566555 ], [ 74.767456485132982, 15.808159657317853 ], [ 74.767566065533231, 15.807839115880361 ], [ 74.767611347546733, 15.807689124420239 ], [ 74.767684486043066, 15.807446860042569 ], [ 74.768096160152098, 15.805975755247523 ], [ 74.768109645372192, 15.805975762408787 ], [ 74.76814462084063, 15.80587818753227 ], [ 74.768717575644004, 15.805871603776879 ], [ 74.768959513952751, 15.80592357472594 ], [ 74.77055551273304, 15.805961249127261 ], [ 74.771537661704784, 15.806008736093613 ], [ 74.773533307434903, 15.806105211141016 ], [ 74.774517723114229, 15.806098845328087 ], [ 74.77743470111173, 15.806079956089384 ], [ 74.77962434987144, 15.80587557529476 ], [ 74.780758704214449, 15.805769685924647 ], [ 74.78091587861185, 15.805755012599215 ], [ 74.780927963205272, 15.805753280868821 ], [ 74.780992577494814, 15.805744014388644 ], [ 74.784723722538573, 15.805642925838972 ], [ 74.785058617601962, 15.805614636931471 ], [ 74.785143335887156, 15.805607480174343 ], [ 74.78515331009821, 15.805488084655282 ], [ 74.785223212840762, 15.805503651027822 ], [ 74.785564040214709, 15.805579545638572 ], [ 74.785737393413811, 15.80559755180315 ], [ 74.785723404725786, 15.805672273277343 ], [ 74.786258503425358, 15.805722095603661 ], [ 74.786299542152378, 15.806717487302761 ], [ 74.786309631077245, 15.807422544741176 ], [ 74.786307061409786, 15.8079813168023 ], [ 74.786332186582428, 15.808020917290998 ], [ 74.786263285340794, 15.808171207800203 ], [ 74.786340451523131, 15.808464780526574 ], [ 74.786367577431122, 15.808591079740451 ], [ 74.786398807764854, 15.808736486504767 ], [ 74.786232801157382, 15.809120826377587 ], [ 74.786227252608057, 15.809248116830828 ], [ 74.786227007653665, 15.809253746120104 ], [ 74.786216227263608, 15.809501035251673 ], [ 74.786200452901241, 15.809639972478124 ], [ 74.786155821419456, 15.810033082552962 ], [ 74.786122880402772, 15.810323250710283 ], [ 74.7861014975242, 15.810475658188995 ], [ 74.786062080015768, 15.810756635685021 ], [ 74.786075166065643, 15.8108897991057 ], [ 74.786141354219041, 15.811563263390225 ], [ 74.786138730774852, 15.81165081729706 ], [ 74.786129662347975, 15.811953514659574 ], [ 74.786125340508704, 15.812097798835939 ], [ 74.78611550080447, 15.812426199417635 ], [ 74.786115487711598, 15.812531091979038 ], [ 74.786123553570434, 15.813045834281327 ], [ 74.786127498553995, 15.813083405120059 ], [ 74.78616874853374, 15.813476260604654 ], [ 74.78629190948628, 15.813899470660559 ], [ 74.786383132836306, 15.814212937165198 ], [ 74.786582564730168, 15.81456682526381 ], [ 74.78714980621821, 15.815573380484359 ], [ 74.787059434479104, 15.815576870115503 ], [ 74.787091771408186, 15.815630831195238 ], [ 74.787098217176933, 15.815740846994595 ], [ 74.787189351058316, 15.815789067115773 ], [ 74.787550035355821, 15.815979916569775 ], [ 74.787764202849473, 15.816141938529366 ], [ 74.788163554569451, 15.816304571352447 ], [ 74.788464050431784, 15.816535260873824 ], [ 74.78919941283965, 15.816496228520673 ], [ 74.789201578485802, 15.8165041844666 ], [ 74.789350988998734, 15.817053010856291 ], [ 74.789283902958118, 15.817051903389718 ], [ 74.789111159885621, 15.81704905245274 ], [ 74.789000094039764, 15.81717992711005 ], [ 74.789406887571445, 15.817216141464671 ], [ 74.789675404894723, 15.817306232795001 ], [ 74.789848608269637, 15.817522777041521 ], [ 74.789788424954807, 15.817715836784735 ], [ 74.789667675002534, 15.817801211446305 ], [ 74.78956809821247, 15.817903614476892 ], [ 74.789494831839733, 15.81810934347698 ], [ 74.789442744897258, 15.818579621974459 ], [ 74.789543925190927, 15.818793468508128 ], [ 74.789710711216117, 15.819090786306891 ], [ 74.78971961456682, 15.819586494286661 ], [ 74.789763281184634, 15.819848081265992 ], [ 74.790051419399887, 15.820296875214524 ], [ 74.790316540602035, 15.820627506965506 ], [ 74.790409057914502, 15.820914758171471 ], [ 74.790545249237567, 15.821162251537968 ], [ 74.790720920088972, 15.821481486782128 ], [ 74.790887484779262, 15.821686297323101 ], [ 74.791035541423696, 15.821868348517796 ], [ 74.791172053813682, 15.821837159046554 ], [ 74.791199902469756, 15.821837938006881 ], [ 74.791471322058342, 15.82184553258223 ], [ 74.791683371721902, 15.821851466063269 ], [ 74.791703792381455, 15.821846210522294 ], [ 74.791801353275957, 15.821821103697989 ], [ 74.791702499831558, 15.822135467625468 ], [ 74.791753280756438, 15.822355853458292 ], [ 74.791833199750897, 15.822120203348502 ], [ 74.792226399025722, 15.821939494140755 ], [ 74.792343389718809, 15.822043664171661 ], [ 74.792411863269464, 15.822261628559499 ], [ 74.792383248198519, 15.822406025144316 ], [ 74.792543755540805, 15.822457158948936 ], [ 74.792562947693924, 15.822408495953725 ], [ 74.792596618908163, 15.822323116104029 ], [ 74.792639921260147, 15.822213315278669 ], [ 74.792676249450111, 15.822454765046835 ], [ 74.792697071543714, 15.82263568553573 ], [ 74.792958384949301, 15.823133738862039 ], [ 74.793034367525678, 15.823240637603535 ], [ 74.793191223999628, 15.823464864278124 ], [ 74.793301608954422, 15.823708961020625 ], [ 74.793312109664669, 15.823732180719738 ], [ 74.793342515148709, 15.823799416817296 ], [ 74.793387755199646, 15.823889055853355 ], [ 74.793424605791827, 15.823962071343384 ], [ 74.79354269863488, 15.824664882567868 ], [ 74.793807957354375, 15.825140943026476 ], [ 74.793925090892827, 15.825138066393198 ], [ 74.794601831019349, 15.825071243134884 ], [ 74.79461263461495, 15.825121179568312 ], [ 74.794613749085556, 15.825126332808878 ], [ 74.794763351003809, 15.825817842695518 ], [ 74.794897539021292, 15.826423121269285 ], [ 74.79484307016854, 15.826424461116492 ], [ 74.794027717337599, 15.826444520807492 ], [ 74.793999010761752, 15.826567289863959 ], [ 74.793864450370833, 15.827142772060302 ], [ 74.794876682601142, 15.827137823275871 ], [ 74.794826472734613, 15.827461396122411 ], [ 74.794795440615303, 15.827712460523129 ], [ 74.794774756849577, 15.827880761632013 ], [ 74.794731044639775, 15.828236457877935 ], [ 74.79471770891837, 15.828344973824871 ], [ 74.794616505516387, 15.828992826467411 ], [ 74.794530082825361, 15.82927169666767 ], [ 74.794255186410794, 15.830158702939892 ], [ 74.794222660938814, 15.830514841737932 ], [ 74.794199827960355, 15.8307648623357 ], [ 74.794423742300495, 15.830782036413408 ], [ 74.794490602404736, 15.830782991149775 ], [ 74.794814427911703, 15.830787618104646 ], [ 74.796373555375126, 15.830864309463369 ], [ 74.797210305419128, 15.830882026058307 ], [ 74.797479002370096, 15.830888401987105 ], [ 74.797709557460607, 15.830866583560988 ], [ 74.802138290885509, 15.831053989331821 ], [ 74.802703085710931, 15.831023101487338 ], [ 74.803974670187543, 15.830945994976194 ], [ 74.805369828965354, 15.830880271737779 ], [ 74.806567453352571, 15.83088153899695 ], [ 74.806825528185669, 15.830881809619392 ], [ 74.807390878208153, 15.830899576925104 ], [ 74.808143952083796, 15.830933594626014 ], [ 74.808864365459428, 15.830975237352371 ], [ 74.809530297454145, 15.830972862245686 ], [ 74.809879218622868, 15.831003589610868 ], [ 74.809876962368051, 15.831061546348614 ], [ 74.811313823380033, 15.831159703287003 ], [ 74.812207264547368, 15.831274188233543 ], [ 74.813346907484046, 15.831420214076477 ], [ 74.813431332261146, 15.831426163932246 ], [ 74.813488695244018, 15.831430206449088 ], [ 74.813995746431061, 15.831465938641676 ], [ 74.815284762300237, 15.831556776101634 ], [ 74.81629265015853, 15.831685319209647 ], [ 74.816411204937353, 15.831719632486193 ], [ 74.817280856075357, 15.831845088700604 ], [ 74.8179525015357, 15.831956601244748 ], [ 74.818230873898855, 15.831991167821664 ], [ 74.818919159998103, 15.832076632946038 ], [ 74.819598296680525, 15.832160960931214 ], [ 74.820012093507444, 15.832212338342758 ], [ 74.820352765247975, 15.832230085185998 ], [ 74.820347971109683, 15.832316325914922 ], [ 74.820343896103282, 15.832446891975829 ], [ 74.820411291830837, 15.832456579543093 ], [ 74.820531350496509, 15.832473835987367 ], [ 74.820303194125231, 15.835994369021755 ], [ 74.820217185595382, 15.836814666249351 ], [ 74.820167562130095, 15.838268009124384 ], [ 74.820203958423321, 15.838822921341317 ], [ 74.820231047067338, 15.839235901579549 ], [ 74.82047344591362, 15.839204418119483 ], [ 74.819726896385461, 15.840005644838341 ], [ 74.819484272128847, 15.840274945948611 ], [ 74.818410852728817, 15.841466374956633 ], [ 74.81765252949485, 15.842249002494048 ], [ 74.816661351230778, 15.843247565421155 ], [ 74.816242891493175, 15.843932116960307 ], [ 74.815578276779775, 15.845103011837379 ], [ 74.814900031297427, 15.846321739684889 ], [ 74.814212439518073, 15.847458343233772 ], [ 74.813222328090518, 15.847331957749391 ], [ 74.812908454302956, 15.84781843833982 ], [ 74.812541739644217, 15.848359937510896 ], [ 74.81215169283513, 15.84893588540076 ], [ 74.810454370439984, 15.848509111057069 ], [ 74.810193967920455, 15.849257569145264 ], [ 74.809950837347188, 15.85001458616858 ], [ 74.809623942277824, 15.85095152461532 ], [ 74.809271183379579, 15.851778362649014 ], [ 74.808418777903697, 15.854277150330367 ], [ 74.808344782716929, 15.854450392001823 ], [ 74.807965535610748, 15.855391115171088 ], [ 74.807621823335595, 15.855153869860594 ], [ 74.807547769136718, 15.855445432206171 ], [ 74.80748462379907, 15.8556206033909 ], [ 74.80739288258404, 15.856970070635336 ], [ 74.807280959947008, 15.857775856449109 ], [ 74.807244660945742, 15.85837811406363 ], [ 74.807182928130288, 15.858630324865409 ], [ 74.807216561359269, 15.858827868639834 ], [ 74.807202025438983, 15.858892911947283 ], [ 74.806995308827098, 15.859639268595062 ], [ 74.806616752088274, 15.861095007730864 ], [ 74.806460930361723, 15.861736033232852 ], [ 74.806306069633052, 15.86239665468147 ], [ 74.806152277424147, 15.863054232994816 ], [ 74.806033715985208, 15.863621270639477 ], [ 74.805915220552123, 15.864087359513437 ], [ 74.80579057248336, 15.864624334615284 ], [ 74.805539344666343, 15.865483878742506 ], [ 74.80531006420658, 15.866391294385148 ], [ 74.805122820375061, 15.867037506626319 ], [ 74.80499498638639, 15.86761493254815 ], [ 74.804855957637812, 15.868205493120497 ], [ 74.804701811419307, 15.86879908385469 ], [ 74.804567821071416, 15.869930485254491 ], [ 74.804313154758361, 15.871381826461509 ], [ 74.804286027928654, 15.871542531631002 ], [ 74.804202342563144, 15.871982388936907 ], [ 74.804131980557997, 15.872277829443965 ], [ 74.804016687667712, 15.872772942339822 ], [ 74.803827733871245, 15.873564641564901 ], [ 74.803727509753941, 15.873921708126321 ], [ 74.80362978739943, 15.874266487278225 ], [ 74.803515065773723, 15.874653494350774 ], [ 74.803421047918235, 15.874960940498571 ], [ 74.803315315488746, 15.875391719613226 ], [ 74.803216224593299, 15.876107527220428 ], [ 74.803137646779646, 15.876711231677069 ], [ 74.803118603712264, 15.876832431681716 ], [ 74.803236431408266, 15.876834088389366 ], [ 74.802933284061822, 15.878298936238421 ], [ 74.80258451948896, 15.879820449033492 ], [ 74.80193105307869, 15.882151299276499 ], [ 74.801722412175693, 15.883107505176758 ], [ 74.801588520104659, 15.88309410739209 ], [ 74.801580299838491, 15.883123804103636 ], [ 74.801661632599959, 15.883160971714535 ], [ 74.802098450209257, 15.883327338430107 ], [ 74.802360628650661, 15.88351458735877 ], [ 74.80289513700248, 15.883987062310718 ], [ 74.803294369465391, 15.884342236810063 ], [ 74.803706668204413, 15.884931328147529 ], [ 74.804042482480483, 15.885459892218947 ], [ 74.804058079994277, 15.885484440357878 ], [ 74.804279123936212, 15.885872348878806 ], [ 74.804431872765363, 15.886073966417758 ], [ 74.804604434915234, 15.886221047078552 ], [ 74.805025662335254, 15.886563421592555 ], [ 74.805442942191334, 15.88678176744374 ], [ 74.805616900690225, 15.886909976591809 ], [ 74.805812114427198, 15.887053852823104 ], [ 74.806262646483006, 15.88738636821807 ], [ 74.806721878085355, 15.887727283619702 ], [ 74.807113384482676, 15.887948988884453 ], [ 74.807556627134673, 15.888215468985182 ], [ 74.80798324944557, 15.888435177963352 ], [ 74.808229632339163, 15.888558533113837 ], [ 74.808484610161656, 15.888686191624913 ], [ 74.808962051537137, 15.888904749438856 ], [ 74.809433143387693, 15.889124632269249 ], [ 74.809867434043682, 15.889348558068864 ], [ 74.810128131028236, 15.889482975619204 ], [ 74.810403264827215, 15.889621059670535 ], [ 74.810688404762161, 15.88976192394 ], [ 74.810936051106353, 15.889884265502918 ], [ 74.811414134532171, 15.890128488887663 ], [ 74.811889940726658, 15.890375753163912 ], [ 74.812376908037535, 15.89060715555242 ], [ 74.812874099403729, 15.890838915564609 ], [ 74.813080122655435, 15.890973724331374 ], [ 74.813337783509127, 15.891142321013364 ], [ 74.813462192293542, 15.89113689923294 ], [ 74.813958269566442, 15.891354805816267 ], [ 74.814729374234958, 15.891655965676808 ], [ 74.815616495670369, 15.891924587509504 ], [ 74.815977242459851, 15.892046753058874 ], [ 74.816396339056311, 15.89218689661373 ], [ 74.816865767939618, 15.892375942084882 ], [ 74.817566001242369, 15.892609653266211 ], [ 74.818015826694165, 15.892771152404407 ], [ 74.818391360973067, 15.892879117495688 ], [ 74.819024135693198, 15.893116325626243 ], [ 74.819997908525366, 15.89338603450132 ], [ 74.820519531395433, 15.893524266537407 ], [ 74.82132181679539, 15.89373127245449 ], [ 74.821722489803733, 15.89384800191999 ], [ 74.822181811989466, 15.893982367116724 ], [ 74.822646028078239, 15.894116549123002 ], [ 74.823360803412854, 15.894315786778968 ], [ 74.823844524041576, 15.894394631916823 ], [ 74.824321816221541, 15.894506785765932 ], [ 74.824657470239202, 15.894653728056188 ], [ 74.824715492368284, 15.894679129092545 ], [ 74.825132082160806, 15.894864641405558 ], [ 74.825934485518189, 15.895009312637971 ], [ 74.826161658144031, 15.895048439050774 ], [ 74.826340791070578, 15.895128364225007 ], [ 74.828547974306275, 15.896047196277562 ], [ 74.829837406978555, 15.896576706290693 ], [ 74.829840998480606, 15.896578274022456 ], [ 74.831176504205899, 15.897161204428636 ], [ 74.83121172928449, 15.897177761524535 ], [ 74.832035117396387, 15.897564768001658 ], [ 74.832582404168249, 15.897821999670791 ], [ 74.83275565650068, 15.897903430180001 ], [ 74.833062550999188, 15.898047672997791 ], [ 74.833821232592072, 15.898404256696477 ], [ 74.833891999258583, 15.89843751762716 ], [ 74.833937528547466, 15.898458916136395 ], [ 74.833984584641271, 15.898481031813693 ], [ 74.833998598996374, 15.898486977643163 ], [ 74.834142786191322, 15.898548144927021 ], [ 74.834271394893179, 15.898602703342831 ], [ 74.834602113576409, 15.898743001623689 ], [ 74.834651130968183, 15.898829917092765 ], [ 74.834679989932681, 15.898881090119117 ], [ 74.834718319659757, 15.898923092504722 ], [ 74.834737506461849, 15.89894411902505 ], [ 74.835068043923116, 15.899190962853814 ], [ 74.835281547757887, 15.899350406916717 ], [ 74.835494975110393, 15.899527357570568 ], [ 74.835799363053397, 15.89977972308613 ], [ 74.835921278075233, 15.899869516977018 ], [ 74.836419181187651, 15.900236236643355 ], [ 74.836594669550877, 15.90036548712461 ], [ 74.836634475935853, 15.900394806515765 ], [ 74.836795914713065, 15.900563021461835 ], [ 74.836871706286644, 15.900641994706403 ], [ 74.836944194593897, 15.90071752643941 ], [ 74.837263873717134, 15.901050622831248 ], [ 74.837889449363445, 15.901563850056824 ], [ 74.838156506827204, 15.901738570963879 ], [ 74.838344056631485, 15.901840382212903 ], [ 74.838629446489904, 15.9019953040752 ], [ 74.838968829484728, 15.902104604231692 ], [ 74.839245765570553, 15.9022526527512 ], [ 74.839328089442759, 15.902296663289773 ], [ 74.83949013783301, 15.902321745346484 ], [ 74.839703615008162, 15.902354786693678 ], [ 74.839888826892761, 15.902383453001153 ], [ 74.840079139862041, 15.902412908541883 ], [ 74.840226709210938, 15.902435748144706 ], [ 74.840467410516183, 15.902473002738303 ], [ 74.84057548219775, 15.902489728706623 ], [ 74.840867722444969, 15.902614869775324 ], [ 74.841062655008145, 15.902698341914494 ], [ 74.841207760319861, 15.902781825181473 ], [ 74.841352864817708, 15.902865308350762 ], [ 74.841181291423396, 15.903723591498613 ], [ 74.840916125517694, 15.90366127759699 ], [ 74.840764572067769, 15.903925312013996 ], [ 74.840470451988509, 15.904482994649481 ], [ 74.84036714236106, 15.905504025847332 ], [ 74.840363969322695, 15.905535384863214 ], [ 74.840311599890555, 15.906174889168879 ], [ 74.840262942774075, 15.906732650516473 ], [ 74.840209605365843, 15.907286312127843 ], [ 74.840020966255778, 15.907675467357326 ], [ 74.83984186640933, 15.90804494206718 ], [ 74.839623619984408, 15.908212922734611 ], [ 74.839541372015233, 15.908276226230107 ], [ 74.839510319034076, 15.908300127830898 ], [ 74.839393297750249, 15.908518127454245 ], [ 74.839380219792176, 15.90854249171019 ], [ 74.839288447956434, 15.908799999668876 ], [ 74.838957876637906, 15.909585732670152 ], [ 74.838900197011441, 15.909763106824617 ], [ 74.838772348907341, 15.910156168250703 ], [ 74.838692545561088, 15.910648370570339 ], [ 74.83866431197994, 15.910762021468502 ], [ 74.838638483352028, 15.910865979173032 ], [ 74.838575384165779, 15.911040250096812 ], [ 74.838568933849103, 15.911113242437906 ], [ 74.838558158948402, 15.911235376368117 ], [ 74.838549515896389, 15.911265148264878 ], [ 74.83832848271345, 15.912025666732067 ], [ 74.838231261872878, 15.912848852999863 ], [ 74.838167656566497, 15.913256233303748 ], [ 74.83812181979394, 15.913537198858192 ], [ 74.838035573702257, 15.913705091354423 ], [ 74.837861306040068, 15.914044331968281 ], [ 74.837521134971112, 15.914696355808184 ], [ 74.837171929891241, 15.915424199032127 ], [ 74.837061556070779, 15.915700850326507 ], [ 74.836835700788484, 15.916266950135936 ], [ 74.836755601096144, 15.91648310643887 ], [ 74.836515052137955, 15.91704764250148 ], [ 74.836458967275064, 15.917179277799349 ], [ 74.836237145427432, 15.917551827521017 ], [ 74.836023884871679, 15.917909976637478 ], [ 74.835779417435447, 15.918320538200977 ], [ 74.835278500209085, 15.919115395109189 ], [ 74.835241134137945, 15.919174690918661 ], [ 74.835219701132289, 15.919207682139502 ], [ 74.835104492039704, 15.919385042791829 ], [ 74.835078766560571, 15.919470007868844 ], [ 74.834825437108364, 15.920097008778914 ], [ 74.834508899913246, 15.920880443786073 ], [ 74.83437886689066, 15.921197952103318 ], [ 74.834350365554585, 15.921267554323133 ], [ 74.834304722621525, 15.921579051243512 ], [ 74.834291181002328, 15.921671440530048 ], [ 74.83424258191944, 15.922276672777572 ], [ 74.834197667467549, 15.922513974368059 ], [ 74.834138137514046, 15.922676474017941 ], [ 74.834009345334223, 15.923075880383021 ], [ 74.833803246017595, 15.92401973215031 ], [ 74.83339742614983, 15.926570722439875 ], [ 74.8332266551852, 15.927614012866005 ], [ 74.83321783941598, 15.927667829216469 ], [ 74.833192049518459, 15.927827401072665 ], [ 74.833063062594888, 15.928625705027423 ], [ 74.832979285106092, 15.929338663225533 ], [ 74.832971384008914, 15.929405898083068 ], [ 74.832478443048771, 15.931289458115213 ], [ 74.832351931665528, 15.931802930764681 ], [ 74.832122911604415, 15.932381810668668 ], [ 74.832067883543047, 15.93270470304485 ], [ 74.832116793634327, 15.932581802040941 ], [ 74.83203277843225, 15.93296329815823 ], [ 74.832006781538482, 15.933061962399931 ], [ 74.831972526071382, 15.9331919724331 ], [ 74.831889702383265, 15.933506327896431 ], [ 74.831873173036541, 15.933569073711073 ], [ 74.831794223896537, 15.933868675443009 ], [ 74.831789419200305, 15.933886988520241 ], [ 74.831669034502312, 15.934346794145934 ], [ 74.831645475125498, 15.934522579650979 ], [ 74.83140908393176, 15.936285968311818 ], [ 74.831309818234644, 15.936809242200979 ], [ 74.831102771208378, 15.937900639892543 ], [ 74.831038713251132, 15.938159646867645 ], [ 74.830959184347662, 15.938468366767463 ], [ 74.830918781893047, 15.93862520373186 ], [ 74.830725129274597, 15.939312585522813 ], [ 74.830481869938538, 15.940909594070114 ], [ 74.830420126921737, 15.941625192097511 ], [ 74.830322831150582, 15.942497483298379 ], [ 74.830236015642186, 15.943240774849556 ], [ 74.830151047951333, 15.943732852425271 ], [ 74.830231245588948, 15.943755059213272 ], [ 74.83033610443654, 15.943784088301703 ], [ 74.830433791682637, 15.943811128229214 ], [ 74.830501576108631, 15.943829898831742 ], [ 74.830506089799485, 15.943843656483905 ], [ 74.830846843419053, 15.944880715342256 ], [ 74.830943936701246, 15.945889554606625 ], [ 74.831174810866941, 15.947820146169498 ], [ 74.831183295735812, 15.947891078545481 ], [ 74.831084795539752, 15.948080324990991 ], [ 74.830826976773352, 15.948575634629677 ], [ 74.83081936175698, 15.948574004088428 ], [ 74.830664985090209, 15.949164919382365 ], [ 74.830758091502858, 15.949499577595164 ], [ 74.830770639305427, 15.949544680163783 ], [ 74.830790080075658, 15.949614555280508 ], [ 74.83081419349277, 15.950900367871924 ], [ 74.830814941179227, 15.950940296376594 ], [ 74.830848406985226, 15.951003309963999 ], [ 74.831031486413664, 15.951348046362961 ], [ 74.831160137742089, 15.951877338991705 ], [ 74.831237211696475, 15.951945854325462 ], [ 74.831244947667884, 15.951952730198428 ], [ 74.831366606619071, 15.952004849436626 ], [ 74.832542219853337, 15.952508475035884 ], [ 74.833530134148731, 15.952931685763987 ], [ 74.833559976326342, 15.952998271615161 ], [ 74.834055375202084, 15.954103608053828 ], [ 74.83405400606614, 15.95426735790309 ], [ 74.834048153186785, 15.954966301551138 ], [ 74.833981600026775, 15.955242627590863 ], [ 74.833844746829271, 15.955794304848103 ], [ 74.833817080747096, 15.956279564935752 ], [ 74.833950133995017, 15.956361052976682 ], [ 74.838120374475608, 15.958915051125368 ], [ 74.838144150379165, 15.958929610501396 ], [ 74.838531917470505, 15.959162770891531 ], [ 74.839036088703722, 15.959465920813756 ], [ 74.839215757474463, 15.959573952368695 ], [ 74.839433209232112, 15.959704701579133 ], [ 74.839901208660677, 15.959986098396614 ], [ 74.83993208808792, 15.960034276929356 ], [ 74.839936672497956, 15.960041429496963 ], [ 74.839965643324845, 15.960086631405645 ], [ 74.840221039071992, 15.960485109179183 ], [ 74.840456065272107, 15.960851804440724 ], [ 74.840607748849465, 15.961088465538968 ], [ 74.840645478284699, 15.961220556743752 ], [ 74.840794459110654, 15.96174212708552 ], [ 74.841008873209489, 15.962492775471821 ], [ 74.841036439822304, 15.962589287775666 ], [ 74.841041979902585, 15.962742683278337 ], [ 74.841050650349416, 15.962982757862678 ], [ 74.841275939843882, 15.963724502807828 ], [ 74.84142162097875, 15.964204142565723 ], [ 74.841413982514766, 15.964320514172046 ], [ 74.841399109420692, 15.964547111100968 ], [ 74.84138502889968, 15.964761626096768 ], [ 74.841401632949982, 15.964858872479926 ], [ 74.84155443190798, 15.965753734413637 ], [ 74.84161876145329, 15.966130484832311 ], [ 74.841629154706581, 15.966191348004608 ], [ 74.841860762132612, 15.967547743459184 ], [ 74.842056164325967, 15.968125601633993 ], [ 74.842335406876288, 15.968932533576558 ], [ 74.842360533137835, 15.96900512657257 ], [ 74.842401595966976, 15.969123784883857 ], [ 74.842511530652558, 15.969441450378131 ], [ 74.842622649843918, 15.969762525813771 ], [ 74.842825839161279, 15.970349675207334 ], [ 74.842863225211772, 15.970341354588969 ], [ 74.842909230791804, 15.970486954105137 ], [ 74.842931259913868, 15.970556667205301 ], [ 74.84337726513067, 15.971968523436638 ], [ 74.843385985542113, 15.972002857110921 ], [ 74.843465314230926, 15.972315407325796 ], [ 74.843537924306219, 15.973025695236956 ], [ 74.843474467203862, 15.974307636455702 ], [ 74.843566460335794, 15.974760282280517 ], [ 74.843803742048024, 15.975927732636308 ], [ 74.84381665592602, 15.976032012217399 ], [ 74.843860455142149, 15.976221000189113 ], [ 74.843870362684854, 15.976489162919115 ], [ 74.844145681425232, 15.978321749050735 ], [ 74.844146026482761, 15.978523102552943 ], [ 74.844150647603584, 15.981224026816049 ], [ 74.844145673388965, 15.981381559403381 ], [ 74.844090154258794, 15.983141369256515 ], [ 74.844074873583168, 15.983625690248321 ], [ 74.844068168786549, 15.98383821427956 ], [ 74.844064062363955, 15.983968364092132 ], [ 74.844056259550001, 15.984215691943998 ], [ 74.844131981799066, 15.985341541972256 ], [ 74.84421208713303, 15.986532560013515 ], [ 74.844228983543289, 15.986682270343666 ], [ 74.844432640873052, 15.988486764718017 ], [ 74.844504705854902, 15.98955930126248 ], [ 74.842712435417752, 15.989486322803184 ], [ 74.842297171932557, 15.989483447563874 ], [ 74.83994819019739, 15.989467167817711 ], [ 74.838605064064353, 15.98945650244225 ], [ 74.838008098446309, 15.989514022341682 ], [ 74.836876586664502, 15.989609145147883 ], [ 74.836694740617361, 15.989623733915304 ], [ 74.83550968103485, 15.989667993720072 ], [ 74.834480063104394, 15.989638342187453 ], [ 74.833764262403221, 15.989611892906836 ], [ 74.833440023145243, 15.989616234515257 ], [ 74.830756462319883, 15.989992509136588 ], [ 74.830385192564592, 15.989990951843504 ], [ 74.829934190252288, 15.989989057842985 ], [ 74.828419882653563, 15.989980615283667 ], [ 74.828049273899637, 15.989972311261219 ], [ 74.827816343086042, 15.989920683262003 ], [ 74.826294298716178, 15.98998361960116 ], [ 74.825399846819693, 15.990016550710406 ], [ 74.824705532113413, 15.990060582924899 ], [ 74.824588820977752, 15.990054954127135 ], [ 74.824364950884075, 15.990064520533229 ], [ 74.824241548757854, 15.990069791497138 ], [ 74.821130860873112, 15.990125293630147 ], [ 74.820954432891071, 15.990122274664602 ], [ 74.820766870223835, 15.990119063657556 ], [ 74.820579774684091, 15.990132824387096 ], [ 74.819714321197296, 15.990161623666474 ], [ 74.819179150110031, 15.990198430604346 ], [ 74.818955895959263, 15.990213784065372 ], [ 74.818890017280708, 15.990218314772468 ], [ 74.818737195809689, 15.990248132263323 ], [ 74.818543798802679, 15.990285867326895 ], [ 74.815795165923461, 15.990388298252165 ], [ 74.813845665373236, 15.990468362411942 ], [ 74.813074177562115, 15.990517440503769 ], [ 74.812746729890407, 15.990547086474683 ], [ 74.811154685920101, 15.990691220695281 ], [ 74.810989024134926, 15.990691394258585 ], [ 74.809711936592223, 15.990701936250542 ], [ 74.809053236538588, 15.990733893132576 ], [ 74.808281369959559, 15.990737978697849 ], [ 74.808035642869172, 15.990757217961457 ], [ 74.807371259504649, 15.990809235151362 ], [ 74.807139136432056, 15.990811841339152 ], [ 74.806926215046786, 15.990814224949476 ], [ 74.806538231129096, 15.990887182806572 ], [ 74.805455571861799, 15.990994774521116 ], [ 74.805397311291969, 15.991000569113428 ], [ 74.804895026763617, 15.991175780158066 ], [ 74.803298615953452, 15.991298594595143 ], [ 74.802011762539067, 15.991397583511356 ], [ 74.802000541951287, 15.991513107341307 ] ], [ [ 74.789361828842374, 15.817358601547635 ], [ 74.789453832456445, 15.81789688694734 ], [ 74.789553198126541, 15.817818090350571 ], [ 74.789740760182198, 15.81766934771038 ], [ 74.789744186475772, 15.817514639834183 ], [ 74.789602432533329, 15.817345320171341 ], [ 74.789358373215606, 15.817338384513274 ], [ 74.789361828842374, 15.817358601547635 ] ], [ [ 74.787903608055629, 15.892595982320936 ], [ 74.788016758619889, 15.892647972815269 ], [ 74.788044821947167, 15.892660868504697 ], [ 74.788134700620432, 15.892546285733172 ], [ 74.788080704000194, 15.892512318471386 ], [ 74.78784600314529, 15.892364678343213 ], [ 74.787903608055629, 15.892595982320936 ] ] ] } }
]
}
