{
"type": "FeatureCollection",
"name": "wards_in_police_area.writing_20260805_172659",
"crs": { "type": "name", "properties": { "name": "urn:ogc:def:crs:OGC:1.3:CRS84" } },
"features": [
{ "type": "Feature", "properties": { "KGISWardID": 6458, "KGISWardCode": "2605053", "KGISWardName": "Kurubarahalli", "SHAPE.STArea()": 1629867.2416993701, "SHAPE.STLength()": 9745.3970083835975, "OBJECTID": 20158, "KGISWardNo": "53", "KGISTownCode": "2605", "LGD_WardCode": 28858, "created_user": "SA", "created_date": 1634898537000, "last_edited_user": "SURESHBV1", "last_edited_date": 1692254057000, "_overlap_percent": 54.907008949790246, "_police_station": "Alanahally PS", "_police_feature_index": "309", "_admin_layer": "Ward", "_geometry_clipped": true }, "geometry": { "type": "MultiPolygon", "coordinates": [ [ [ [ 76.689151346550162, 12.301680061435476 ], [ 76.688199208458201, 12.301464169445534 ], [ 76.687522245935753, 12.301314154795087 ], [ 76.687457312125318, 12.301299764977353 ], [ 76.687225596010279, 12.301248416402851 ], [ 76.686625642283616, 12.301110248752938 ], [ 76.686015893898272, 12.300962548177822 ], [ 76.68547370588287, 12.300843194630104 ], [ 76.685301339230278, 12.300803393572913 ], [ 76.685229085117712, 12.300848334595726 ], [ 76.686810261865745, 12.301193385123558 ], [ 76.689234203746082, 12.301698398247387 ], [ 76.689151346550162, 12.301680061435476 ] ] ], [ [ [ 76.692504859205854, 12.303495204050845 ], [ 76.692779676458258, 12.304220946022326 ], [ 76.692981260979764, 12.304839274564838 ], [ 76.693095383649691, 12.305164463318192 ], [ 76.693114038972922, 12.305281122784072 ], [ 76.694227900267606, 12.305121547762438 ], [ 76.694260454442684, 12.30511681443625 ], [ 76.695341071949741, 12.304961677045121 ], [ 76.695457704392908, 12.304940804414835 ], [ 76.695548894812674, 12.30492372889046 ], [ 76.69587088771776, 12.304858692092617 ], [ 76.695922420849698, 12.304847538438887 ], [ 76.69656715411648, 12.30470798735722 ], [ 76.696804960378842, 12.304662474099628 ], [ 76.697112254907822, 12.304599460719029 ], [ 76.697208832982298, 12.304581663306378 ], [ 76.697308246249875, 12.304564025431219 ], [ 76.69766130683945, 12.304503907387879 ], [ 76.697956877207417, 12.304465808422034 ], [ 76.698022761776215, 12.30445731597854 ], [ 76.698274222106349, 12.304429323919337 ], [ 76.698624201440296, 12.304407517169643 ], [ 76.699119142277993, 12.304415179998939 ], [ 76.699779336578445, 12.304448217049961 ], [ 76.699904885607168, 12.304456113349213 ], [ 76.699952909011373, 12.304465758187089 ], [ 76.70006082808068, 12.304501417831688 ], [ 76.700154841805045, 12.304532483244822 ], [ 76.700211948318923, 12.304549203737746 ], [ 76.700261988567036, 12.304559832130254 ], [ 76.700307524599395, 12.304564937347948 ], [ 76.700372758911129, 12.304568417647982 ], [ 76.700439644025451, 12.304568001562973 ], [ 76.700461534283676, 12.304567865382509 ], [ 76.700498380376246, 12.304564848362036 ], [ 76.700538030809014, 12.304557336604374 ], [ 76.700714059639409, 12.304500588563593 ], [ 76.700747132898698, 12.304491422786391 ], [ 76.700813047957695, 12.304474981021265 ], [ 76.700831976638355, 12.304471192282213 ], [ 76.700894241427619, 12.304462932302023 ], [ 76.700991566732867, 12.304455469269914 ], [ 76.701007948671645, 12.30445506269243 ], [ 76.701149083240423, 12.30445594256045 ], [ 76.701336302864988, 12.304457108621477 ], [ 76.701527268224098, 12.304465071568732 ], [ 76.701605784803533, 12.304472608097948 ], [ 76.701618168736744, 12.304475200380359 ], [ 76.70167393429881, 12.304489390602992 ], [ 76.70171316170574, 12.304502282646331 ], [ 76.701810551556804, 12.304545111290857 ], [ 76.701883736788005, 12.304583137840803 ], [ 76.702020684895047, 12.304660385815049 ], [ 76.702086216369779, 12.3046927370312 ], [ 76.702180538811788, 12.304739300780943 ], [ 76.702229721773122, 12.304758974576112 ], [ 76.702289257785154, 12.304777215298472 ], [ 76.702348739454806, 12.304791299967142 ], [ 76.702428326598138, 12.304805751148413 ], [ 76.702477699407197, 12.304811366332855 ], [ 76.702559241333802, 12.304813172550183 ], [ 76.702651449957145, 12.304814286762214 ], [ 76.702905748286085, 12.304810966067791 ], [ 76.703688274937477, 12.304806768553213 ], [ 76.703777162881011, 12.304806291334513 ], [ 76.70380053934349, 12.304664655303023 ], [ 76.703898373207039, 12.304071895778614 ], [ 76.703922762243252, 12.303937754435076 ], [ 76.703996927199071, 12.303529848940347 ], [ 76.704055417772935, 12.303208151698557 ], [ 76.704264644830815, 12.302299918790753 ], [ 76.704292027844119, 12.302181050043773 ], [ 76.704369507017219, 12.301844720550154 ], [ 76.704406093155853, 12.301680551590493 ], [ 76.704410642542129, 12.301660140901589 ], [ 76.704427458735211, 12.301584680754878 ], [ 76.704499689218494, 12.301260571066246 ], [ 76.704629597609497, 12.300677646325017 ], [ 76.704647903983911, 12.30059550390588 ], [ 76.70465874021248, 12.300540721895496 ], [ 76.704702326307697, 12.300320366589702 ], [ 76.704744608168994, 12.300106611037624 ], [ 76.704958099927396, 12.299027293749191 ], [ 76.705033376828183, 12.298646724945923 ], [ 76.705076921552546, 12.298458795575883 ], [ 76.705169005959718, 12.298061377149731 ], [ 76.705234664054217, 12.297781721407405 ], [ 76.7052671566573, 12.297643326137845 ], [ 76.705361741802051, 12.297240463868631 ], [ 76.705365004554778, 12.297195602953025 ], [ 76.705367297923033, 12.29716406782415 ], [ 76.705368473319496, 12.297147905957315 ], [ 76.70538174804804, 12.296965378420909 ], [ 76.705418849064145, 12.296455240948244 ], [ 76.705427259453117, 12.296364725443826 ], [ 76.705525411218503, 12.295308431406534 ], [ 76.705568755151461, 12.294841967437195 ], [ 76.705603483382873, 12.294351918822176 ], [ 76.705633000999654, 12.293935392239149 ], [ 76.705650289195631, 12.293576656572036 ], [ 76.70513189598698, 12.294181358589407 ], [ 76.70498414725779, 12.294353705147648 ], [ 76.70494719339851, 12.29439681176911 ], [ 76.704803250029059, 12.294590532915661 ], [ 76.704732818910557, 12.294685320143794 ], [ 76.704725997874817, 12.294714965307532 ], [ 76.704675184254711, 12.294935794095956 ], [ 76.704652423827454, 12.29503470456172 ], [ 76.704278543201937, 12.295237891798777 ], [ 76.704102113439859, 12.295333773226266 ], [ 76.70398968275039, 12.295542570939574 ], [ 76.703962085800896, 12.295593822550853 ], [ 76.703897918816807, 12.295818732656681 ], [ 76.703849452158494, 12.295988614420043 ], [ 76.703650647977042, 12.296378499426901 ], [ 76.703561808097092, 12.296595072350549 ], [ 76.703004745053306, 12.297087603074399 ], [ 76.70298791084241, 12.297162739667922 ], [ 76.702957772059904, 12.297297259370396 ], [ 76.702940577706215, 12.297374001819659 ], [ 76.702804738919269, 12.297591069734848 ], [ 76.702692834893426, 12.297769584114212 ], [ 76.70259232479674, 12.297929923142641 ], [ 76.702570669166292, 12.297999251107214 ], [ 76.702527549093119, 12.29845359091469 ], [ 76.702458786762421, 12.298610805271384 ], [ 76.702453507570041, 12.298650527133001 ], [ 76.70243291166571, 12.298805504448387 ], [ 76.702419351704492, 12.29890791372531 ], [ 76.702411840547455, 12.298964632062164 ], [ 76.702047566559273, 12.299225821875885 ], [ 76.701966316944137, 12.299270304048036 ], [ 76.701945116888439, 12.299281910790091 ], [ 76.701917651069763, 12.29929694725986 ], [ 76.701600369018934, 12.299470649595811 ], [ 76.701535214636166, 12.299481960336514 ], [ 76.701301672798749, 12.299720126549749 ], [ 76.701119023433463, 12.299784818128945 ], [ 76.700847859904712, 12.299880858824315 ], [ 76.700379162584156, 12.299985309652236 ], [ 76.700315916866188, 12.299921216629969 ], [ 76.700174087944816, 12.299877748710662 ], [ 76.700294893785752, 12.299556961426266 ], [ 76.700297521061813, 12.299514645434606 ], [ 76.700300105036618, 12.299473029373084 ], [ 76.700305762794073, 12.299381909007604 ], [ 76.70033148672762, 12.299382886228246 ], [ 76.700494034109923, 12.299389061873239 ], [ 76.700494033687292, 12.299379419392171 ], [ 76.700493956552407, 12.298288204711817 ], [ 76.700521477566596, 12.29796454707499 ], [ 76.700523461160614, 12.297941216325931 ], [ 76.700547794302906, 12.297655038392227 ], [ 76.700550793233361, 12.297619771839695 ], [ 76.700553036567769, 12.297593375069079 ], [ 76.700190091145913, 12.297800766137117 ], [ 76.699441811875928, 12.298235926621226 ], [ 76.69819170327473, 12.298955970559218 ], [ 76.698173053067961, 12.29896671237705 ], [ 76.698155336625689, 12.298960100582722 ], [ 76.69812524835163, 12.298948872277373 ], [ 76.698086697171163, 12.298934484766503 ], [ 76.69804560866308, 12.299079829316808 ], [ 76.69803158306236, 12.299126175437982 ], [ 76.698019142662446, 12.299167283235843 ], [ 76.697985237601372, 12.299279317608159 ], [ 76.697926334301386, 12.299264466173087 ], [ 76.697419097855871, 12.299136577836947 ], [ 76.696782628558992, 12.299012902850899 ], [ 76.696280196686629, 12.298907172777788 ], [ 76.696240686204632, 12.298898858299248 ], [ 76.696193853002342, 12.298889002792464 ], [ 76.696074944163257, 12.298863980283848 ], [ 76.695946651548397, 12.298987900277014 ], [ 76.695813099603825, 12.29896518316585 ], [ 76.69576910066877, 12.298854008107323 ], [ 76.69557418684505, 12.298847298983571 ], [ 76.694859802877218, 12.298825492043044 ], [ 76.694512142912913, 12.298957333697075 ], [ 76.694274408997742, 12.299018049399795 ], [ 76.694232960222649, 12.299166043562433 ], [ 76.694037834290299, 12.299161863952984 ], [ 76.693980363440232, 12.29954807238289 ], [ 76.693847214326269, 12.299579664304176 ], [ 76.693845549961537, 12.299588200740601 ], [ 76.693814410363132, 12.299749501448289 ], [ 76.693795135254888, 12.299757160756032 ], [ 76.693707496374088, 12.299791988913205 ], [ 76.693660369199264, 12.300031744583027 ], [ 76.693613244549482, 12.300266593554694 ], [ 76.693581727444951, 12.300423665169514 ], [ 76.693544757450397, 12.300607910074357 ], [ 76.693510524564843, 12.300774571418978 ], [ 76.693498817592996, 12.300826538322509 ], [ 76.693493073358184, 12.300848122440332 ], [ 76.693472587220512, 12.30091659303484 ], [ 76.693445412954972, 12.300994340787245 ], [ 76.693425630291372, 12.301044909568423 ], [ 76.693409346028631, 12.301080061380496 ], [ 76.693390894461317, 12.30111613238088 ], [ 76.693380681578276, 12.301133698964785 ], [ 76.69336520520838, 12.301158924837715 ], [ 76.69334462056203, 12.301189203832136 ], [ 76.693321757127734, 12.301221224401818 ], [ 76.693307070289862, 12.301239541858873 ], [ 76.693303304645809, 12.301244238641321 ], [ 76.693280449787252, 12.30127114094778 ], [ 76.693266756389008, 12.301287258345646 ], [ 76.693251065737115, 12.301305727554535 ], [ 76.69323656656654, 12.301322057851824 ], [ 76.693166610744214, 12.301400849748982 ], [ 76.693149641796154, 12.301419962352197 ], [ 76.692975907548032, 12.30159346723036 ], [ 76.692813841742392, 12.301766709945161 ], [ 76.692775123204228, 12.301809633660183 ], [ 76.692715327232861, 12.301881557571443 ], [ 76.692702229565953, 12.301897690243228 ], [ 76.692646624001853, 12.301971388883134 ], [ 76.692632826676217, 12.301991386688131 ], [ 76.692613180559874, 12.302021103899575 ], [ 76.692591973685182, 12.302056164124025 ], [ 76.692560741555226, 12.302111691454046 ], [ 76.692556694769948, 12.302119145233156 ], [ 76.692546847663664, 12.302137284449104 ], [ 76.692388509675382, 12.302448050134306 ], [ 76.692364111210409, 12.302441945199156 ], [ 76.692400659391467, 12.302506693312257 ], [ 76.692345389249354, 12.302973401796677 ], [ 76.692500350556472, 12.303495453706667 ], [ 76.692504859205854, 12.303495204050845 ] ] ] ] } },
{ "type": "Feature", "properties": { "KGISWardID": 6426, "KGISWardCode": "2605037", "KGISWardName": "Ragavendra Nagara", "SHAPE.STArea()": 1035413.8940827399, "SHAPE.STLength()": 5043.9788962195889, "OBJECTID": 20142, "KGISWardNo": "37", "KGISTownCode": "2605", "LGD_WardCode": 28842, "created_user": "SA", "created_date": 1634898537000, "last_edited_user": "SURESHBV1", "last_edited_date": 1692254057000, "_overlap_percent": 0.087487963929669843, "_police_station": "Alanahally PS", "_police_feature_index": "309", "_admin_layer": "Ward", "_geometry_clipped": true }, "geometry": { "type": "MultiPolygon", "coordinates": [ [ [ [ 76.691990209995168, 12.313822965186551 ], [ 76.691995278090602, 12.313766977927662 ], [ 76.691998288252663, 12.313733731616551 ], [ 76.692025467809373, 12.313436643993802 ], [ 76.692050321604427, 12.313164978306709 ], [ 76.692071681466643, 12.312931553260212 ], [ 76.691961340257308, 12.31395884609784 ], [ 76.691960904406471, 12.313958688797225 ], [ 76.69196091859186, 12.313962768268951 ], [ 76.691964961964047, 12.314111340021043 ], [ 76.691990209995168, 12.313822965186551 ] ] ], [ [ [ 76.693114038972922, 12.305281122784072 ], [ 76.693095383649691, 12.305164463318192 ], [ 76.692981260979764, 12.304839274564838 ], [ 76.692779676458258, 12.304220946022326 ], [ 76.692504859205854, 12.303495204050845 ], [ 76.692500350556472, 12.303495453706667 ], [ 76.692663048470621, 12.304043569609968 ], [ 76.693122779325307, 12.305335780633303 ], [ 76.693114038972922, 12.305281122784072 ] ] ], [ [ [ 76.6931675975395, 12.305616051620587 ], [ 76.693154871488503, 12.305536469179751 ], [ 76.693169111246874, 12.305640104823249 ], [ 76.6931675975395, 12.305616051620587 ] ] ] ] } },
{ "type": "Feature", "properties": { "KGISWardID": 6423, "KGISWardCode": "2605036", "KGISWardName": "Yaraganahalli, Ambedkar Colony", "SHAPE.STArea()": 1266574.755288725, "SHAPE.STLength()": 4551.8336060661968, "OBJECTID": 20141, "KGISWardNo": "36", "KGISTownCode": "2605", "LGD_WardCode": 28841, "created_user": "SA", "created_date": 1634898537000, "last_edited_user": "SURESHBV1", "last_edited_date": 1692254057000, "_overlap_percent": 99.571360928664248, "_police_station": "Alanahally PS", "_police_feature_index": "309", "_admin_layer": "Ward", "_geometry_clipped": true }, "geometry": { "type": "Polygon", "coordinates": [ [ [ 76.692050321604427, 12.313164978306709 ], [ 76.692025467809373, 12.313436643993802 ], [ 76.691998288252663, 12.313733731616551 ], [ 76.691995278090602, 12.313766977927662 ], [ 76.692172724635753, 12.31380706931019 ], [ 76.692214612790892, 12.313818234921309 ], [ 76.692247847231101, 12.31382709390644 ], [ 76.692377815093749, 12.313861737355245 ], [ 76.692385857973534, 12.313864411145403 ], [ 76.692391413800181, 12.313866469382813 ], [ 76.692396739687311, 12.313868941249261 ], [ 76.692404008418322, 12.313873468427877 ], [ 76.692408840228595, 12.313877312850494 ], [ 76.692416661561964, 12.31388630034531 ], [ 76.692421888753103, 12.313892307295275 ], [ 76.69242481587014, 12.313896176174534 ], [ 76.692433609555351, 12.31390927697678 ], [ 76.69243739063711, 12.313915856955864 ], [ 76.692469167062271, 12.313976074231611 ], [ 76.692473641542506, 12.313984553647217 ], [ 76.692506285334048, 12.314046414359622 ], [ 76.692540683929025, 12.314104655595383 ], [ 76.692557793803005, 12.314130365682823 ], [ 76.692607133115942, 12.314203482948848 ], [ 76.692620357311498, 12.314221927599897 ], [ 76.692650338644242, 12.314260673428226 ], [ 76.692671403349351, 12.314283778199879 ], [ 76.692708775450157, 12.31432184635185 ], [ 76.69275054058842, 12.314356688167663 ], [ 76.692790211334597, 12.314389782951682 ], [ 76.692887246408219, 12.314472193719817 ], [ 76.692983725825854, 12.314556256706998 ], [ 76.692995882942924, 12.314566848946958 ], [ 76.693020486254255, 12.314593402040778 ], [ 76.693029352440647, 12.314605040668971 ], [ 76.693035253568098, 12.31461377789544 ], [ 76.693119966114068, 12.314739210123973 ], [ 76.693157063373079, 12.314783716073498 ], [ 76.693232077841671, 12.314873710893838 ], [ 76.69324881935708, 12.31489227923535 ], [ 76.693275840556524, 12.314918543409842 ], [ 76.693315863209662, 12.314949290148002 ], [ 76.693346061151559, 12.314968167371308 ], [ 76.693363286567205, 12.314976606580725 ], [ 76.693419199455263, 12.315005562573855 ], [ 76.693453164230405, 12.315016890988911 ], [ 76.693585988019763, 12.315020969556922 ], [ 76.693604233544846, 12.315022042409497 ], [ 76.693856337180435, 12.315024846935422 ], [ 76.693884781420437, 12.315027009966437 ], [ 76.693970869271453, 12.315033554922886 ], [ 76.694012178931743, 12.315044072962651 ], [ 76.694016341114818, 12.31504513279865 ], [ 76.694202990185374, 12.315092659431208 ], [ 76.694341190058466, 12.315128660939012 ], [ 76.694435992208852, 12.315157542678323 ], [ 76.694545572824339, 12.315195189652924 ], [ 76.694572390712807, 12.315206224182271 ], [ 76.694899545282695, 12.315353575583506 ], [ 76.695013455668075, 12.315407770418163 ], [ 76.695814652399307, 12.315765846170912 ], [ 76.695837827660739, 12.315774110861101 ], [ 76.695848285910955, 12.315775813153982 ], [ 76.695880135440717, 12.315779121826145 ], [ 76.695901532223374, 12.315778722292526 ], [ 76.695901998237701, 12.315778708551251 ], [ 76.695917851211078, 12.31577841756606 ], [ 76.695923175726051, 12.315777946083598 ], [ 76.695952273564899, 12.315775367196874 ], [ 76.695959198321717, 12.315774416623498 ], [ 76.695989998737801, 12.315768970660489 ], [ 76.69601696702972, 12.315761897869312 ], [ 76.696046983762898, 12.315751808627684 ], [ 76.696083296345478, 12.315736749206435 ], [ 76.696117359972845, 12.315720361374021 ], [ 76.696159440173375, 12.31569667221941 ], [ 76.696210325438472, 12.315665063960607 ], [ 76.696256195175664, 12.315633370234641 ], [ 76.696273075979164, 12.315619917582815 ], [ 76.696345136581712, 12.315570190877521 ], [ 76.696380519929477, 12.315548588940633 ], [ 76.696398461707361, 12.315541158170799 ], [ 76.696444500970514, 12.315548736609964 ], [ 76.696452598748024, 12.315550069361562 ], [ 76.696651794564801, 12.315582860454569 ], [ 76.696697224316154, 12.315589723087372 ], [ 76.696719764579342, 12.315593592999946 ], [ 76.696754164378049, 12.315602061775225 ], [ 76.696771345807193, 12.315608500570686 ], [ 76.696785185054139, 12.315615305440357 ], [ 76.696792430789273, 12.315620099295746 ], [ 76.696794316999586, 12.315621775261292 ], [ 76.696906529173077, 12.315721508397331 ], [ 76.697008384252072, 12.315809518258252 ], [ 76.697052487849632, 12.315847626137934 ], [ 76.697155097417053, 12.315932000959378 ], [ 76.697188443183876, 12.315957693853766 ], [ 76.697311993118433, 12.316052887171745 ], [ 76.697732554543435, 12.31605299938837 ], [ 76.697912126639949, 12.316053047306573 ], [ 76.697961916122566, 12.316051785886884 ], [ 76.697981799011259, 12.316051282605811 ], [ 76.698308055362858, 12.316043021162422 ], [ 76.698300596073054, 12.315832082751214 ], [ 76.698299901646195, 12.315812449560919 ], [ 76.69829981734442, 12.315810062741184 ], [ 76.698299893937858, 12.315800388143304 ], [ 76.698300364138106, 12.315796165559526 ], [ 76.698301193368536, 12.315788731704462 ], [ 76.698301680087752, 12.315784361673384 ], [ 76.698303320424031, 12.315780254750946 ], [ 76.698305926005247, 12.315777139791933 ], [ 76.698307603760483, 12.315775134331115 ], [ 76.698312799560441, 12.315771661569926 ], [ 76.698315806957368, 12.31577055812286 ], [ 76.698323339243402, 12.31576930088781 ], [ 76.698330745785753, 12.315768790197 ], [ 76.698521566883457, 12.315769596711123 ], [ 76.699265804578914, 12.315759712379711 ], [ 76.69928054758131, 12.315759516693419 ], [ 76.699528685360875, 12.315756331069865 ], [ 76.699559153995367, 12.315755062141479 ], [ 76.699579902307846, 12.315753045566174 ], [ 76.699597952550192, 12.31575034159987 ], [ 76.699614580402567, 12.315745752700771 ], [ 76.699621758020527, 12.315742956396365 ], [ 76.699627529423964, 12.315740073927969 ], [ 76.699635837641367, 12.315734536126339 ], [ 76.699643234254381, 12.315728913602381 ], [ 76.699647909897081, 12.315724616033341 ], [ 76.699650133312275, 12.3157205470586 ], [ 76.699651208218924, 12.315718579692843 ], [ 76.699652456342662, 12.315714672267816 ], [ 76.69965705593944, 12.315643431956307 ], [ 76.699657635343456, 12.315628184974518 ], [ 76.699657805924474, 12.315623693069561 ], [ 76.699658910174449, 12.315594577975304 ], [ 76.699955383989831, 12.315592043933286 ], [ 76.700070450446574, 12.315591060111949 ], [ 76.700703985048861, 12.315581358418441 ], [ 76.700792940667952, 12.315583239710287 ], [ 76.700979861674199, 12.315587195582975 ], [ 76.701114162415038, 12.315591077732853 ], [ 76.701220816744538, 12.315595203442076 ], [ 76.70139161317681, 12.315601808619936 ], [ 76.701426385440215, 12.315603153123183 ], [ 76.701475786897007, 12.315242807118297 ], [ 76.701493632634936, 12.314957271806955 ], [ 76.701541221928068, 12.314505174085616 ], [ 76.701546546962433, 12.314437019899799 ], [ 76.701554123360879, 12.314340034563115 ], [ 76.701560673040092, 12.314256201814491 ], [ 76.701570964578224, 12.314124460639734 ], [ 76.701660195156151, 12.313660466007622 ], [ 76.70178511670197, 12.312839551787659 ], [ 76.701924376983456, 12.312251562965846 ], [ 76.701945730073803, 12.312161405233773 ], [ 76.701951439809662, 12.312120577868995 ], [ 76.70206470314443, 12.311310748226919 ], [ 76.702150744553435, 12.310899140356149 ], [ 76.702165711161882, 12.310827548028081 ], [ 76.702284803266693, 12.310257836209898 ], [ 76.702375597539671, 12.309769269587658 ], [ 76.702409724922816, 12.309585639433376 ], [ 76.702432305568706, 12.309514253673477 ], [ 76.702528710454075, 12.309209491747591 ], [ 76.702594133187901, 12.309002670926381 ], [ 76.702861822615191, 12.308276934640443 ], [ 76.703017250310111, 12.307847463381616 ], [ 76.703087871956868, 12.307652326249052 ], [ 76.703155391728984, 12.307374744426793 ], [ 76.703194947249941, 12.307212126255559 ], [ 76.703442885409871, 12.30625136756618 ], [ 76.703528072366566, 12.30592126893378 ], [ 76.70371870953889, 12.305097040606926 ], [ 76.703730325551945, 12.305046816895924 ], [ 76.703777021324328, 12.304807149164208 ], [ 76.703777162881011, 12.304806291334513 ], [ 76.703688274937477, 12.304806768553213 ], [ 76.702905748286085, 12.304810966067791 ], [ 76.702651449957145, 12.304814286762214 ], [ 76.702559241333802, 12.304813172550183 ], [ 76.702477699407197, 12.304811366332855 ], [ 76.702428326598138, 12.304805751148413 ], [ 76.702348739454806, 12.304791299967142 ], [ 76.702289257785154, 12.304777215298472 ], [ 76.702229721773122, 12.304758974576112 ], [ 76.702180538811788, 12.304739300780943 ], [ 76.702086216369779, 12.3046927370312 ], [ 76.702020684895047, 12.304660385815049 ], [ 76.701883736788005, 12.304583137840803 ], [ 76.701810551556804, 12.304545111290857 ], [ 76.70171316170574, 12.304502282646331 ], [ 76.70167393429881, 12.304489390602992 ], [ 76.701618168736744, 12.304475200380359 ], [ 76.701605784803533, 12.304472608097948 ], [ 76.701527268224098, 12.304465071568732 ], [ 76.701336302864988, 12.304457108621477 ], [ 76.701149083240423, 12.30445594256045 ], [ 76.701007948671645, 12.30445506269243 ], [ 76.700991566732867, 12.304455469269914 ], [ 76.700894241427619, 12.304462932302023 ], [ 76.700831976638355, 12.304471192282213 ], [ 76.700813047957695, 12.304474981021265 ], [ 76.700747132898698, 12.304491422786391 ], [ 76.700714059639409, 12.304500588563593 ], [ 76.700538030809014, 12.304557336604374 ], [ 76.700498380376246, 12.304564848362036 ], [ 76.700461534283676, 12.304567865382509 ], [ 76.700439644025451, 12.304568001562973 ], [ 76.700372758911129, 12.304568417647982 ], [ 76.700307524599395, 12.304564937347948 ], [ 76.700261988567036, 12.304559832130254 ], [ 76.700211948318923, 12.304549203737746 ], [ 76.700154841805045, 12.304532483244822 ], [ 76.70006082808068, 12.304501417831688 ], [ 76.699952909011373, 12.304465758187089 ], [ 76.699904885607168, 12.304456113349213 ], [ 76.699779336578445, 12.304448217049961 ], [ 76.699119142277993, 12.304415179998939 ], [ 76.698624201440296, 12.304407517169643 ], [ 76.698274222106349, 12.304429323919337 ], [ 76.698022761776215, 12.30445731597854 ], [ 76.697956877207417, 12.304465808422034 ], [ 76.69766130683945, 12.304503907387879 ], [ 76.697308246249875, 12.304564025431219 ], [ 76.697208832982298, 12.304581663306378 ], [ 76.697112254907822, 12.304599460719029 ], [ 76.696804960378842, 12.304662474099628 ], [ 76.69656715411648, 12.30470798735722 ], [ 76.695922420849698, 12.304847538438887 ], [ 76.69587088771776, 12.304858692092617 ], [ 76.695548894812674, 12.30492372889046 ], [ 76.695457704392908, 12.304940804414835 ], [ 76.695341071949741, 12.304961677045121 ], [ 76.694260454442684, 12.30511681443625 ], [ 76.694227900267606, 12.305121547762438 ], [ 76.693114038972922, 12.305281122784072 ], [ 76.693122779325307, 12.305335780633303 ], [ 76.693130138727298, 12.30535646643299 ], [ 76.693154871488503, 12.305536469179751 ], [ 76.6931675975395, 12.305616051620587 ], [ 76.693169111246874, 12.305640104823249 ], [ 76.693308626577803, 12.306655484488306 ], [ 76.693371451727899, 12.308329627945829 ], [ 76.693129583766179, 12.309465985245872 ], [ 76.692461508616589, 12.310154386509234 ], [ 76.692309654187454, 12.310670148054276 ], [ 76.692196317430742, 12.311771174159915 ], [ 76.692071681466643, 12.312931553260212 ], [ 76.692050321604427, 12.313164978306709 ] ] ] } },
{ "type": "Feature", "properties": { "KGISWardID": 6422, "KGISWardCode": "2605035", "KGISWardName": "Sathgallai Badavane 1St Stage", "SHAPE.STArea()": 1608033.866385425, "SHAPE.STLength()": 5992.1224558661033, "OBJECTID": 20140, "KGISWardNo": "35", "KGISTownCode": "2605", "LGD_WardCode": 28840, "created_user": "SA", "created_date": 1634898537000, "last_edited_user": "SURESHBV1", "last_edited_date": 1692254057000, "_overlap_percent": 4.4553442734565696, "_police_station": "Alanahally PS", "_police_feature_index": "309", "_admin_layer": "Ward", "_geometry_clipped": true }, "geometry": { "type": "Polygon", "coordinates": [ [ [ 76.701388331836924, 12.316113254156845 ], [ 76.701425222829016, 12.315611624080102 ], [ 76.701426385440215, 12.315603153123183 ], [ 76.70139161317681, 12.315601808619936 ], [ 76.701220816744538, 12.315595203442076 ], [ 76.701114162415038, 12.315591077732853 ], [ 76.700979861674199, 12.315587195582975 ], [ 76.700792940667952, 12.315583239710287 ], [ 76.700703985048861, 12.315581358418441 ], [ 76.700070450446574, 12.315591060111949 ], [ 76.699955383989831, 12.315592043933286 ], [ 76.699658910174449, 12.315594577975304 ], [ 76.699657805924474, 12.315623693069561 ], [ 76.699657635343456, 12.315628184974518 ], [ 76.69965705593944, 12.315643431956307 ], [ 76.699652456342662, 12.315714672267816 ], [ 76.699651208218924, 12.315718579692843 ], [ 76.699650133312275, 12.3157205470586 ], [ 76.699647909897081, 12.315724616033341 ], [ 76.699643234254381, 12.315728913602381 ], [ 76.699635837641367, 12.315734536126339 ], [ 76.699627529423964, 12.315740073927969 ], [ 76.699621758020527, 12.315742956396365 ], [ 76.699614580402567, 12.315745752700771 ], [ 76.699597952550192, 12.31575034159987 ], [ 76.699579902307846, 12.315753045566174 ], [ 76.699559153995367, 12.315755062141479 ], [ 76.699528685360875, 12.315756331069865 ], [ 76.69928054758131, 12.315759516693419 ], [ 76.699265804578914, 12.315759712379711 ], [ 76.698521566883457, 12.315769596711123 ], [ 76.698330745785753, 12.315768790197 ], [ 76.698323339243402, 12.31576930088781 ], [ 76.698315806957368, 12.31577055812286 ], [ 76.698312799560441, 12.315771661569926 ], [ 76.698307603760483, 12.315775134331115 ], [ 76.698305926005247, 12.315777139791933 ], [ 76.698303320424031, 12.315780254750946 ], [ 76.698301680087752, 12.315784361673384 ], [ 76.698301193368536, 12.315788731704462 ], [ 76.698300364138106, 12.315796165559526 ], [ 76.698299893937858, 12.315800388143304 ], [ 76.69829981734442, 12.315810062741184 ], [ 76.698299901646195, 12.315812449560919 ], [ 76.698300596073054, 12.315832082751214 ], [ 76.698308055362858, 12.316043021162422 ], [ 76.697981799011259, 12.316051282605811 ], [ 76.697961916122566, 12.316051785886884 ], [ 76.697912126639949, 12.316053047306573 ], [ 76.697732554543435, 12.31605299938837 ], [ 76.697311993118433, 12.316052887171745 ], [ 76.697188443183876, 12.315957693853766 ], [ 76.697155097417053, 12.315932000959378 ], [ 76.697052487849632, 12.315847626137934 ], [ 76.697008384252072, 12.315809518258252 ], [ 76.696906529173077, 12.315721508397331 ], [ 76.696794316999586, 12.315621775261292 ], [ 76.696792430789273, 12.315620099295746 ], [ 76.696785185054139, 12.315615305440357 ], [ 76.696771345807193, 12.315608500570686 ], [ 76.696754164378049, 12.315602061775225 ], [ 76.696719764579342, 12.315593592999946 ], [ 76.696697224316154, 12.315589723087372 ], [ 76.696651794564801, 12.315582860454569 ], [ 76.696452598748024, 12.315550069361562 ], [ 76.696444500970514, 12.315548736609964 ], [ 76.696398461707361, 12.315541158170799 ], [ 76.696380519929477, 12.315548588940633 ], [ 76.696345136581712, 12.315570190877521 ], [ 76.696273075979164, 12.315619917582815 ], [ 76.696256195175664, 12.315633370234641 ], [ 76.696210325438472, 12.315665063960607 ], [ 76.696159440173375, 12.31569667221941 ], [ 76.696117359972845, 12.315720361374021 ], [ 76.696083296345478, 12.315736749206435 ], [ 76.696046983762898, 12.315751808627684 ], [ 76.69601696702972, 12.315761897869312 ], [ 76.695989998737801, 12.315768970660489 ], [ 76.695959198321717, 12.315774416623498 ], [ 76.695952273564899, 12.315775367196874 ], [ 76.695923175726051, 12.315777946083598 ], [ 76.695917851211078, 12.31577841756606 ], [ 76.695901998237701, 12.315778708551251 ], [ 76.695901532223374, 12.315778722292526 ], [ 76.695880135440717, 12.315779121826145 ], [ 76.695848285910955, 12.315775813153982 ], [ 76.695837827660739, 12.315774110861101 ], [ 76.695814652399307, 12.315765846170912 ], [ 76.695013455668075, 12.315407770418163 ], [ 76.694899545282695, 12.315353575583506 ], [ 76.694572390712807, 12.315206224182271 ], [ 76.694545572824339, 12.315195189652924 ], [ 76.694435992208852, 12.315157542678323 ], [ 76.694341190058466, 12.315128660939012 ], [ 76.694202990185374, 12.315092659431208 ], [ 76.694016341114818, 12.31504513279865 ], [ 76.694012178931743, 12.315044072962651 ], [ 76.693970869271453, 12.315033554922886 ], [ 76.693884781420437, 12.315027009966437 ], [ 76.693856337180435, 12.315024846935422 ], [ 76.693604233544846, 12.315022042409497 ], [ 76.693585988019763, 12.315020969556922 ], [ 76.693453164230405, 12.315016890988911 ], [ 76.693419199455263, 12.315005562573855 ], [ 76.693363286567205, 12.314976606580725 ], [ 76.693346061151559, 12.314968167371308 ], [ 76.693315863209662, 12.314949290148002 ], [ 76.693275840556524, 12.314918543409842 ], [ 76.69324881935708, 12.31489227923535 ], [ 76.693232077841671, 12.314873710893838 ], [ 76.693157063373079, 12.314783716073498 ], [ 76.693119966114068, 12.314739210123973 ], [ 76.693035253568098, 12.31461377789544 ], [ 76.693029352440647, 12.314605040668971 ], [ 76.693020486254255, 12.314593402040778 ], [ 76.692995882942924, 12.314566848946958 ], [ 76.692983725825854, 12.314556256706998 ], [ 76.692887246408219, 12.314472193719817 ], [ 76.692790211334597, 12.314389782951682 ], [ 76.69275054058842, 12.314356688167663 ], [ 76.692708775450157, 12.31432184635185 ], [ 76.692671403349351, 12.314283778199879 ], [ 76.692650338644242, 12.314260673428226 ], [ 76.692620357311498, 12.314221927599897 ], [ 76.692607133115942, 12.314203482948848 ], [ 76.692557793803005, 12.314130365682823 ], [ 76.692540683929025, 12.314104655595383 ], [ 76.692506285334048, 12.314046414359622 ], [ 76.692473641542506, 12.313984553647217 ], [ 76.692469167062271, 12.313976074231611 ], [ 76.69243739063711, 12.313915856955864 ], [ 76.692433609555351, 12.31390927697678 ], [ 76.69242481587014, 12.313896176174534 ], [ 76.692421888753103, 12.313892307295275 ], [ 76.692416661561964, 12.31388630034531 ], [ 76.692408840228595, 12.313877312850494 ], [ 76.692404008418322, 12.313873468427877 ], [ 76.692396739687311, 12.313868941249261 ], [ 76.692391413800181, 12.313866469382813 ], [ 76.692385857973534, 12.313864411145403 ], [ 76.692377815093749, 12.313861737355245 ], [ 76.692247847231101, 12.31382709390644 ], [ 76.692214612790892, 12.313818234921309 ], [ 76.692172724635753, 12.31380706931019 ], [ 76.691995278090602, 12.313766977927662 ], [ 76.691990209995168, 12.313822965186551 ], [ 76.691964961964047, 12.314111340021043 ], [ 76.691975971515319, 12.314515880648823 ], [ 76.691972574980426, 12.314556117846989 ], [ 76.691938916845331, 12.314954929044463 ], [ 76.691922548745893, 12.315148871432655 ], [ 76.691890031452886, 12.315534192132473 ], [ 76.691839229442792, 12.315846336860181 ], [ 76.694907594859984, 12.31602498143905 ], [ 76.701387844785586, 12.316119876558041 ], [ 76.701388331836924, 12.316113254156845 ] ] ] } },
{ "type": "Feature", "properties": { "KGISWardID": 6455, "KGISWardCode": "2605052", "KGISWardName": "Ittigegudu", "SHAPE.STArea()": 7425629.2904108353, "SHAPE.STLength()": 12510.077270577754, "OBJECTID": 20157, "KGISWardNo": "52", "KGISTownCode": "2605", "LGD_WardCode": 28857, "created_user": "SA", "created_date": 1634898537000, "last_edited_user": "SURESHBV1", "last_edited_date": 1692254057000, "_overlap_percent": 9.4034248903783837, "_police_station": "Alanahally PS", "_police_feature_index": "309", "_admin_layer": "Ward", "_geometry_clipped": true }, "geometry": { "type": "Polygon", "coordinates": [ [ [ 76.692388509675382, 12.302448050134306 ], [ 76.692546847663664, 12.302137284449104 ], [ 76.692556694769948, 12.302119145233156 ], [ 76.692560741555226, 12.302111691454046 ], [ 76.692591973685182, 12.302056164124025 ], [ 76.692613180559874, 12.302021103899575 ], [ 76.692632826676217, 12.301991386688131 ], [ 76.692646624001853, 12.301971388883134 ], [ 76.692702229565953, 12.301897690243228 ], [ 76.692715327232861, 12.301881557571443 ], [ 76.692775123204228, 12.301809633660183 ], [ 76.692813841742392, 12.301766709945161 ], [ 76.692975907548032, 12.30159346723036 ], [ 76.693149641796154, 12.301419962352197 ], [ 76.693166610744214, 12.301400849748982 ], [ 76.69323656656654, 12.301322057851824 ], [ 76.693251065737115, 12.301305727554535 ], [ 76.693266756389008, 12.301287258345646 ], [ 76.693280449787252, 12.30127114094778 ], [ 76.693303304645809, 12.301244238641321 ], [ 76.693307070289862, 12.301239541858873 ], [ 76.693321757127734, 12.301221224401818 ], [ 76.69334462056203, 12.301189203832136 ], [ 76.69336520520838, 12.301158924837715 ], [ 76.693380681578276, 12.301133698964785 ], [ 76.693390894461317, 12.30111613238088 ], [ 76.693409346028631, 12.301080061380496 ], [ 76.693425630291372, 12.301044909568423 ], [ 76.693445412954972, 12.300994340787245 ], [ 76.693472587220512, 12.30091659303484 ], [ 76.693493073358184, 12.300848122440332 ], [ 76.693498817592996, 12.300826538322509 ], [ 76.693510524564843, 12.300774571418978 ], [ 76.693544757450397, 12.300607910074357 ], [ 76.693581727444951, 12.300423665169514 ], [ 76.693613244549482, 12.300266593554694 ], [ 76.693660369199264, 12.300031744583027 ], [ 76.693707496374088, 12.299791988913205 ], [ 76.69363926920667, 12.299819102664889 ], [ 76.693632878931965, 12.299782020326379 ], [ 76.693597219254059, 12.299575085766808 ], [ 76.69357140906105, 12.299425313416291 ], [ 76.693554898407172, 12.299215847574281 ], [ 76.69355351267302, 12.299195694286714 ], [ 76.693488173852685, 12.29824515810702 ], [ 76.693484224455801, 12.298187710743404 ], [ 76.693460680883916, 12.297845201431416 ], [ 76.693456177272779, 12.297768674949065 ], [ 76.693429512953742, 12.297315631811751 ], [ 76.69344104604923, 12.297222019756182 ], [ 76.693468174718916, 12.297001813998792 ], [ 76.693581054948922, 12.29608555681415 ], [ 76.693590274920837, 12.296010719819792 ], [ 76.693675379573179, 12.295341873388223 ], [ 76.693776941687332, 12.29454369886542 ], [ 76.693892926119105, 12.293632168225422 ], [ 76.693922631201772, 12.292869303364222 ], [ 76.693939084057178, 12.292446785626247 ], [ 76.693940610797043, 12.29240756881091 ], [ 76.693949833045494, 12.292170721767111 ], [ 76.693956047626813, 12.29201113563632 ], [ 76.693957277386943, 12.291979554826204 ], [ 76.689717060024648, 12.291144745545566 ], [ 76.687814130126583, 12.294457096597615 ], [ 76.689371619889897, 12.295182401565111 ], [ 76.688575139329956, 12.296273948948695 ], [ 76.687896283960015, 12.298111582675856 ], [ 76.687197576297265, 12.299623961285119 ], [ 76.685301339230278, 12.300803393572913 ], [ 76.68547370588287, 12.300843194630104 ], [ 76.686015893898272, 12.300962548177822 ], [ 76.686625642283616, 12.301110248752938 ], [ 76.687225596010279, 12.301248416402851 ], [ 76.687457312125318, 12.301299764977353 ], [ 76.687522245935753, 12.301314154795087 ], [ 76.688199208458201, 12.301464169445534 ], [ 76.689151346550162, 12.301680061435476 ], [ 76.689234203746082, 12.301698398247387 ], [ 76.692305610662601, 12.302338306660229 ], [ 76.692364111210409, 12.302441945199156 ], [ 76.692388509675382, 12.302448050134306 ] ] ] } }
]
}
