{
"type": "FeatureCollection",
"name": "wards_in_police_area.writing_20260805_172659",
"crs": { "type": "name", "properties": { "name": "urn:ogc:def:crs:OGC:1.3:CRS84" } },
"features": [
{ "type": "Feature", "properties": { "KGISWardID": 4441, "KGISWardCode": "0801015", "KGISWardName": null, "SHAPE.STArea()": 137225.40162811501, "SHAPE.STLength()": 1584.1610810188804, "OBJECTID": 16298, "KGISWardNo": "15", "KGISTownCode": "0801", "LGD_WardCode": 27978, "created_user": "SA", "created_date": 1634898537000, "last_edited_user": "SURESHBV1", "last_edited_date": 1692253972000, "_overlap_percent": 0.046504638466132675, "_police_station": "Betageri PS", "_police_feature_index": "383", "_admin_layer": "Ward", "_geometry_clipped": true }, "geometry": { "type": "Polygon", "coordinates": [ [ [ 75.63525191863944, 15.436317782317268 ], [ 75.635252569061706, 15.436226350894366 ], [ 75.635135061371074, 15.436210561278882 ], [ 75.63525191863944, 15.436317782317268 ] ] ] } },
{ "type": "Feature", "properties": { "KGISWardID": 4439, "KGISWardCode": "0801013", "KGISWardName": null, "SHAPE.STArea()": 462541.00190262502, "SHAPE.STLength()": 3159.3259095944009, "OBJECTID": 16296, "KGISWardNo": "13", "KGISTownCode": "0801", "LGD_WardCode": 27976, "created_user": "SA", "created_date": 1634898537000, "last_edited_user": "SURESHBV1", "last_edited_date": 1692253972000, "_overlap_percent": 0.15471758174995581, "_police_station": "Betageri PS", "_police_feature_index": "383", "_admin_layer": "Ward", "_geometry_clipped": true }, "geometry": { "type": "Polygon", "coordinates": [ [ [ 75.63525191863944, 15.436317782317268 ], [ 75.636332465097809, 15.436387132703 ], [ 75.636640555794983, 15.43641285593667 ], [ 75.635252569061706, 15.436226350894366 ], [ 75.63525191863944, 15.436317782317268 ] ] ] } },
{ "type": "Feature", "properties": { "KGISWardID": 4438, "KGISWardCode": "0801012", "KGISWardName": null, "SHAPE.STArea()": 485357.69424571499, "SHAPE.STLength()": 2911.241225158878, "OBJECTID": 16295, "KGISWardNo": "12", "KGISTownCode": "0801", "LGD_WardCode": 27975, "created_user": "SA", "created_date": 1634898537000, "last_edited_user": "SURESHBV1", "last_edited_date": 1692253972000, "_overlap_percent": 0.062024020305450171, "_police_station": "Betageri PS", "_police_feature_index": "383", "_admin_layer": "Ward", "_geometry_clipped": true }, "geometry": { "type": "Polygon", "coordinates": [ [ [ 75.65030948504112, 15.437383719137779 ], [ 75.650526288364787, 15.437399627557221 ], [ 75.651400037085281, 15.437459408701082 ], [ 75.649911170488366, 15.43733017914747 ], [ 75.649422986708672, 15.43731866927047 ], [ 75.65030948504112, 15.437383719137779 ] ] ] } },
{ "type": "Feature", "properties": { "KGISWardID": 4437, "KGISWardCode": "0801011", "KGISWardName": null, "SHAPE.STArea()": 3469745.7509246152, "SHAPE.STLength()": 8985.0130239432056, "OBJECTID": 16294, "KGISWardNo": "11", "KGISTownCode": "0801", "LGD_WardCode": 27974, "created_user": "SA", "created_date": 1634898537000, "last_edited_user": "SURESHBV1", "last_edited_date": 1692253972000, "_overlap_percent": 0.080235706659725875, "_police_station": "Betageri PS", "_police_feature_index": "383", "_admin_layer": "Ward", "_geometry_clipped": true }, "geometry": { "type": "MultiPolygon", "coordinates": [ [ [ [ 75.683679500712387, 15.440898318792961 ], [ 75.683669752092641, 15.440874388656635 ], [ 75.683161238262144, 15.441025686424743 ], [ 75.683679500712387, 15.440898318792961 ] ] ], [ [ [ 75.674106171122105, 15.443265810571186 ], [ 75.674633136005383, 15.443216370752864 ], [ 75.675132260447569, 15.443137114436105 ], [ 75.675652837442883, 15.443018923676993 ], [ 75.675788904495192, 15.442982705609969 ], [ 75.674098669959676, 15.443265865272403 ], [ 75.674106171122105, 15.443265810571186 ] ] ], [ [ [ 75.671435558277679, 15.442930071787277 ], [ 75.671543162197324, 15.442956931208016 ], [ 75.670995465298745, 15.442769073372393 ], [ 75.671435558277679, 15.442930071787277 ] ] ], [ [ [ 75.666686952901642, 15.439595692648675 ], [ 75.667147328854426, 15.439932168267333 ], [ 75.667768733904765, 15.440498382386615 ], [ 75.668335270451479, 15.441050837775139 ], [ 75.667050172363375, 15.439702346515865 ], [ 75.666169635517932, 15.439273351722125 ], [ 75.666686952901642, 15.439595692648675 ] ] ], [ [ [ 75.665154351250834, 15.43877870840652 ], [ 75.66504957235604, 15.438727660457085 ], [ 75.664876796559071, 15.438676869187141 ], [ 75.665154351250834, 15.43877870840652 ] ] ], [ [ [ 75.66338764138365, 15.438316928379912 ], [ 75.664007567100612, 15.438422711276754 ], [ 75.664045821967193, 15.43843258581208 ], [ 75.663519202970349, 15.438277774501145 ], [ 75.662750369163362, 15.43824092432458 ], [ 75.66338764138365, 15.438316928379912 ] ] ] ] } },
{ "type": "Feature", "properties": { "KGISWardID": 4442, "KGISWardCode": "0801016", "KGISWardName": null, "SHAPE.STArea()": 296463.32877197, "SHAPE.STLength()": 3447.5473927616722, "OBJECTID": 16299, "KGISWardNo": "16", "KGISTownCode": "0801", "LGD_WardCode": 27979, "created_user": "SA", "created_date": 1634898537000, "last_edited_user": "SURESHBV1", "last_edited_date": 1692253972000, "_overlap_percent": 0.035384331506761492, "_police_station": "Betageri PS", "_police_feature_index": "383", "_admin_layer": "Ward", "_geometry_clipped": true }, "geometry": { "type": "Polygon", "coordinates": [ [ [ 75.63525191863944, 15.436317782317268 ], [ 75.635135061371074, 15.436210561278882 ], [ 75.635123118643079, 15.436208956523638 ], [ 75.635086992183417, 15.436307196577955 ], [ 75.63525191863944, 15.436317782317268 ] ] ] } },
{ "type": "Feature", "properties": { "KGISWardID": 4436, "KGISWardCode": "0801010", "KGISWardName": null, "SHAPE.STArea()": 239926.554314615, "SHAPE.STLength()": 3189.705982252367, "OBJECTID": 16293, "KGISWardNo": "10", "KGISTownCode": "0801", "LGD_WardCode": 27973, "created_user": "SA", "created_date": 1634898537000, "last_edited_user": "SURESHBV1", "last_edited_date": 1692253972000, "_overlap_percent": 63.868285733214904, "_police_station": "Betageri PS", "_police_feature_index": "383", "_admin_layer": "Ward", "_geometry_clipped": true }, "geometry": { "type": "Polygon", "coordinates": [ [ [ 75.63965874917335, 15.437235431613949 ], [ 75.640221987704905, 15.437556719205817 ], [ 75.640536825951344, 15.437693346587086 ], [ 75.640849028548232, 15.437855098028153 ], [ 75.641445686823602, 15.438136579566612 ], [ 75.64198504044866, 15.438387609068053 ], [ 75.642520408789679, 15.438625252704286 ], [ 75.642822637598385, 15.438750672417498 ], [ 75.643111016424072, 15.438862735806692 ], [ 75.643590887564812, 15.439016342712069 ], [ 75.643936474397535, 15.439126326108576 ], [ 75.644084600767272, 15.439179474904282 ], [ 75.644195190269329, 15.439215511559489 ], [ 75.64433542612511, 15.439268683995465 ], [ 75.644432230253216, 15.439312414148144 ], [ 75.644495495929121, 15.439356242582971 ], [ 75.644546925658986, 15.439400103573682 ], [ 75.644582625442084, 15.439461234888002 ], [ 75.644612371333452, 15.439510900400931 ], [ 75.644657875838433, 15.439552867440812 ], [ 75.644707356165966, 15.439604389449242 ], [ 75.644744934588971, 15.439634896408403 ], [ 75.644796310309957, 15.439661535567364 ], [ 75.644835867803522, 15.439693952415395 ], [ 75.644851744626379, 15.439724522425402 ], [ 75.644838064632083, 15.439766661429134 ], [ 75.644798430248997, 15.439888584897542 ], [ 75.644764757697672, 15.440004931199908 ], [ 75.644744348938559, 15.440104017028665 ], [ 75.64471382267142, 15.440280630917341 ], [ 75.644691047674726, 15.44057203510773 ], [ 75.64467440038878, 15.440930873568446 ], [ 75.644665151667994, 15.441289691423901 ], [ 75.644666882564977, 15.44137149098216 ], [ 75.64467888545424, 15.441424556581447 ], [ 75.644744104295981, 15.441461682123812 ], [ 75.644797472837922, 15.441494535251735 ], [ 75.644905618183927, 15.441537275714238 ], [ 75.645123363416261, 15.441614142189401 ], [ 75.645341006734498, 15.441657998703374 ], [ 75.645509739464387, 15.441674729731302 ], [ 75.64557044277457, 15.441687469988349 ], [ 75.645605339777333, 15.44158828227785 ], [ 75.645623018356915, 15.441563354422623 ], [ 75.645638771142131, 15.441553741146794 ], [ 75.645662439258132, 15.441551758417745 ], [ 75.645946462541431, 15.441529882920319 ], [ 75.645979990460503, 15.441525957601472 ], [ 75.646003628021262, 15.441514406589665 ], [ 75.646033155410365, 15.441493272800885 ], [ 75.646048855794575, 15.441466437730226 ], [ 75.646060615804544, 15.44144152707727 ], [ 75.646074288791439, 15.441397475085822 ], [ 75.646103721376434, 15.441345723613892 ], [ 75.646139162238228, 15.441322657838118 ], [ 75.64619825839479, 15.441293783421463 ], [ 75.646237625884126, 15.441264964649724 ], [ 75.646269084879066, 15.441230429173492 ], [ 75.64627686987069, 15.441195962657874 ], [ 75.646288191379909, 15.441029451127756 ], [ 75.646293541059123, 15.440845734168301 ], [ 75.646293387008271, 15.440795982706902 ], [ 75.646267603648383, 15.440752045639003 ], [ 75.646237880882254, 15.440710034794265 ], [ 75.646210112559174, 15.440662276708368 ], [ 75.646198157108401, 15.440624039994342 ], [ 75.646205758446186, 15.440530254670612 ], [ 75.646234545126219, 15.440269927269368 ], [ 75.646244041625451, 15.44015126001362 ], [ 75.646243929062081, 15.440114902652299 ], [ 75.646226055176868, 15.440076684079672 ], [ 75.646214141230288, 15.440051842371169 ], [ 75.646214016825795, 15.440011658251615 ], [ 75.646224170223789, 15.439945611315656 ], [ 75.64622853307101, 15.439921200435069 ], [ 75.646234415988204, 15.439909702019703 ], [ 75.646247697447635, 15.439898182054595 ], [ 75.646281724625055, 15.439896648233038 ], [ 75.646404505563069, 15.439887678692187 ], [ 75.646423727695478, 15.439883317661456 ], [ 75.646439985218692, 15.439877529654623 ], [ 75.646445872566019, 15.439867465929151 ], [ 75.646445797009932, 15.43984306888075 ], [ 75.646417075917867, 15.439646535180676 ], [ 75.646380190449619, 15.439371838637781 ], [ 75.64637267342242, 15.439333589901238 ], [ 75.646370133181719, 15.439309677363344 ], [ 75.646368840845142, 15.439290546262507 ], [ 75.646382334436453, 15.439267783057399 ], [ 75.646405742704601, 15.439261735556777 ], [ 75.646692974902123, 15.439241762807963 ], [ 75.646723789083879, 15.439238084868887 ], [ 75.646757054620224, 15.439229617420105 ], [ 75.646773050459714, 15.439218806415289 ], [ 75.646777874411313, 15.439184108942781 ], [ 75.646777744718136, 15.439142250561666 ], [ 75.646773935226292, 15.439106382212964 ], [ 75.646773824060347, 15.439070503083709 ], [ 75.646774960805601, 15.439039405389032 ], [ 75.646797117418117, 15.439027380382504 ], [ 75.646903145103522, 15.439023484061611 ], [ 75.647183219446788, 15.439001617711609 ], [ 75.647467239963859, 15.43897974039902 ], [ 75.647626954566135, 15.438952484034763 ], [ 75.64794627082226, 15.438924985748731 ], [ 75.647988164126502, 15.438915295977921 ], [ 75.648010290954872, 15.438893704413614 ], [ 75.648017540953632, 15.438845843375544 ], [ 75.647994514803386, 15.438578014427417 ], [ 75.648011613673631, 15.438525341362819 ], [ 75.648038613384799, 15.438484599800033 ], [ 75.648127175244852, 15.438414974324392 ], [ 75.648555755165219, 15.438251070328764 ], [ 75.648952143285541, 15.438044204887166 ], [ 75.649237605706602, 15.437852014934345 ], [ 75.649569980310474, 15.437678823071021 ], [ 75.650008481675897, 15.437534022166416 ], [ 75.65030948504112, 15.437383719137779 ], [ 75.649422986708672, 15.43731866927047 ], [ 75.647203280812207, 15.437266335409927 ], [ 75.646331427731283, 15.437627667503087 ], [ 75.645252515936406, 15.438018300773123 ], [ 75.644469299471481, 15.438336313165395 ], [ 75.643921579119464, 15.43825179364713 ], [ 75.642249004015824, 15.438055718468991 ], [ 75.641479035928484, 15.437871373803583 ], [ 75.639967417884591, 15.43708639767514 ], [ 75.63910819607905, 15.436744435010551 ], [ 75.638748372819123, 15.436696085231187 ], [ 75.63965874917335, 15.437235431613949 ] ] ] } },
{ "type": "Feature", "properties": { "KGISWardID": 4435, "KGISWardCode": "0801009", "KGISWardName": null, "SHAPE.STArea()": 261499.95416893001, "SHAPE.STLength()": 2747.6942695360935, "OBJECTID": 16292, "KGISWardNo": "9", "KGISTownCode": "0801", "LGD_WardCode": 27972, "created_user": "SA", "created_date": 1634898537000, "last_edited_user": "SURESHBV1", "last_edited_date": 1692253972000, "_overlap_percent": 99.526313649194122, "_police_station": "Betageri PS", "_police_feature_index": "383", "_admin_layer": "Ward", "_geometry_clipped": true }, "geometry": { "type": "Polygon", "coordinates": [ [ [ 75.636778214564018, 15.436853397144418 ], [ 75.63680064243573, 15.436929874196984 ], [ 75.636837887261436, 15.437013485894663 ], [ 75.636919513696995, 15.437094577213006 ], [ 75.637196216998461, 15.437261219092976 ], [ 75.637648269625686, 15.437513466557265 ], [ 75.638154758827696, 15.437825355091324 ], [ 75.638379685675375, 15.437994534593445 ], [ 75.638777708927066, 15.438318694076523 ], [ 75.639316625387522, 15.438750083580999 ], [ 75.639630631275026, 15.439017076099503 ], [ 75.639784052549359, 15.439188853185019 ], [ 75.640006823071403, 15.439458500260566 ], [ 75.640120686199708, 15.439596904685761 ], [ 75.640494689946237, 15.44005509059383 ], [ 75.640940184809253, 15.440577640234578 ], [ 75.641197600762951, 15.44088545745273 ], [ 75.641700149007434, 15.441515476219495 ], [ 75.641974962197281, 15.441866296028962 ], [ 75.642319069412238, 15.442295849124879 ], [ 75.642544409464733, 15.442596580299117 ], [ 75.642610791204376, 15.442691110425475 ], [ 75.642664505942506, 15.442836383822433 ], [ 75.642682509086569, 15.442916700657399 ], [ 75.642708373564531, 15.442987427278004 ], [ 75.642732160680183, 15.443023715156649 ], [ 75.642807270178452, 15.443069422659583 ], [ 75.642870472795252, 15.443092202978626 ], [ 75.643014550257249, 15.443110920263239 ], [ 75.643365760459815, 15.443123297075021 ], [ 75.6439239834136, 15.44309106033182 ], [ 75.644389576985219, 15.443089708334821 ], [ 75.644623357846456, 15.443088072638194 ], [ 75.644661810713217, 15.443082220253805 ], [ 75.644701734814845, 15.443073493266937 ], [ 75.644746057455691, 15.44305183659645 ], [ 75.644843562800801, 15.443002757738595 ], [ 75.644935211640615, 15.442973788106066 ], [ 75.644992891358044, 15.442965009446178 ], [ 75.645044682638002, 15.442966293561748 ], [ 75.645109826614615, 15.442979021018481 ], [ 75.645220898445885, 15.443010272406159 ], [ 75.645321628258301, 15.443047292654242 ], [ 75.645589620774487, 15.44310391927989 ], [ 75.645819045112106, 15.443129084349044 ], [ 75.645844190548061, 15.443126140821816 ], [ 75.645854498698583, 15.443110325408838 ], [ 75.645854409866388, 15.44308162156814 ], [ 75.645831842692857, 15.442961133849073 ], [ 75.645782481283874, 15.442789056566335 ], [ 75.645739088285737, 15.442632750912381 ], [ 75.645716484782639, 15.442500781999458 ], [ 75.645705792384021, 15.442438188621102 ], [ 75.645686345968087, 15.442324344605034 ], [ 75.645672163948845, 15.442044529245084 ], [ 75.645637466030692, 15.441829356234798 ], [ 75.645600137442088, 15.44172039180447 ], [ 75.64557044277457, 15.441687469988349 ], [ 75.645509739464387, 15.441674729731302 ], [ 75.645341006734498, 15.441657998703374 ], [ 75.645123363416261, 15.441614142189401 ], [ 75.644905618183927, 15.441537275714238 ], [ 75.644797472837922, 15.441494535251735 ], [ 75.644744104295981, 15.441461682123812 ], [ 75.64467888545424, 15.441424556581447 ], [ 75.644666882564977, 15.44137149098216 ], [ 75.644665151667994, 15.441289691423901 ], [ 75.64467440038878, 15.440930873568446 ], [ 75.644691047674726, 15.44057203510773 ], [ 75.64471382267142, 15.440280630917341 ], [ 75.644744348938559, 15.440104017028665 ], [ 75.644764757697672, 15.440004931199908 ], [ 75.644798430248997, 15.439888584897542 ], [ 75.644838064632083, 15.439766661429134 ], [ 75.644851744626379, 15.439724522425402 ], [ 75.644835867803522, 15.439693952415395 ], [ 75.644796310309957, 15.439661535567364 ], [ 75.644744934588971, 15.439634896408403 ], [ 75.644707356165966, 15.439604389449242 ], [ 75.644657875838433, 15.439552867440812 ], [ 75.644612371333452, 15.439510900400931 ], [ 75.644582625442084, 15.439461234888002 ], [ 75.644546925658986, 15.439400103573682 ], [ 75.644495495929121, 15.439356242582971 ], [ 75.644432230253216, 15.439312414148144 ], [ 75.64433542612511, 15.439268683995465 ], [ 75.644195190269329, 15.439215511559489 ], [ 75.644084600767272, 15.439179474904282 ], [ 75.643936474397535, 15.439126326108576 ], [ 75.643590887564812, 15.439016342712069 ], [ 75.643111016424072, 15.438862735806692 ], [ 75.642822637598385, 15.438750672417498 ], [ 75.642520408789679, 15.438625252704286 ], [ 75.64198504044866, 15.438387609068053 ], [ 75.641445686823602, 15.438136579566612 ], [ 75.640849028548232, 15.437855098028153 ], [ 75.640536825951344, 15.437693346587086 ], [ 75.640221987704905, 15.437556719205817 ], [ 75.63965874917335, 15.437235431613949 ], [ 75.638748372819123, 15.436696085231187 ], [ 75.636805418432004, 15.436435008679457 ], [ 75.636778214564018, 15.436853397144418 ] ] ] } },
{ "type": "Feature", "properties": { "KGISWardID": 4432, "KGISWardCode": "0801006", "KGISWardName": null, "SHAPE.STArea()": 2208744.26965266, "SHAPE.STLength()": 10288.909233145481, "OBJECTID": 16289, "KGISWardNo": "6", "KGISTownCode": "0801", "LGD_WardCode": 27969, "created_user": "SA", "created_date": 1634898537000, "last_edited_user": "SURESHBV1", "last_edited_date": 1692253972000, "_overlap_percent": 99.486332588246484, "_police_station": "Betageri PS", "_police_feature_index": "383", "_admin_layer": "Ward", "_geometry_clipped": true }, "geometry": { "type": "Polygon", "coordinates": [ [ [ 75.650526288364787, 15.437399627557221 ], [ 75.65030948504112, 15.437383719137779 ], [ 75.650008481675897, 15.437534022166416 ], [ 75.649569980310474, 15.437678823071021 ], [ 75.649237605706602, 15.437852014934345 ], [ 75.648952143285541, 15.438044204887166 ], [ 75.648555755165219, 15.438251070328764 ], [ 75.648127175244852, 15.438414974324392 ], [ 75.648038613384799, 15.438484599800033 ], [ 75.648011613673631, 15.438525341362819 ], [ 75.647994514803386, 15.438578014427417 ], [ 75.648017540953632, 15.438845843375544 ], [ 75.648010290954872, 15.438893704413614 ], [ 75.647988164126502, 15.438915295977921 ], [ 75.64794627082226, 15.438924985748731 ], [ 75.647626954566135, 15.438952484034763 ], [ 75.647467239963859, 15.43897974039902 ], [ 75.647183219446788, 15.439001617711609 ], [ 75.646903145103522, 15.439023484061611 ], [ 75.646797117418117, 15.439027380382504 ], [ 75.646774960805601, 15.439039405389032 ], [ 75.646773824060347, 15.439070503083709 ], [ 75.646773935226292, 15.439106382212964 ], [ 75.646777744718136, 15.439142250561666 ], [ 75.646777874411313, 15.439184108942781 ], [ 75.646773050459714, 15.439218806415289 ], [ 75.646757054620224, 15.439229617420105 ], [ 75.646723789083879, 15.439238084868887 ], [ 75.646692974902123, 15.439241762807963 ], [ 75.646405742704601, 15.439261735556777 ], [ 75.646382334436453, 15.439267783057399 ], [ 75.646368840845142, 15.439290546262507 ], [ 75.646370133181719, 15.439309677363344 ], [ 75.64637267342242, 15.439333589901238 ], [ 75.646380190449619, 15.439371838637781 ], [ 75.646417075917867, 15.439646535180676 ], [ 75.646445797009932, 15.43984306888075 ], [ 75.646445872566019, 15.439867465929151 ], [ 75.646439985218692, 15.439877529654623 ], [ 75.646423727695478, 15.439883317661456 ], [ 75.646404505563069, 15.439887678692187 ], [ 75.646281724625055, 15.439896648233038 ], [ 75.646247697447635, 15.439898182054595 ], [ 75.646234415988204, 15.439909702019703 ], [ 75.64622853307101, 15.439921200435069 ], [ 75.646224170223789, 15.439945611315656 ], [ 75.646214016825795, 15.440011658251615 ], [ 75.646214141230288, 15.440051842371169 ], [ 75.646226055176868, 15.440076684079672 ], [ 75.646243929062081, 15.440114902652299 ], [ 75.646244041625451, 15.44015126001362 ], [ 75.646234545126219, 15.440269927269368 ], [ 75.646205758446186, 15.440530254670612 ], [ 75.646198157108401, 15.440624039994342 ], [ 75.646210112559174, 15.440662276708368 ], [ 75.646237880882254, 15.440710034794265 ], [ 75.646267603648383, 15.440752045639003 ], [ 75.646293387008271, 15.440795982706902 ], [ 75.646293541059123, 15.440845734168301 ], [ 75.646288191379909, 15.441029451127756 ], [ 75.64627686987069, 15.441195962657874 ], [ 75.646269084879066, 15.441230429173492 ], [ 75.646237625884126, 15.441264964649724 ], [ 75.64619825839479, 15.441293783421463 ], [ 75.646139162238228, 15.441322657838118 ], [ 75.646103721376434, 15.441345723613892 ], [ 75.646074288791439, 15.441397475085822 ], [ 75.646060615804544, 15.44144152707727 ], [ 75.646048855794575, 15.441466437730226 ], [ 75.646033155410365, 15.441493272800885 ], [ 75.646003628021262, 15.441514406589665 ], [ 75.645979990460503, 15.441525957601472 ], [ 75.645946462541431, 15.441529882920319 ], [ 75.645662439258132, 15.441551758417745 ], [ 75.645638771142131, 15.441553741146794 ], [ 75.645623018356915, 15.441563354422623 ], [ 75.645605339777333, 15.44158828227785 ], [ 75.64557044277457, 15.441687469988349 ], [ 75.645600137442088, 15.44172039180447 ], [ 75.645637466030692, 15.441829356234798 ], [ 75.645672163948845, 15.442044529245084 ], [ 75.645686345968087, 15.442324344605034 ], [ 75.645705792384021, 15.442438188621102 ], [ 75.646010557255607, 15.442412454765273 ], [ 75.646118570948715, 15.442412140197051 ], [ 75.646373072303774, 15.442412834416697 ], [ 75.646475225247386, 15.442431193375191 ], [ 75.646601065681466, 15.442453789175733 ], [ 75.646735809693027, 15.442484969904884 ], [ 75.646737511621154, 15.442484964943183 ], [ 75.646787597333599, 15.442484818920368 ], [ 75.646932521339934, 15.442458562560265 ], [ 75.647173639729147, 15.442437767945597 ], [ 75.647271296444984, 15.442437483029808 ], [ 75.647342063678153, 15.442434645788824 ], [ 75.647375359364261, 15.442435744669005 ], [ 75.647424725296389, 15.442449952197849 ], [ 75.647456817560638, 15.442460622006154 ], [ 75.647667672940784, 15.442462398589797 ], [ 75.647715761250353, 15.44246225818908 ], [ 75.647774931725479, 15.442457301252144 ], [ 75.647829166063801, 15.442451162672922 ], [ 75.647874773310235, 15.442446246221339 ], [ 75.647909268685254, 15.442436577144431 ], [ 75.647928967731644, 15.442426952182533 ], [ 75.647952342879108, 15.442410140233067 ], [ 75.647980620739844, 15.44238374743726 ], [ 75.647994124543288, 15.442364571329996 ], [ 75.647996483068141, 15.44232988195081 ], [ 75.647998815594818, 15.442286819453251 ], [ 75.648002706758746, 15.442269348413172 ], [ 75.648005636310643, 15.442259770620204 ], [ 75.648019431664409, 15.442254947061427 ], [ 75.648143714770157, 15.442252670137938 ], [ 75.6481555518222, 15.442252635553952 ], [ 75.648164417726534, 15.442248782860135 ], [ 75.648171275750045, 15.442233453854053 ], [ 75.648182058348652, 15.442211417176207 ], [ 75.64820421074765, 15.442197957328467 ], [ 75.648260409982683, 15.442189182156554 ], [ 75.648349183383388, 15.442187487117366 ], [ 75.648424645028982, 15.442187266563302 ], [ 75.648479382921721, 15.442184236244634 ], [ 75.648535564300147, 15.442169720418848 ], [ 75.648591750131615, 15.442156640177291 ], [ 75.648664221276121, 15.442146381718866 ], [ 75.648747053825346, 15.442137529452175 ], [ 75.648902934204415, 15.442145325601341 ], [ 75.648970040848056, 15.44215469672706 ], [ 75.649017460433029, 15.442177520548682 ], [ 75.649039280387825, 15.442215727319763 ], [ 75.649059098379226, 15.442244373423698 ], [ 75.649078903537074, 15.442269190965547 ], [ 75.649092826816414, 15.442305507892064 ], [ 75.649087063022606, 15.442355276636251 ], [ 75.649079278463716, 15.442389743230713 ], [ 75.649079427245979, 15.442437581732158 ], [ 75.649107470236359, 15.442573362005062 ], [ 75.64919954880618, 15.442999812562288 ], [ 75.649249780232068, 15.443292439781947 ], [ 75.649240794064283, 15.443416129318074 ], [ 75.649223258652668, 15.443486982113328 ], [ 75.64913683436356, 15.443609702230894 ], [ 75.648993309606311, 15.443768946141283 ], [ 75.648822181855039, 15.443934012244299 ], [ 75.648761321339677, 15.444029868117781 ], [ 75.648727046964737, 15.444110696161767 ], [ 75.648750786714103, 15.444131675427654 ], [ 75.648808035026292, 15.444142989257255 ], [ 75.648871155255833, 15.444138977834932 ], [ 75.648957669173754, 15.444044960728796 ], [ 75.64900094739923, 15.444004649660371 ], [ 75.649052135204869, 15.443970056075887 ], [ 75.649101414364893, 15.443956516760574 ], [ 75.649265185991027, 15.443963691944546 ], [ 75.650021209237892, 15.444095426221152 ], [ 75.651051556648852, 15.444256968996532 ], [ 75.65161014607321, 15.444341439175021 ], [ 75.652071945799364, 15.444387920097453 ], [ 75.652269309928755, 15.444412216188129 ], [ 75.652375898251449, 15.444429124623337 ], [ 75.652450951348058, 15.444455693186347 ], [ 75.652502353132093, 15.444489986680141 ], [ 75.652536047975744, 15.444539639398938 ], [ 75.652579575984532, 15.44457969576427 ], [ 75.652636861428221, 15.444602489747277 ], [ 75.653185557373078, 15.444677416687387 ], [ 75.653827044811337, 15.444773117430277 ], [ 75.654442820131749, 15.444847842582179 ], [ 75.654636789153827, 15.444850978550221 ], [ 75.655376521058358, 15.444818894914988 ], [ 75.655731020367469, 15.444817847194845 ], [ 75.656453229283301, 15.444835945089524 ], [ 75.656427989031087, 15.444808751353962 ], [ 75.656293070775931, 15.444723041175395 ], [ 75.656033486937233, 15.444518581170072 ], [ 75.655946932917303, 15.444442295132008 ], [ 75.655899874351192, 15.444377851765907 ], [ 75.655865094334331, 15.444296629336703 ], [ 75.655817968173977, 15.444210659244598 ], [ 75.655785743709259, 15.444158130579625 ], [ 75.655709092415705, 15.444093775557723 ], [ 75.655654687938679, 15.444046098402714 ], [ 75.655622486090067, 15.444000746786323 ], [ 75.655605020551377, 15.443936215879306 ], [ 75.655592314639264, 15.443816656691565 ], [ 75.655589375013648, 15.443665974316239 ], [ 75.655601322881139, 15.443543950181699 ], [ 75.655662050290246, 15.443249562992662 ], [ 75.655690899010139, 15.443012676308904 ], [ 75.655690620950239, 15.442924175609422 ], [ 75.655690267739843, 15.442811755238976 ], [ 75.655669952834899, 15.442625244822132 ], [ 75.655621630785717, 15.442315392727608 ], [ 75.65561956653579, 15.442286695678915 ], [ 75.655619495333923, 15.442263733369838 ], [ 75.655621426404636, 15.442250332558444 ], [ 75.655635218554707, 15.442244551167438 ], [ 75.655881925342285, 15.442276352746164 ], [ 75.656535141903802, 15.442339480386128 ], [ 75.657245594002603, 15.442410091899456 ], [ 75.657508000098829, 15.442415054940367 ], [ 75.657837477025225, 15.442417904946483 ], [ 75.658273560641163, 15.442443401562725 ], [ 75.658577511114729, 15.442484596756101 ], [ 75.65903749766801, 15.442582735198274 ], [ 75.659501551861041, 15.442719132018563 ], [ 75.659983507442377, 15.44290139868394 ], [ 75.66047534590804, 15.443089374564231 ], [ 75.661018666825669, 15.44333651870828 ], [ 75.661429632813409, 15.443528561056763 ], [ 75.661881961703557, 15.443699431451483 ], [ 75.662111067941325, 15.44377911643628 ], [ 75.662270984245524, 15.4438149966251 ], [ 75.662805932011452, 15.443909075567964 ], [ 75.663246104223632, 15.443978561181105 ], [ 75.663621055994355, 15.444011882569441 ], [ 75.664035410737327, 15.444027865312448 ], [ 75.664246573572655, 15.444048282619619 ], [ 75.664526871280515, 15.444095280974281 ], [ 75.665036215843585, 15.444202827157628 ], [ 75.665683770886218, 15.444344400222253 ], [ 75.666560374230144, 15.444546517035532 ], [ 75.667142796311651, 15.444678714086043 ], [ 75.66781408955795, 15.444839345107358 ], [ 75.668518990431863, 15.44502092138857 ], [ 75.668929695276731, 15.445128754837166 ], [ 75.6694669534604, 15.445326141561051 ], [ 75.67007725098992, 15.445536703170079 ], [ 75.670960033795353, 15.445817238300281 ], [ 75.671828959158859, 15.446082503801229 ], [ 75.672555698024311, 15.446304185072158 ], [ 75.673236858835125, 15.446462856451456 ], [ 75.674048297277679, 15.446642176586991 ], [ 75.674476690345912, 15.446726985137557 ], [ 75.675072340525247, 15.446819134424599 ], [ 75.675072773157993, 15.446818028379685 ], [ 75.675089343453209, 15.446775637567397 ], [ 75.675652777551377, 15.446889613574049 ], [ 75.675683606334147, 15.446888575842456 ], [ 75.675813391668939, 15.446884343683141 ], [ 75.676303339282569, 15.4468728488583 ], [ 75.67641631412782, 15.446870198135471 ], [ 75.676985296553269, 15.446856847948379 ], [ 75.677273531108952, 15.446850083582206 ], [ 75.678117422924245, 15.446830280386092 ], [ 75.678340294868178, 15.446814413794483 ], [ 75.678618709317504, 15.446794593661107 ], [ 75.678655751221271, 15.44679038957006 ], [ 75.678702689044613, 15.446785064022603 ], [ 75.679945995639358, 15.44664396402834 ], [ 75.680817864628651, 15.446624629840793 ], [ 75.681440142027341, 15.446610828016523 ], [ 75.682152462239458, 15.446595027146758 ], [ 75.682367840441486, 15.446590249443039 ], [ 75.683769815613118, 15.446559142379066 ], [ 75.683812917136251, 15.446558185919164 ], [ 75.684206652647475, 15.445922028810571 ], [ 75.684323948743994, 15.445675548018174 ], [ 75.684350720598871, 15.44561928981153 ], [ 75.68464699723846, 15.444893471606246 ], [ 75.684724435278696, 15.444268053285091 ], [ 75.684743792020043, 15.444111725375349 ], [ 75.68475718407619, 15.444003562781214 ], [ 75.684708339537195, 15.443409906831892 ], [ 75.684706667263384, 15.443385995841069 ], [ 75.684557217695925, 15.442542804020169 ], [ 75.684412714333277, 15.442251100325366 ], [ 75.684225095779624, 15.441861093103558 ], [ 75.684217805088707, 15.441845970346973 ], [ 75.683743337385465, 15.441055020403626 ], [ 75.683679500712387, 15.440898318792961 ], [ 75.683161238262144, 15.441025686424743 ], [ 75.682541821888421, 15.441209980949795 ], [ 75.676406757458551, 15.442879198651104 ], [ 75.675788904495192, 15.442982705609969 ], [ 75.675652837442883, 15.443018923676993 ], [ 75.675132260447569, 15.443137114436105 ], [ 75.674633136005383, 15.443216370752864 ], [ 75.674106171122105, 15.443265810571186 ], [ 75.674098669959676, 15.443265865272403 ], [ 75.673498360159314, 15.443366433280485 ], [ 75.672190733348501, 15.443179045510998 ], [ 75.671543162197324, 15.442956931208016 ], [ 75.671435558277679, 15.442930071787277 ], [ 75.670995465298745, 15.442769073372393 ], [ 75.670462572479067, 15.442586293276355 ], [ 75.669004918829884, 15.441753519534153 ], [ 75.668335270451479, 15.441050837775139 ], [ 75.667768733904765, 15.440498382386615 ], [ 75.667147328854426, 15.439932168267333 ], [ 75.666686952901642, 15.439595692648675 ], [ 75.666169635517932, 15.439273351722125 ], [ 75.665154351250834, 15.43877870840652 ], [ 75.664876796559071, 15.438676869187141 ], [ 75.664045821967193, 15.43843258581208 ], [ 75.664007567100612, 15.438422711276754 ], [ 75.66338764138365, 15.438316928379912 ], [ 75.662750369163362, 15.43824092432458 ], [ 75.661052802386664, 15.438159560010366 ], [ 75.654855652996204, 15.437759346722764 ], [ 75.651400037085281, 15.437459408701082 ], [ 75.650526288364787, 15.437399627557221 ] ] ] } },
{ "type": "Feature", "properties": { "KGISWardID": 4434, "KGISWardCode": "0801008", "KGISWardName": null, "SHAPE.STArea()": 318406.55838324002, "SHAPE.STLength()": 3234.7573501809338, "OBJECTID": 16291, "KGISWardNo": "8", "KGISTownCode": "0801", "LGD_WardCode": 27971, "created_user": "SA", "created_date": 1634898537000, "last_edited_user": "SURESHBV1", "last_edited_date": 1692253972000, "_overlap_percent": 100.0, "_police_station": "Betageri PS", "_police_feature_index": "383", "_admin_layer": "Ward", "_geometry_clipped": true }, "geometry": { "type": "Polygon", "coordinates": [ [ [ 75.646707984231412, 15.445097779852732 ], [ 75.646705957925391, 15.444861705443364 ], [ 75.646690632142608, 15.444690966616671 ], [ 75.646627619660904, 15.444411292884077 ], [ 75.646596173990531, 15.444290831160023 ], [ 75.64655737764474, 15.44418617715692 ], [ 75.646471175836481, 15.444063004687651 ], [ 75.646426608663774, 15.444005728190122 ], [ 75.64641170645767, 15.443971327789315 ], [ 75.646404161067451, 15.443923989061199 ], [ 75.646406951425718, 15.443869444867783 ], [ 75.646430043341624, 15.443681371223269 ], [ 75.646458813716208, 15.443415782409408 ], [ 75.646468903985053, 15.443329643428898 ], [ 75.64650117244652, 15.443237699173995 ], [ 75.646512928597531, 15.443211832038896 ], [ 75.646540966613202, 15.44318735215661 ], [ 75.646570523813793, 15.443175784731224 ], [ 75.646586720265958, 15.443149904650285 ], [ 75.646595518057467, 15.443124046134088 ], [ 75.646607226208317, 15.443082391926861 ], [ 75.646630789245094, 15.443046444705201 ], [ 75.646669179774989, 15.443020499922707 ], [ 75.646706005692025, 15.44296729121128 ], [ 75.646725121360191, 15.442928486626437 ], [ 75.64672800854278, 15.442905515656051 ], [ 75.646737511621154, 15.442484964943183 ], [ 75.646735809693027, 15.442484969904884 ], [ 75.646601065681466, 15.442453789175733 ], [ 75.646475225247386, 15.442431193375191 ], [ 75.646373072303774, 15.442412834416697 ], [ 75.646118570948715, 15.442412140197051 ], [ 75.646010557255607, 15.442412454765273 ], [ 75.645705792384021, 15.442438188621102 ], [ 75.645716484782639, 15.442500781999458 ], [ 75.645739088285737, 15.442632750912381 ], [ 75.645782481283874, 15.442789056566335 ], [ 75.645831842692857, 15.442961133849073 ], [ 75.645854409866388, 15.44308162156814 ], [ 75.645854498698583, 15.443110325408838 ], [ 75.645844190548061, 15.443126140821816 ], [ 75.645819045112106, 15.443129084349044 ], [ 75.645589620774487, 15.44310391927989 ], [ 75.645321628258301, 15.443047292654242 ], [ 75.645220898445885, 15.443010272406159 ], [ 75.645109826614615, 15.442979021018481 ], [ 75.645044682638002, 15.442966293561748 ], [ 75.644992891358044, 15.442965009446178 ], [ 75.644935211640615, 15.442973788106066 ], [ 75.644843562800801, 15.443002757738595 ], [ 75.644746057455691, 15.44305183659645 ], [ 75.644701734814845, 15.443073493266937 ], [ 75.644661810713217, 15.443082220253805 ], [ 75.644623357846456, 15.443088072638194 ], [ 75.644389576985219, 15.443089708334821 ], [ 75.6439239834136, 15.44309106033182 ], [ 75.643365760459815, 15.443123297075021 ], [ 75.643014550257249, 15.443110920263239 ], [ 75.642870472795252, 15.443092202978626 ], [ 75.642807270178452, 15.443069422659583 ], [ 75.642732160680183, 15.443023715156649 ], [ 75.642708373564531, 15.442987427278004 ], [ 75.642682509086569, 15.442916700657399 ], [ 75.642664505942506, 15.442836383822433 ], [ 75.642610791204376, 15.442691110425475 ], [ 75.642544409464733, 15.442596580299117 ], [ 75.642319069412238, 15.442295849124879 ], [ 75.641974962197281, 15.441866296028962 ], [ 75.641700149007434, 15.441515476219495 ], [ 75.641197600762951, 15.44088545745273 ], [ 75.640940184809253, 15.440577640234578 ], [ 75.640494689946237, 15.44005509059383 ], [ 75.640120686199708, 15.439596904685761 ], [ 75.639910074272464, 15.440075900620766 ], [ 75.639719549229767, 15.440672042560355 ], [ 75.639511708455629, 15.441251490555421 ], [ 75.639330700856519, 15.441735185714105 ], [ 75.639240328625448, 15.442020087255468 ], [ 75.639201611269002, 15.442100567859578 ], [ 75.639178054346559, 15.442138906405294 ], [ 75.639152489102059, 15.442165770346856 ], [ 75.63913486827866, 15.442209832431788 ], [ 75.639055364748074, 15.442661659556771 ], [ 75.639041794726211, 15.44274015474438 ], [ 75.63903005137422, 15.442770805652334 ], [ 75.638992643068946, 15.44279578893874 ], [ 75.638953186365427, 15.442795902589584 ], [ 75.63861758445664, 15.442726067366442 ], [ 75.638479396817985, 15.442697761903183 ], [ 75.63840443374869, 15.442699890591795 ], [ 75.638339388227436, 15.442719213561068 ], [ 75.638176315917207, 15.442859611686156 ], [ 75.63794763681851, 15.443077936680854 ], [ 75.637623642424046, 15.443578783616024 ], [ 75.637245875155401, 15.444237653289186 ], [ 75.637228773122033, 15.444290324714602 ], [ 75.637236303310786, 15.444333357932813 ], [ 75.637278336129057, 15.444369116670103 ], [ 75.637500684549309, 15.444500034380082 ], [ 75.637972367410725, 15.444713951560528 ], [ 75.638337890298232, 15.444889904381732 ], [ 75.638787626665589, 15.445185210227992 ], [ 75.639108896876337, 15.445405539132912 ], [ 75.639390002803609, 15.445596084068391 ], [ 75.639461130556967, 15.445670627622567 ], [ 75.639523077318842, 15.445766126113019 ], [ 75.6396065740404, 15.445852592570565 ], [ 75.63967139245932, 15.44587931615021 ], [ 75.639847166578051, 15.445899739432951 ], [ 75.640056766851217, 15.445893153549655 ], [ 75.640210779191889, 15.445853839921066 ], [ 75.640451132290337, 15.445823246757152 ], [ 75.640636163578421, 15.445846632337053 ], [ 75.64072867005379, 15.445855334988639 ], [ 75.640821029611729, 15.445816199036591 ], [ 75.640919573135562, 15.445783025390217 ], [ 75.640962683843483, 15.445767950730795 ], [ 75.641048987916463, 15.445764711652696 ], [ 75.641116806140062, 15.445764515630481 ], [ 75.641172366599292, 15.445788274064061 ], [ 75.641221826691037, 15.44583298041066 ], [ 75.641308329327799, 15.445958021857672 ], [ 75.641394518115263, 15.445764133995501 ], [ 75.641529705349413, 15.445457574240693 ], [ 75.64162950407416, 15.445191302181438 ], [ 75.641713413983709, 15.444890632195611 ], [ 75.641850367401531, 15.44451709329052 ], [ 75.641926708746027, 15.444321689632826 ], [ 75.641969941347327, 15.444266071941374 ], [ 75.641999457766019, 15.444241110096746 ], [ 75.642052689746805, 15.444229474737652 ], [ 75.642076364103588, 15.444229406210489 ], [ 75.642117817781227, 15.444236940704519 ], [ 75.642139584667859, 15.444257926411966 ], [ 75.642153477459701, 15.444284675554661 ], [ 75.64217743355249, 15.444376457376991 ], [ 75.642215212742087, 15.44447202506297 ], [ 75.642339160653066, 15.444680722253525 ], [ 75.642450671559601, 15.444855010632578 ], [ 75.642492721000082, 15.44489555156181 ], [ 75.64254704181451, 15.444916922065675 ], [ 75.642603813216681, 15.444933501287089 ], [ 75.642709877207736, 15.444940369330686 ], [ 75.64320065168711, 15.444946122971 ], [ 75.643738369564346, 15.444980441584898 ], [ 75.64431798321165, 15.445005069759663 ], [ 75.645156579962176, 15.445043295775569 ], [ 75.645898962009369, 15.44506983839211 ], [ 75.646505695319519, 15.445091989773649 ], [ 75.646522860029805, 15.445092481260639 ], [ 75.646707984231412, 15.445097779852732 ] ] ] } },
{ "type": "Feature", "properties": { "KGISWardID": 4433, "KGISWardCode": "0801007", "KGISWardName": null, "SHAPE.STArea()": 496869.85307562002, "SHAPE.STLength()": 3821.1481129823669, "OBJECTID": 16290, "KGISWardNo": "7", "KGISTownCode": "0801", "LGD_WardCode": 27970, "created_user": "SA", "created_date": 1634898537000, "last_edited_user": "SURESHBV1", "last_edited_date": 1692253972000, "_overlap_percent": 99.999999999999929, "_police_station": "Betageri PS", "_police_feature_index": "383", "_admin_layer": "Ward", "_geometry_clipped": true }, "geometry": { "type": "Polygon", "coordinates": [ [ [ 75.64672800854278, 15.442905515656051 ], [ 75.646725121360191, 15.442928486626437 ], [ 75.646706005692025, 15.44296729121128 ], [ 75.646669179774989, 15.443020499922707 ], [ 75.646630789245094, 15.443046444705201 ], [ 75.646607226208317, 15.443082391926861 ], [ 75.646595518057467, 15.443124046134088 ], [ 75.646586720265958, 15.443149904650285 ], [ 75.646570523813793, 15.443175784731224 ], [ 75.646540966613202, 15.44318735215661 ], [ 75.646512928597531, 15.443211832038896 ], [ 75.64650117244652, 15.443237699173995 ], [ 75.646468903985053, 15.443329643428898 ], [ 75.646458813716208, 15.443415782409408 ], [ 75.646430043341624, 15.443681371223269 ], [ 75.646406951425718, 15.443869444867783 ], [ 75.646404161067451, 15.443923989061199 ], [ 75.64641170645767, 15.443971327789315 ], [ 75.646426608663774, 15.444005728190122 ], [ 75.646471175836481, 15.444063004687651 ], [ 75.64655737764474, 15.44418617715692 ], [ 75.646596173990531, 15.444290831160023 ], [ 75.646627619660904, 15.444411292884077 ], [ 75.646690632142608, 15.444690966616671 ], [ 75.646705957925391, 15.444861705443364 ], [ 75.646707984231412, 15.445097779852732 ], [ 75.646809054116602, 15.445100672780303 ], [ 75.647033542338662, 15.445123937956758 ], [ 75.647211219301653, 15.445161690188906 ], [ 75.647601203812926, 15.445270581360591 ], [ 75.648102392575808, 15.445453296045022 ], [ 75.648472775369711, 15.445602905603193 ], [ 75.648833278801547, 15.445747759258975 ], [ 75.649092442456734, 15.445871541090652 ], [ 75.649171543848297, 15.445931108008658 ], [ 75.649245727665274, 15.445995472550743 ], [ 75.6493422110849, 15.446093260018422 ], [ 75.649473368262477, 15.446238784824544 ], [ 75.649797694379401, 15.446644463363745 ], [ 75.650218603002656, 15.447179023368108 ], [ 75.650781124161341, 15.447889213604215 ], [ 75.651282280798341, 15.448532607829891 ], [ 75.651773546449832, 15.449166462431611 ], [ 75.652001369000672, 15.449466219297317 ], [ 75.652179535951632, 15.449658962926819 ], [ 75.652304140465915, 15.449758100959961 ], [ 75.652460306020501, 15.449855233114372 ], [ 75.652661795451948, 15.449935008963365 ], [ 75.653230528578973, 15.450103639268704 ], [ 75.653653104292914, 15.45022103423354 ], [ 75.654136956108758, 15.45037460431832 ], [ 75.654524068338532, 15.450507410236105 ], [ 75.654680091292533, 15.450558615267541 ], [ 75.654891530575398, 15.450665149844673 ], [ 75.655154385878916, 15.450809802836146 ], [ 75.655654492286544, 15.451112578646809 ], [ 75.656130876856096, 15.451400115437327 ], [ 75.6563344708362, 15.451521022446036 ], [ 75.656566836957126, 15.451657569752712 ], [ 75.656532082389305, 15.451477150375363 ], [ 75.656478914249035, 15.451235124872124 ], [ 75.656447861398931, 15.45116345900405 ], [ 75.656398349827612, 15.451103807259978 ], [ 75.656296414620329, 15.451038329581051 ], [ 75.656225296116389, 15.45096977281314 ], [ 75.656191197670694, 15.450910075401035 ], [ 75.656172401252093, 15.450814454245572 ], [ 75.656208668748235, 15.450584123444406 ], [ 75.656244701944132, 15.450279045869218 ], [ 75.656345003546491, 15.449825477370343 ], [ 75.656476098339638, 15.449164915578425 ], [ 75.656507714057142, 15.449023698421021 ], [ 75.656512495139154, 15.448975845418804 ], [ 75.656517337373643, 15.448947127955295 ], [ 75.656495098459843, 15.448932842229562 ], [ 75.656268099693648, 15.448897635671633 ], [ 75.655954766012755, 15.448855508038989 ], [ 75.655890601285009, 15.448841346263114 ], [ 75.655880616762971, 15.448803104349622 ], [ 75.655904825550053, 15.448659517089624 ], [ 75.655979870019152, 15.448212003588591 ], [ 75.656023470397869, 15.44796072175256 ], [ 75.656030290052868, 15.447776522388292 ], [ 75.656052018266692, 15.44762815828803 ], [ 75.65610981334855, 15.447185479909358 ], [ 75.65616273682221, 15.446761951644966 ], [ 75.656216050373487, 15.446462802159806 ], [ 75.656286063273143, 15.445984208191797 ], [ 75.656368352576365, 15.4454888351204 ], [ 75.656430290833285, 15.445069944006873 ], [ 75.656452015544232, 15.444920621584492 ], [ 75.656453405362853, 15.444891915236747 ], [ 75.656456260816626, 15.444858898628469 ], [ 75.656453229283301, 15.444835945089524 ], [ 75.655731020367469, 15.444817847194845 ], [ 75.655376521058358, 15.444818894914988 ], [ 75.654636789153827, 15.444850978550221 ], [ 75.654442820131749, 15.444847842582179 ], [ 75.653827044811337, 15.444773117430277 ], [ 75.653185557373078, 15.444677416687387 ], [ 75.652636861428221, 15.444602489747277 ], [ 75.652579575984532, 15.44457969576427 ], [ 75.652536047975744, 15.444539639398938 ], [ 75.652502353132093, 15.444489986680141 ], [ 75.652450951348058, 15.444455693186347 ], [ 75.652375898251449, 15.444429124623337 ], [ 75.652269309928755, 15.444412216188129 ], [ 75.652071945799364, 15.444387920097453 ], [ 75.65161014607321, 15.444341439175021 ], [ 75.651051556648852, 15.444256968996532 ], [ 75.650021209237892, 15.444095426221152 ], [ 75.649265185991027, 15.443963691944546 ], [ 75.649101414364893, 15.443956516760574 ], [ 75.649052135204869, 15.443970056075887 ], [ 75.64900094739923, 15.444004649660371 ], [ 75.648957669173754, 15.444044960728796 ], [ 75.648871155255833, 15.444138977834932 ], [ 75.648808035026292, 15.444142989257255 ], [ 75.648750786714103, 15.444131675427654 ], [ 75.648727046964737, 15.444110696161767 ], [ 75.648761321339677, 15.444029868117781 ], [ 75.648822181855039, 15.443934012244299 ], [ 75.648993309606311, 15.443768946141283 ], [ 75.64913683436356, 15.443609702230894 ], [ 75.649223258652668, 15.443486982113328 ], [ 75.649240794064283, 15.443416129318074 ], [ 75.649249780232068, 15.443292439781947 ], [ 75.64919954880618, 15.442999812562288 ], [ 75.649107470236359, 15.442573362005062 ], [ 75.649079427245979, 15.442437581732158 ], [ 75.649079278463716, 15.442389743230713 ], [ 75.649087063022606, 15.442355276636251 ], [ 75.649092826816414, 15.442305507892064 ], [ 75.649078903537074, 15.442269190965547 ], [ 75.649059098379226, 15.442244373423698 ], [ 75.649039280387825, 15.442215727319763 ], [ 75.649017460433029, 15.442177520548682 ], [ 75.648970040848056, 15.44215469672706 ], [ 75.648902934204415, 15.442145325601341 ], [ 75.648747053825346, 15.442137529452175 ], [ 75.648664221276121, 15.442146381718866 ], [ 75.648591750131615, 15.442156640177291 ], [ 75.648535564300147, 15.442169720418848 ], [ 75.648479382921721, 15.442184236244634 ], [ 75.648424645028982, 15.442187266563302 ], [ 75.648349183383388, 15.442187487117366 ], [ 75.648260409982683, 15.442189182156554 ], [ 75.64820421074765, 15.442197957328467 ], [ 75.648182058348652, 15.442211417176207 ], [ 75.648171275750045, 15.442233453854053 ], [ 75.648164417726534, 15.442248782860135 ], [ 75.6481555518222, 15.442252635553952 ], [ 75.648143714770157, 15.442252670137938 ], [ 75.648019431664409, 15.442254947061427 ], [ 75.648005636310643, 15.442259770620204 ], [ 75.648002706758746, 15.442269348413172 ], [ 75.647998815594818, 15.442286819453251 ], [ 75.647996483068141, 15.44232988195081 ], [ 75.647994124543288, 15.442364571329996 ], [ 75.647980620739844, 15.44238374743726 ], [ 75.647952342879108, 15.442410140233067 ], [ 75.647928967731644, 15.442426952182533 ], [ 75.647909268685254, 15.442436577144431 ], [ 75.647874773310235, 15.442446246221339 ], [ 75.647829166063801, 15.442451162672922 ], [ 75.647774931725479, 15.442457301252144 ], [ 75.647715761250353, 15.44246225818908 ], [ 75.647667672940784, 15.442462398589797 ], [ 75.647456817560638, 15.442460622006154 ], [ 75.647424725296389, 15.442449952197849 ], [ 75.647375359364261, 15.442435744669005 ], [ 75.647342063678153, 15.442434645788824 ], [ 75.647271296444984, 15.442437483029808 ], [ 75.647173639729147, 15.442437767945597 ], [ 75.646932521339934, 15.442458562560265 ], [ 75.646787597333599, 15.442484818920368 ], [ 75.646737511621154, 15.442484964943183 ], [ 75.64672800854278, 15.442905515656051 ] ] ] } },
{ "type": "Feature", "properties": { "KGISWardID": 4427, "KGISWardCode": "0801001", "KGISWardName": null, "SHAPE.STArea()": 9927647.2357674092, "SHAPE.STLength()": 14449.329410597256, "OBJECTID": 16284, "KGISWardNo": "1", "KGISTownCode": "0801", "LGD_WardCode": 27964, "created_user": "SA", "created_date": 1634898537000, "last_edited_user": "SURESHBV1", "last_edited_date": 1692253972000, "_overlap_percent": 2.6987458419179728, "_police_station": "Betageri PS", "_police_feature_index": "383", "_admin_layer": "Ward", "_geometry_clipped": true }, "geometry": { "type": "Polygon", "coordinates": [ [ [ 75.628449835252439, 15.459280674109426 ], [ 75.628566681563612, 15.459290531259553 ], [ 75.62857260746236, 15.459260641388823 ], [ 75.628576592302323, 15.459240529684484 ], [ 75.628753708458916, 15.458144138554712 ], [ 75.629004332540831, 15.456913658599163 ], [ 75.629156998554336, 15.456077201592826 ], [ 75.629345460666386, 15.45519164843418 ], [ 75.629524529415207, 15.454510531370088 ], [ 75.629685618319527, 15.453307661906685 ], [ 75.62981062271038, 15.452806336170678 ], [ 75.629920540964562, 15.452383589833167 ], [ 75.630050538678105, 15.45193476360981 ], [ 75.630160557107004, 15.451405709072503 ], [ 75.630164844938264, 15.451385090212847 ], [ 75.630196320540222, 15.451233728750926 ], [ 75.630398841589908, 15.45041747267628 ], [ 75.630407586466944, 15.450382905372789 ], [ 75.63047682009126, 15.450144565564035 ], [ 75.630670470191532, 15.449480892922736 ], [ 75.630833439260314, 15.44890781621122 ], [ 75.633818694726813, 15.448487703995301 ], [ 75.634747373236934, 15.448497547031637 ], [ 75.635429786138289, 15.446338248553237 ], [ 75.635607673250377, 15.445741484449147 ], [ 75.635884971358806, 15.444773602945855 ], [ 75.636040305596268, 15.444235280572872 ], [ 75.636101608944898, 15.443984898413914 ], [ 75.636126931563751, 15.443807607017986 ], [ 75.63609357367524, 15.443786174794381 ], [ 75.635897975223088, 15.443693449614072 ], [ 75.635789249901137, 15.443622003161821 ], [ 75.635732376387239, 15.443571935940952 ], [ 75.635655716643612, 15.44350278870275 ], [ 75.635549413090573, 15.443416983563484 ], [ 75.635460517952282, 15.443378968448185 ], [ 75.635361773426936, 15.443345762970347 ], [ 75.635198873438839, 15.443300783436394 ], [ 75.635035945329875, 15.443246234604855 ], [ 75.634868012086258, 15.443167780902741 ], [ 75.634761716293937, 15.443084367432002 ], [ 75.634576171536864, 15.442891150892457 ], [ 75.634534052197964, 15.44282668860858 ], [ 75.634516556865066, 15.442750196347577 ], [ 75.634503870361712, 15.442633028445275 ], [ 75.634557701628026, 15.442494140581609 ], [ 75.63455258010471, 15.442431964551618 ], [ 75.634530247847863, 15.442386582367797 ], [ 75.634458607693134, 15.442346123574284 ], [ 75.634352188895321, 15.442222047441467 ], [ 75.634231090179526, 15.442136283924711 ], [ 75.634164332650855, 15.442079068259536 ], [ 75.634092554597402, 15.441993163667838 ], [ 75.634006127455763, 15.441955139072162 ], [ 75.633897518045998, 15.44192196200291 ], [ 75.633818479540395, 15.441881525034811 ], [ 75.633754173886743, 15.441819518055617 ], [ 75.633662719119442, 15.441750413240868 ], [ 75.633561407770117, 15.441683727719461 ], [ 75.633498185977075, 15.441656932405644 ], [ 75.633474660124463, 15.441730427706471 ], [ 75.63345443051071, 15.441793627214469 ], [ 75.633279196888623, 15.442341076002606 ], [ 75.633023944203515, 15.443000238274449 ], [ 75.632608738534557, 15.444055382854458 ], [ 75.632317654571608, 15.444787679384985 ], [ 75.632139000581446, 15.445208669166583 ], [ 75.631910500856804, 15.44574711533223 ], [ 75.631822967994893, 15.446021826588867 ], [ 75.631582179780324, 15.446705863232207 ], [ 75.631316195197016, 15.447461470934202 ], [ 75.630812736806149, 15.448837002024721 ], [ 75.630801820566518, 15.448872589853263 ], [ 75.63063124276259, 15.449428714843277 ], [ 75.630429675698139, 15.450066907916584 ], [ 75.630357841167964, 15.450294346967464 ], [ 75.630347815857661, 15.450325921018717 ], [ 75.630113249798043, 15.45106468798568 ], [ 75.629936624488295, 15.451688292679057 ], [ 75.629801083716998, 15.452235683924032 ], [ 75.62968284082217, 15.452740926652698 ], [ 75.629544933559259, 15.453330153452242 ], [ 75.629344643606018, 15.454711841893879 ], [ 75.629137639464133, 15.455481037287671 ], [ 75.62894786588447, 15.456186194803021 ], [ 75.628829894948851, 15.456997403797054 ], [ 75.628614183100041, 15.458188710192692 ], [ 75.628454334901278, 15.459250753028128 ], [ 75.62844983479259, 15.459280674070635 ], [ 75.628449835252439, 15.459280674109426 ] ] ] } },
{ "type": "Feature", "properties": { "KGISWardID": 4428, "KGISWardCode": "0801002", "KGISWardName": null, "SHAPE.STArea()": 2043059.00501742, "SHAPE.STLength()": 8445.6515928934805, "OBJECTID": 16285, "KGISWardNo": "2", "KGISTownCode": "0801", "LGD_WardCode": 27965, "created_user": "SA", "created_date": 1634898537000, "last_edited_user": "SURESHBV1", "last_edited_date": 1692253972000, "_overlap_percent": 93.901906682783661, "_police_station": "Betageri PS", "_police_feature_index": "383", "_admin_layer": "Ward", "_geometry_clipped": true }, "geometry": { "type": "Polygon", "coordinates": [ [ [ 75.633561407770117, 15.441683727719461 ], [ 75.633662719119442, 15.441750413240868 ], [ 75.633754173886743, 15.441819518055617 ], [ 75.633818479540395, 15.441881525034811 ], [ 75.633897518045998, 15.44192196200291 ], [ 75.634006127455763, 15.441955139072162 ], [ 75.634092554597402, 15.441993163667838 ], [ 75.634164332650855, 15.442079068259536 ], [ 75.634231090179526, 15.442136283924711 ], [ 75.634352188895321, 15.442222047441467 ], [ 75.634458607693134, 15.442346123574284 ], [ 75.634530247847863, 15.442386582367797 ], [ 75.63455258010471, 15.442431964551618 ], [ 75.634557701628026, 15.442494140581609 ], [ 75.634503870361712, 15.442633028445275 ], [ 75.634516556865066, 15.442750196347577 ], [ 75.634534052197964, 15.44282668860858 ], [ 75.634576171536864, 15.442891150892457 ], [ 75.634761716293937, 15.443084367432002 ], [ 75.634868012086258, 15.443167780902741 ], [ 75.635035945329875, 15.443246234604855 ], [ 75.635198873438839, 15.443300783436394 ], [ 75.635361773426936, 15.443345762970347 ], [ 75.635460517952282, 15.443378968448185 ], [ 75.635549413090573, 15.443416983563484 ], [ 75.635655716643612, 15.44350278870275 ], [ 75.635732376387239, 15.443571935940952 ], [ 75.635789249901137, 15.443622003161821 ], [ 75.635897975223088, 15.443693449614072 ], [ 75.63609357367524, 15.443786174794381 ], [ 75.636126931563751, 15.443807607017986 ], [ 75.636101608944898, 15.443984898413914 ], [ 75.636040305596268, 15.444235280572872 ], [ 75.635884971358806, 15.444773602945855 ], [ 75.635607673250377, 15.445741484449147 ], [ 75.635429786138289, 15.446338248553237 ], [ 75.634747373236934, 15.448497547031637 ], [ 75.633818694726813, 15.448487703995301 ], [ 75.630833439260314, 15.44890781621122 ], [ 75.630670470191532, 15.449480892922736 ], [ 75.63047682009126, 15.450144565564035 ], [ 75.630407586466944, 15.450382905372789 ], [ 75.630398841589908, 15.45041747267628 ], [ 75.630196320540222, 15.451233728750926 ], [ 75.630164844938264, 15.451385090212847 ], [ 75.630160557107004, 15.451405709072503 ], [ 75.630050538678105, 15.45193476360981 ], [ 75.629920540964562, 15.452383589833167 ], [ 75.62981062271038, 15.452806336170678 ], [ 75.629685618319527, 15.453307661906685 ], [ 75.629524529415207, 15.454510531370088 ], [ 75.629345460666386, 15.45519164843418 ], [ 75.629156998554336, 15.456077201592826 ], [ 75.629004332540831, 15.456913658599163 ], [ 75.628753708458916, 15.458144138554712 ], [ 75.628576592302323, 15.459240529684484 ], [ 75.628583050859874, 15.459241070966488 ], [ 75.628752394309046, 15.459255264958118 ], [ 75.63071713163302, 15.459413814048938 ], [ 75.630930184760118, 15.459438031608425 ], [ 75.632548765131986, 15.459622007402746 ], [ 75.633099942321664, 15.459684653697135 ], [ 75.633862322628801, 15.459775621139022 ], [ 75.635086605548238, 15.45991777015827 ], [ 75.637095458641596, 15.460168631573548 ], [ 75.637098413439986, 15.460151827868227 ], [ 75.63720120272373, 15.45956700964094 ], [ 75.637269406750193, 15.45917896691336 ], [ 75.637369353436711, 15.45822473441039 ], [ 75.637398974122718, 15.45804434432601 ], [ 75.637589722323426, 15.458077705230659 ], [ 75.637693308462588, 15.458083850294919 ], [ 75.638441726566271, 15.458128251819696 ], [ 75.639355778580679, 15.45818247456916 ], [ 75.639417122190792, 15.458186114448448 ], [ 75.639439151648276, 15.458192314063957 ], [ 75.639458226724628, 15.45807923808033 ], [ 75.639510794153551, 15.457849460000073 ], [ 75.639570811624466, 15.457476143560566 ], [ 75.639616730988791, 15.457009106440259 ], [ 75.639639883796391, 15.456838255193814 ], [ 75.639648264697072, 15.456676058433768 ], [ 75.639631251878981, 15.456436435430113 ], [ 75.639579624622812, 15.456007469418264 ], [ 75.639536875991013, 15.455578479563219 ], [ 75.639489503070635, 15.455089225402995 ], [ 75.639461723745143, 15.454716163084228 ], [ 75.639455078704685, 15.454479380425138 ], [ 75.63946147877661, 15.454153580218071 ], [ 75.639467983538111, 15.453862224442775 ], [ 75.639477312228635, 15.453526368295396 ], [ 75.639494785865551, 15.453273250593666 ], [ 75.639499953648553, 15.453028302011036 ], [ 75.639532325728965, 15.452647411624843 ], [ 75.63957708789583, 15.452446360089125 ], [ 75.639658912664075, 15.452107425343955 ], [ 75.639739192406694, 15.451908184246676 ], [ 75.639837170646118, 15.451689757183074 ], [ 75.639893997964961, 15.451563298189479 ], [ 75.639934972554542, 15.451413923278571 ], [ 75.640034107433934, 15.450929508573488 ], [ 75.640117870963607, 15.450580044158508 ], [ 75.640232260362168, 15.450084582274902 ], [ 75.64035344606549, 15.449392962432659 ], [ 75.640499754734108, 15.448851961333137 ], [ 75.640623508106501, 15.448193821284974 ], [ 75.640718277061424, 15.447734295272248 ], [ 75.640766248060132, 15.447294040204287 ], [ 75.640836677904943, 15.446939828948487 ], [ 75.640909911788484, 15.446695640044048 ], [ 75.641044776258141, 15.446444096736188 ], [ 75.641292471554166, 15.445993695851216 ], [ 75.641308329327799, 15.445958021857672 ], [ 75.641221826691037, 15.44583298041066 ], [ 75.641172366599292, 15.445788274064061 ], [ 75.641116806140062, 15.445764515630481 ], [ 75.641048987916463, 15.445764711652696 ], [ 75.640962683843483, 15.445767950730795 ], [ 75.640919573135562, 15.445783025390217 ], [ 75.640821029611729, 15.445816199036591 ], [ 75.64072867005379, 15.445855334988639 ], [ 75.640636163578421, 15.445846632337053 ], [ 75.640451132290337, 15.445823246757152 ], [ 75.640210779191889, 15.445853839921066 ], [ 75.640056766851217, 15.445893153549655 ], [ 75.639847166578051, 15.445899739432951 ], [ 75.63967139245932, 15.44587931615021 ], [ 75.6396065740404, 15.445852592570565 ], [ 75.639523077318842, 15.445766126113019 ], [ 75.639461130556967, 15.445670627622567 ], [ 75.639390002803609, 15.445596084068391 ], [ 75.639108896876337, 15.445405539132912 ], [ 75.638787626665589, 15.445185210227992 ], [ 75.638337890298232, 15.444889904381732 ], [ 75.637972367410725, 15.444713951560528 ], [ 75.637500684549309, 15.444500034380082 ], [ 75.637278336129057, 15.444369116670103 ], [ 75.637236303310786, 15.444333357932813 ], [ 75.637228773122033, 15.444290324714602 ], [ 75.637245875155401, 15.444237653289186 ], [ 75.637623642424046, 15.443578783616024 ], [ 75.63794763681851, 15.443077936680854 ], [ 75.638176315917207, 15.442859611686156 ], [ 75.638339388227436, 15.442719213561068 ], [ 75.63840443374869, 15.442699890591795 ], [ 75.638479396817985, 15.442697761903183 ], [ 75.63861758445664, 15.442726067366442 ], [ 75.638953186365427, 15.442795902589584 ], [ 75.638992643068946, 15.44279578893874 ], [ 75.63903005137422, 15.442770805652334 ], [ 75.639041794726211, 15.44274015474438 ], [ 75.639055364748074, 15.442661659556771 ], [ 75.63913486827866, 15.442209832431788 ], [ 75.639152489102059, 15.442165770346856 ], [ 75.639178054346559, 15.442138906405294 ], [ 75.639201611269002, 15.442100567859578 ], [ 75.639240328625448, 15.442020087255468 ], [ 75.639330700856519, 15.441735185714105 ], [ 75.639511708455629, 15.441251490555421 ], [ 75.639719549229767, 15.440672042560355 ], [ 75.639910074272464, 15.440075900620766 ], [ 75.640120686199708, 15.439596904685761 ], [ 75.640006823071403, 15.439458500260566 ], [ 75.639784052549359, 15.439188853185019 ], [ 75.639630631275026, 15.439017076099503 ], [ 75.639316625387522, 15.438750083580999 ], [ 75.638777708927066, 15.438318694076523 ], [ 75.638379685675375, 15.437994534593445 ], [ 75.638154758827696, 15.437825355091324 ], [ 75.637648269625686, 15.437513466557265 ], [ 75.637196216998461, 15.437261219092976 ], [ 75.636919513696995, 15.437094577213006 ], [ 75.636837887261436, 15.437013485894663 ], [ 75.63680064243573, 15.436929874196984 ], [ 75.636778214564018, 15.436853397144418 ], [ 75.636805418432004, 15.436435008679457 ], [ 75.636640555794983, 15.43641285593667 ], [ 75.636332465097809, 15.436387132703 ], [ 75.63525191863944, 15.436317782317268 ], [ 75.635086992183417, 15.436307196577955 ], [ 75.635053233904586, 15.436398996748196 ], [ 75.63504133237798, 15.43643135927031 ], [ 75.634695292745761, 15.437517334450535 ], [ 75.634521789491572, 15.438090428657048 ], [ 75.634178802611743, 15.439053939436116 ], [ 75.634169797486209, 15.439080122660132 ], [ 75.633719708863126, 15.440861986308613 ], [ 75.633584604991682, 15.441278479039143 ], [ 75.633529846648287, 15.441533359436239 ], [ 75.633513731602093, 15.441608367518056 ], [ 75.633498185977075, 15.441656932405644 ], [ 75.633561407770117, 15.441683727719461 ] ] ] } },
{ "type": "Feature", "properties": { "KGISWardID": 4429, "KGISWardCode": "0801003", "KGISWardName": null, "SHAPE.STArea()": 1229258.510035255, "SHAPE.STLength()": 4845.7068335196327, "OBJECTID": 16286, "KGISWardNo": "3", "KGISTownCode": "0801", "LGD_WardCode": 27966, "created_user": "SA", "created_date": 1634898537000, "last_edited_user": "SURESHBV1", "last_edited_date": 1692253972000, "_overlap_percent": 99.999999999999972, "_police_station": "Betageri PS", "_police_feature_index": "383", "_admin_layer": "Ward", "_geometry_clipped": true }, "geometry": { "type": "Polygon", "coordinates": [ [ [ 75.648628852095413, 15.460037001955353 ], [ 75.648782288156653, 15.460038913253403 ], [ 75.64884354020306, 15.460044383246 ], [ 75.648525868048168, 15.458869855772473 ], [ 75.648373090272031, 15.458317168343239 ], [ 75.648273119750044, 15.457892891989104 ], [ 75.648166695549818, 15.457375948127044 ], [ 75.648025982380503, 15.456736517111011 ], [ 75.647937628964513, 15.456081982845372 ], [ 75.647767843194316, 15.455015078835636 ], [ 75.647692352628127, 15.454530932971341 ], [ 75.647538326420687, 15.45357460855532 ], [ 75.647440301949842, 15.452782566440732 ], [ 75.647320717974083, 15.451996567349346 ], [ 75.647238637227659, 15.451374903827887 ], [ 75.647180978001202, 15.450675430818245 ], [ 75.647086846033872, 15.450143499943689 ], [ 75.647068062180182, 15.450050866567373 ], [ 75.647058507956899, 15.449952227859546 ], [ 75.647055138037544, 15.449859550404422 ], [ 75.647002296589136, 15.449719176570161 ], [ 75.646692035292318, 15.449077249834225 ], [ 75.646474867455424, 15.448632385321133 ], [ 75.646412797176254, 15.448498019319317 ], [ 75.646390894358774, 15.448393436344343 ], [ 75.646372027626313, 15.448273893549812 ], [ 75.646380395653253, 15.447989827915739 ], [ 75.646435233011204, 15.446784729309432 ], [ 75.646497059203753, 15.445845715410565 ], [ 75.646522860029805, 15.445092481260639 ], [ 75.646505695319519, 15.445091989773649 ], [ 75.645898962009369, 15.44506983839211 ], [ 75.645156579962176, 15.445043295775569 ], [ 75.64431798321165, 15.445005069759663 ], [ 75.643738369564346, 15.444980441584898 ], [ 75.64320065168711, 15.444946122971 ], [ 75.642709877207736, 15.444940369330686 ], [ 75.642603813216681, 15.444933501287089 ], [ 75.64254704181451, 15.444916922065675 ], [ 75.642492721000082, 15.44489555156181 ], [ 75.642450671559601, 15.444855010632578 ], [ 75.642339160653066, 15.444680722253525 ], [ 75.642215212742087, 15.44447202506297 ], [ 75.64217743355249, 15.444376457376991 ], [ 75.642153477459701, 15.444284675554661 ], [ 75.642139584667859, 15.444257926411966 ], [ 75.642117817781227, 15.444236940704519 ], [ 75.642076364103588, 15.444229406210489 ], [ 75.642052689746805, 15.444229474737652 ], [ 75.641999457766019, 15.444241110096746 ], [ 75.641969941347327, 15.444266071941374 ], [ 75.641926708746027, 15.444321689632826 ], [ 75.641850367401531, 15.44451709329052 ], [ 75.641713413983709, 15.444890632195611 ], [ 75.64162950407416, 15.445191302181438 ], [ 75.641529705349413, 15.445457574240693 ], [ 75.641394518115263, 15.445764133995501 ], [ 75.641308329327799, 15.445958021857672 ], [ 75.641292471554166, 15.445993695851216 ], [ 75.641044776258141, 15.446444096736188 ], [ 75.640909911788484, 15.446695640044048 ], [ 75.640836677904943, 15.446939828948487 ], [ 75.640766248060132, 15.447294040204287 ], [ 75.640718277061424, 15.447734295272248 ], [ 75.640623508106501, 15.448193821284974 ], [ 75.640499754734108, 15.448851961333137 ], [ 75.64035344606549, 15.449392962432659 ], [ 75.640232260362168, 15.450084582274902 ], [ 75.640117870963607, 15.450580044158508 ], [ 75.640034107433934, 15.450929508573488 ], [ 75.639934972554542, 15.451413923278571 ], [ 75.639893997964961, 15.451563298189479 ], [ 75.639837170646118, 15.451689757183074 ], [ 75.639739192406694, 15.451908184246676 ], [ 75.639658912664075, 15.452107425343955 ], [ 75.63957708789583, 15.452446360089125 ], [ 75.639532325728965, 15.452647411624843 ], [ 75.639499953648553, 15.453028302011036 ], [ 75.639494785865551, 15.453273250593666 ], [ 75.639477312228635, 15.453526368295396 ], [ 75.639467983538111, 15.453862224442775 ], [ 75.63946147877661, 15.454153580218071 ], [ 75.639455078704685, 15.454479380425138 ], [ 75.639461723745143, 15.454716163084228 ], [ 75.639489503070635, 15.455089225402995 ], [ 75.639536875991013, 15.455578479563219 ], [ 75.639579624622812, 15.456007469418264 ], [ 75.639631251878981, 15.456436435430113 ], [ 75.639648264697072, 15.456676058433768 ], [ 75.639639883796391, 15.456838255193814 ], [ 75.639616730988791, 15.457009106440259 ], [ 75.639570811624466, 15.457476143560566 ], [ 75.639510794153551, 15.457849460000073 ], [ 75.639458226724628, 15.45807923808033 ], [ 75.639439151648276, 15.458192314063957 ], [ 75.639480505979023, 15.458203951755925 ], [ 75.639485724988091, 15.458157153665788 ], [ 75.640338530297242, 15.458460749638164 ], [ 75.640727805183374, 15.458589986771758 ], [ 75.641215026702497, 15.45875174012107 ], [ 75.642100308057223, 15.458885978650478 ], [ 75.643166476705417, 15.459047641549866 ], [ 75.644475380325801, 15.459299643565295 ], [ 75.64548390259813, 15.459493807411611 ], [ 75.64579875315556, 15.459548190063519 ], [ 75.648549060980557, 15.460023221114607 ], [ 75.648628852095413, 15.460037001955353 ] ] ] } },
{ "type": "Feature", "properties": { "KGISWardID": 4430, "KGISWardCode": "0801004", "KGISWardName": null, "SHAPE.STArea()": 1322504.829711945, "SHAPE.STLength()": 5455.3559646800486, "OBJECTID": 16287, "KGISWardNo": "4", "KGISTownCode": "0801", "LGD_WardCode": 27967, "created_user": "SA", "created_date": 1634898537000, "last_edited_user": "SURESHBV1", "last_edited_date": 1692253972000, "_overlap_percent": 99.999999999999972, "_police_station": "Betageri PS", "_police_feature_index": "383", "_admin_layer": "Ward", "_geometry_clipped": true }, "geometry": { "type": "Polygon", "coordinates": [ [ [ 75.65709729343962, 15.459200447199887 ], [ 75.657076511979795, 15.458475754186006 ], [ 75.657068683079984, 15.458339437214379 ], [ 75.657101694811502, 15.45824964192629 ], [ 75.657207811392595, 15.457879774181119 ], [ 75.657284276327786, 15.457492055559181 ], [ 75.657386602178377, 15.457093494963306 ], [ 75.65747391539584, 15.45662681011046 ], [ 75.657491914443028, 15.456468889650862 ], [ 75.65750267275547, 15.456361220646908 ], [ 75.657483712980351, 15.456214173249981 ], [ 75.657424093056633, 15.456078009883404 ], [ 75.657323837539494, 15.455959906667921 ], [ 75.657227463559067, 15.455899198106698 ], [ 75.657138328559043, 15.455788238055293 ], [ 75.656996805550477, 15.455487274016608 ], [ 75.656810766098985, 15.455146975218176 ], [ 75.656769701102604, 15.455028696328755 ], [ 75.656743275142389, 15.454860143162316 ], [ 75.656739067123041, 15.454698700398273 ], [ 75.656779363602269, 15.454573005125177 ], [ 75.656827148552281, 15.454475989865927 ], [ 75.656981966209628, 15.454299724317154 ], [ 75.657236075065114, 15.453936593194035 ], [ 75.65737944284831, 15.45364913699928 ], [ 75.657419772690943, 15.45353420496121 ], [ 75.657419433375225, 15.4534265688459 ], [ 75.65732212102175, 15.453068067577902 ], [ 75.657095109161645, 15.452638192896829 ], [ 75.65705010016481, 15.452442187726863 ], [ 75.657032392246634, 15.452301116698509 ], [ 75.657073488002439, 15.452037882702875 ], [ 75.657073352361692, 15.451994828428877 ], [ 75.657063383454016, 15.451961370700619 ], [ 75.656949713315356, 15.451889949741222 ], [ 75.656727320960229, 15.451751876232779 ], [ 75.656566836957126, 15.451657569752712 ], [ 75.6563344708362, 15.451521022446036 ], [ 75.656130876856096, 15.451400115437327 ], [ 75.655654492286544, 15.451112578646809 ], [ 75.655154385878916, 15.450809802836146 ], [ 75.654891530575398, 15.450665149844673 ], [ 75.654680091292533, 15.450558615267541 ], [ 75.654524068338532, 15.450507410236105 ], [ 75.654136956108758, 15.45037460431832 ], [ 75.653653104292914, 15.45022103423354 ], [ 75.653230528578973, 15.450103639268704 ], [ 75.652661795451948, 15.449935008963365 ], [ 75.652460306020501, 15.449855233114372 ], [ 75.652304140465915, 15.449758100959961 ], [ 75.652179535951632, 15.449658962926819 ], [ 75.652001369000672, 15.449466219297317 ], [ 75.651773546449832, 15.449166462431611 ], [ 75.651282280798341, 15.448532607829891 ], [ 75.650781124161341, 15.447889213604215 ], [ 75.650218603002656, 15.447179023368108 ], [ 75.649797694379401, 15.446644463363745 ], [ 75.649473368262477, 15.446238784824544 ], [ 75.6493422110849, 15.446093260018422 ], [ 75.649245727665274, 15.445995472550743 ], [ 75.649171543848297, 15.445931108008658 ], [ 75.649092442456734, 15.445871541090652 ], [ 75.648833278801547, 15.445747759258975 ], [ 75.648472775369711, 15.445602905603193 ], [ 75.648102392575808, 15.445453296045022 ], [ 75.647601203812926, 15.445270581360591 ], [ 75.647211219301653, 15.445161690188906 ], [ 75.647033542338662, 15.445123937956758 ], [ 75.646809054116602, 15.445100672780303 ], [ 75.646707984231412, 15.445097779852732 ], [ 75.646522860029805, 15.445092481260639 ], [ 75.646497059203753, 15.445845715410565 ], [ 75.646435233011204, 15.446784729309432 ], [ 75.646380395653253, 15.447989827915739 ], [ 75.646372027626313, 15.448273893549812 ], [ 75.646390894358774, 15.448393436344343 ], [ 75.646412797176254, 15.448498019319317 ], [ 75.646474867455424, 15.448632385321133 ], [ 75.646692035292318, 15.449077249834225 ], [ 75.647002296589136, 15.449719176570161 ], [ 75.647055138037544, 15.449859550404422 ], [ 75.647058507956899, 15.449952227859546 ], [ 75.647068062180182, 15.450050866567373 ], [ 75.647086846033872, 15.450143499943689 ], [ 75.647180978001202, 15.450675430818245 ], [ 75.647238637227659, 15.451374903827887 ], [ 75.647320717974083, 15.451996567349346 ], [ 75.647440301949842, 15.452782566440732 ], [ 75.647538326420687, 15.45357460855532 ], [ 75.647692352628127, 15.454530932971341 ], [ 75.647767843194316, 15.455015078835636 ], [ 75.647937628964513, 15.456081982845372 ], [ 75.648025982380503, 15.456736517111011 ], [ 75.648166695549818, 15.457375948127044 ], [ 75.648273119750044, 15.457892891989104 ], [ 75.648373090272031, 15.458317168343239 ], [ 75.648525868048168, 15.458869855772473 ], [ 75.64884354020306, 15.460044383246 ], [ 75.650176161893981, 15.460163390226977 ], [ 75.651231356077645, 15.460217759639862 ], [ 75.651472845216759, 15.460230201765965 ], [ 75.652715656672868, 15.46023558600616 ], [ 75.652713808347926, 15.460446081582173 ], [ 75.65273879637671, 15.46114444204229 ], [ 75.652765890127696, 15.461901649834205 ], [ 75.652776696266997, 15.46220365882429 ], [ 75.652780077635924, 15.462286545259763 ], [ 75.653806679345905, 15.462283414566754 ], [ 75.654025938926083, 15.460241255050637 ], [ 75.654244600916087, 15.460226055556577 ], [ 75.655458935058405, 15.460141643803473 ], [ 75.655464314968881, 15.460142111549843 ], [ 75.655530598604798, 15.459097305967223 ], [ 75.655823399651851, 15.459071258727079 ], [ 75.655951544644054, 15.459333692345476 ], [ 75.656043280033884, 15.459521560386424 ], [ 75.656112447686723, 15.459524052358793 ], [ 75.656164759790073, 15.459528107569911 ], [ 75.656282352252418, 15.459537226424368 ], [ 75.656317270192005, 15.459539933662477 ], [ 75.657034065693864, 15.459595508835873 ], [ 75.657064663076468, 15.459597881615375 ], [ 75.657104813457067, 15.459600994495226 ], [ 75.65709729343962, 15.459200447199887 ] ] ] } },
{ "type": "Feature", "properties": { "KGISWardID": 4431, "KGISWardCode": "0801005", "KGISWardName": null, "SHAPE.STArea()": 3517292.1300843148, "SHAPE.STLength()": 9512.4681052615233, "OBJECTID": 16288, "KGISWardNo": "5", "KGISTownCode": "0801", "LGD_WardCode": 27968, "created_user": "SA", "created_date": 1634898537000, "last_edited_user": "SURESHBV1", "last_edited_date": 1692253972000, "_overlap_percent": 100.00000000000003, "_police_station": "Betageri PS", "_police_feature_index": "383", "_admin_layer": "Ward", "_geometry_clipped": true }, "geometry": { "type": "Polygon", "coordinates": [ [ [ 75.674476690345912, 15.446726985137557 ], [ 75.674048297277679, 15.446642176586991 ], [ 75.673236858835125, 15.446462856451456 ], [ 75.672555698024311, 15.446304185072158 ], [ 75.671828959158859, 15.446082503801229 ], [ 75.670960033795353, 15.445817238300281 ], [ 75.67007725098992, 15.445536703170079 ], [ 75.6694669534604, 15.445326141561051 ], [ 75.668929695276731, 15.445128754837166 ], [ 75.668518990431863, 15.44502092138857 ], [ 75.66781408955795, 15.444839345107358 ], [ 75.667142796311651, 15.444678714086043 ], [ 75.666560374230144, 15.444546517035532 ], [ 75.665683770886218, 15.444344400222253 ], [ 75.665036215843585, 15.444202827157628 ], [ 75.664526871280515, 15.444095280974281 ], [ 75.664246573572655, 15.444048282619619 ], [ 75.664035410737327, 15.444027865312448 ], [ 75.663621055994355, 15.444011882569441 ], [ 75.663246104223632, 15.443978561181105 ], [ 75.662805932011452, 15.443909075567964 ], [ 75.662270984245524, 15.4438149966251 ], [ 75.662111067941325, 15.44377911643628 ], [ 75.661881961703557, 15.443699431451483 ], [ 75.661429632813409, 15.443528561056763 ], [ 75.661018666825669, 15.44333651870828 ], [ 75.66047534590804, 15.443089374564231 ], [ 75.659983507442377, 15.44290139868394 ], [ 75.659501551861041, 15.442719132018563 ], [ 75.65903749766801, 15.442582735198274 ], [ 75.658577511114729, 15.442484596756101 ], [ 75.658273560641163, 15.442443401562725 ], [ 75.657837477025225, 15.442417904946483 ], [ 75.657508000098829, 15.442415054940367 ], [ 75.657245594002603, 15.442410091899456 ], [ 75.656535141903802, 15.442339480386128 ], [ 75.655881925342285, 15.442276352746164 ], [ 75.655635218554707, 15.442244551167438 ], [ 75.655621426404636, 15.442250332558444 ], [ 75.655619495333923, 15.442263733369838 ], [ 75.65561956653579, 15.442286695678915 ], [ 75.655621630785717, 15.442315392727608 ], [ 75.655669952834899, 15.442625244822132 ], [ 75.655690267739843, 15.442811755238976 ], [ 75.655690620950239, 15.442924175609422 ], [ 75.655690899010139, 15.443012676308904 ], [ 75.655662050290246, 15.443249562992662 ], [ 75.655601322881139, 15.443543950181699 ], [ 75.655589375013648, 15.443665974316239 ], [ 75.655592314639264, 15.443816656691565 ], [ 75.655605020551377, 15.443936215879306 ], [ 75.655622486090067, 15.444000746786323 ], [ 75.655654687938679, 15.444046098402714 ], [ 75.655709092415705, 15.444093775557723 ], [ 75.655785743709259, 15.444158130579625 ], [ 75.655817968173977, 15.444210659244598 ], [ 75.655865094334331, 15.444296629336703 ], [ 75.655899874351192, 15.444377851765907 ], [ 75.655946932917303, 15.444442295132008 ], [ 75.656033486937233, 15.444518581170072 ], [ 75.656293070775931, 15.444723041175395 ], [ 75.656427989031087, 15.444808751353962 ], [ 75.656453229283301, 15.444835945089524 ], [ 75.656456260816626, 15.444858898628469 ], [ 75.656453405362853, 15.444891915236747 ], [ 75.656452015544232, 15.444920621584492 ], [ 75.656430290833285, 15.445069944006873 ], [ 75.656368352576365, 15.4454888351204 ], [ 75.656286063273143, 15.445984208191797 ], [ 75.656216050373487, 15.446462802159806 ], [ 75.65616273682221, 15.446761951644966 ], [ 75.65610981334855, 15.447185479909358 ], [ 75.656052018266692, 15.44762815828803 ], [ 75.656030290052868, 15.447776522388292 ], [ 75.656023470397869, 15.44796072175256 ], [ 75.655979870019152, 15.448212003588591 ], [ 75.655904825550053, 15.448659517089624 ], [ 75.655880616762971, 15.448803104349622 ], [ 75.655890601285009, 15.448841346263114 ], [ 75.655954766012755, 15.448855508038989 ], [ 75.656268099693648, 15.448897635671633 ], [ 75.656495098459843, 15.448932842229562 ], [ 75.656517337373643, 15.448947127955295 ], [ 75.656512495139154, 15.448975845418804 ], [ 75.656507714057142, 15.449023698421021 ], [ 75.656476098339638, 15.449164915578425 ], [ 75.656345003546491, 15.449825477370343 ], [ 75.656244701944132, 15.450279045869218 ], [ 75.656208668748235, 15.450584123444406 ], [ 75.656172401252093, 15.450814454245572 ], [ 75.656191197670694, 15.450910075401035 ], [ 75.656225296116389, 15.45096977281314 ], [ 75.656296414620329, 15.451038329581051 ], [ 75.656398349827612, 15.451103807259978 ], [ 75.656447861398931, 15.45116345900405 ], [ 75.656478914249035, 15.451235124872124 ], [ 75.656532082389305, 15.451477150375363 ], [ 75.656566836957126, 15.451657569752712 ], [ 75.656727320960229, 15.451751876232779 ], [ 75.656949713315356, 15.451889949741222 ], [ 75.657063383454016, 15.451961370700619 ], [ 75.657073352361692, 15.451994828428877 ], [ 75.657073488002439, 15.452037882702875 ], [ 75.657032392246634, 15.452301116698509 ], [ 75.65705010016481, 15.452442187726863 ], [ 75.657095109161645, 15.452638192896829 ], [ 75.65732212102175, 15.453068067577902 ], [ 75.657419433375225, 15.4534265688459 ], [ 75.657419772690943, 15.45353420496121 ], [ 75.65737944284831, 15.45364913699928 ], [ 75.657236075065114, 15.453936593194035 ], [ 75.656981966209628, 15.454299724317154 ], [ 75.656827148552281, 15.454475989865927 ], [ 75.656779363602269, 15.454573005125177 ], [ 75.656739067123041, 15.454698700398273 ], [ 75.656743275142389, 15.454860143162316 ], [ 75.656769701102604, 15.455028696328755 ], [ 75.656810766098985, 15.455146975218176 ], [ 75.656996805550477, 15.455487274016608 ], [ 75.657138328559043, 15.455788238055293 ], [ 75.657227463559067, 15.455899198106698 ], [ 75.657323837539494, 15.455959906667921 ], [ 75.657424093056633, 15.456078009883404 ], [ 75.657483712980351, 15.456214173249981 ], [ 75.65750267275547, 15.456361220646908 ], [ 75.657491914443028, 15.456468889650862 ], [ 75.65747391539584, 15.45662681011046 ], [ 75.657386602178377, 15.457093494963306 ], [ 75.657284276327786, 15.457492055559181 ], [ 75.657207811392595, 15.457879774181119 ], [ 75.657101694811502, 15.45824964192629 ], [ 75.657068683079984, 15.458339437214379 ], [ 75.657076511979795, 15.458475754186006 ], [ 75.65709729343962, 15.459200447199887 ], [ 75.657104813457067, 15.459600994495226 ], [ 75.657139213950998, 15.459603661551679 ], [ 75.657285232585366, 15.459681266600006 ], [ 75.657292789636742, 15.459683702256587 ], [ 75.657247305803253, 15.459820209859167 ], [ 75.657146698385375, 15.459830256414255 ], [ 75.657022677444232, 15.459842638754195 ], [ 75.656452430822853, 15.459899576002018 ], [ 75.656334917786381, 15.459911308570256 ], [ 75.656195401799124, 15.459924279665266 ], [ 75.656218173668705, 15.459987269560251 ], [ 75.656308293631, 15.460163111351854 ], [ 75.656304699615831, 15.460410415249047 ], [ 75.656250939733496, 15.46079008819367 ], [ 75.656224850328428, 15.460974344424402 ], [ 75.656294102265988, 15.461593459066918 ], [ 75.656300579369884, 15.461651363184473 ], [ 75.656552053949227, 15.462441880728978 ], [ 75.656864967643926, 15.462610983216161 ], [ 75.65778218207879, 15.463118968359334 ], [ 75.658256248319461, 15.462837742039801 ], [ 75.658515189632197, 15.462778227587412 ], [ 75.658710948746347, 15.462568002019381 ], [ 75.658798011322631, 15.462516354269688 ], [ 75.659050596942777, 15.462419782766105 ], [ 75.658968878005624, 15.461924387316673 ], [ 75.658485032122982, 15.461592870787511 ], [ 75.658972158033123, 15.461098499894034 ], [ 75.659213519937282, 15.461172616155492 ], [ 75.6593838265686, 15.461224913184644 ], [ 75.659587684536305, 15.461148980564269 ], [ 75.65972361894012, 15.461098349588895 ], [ 75.660588012334017, 15.460776382030774 ], [ 75.660887495073382, 15.460773721695832 ], [ 75.660987797093213, 15.460772830399023 ], [ 75.66210743485405, 15.460762878564511 ], [ 75.662267616774614, 15.460761455197362 ], [ 75.662355593415867, 15.460760673343016 ], [ 75.662398906451841, 15.460760445339254 ], [ 75.662428680271049, 15.460745589853794 ], [ 75.66255831527593, 15.460680910143045 ], [ 75.662610373166473, 15.46074504665156 ], [ 75.662982806692014, 15.461203895958409 ], [ 75.663192456326726, 15.461462188329794 ], [ 75.663471516782138, 15.461805995822601 ], [ 75.663958425551328, 15.462669823829515 ], [ 75.663967363780927, 15.462685871661163 ], [ 75.663980953454157, 15.462685833650774 ], [ 75.664009667452618, 15.462750521586129 ], [ 75.664112280587815, 15.4630621615643 ], [ 75.664230327924884, 15.463420671814731 ], [ 75.664352233942154, 15.463790899331379 ], [ 75.664329147464343, 15.46395119305253 ], [ 75.664369218448002, 15.463999293120759 ], [ 75.664636051267252, 15.464319590000946 ], [ 75.664756317710101, 15.464460636219311 ], [ 75.664792145886892, 15.464502653941581 ], [ 75.664836062125474, 15.464557148354739 ], [ 75.664898440150893, 15.464634553406526 ], [ 75.665026255921688, 15.464787977424264 ], [ 75.6650898638743, 15.46482545482265 ], [ 75.665141089399896, 15.464859242049354 ], [ 75.665653159678612, 15.465196995753443 ], [ 75.665902163955181, 15.465933581962265 ], [ 75.665972684306524, 15.465931364833278 ], [ 75.666283814557289, 15.46592158515516 ], [ 75.666302465175207, 15.465920389980294 ], [ 75.667405199287316, 15.465848136314632 ], [ 75.667597646647494, 15.465835527405641 ], [ 75.668502183109155, 15.465776254343035 ], [ 75.669980247851711, 15.465835255031736 ], [ 75.670684236004888, 15.465860772893736 ], [ 75.671785733171163, 15.465885063574246 ], [ 75.671900103550399, 15.465887585220942 ], [ 75.672129575553342, 15.465869642920433 ], [ 75.672112403703039, 15.464568700210329 ], [ 75.672103470725915, 15.463313128311492 ], [ 75.672104541425455, 15.463289899579898 ], [ 75.672161151213359, 15.462115114624197 ], [ 75.672120167405382, 15.46201475036022 ], [ 75.672068960252375, 15.461889350093672 ], [ 75.671743467826204, 15.461092256611582 ], [ 75.671739796045657, 15.461083265389954 ], [ 75.671607299751429, 15.460757799552781 ], [ 75.671546954638472, 15.460609566560175 ], [ 75.670791661824722, 15.45988427981789 ], [ 75.669503587437333, 15.459118120797267 ], [ 75.668883709365517, 15.458749405984857 ], [ 75.66880722005429, 15.458701287337391 ], [ 75.668744732590895, 15.458661976894575 ], [ 75.668722650616644, 15.45864808525689 ], [ 75.668768451816746, 15.458389211957822 ], [ 75.66881904181291, 15.458210995567558 ], [ 75.669156703385269, 15.457021501348994 ], [ 75.669067374679344, 15.457009109127016 ], [ 75.668999973667525, 15.456999758751387 ], [ 75.669041553953548, 15.456908602557842 ], [ 75.669288931050119, 15.456366283071937 ], [ 75.669394963709749, 15.456133829836229 ], [ 75.669448327577641, 15.455997118121322 ], [ 75.669466118780235, 15.455975014122403 ], [ 75.669987354988379, 15.45533093408616 ], [ 75.670217161893461, 15.45457216262175 ], [ 75.670489158361676, 15.454614448928419 ], [ 75.67049852892535, 15.454615913144659 ], [ 75.67049865660978, 15.454615328753231 ], [ 75.670662964785862, 15.453874898905205 ], [ 75.670739498244416, 15.453530012052067 ], [ 75.670742412563825, 15.453528445586077 ], [ 75.670936115389068, 15.453424406448422 ], [ 75.671193188445841, 15.453126419363409 ], [ 75.671198412041917, 15.4531203628014 ], [ 75.671212305434395, 15.453104260594859 ], [ 75.671238064044161, 15.453074401053007 ], [ 75.671541539299284, 15.452722624168512 ], [ 75.67196795895704, 15.452228329609728 ], [ 75.672365971740717, 15.45176696303704 ], [ 75.672667707610728, 15.451417194225471 ], [ 75.672738388029543, 15.451335263356707 ], [ 75.673023751069195, 15.451004473310594 ], [ 75.673066647408405, 15.450922564298654 ], [ 75.673310854374932, 15.4504562568588 ], [ 75.673569237576501, 15.449962878242241 ], [ 75.673739710344307, 15.449637360576448 ], [ 75.67397935756658, 15.449179752258489 ], [ 75.674078361572228, 15.448990704662981 ], [ 75.67428090917015, 15.448603935817079 ], [ 75.674343590794749, 15.448484244747338 ], [ 75.674362980543251, 15.448447218982233 ], [ 75.67437119184406, 15.448431539781083 ], [ 75.674374019692408, 15.448431799679364 ], [ 75.674379187346688, 15.448420900314376 ], [ 75.67446204471662, 15.448246141986246 ], [ 75.674684605717587, 15.447776725828952 ], [ 75.674761008166939, 15.44761558097575 ], [ 75.675072340525247, 15.446819134424599 ], [ 75.674476690345912, 15.446726985137557 ] ] ] } }
]
}
