{
"type": "FeatureCollection",
"name": "hoblis_in_police_area.writing_20260805_172659",
"crs": { "type": "name", "properties": { "name": "urn:ogc:def:crs:OGC:1.3:CRS84" } },
"features": [
{ "type": "Feature", "properties": { "OBJECTID": 510, "KGISHobliID": 542, "KGISHobliCode": "260401", "KGISHobliName": "Kasaba", "BhuCodeHobli": null, "SHAPE.STArea()": 201338814.21669081, "SHAPE.STLength()": 83219.85104143215, "KGISTalukCode": "2604", "created_user": null, "created_date": null, "last_edited_user": "SURESHBV1", "last_edited_date": 1669190170000.0, "_overlap_percent": 4.4579938510717998, "_police_station": "Krishnaraja PS", "_police_feature_index": "315", "_admin_layer": "Hobli", "_geometry_clipped": true }, "geometry": { "type": "Polygon", "coordinates": [ [ [ 76.678769917372563, 12.271026201242497 ], [ 76.67924596936372, 12.270935965099039 ], [ 76.681195617810687, 12.27033914715892 ], [ 76.684997467557295, 12.26925139898532 ], [ 76.685964194493081, 12.268979970062375 ], [ 76.686390146794352, 12.268860373130918 ], [ 76.68612062242137, 12.268768811174116 ], [ 76.683764163285019, 12.267968267594018 ], [ 76.672775738250607, 12.266138508915054 ], [ 76.672413297075181, 12.266160405048662 ], [ 76.672399805096688, 12.266161220474864 ], [ 76.671784927564957, 12.266280310917223 ], [ 76.670878700014441, 12.266485487383715 ], [ 76.669420547372923, 12.266812543996888 ], [ 76.668795903461046, 12.266948843996355 ], [ 76.668289590122711, 12.267059322889429 ], [ 76.66746361959845, 12.267239548749135 ], [ 76.66671413828216, 12.267399051911182 ], [ 76.665305313406307, 12.267697269408357 ], [ 76.665291949999684, 12.267595509171318 ], [ 76.665263950969276, 12.26738231126777 ], [ 76.665248731011403, 12.267216768129037 ], [ 76.665117488896428, 12.266424680158936 ], [ 76.665153781175832, 12.265744154194426 ], [ 76.665654089920423, 12.264945603815731 ], [ 76.665689528735328, 12.26461696935603 ], [ 76.666130762253388, 12.264358318075958 ], [ 76.665341521980608, 12.26283352689976 ], [ 76.663998409193667, 12.263648304938959 ], [ 76.663933931673398, 12.26352102641161 ], [ 76.663847634153939, 12.263350675811722 ], [ 76.663628255618192, 12.262917622844174 ], [ 76.663773076883373, 12.262698202532937 ], [ 76.664181623608457, 12.262214425105812 ], [ 76.664154713610486, 12.262119981387356 ], [ 76.663993288998881, 12.261553458860124 ], [ 76.663972156437538, 12.261479292307019 ], [ 76.663966332751542, 12.261479456006462 ], [ 76.663763127868677, 12.261485190662748 ], [ 76.663453425976257, 12.260581221923477 ], [ 76.663438693382005, 12.260538217095338 ], [ 76.663434017523926, 12.260524567444852 ], [ 76.662908446705003, 12.260633080092143 ], [ 76.662573801403596, 12.260678027761029 ], [ 76.66183103349158, 12.260710660206973 ], [ 76.661397015516741, 12.260715359837672 ], [ 76.660758238547686, 12.260808313475252 ], [ 76.660325405730973, 12.260928119910313 ], [ 76.659960676328964, 12.261029073340032 ], [ 76.659544805327457, 12.261121927022936 ], [ 76.659356890240133, 12.261152021987307 ], [ 76.659257980312049, 12.261118809979184 ], [ 76.659079024459587, 12.26110220908601 ], [ 76.65862172147348, 12.261059785471282 ], [ 76.658624871189375, 12.261141919637323 ], [ 76.658662436365191, 12.26182970118397 ], [ 76.658641721459233, 12.261935870827994 ], [ 76.658642358543077, 12.261943530871198 ], [ 76.658670124852534, 12.262277075986049 ], [ 76.658678009858434, 12.262337404752657 ], [ 76.658759879107151, 12.262963822179083 ], [ 76.658844337367469, 12.263058857742005 ], [ 76.659033835752993, 12.262996286238003 ], [ 76.659258384823474, 12.262922142279207 ], [ 76.659429992388723, 12.262891458897547 ], [ 76.659499496384214, 12.26295129990663 ], [ 76.659561966394392, 12.263018690969979 ], [ 76.659688750854329, 12.26315546146815 ], [ 76.659828260831176, 12.263305959446742 ], [ 76.659789682933962, 12.263312645532704 ], [ 76.659592874672555, 12.263346758599756 ], [ 76.659374380484351, 12.263423192146943 ], [ 76.658717607074266, 12.263605257033294 ], [ 76.658593782386149, 12.263636160845307 ], [ 76.658598114995883, 12.263694746535899 ], [ 76.658647199705257, 12.26435846134147 ], [ 76.658897007859395, 12.265350744115068 ], [ 76.658895204424198, 12.265350888815487 ], [ 76.658765709662219, 12.26536124632435 ], [ 76.65783562658207, 12.265435642842023 ], [ 76.657681843779784, 12.265447388777927 ], [ 76.657497170027682, 12.265474546134215 ], [ 76.65764209103844, 12.266951301624129 ], [ 76.657730374599637, 12.267499772353206 ], [ 76.658365275797181, 12.270575984785745 ], [ 76.658434082545611, 12.273708739756577 ], [ 76.658743617601502, 12.277506432911672 ], [ 76.659094087516593, 12.278772074240447 ], [ 76.659088481687505, 12.28731661128035 ], [ 76.656956759796302, 12.286682642043875 ], [ 76.654977581739416, 12.286347875747282 ], [ 76.652085500265699, 12.286388239742754 ], [ 76.649879719596427, 12.28745343045782 ], [ 76.648833498232207, 12.288354153599936 ], [ 76.647622397567986, 12.289710294869726 ], [ 76.646499522870172, 12.291120540420359 ], [ 76.648545907097542, 12.293065716818628 ], [ 76.64685167562466, 12.301169454194865 ], [ 76.646882970609028, 12.302036431024597 ], [ 76.647346709024191, 12.305826496714372 ], [ 76.652304557300184, 12.305110153674548 ], [ 76.653043790768848, 12.302959916372512 ], [ 76.653245855489843, 12.30280820532586 ], [ 76.657405817484118, 12.30273765699526 ], [ 76.657135771876469, 12.302349702583646 ], [ 76.656702223706191, 12.302151299249957 ], [ 76.656596156328021, 12.302018840989616 ], [ 76.656432109170581, 12.301697060517876 ], [ 76.656393026132903, 12.301166830499854 ], [ 76.656921475456599, 12.300058401356045 ], [ 76.658124880217841, 12.297426616504479 ], [ 76.6588218461943, 12.295273322148256 ], [ 76.65887960521728, 12.292433062540866 ], [ 76.659974457080494, 12.292760790427185 ], [ 76.660734202198412, 12.292461029249589 ], [ 76.662041194220592, 12.292160693132988 ], [ 76.66353024054672, 12.291531294555035 ], [ 76.664289422116951, 12.290723278564629 ], [ 76.664501390226903, 12.289945736285327 ], [ 76.665596171528065, 12.290213647638057 ], [ 76.667275174176751, 12.290492697408018 ], [ 76.667382972473092, 12.289911856854326 ], [ 76.667401286460546, 12.289813178267011 ], [ 76.667409814792833, 12.289797338479438 ], [ 76.668696978056488, 12.287407086424238 ], [ 76.668833502880972, 12.28715355768542 ], [ 76.668932847278043, 12.286969072044453 ], [ 76.669043867144197, 12.286762906719389 ], [ 76.669066703640979, 12.286721165018012 ], [ 76.669302218509912, 12.286281361849039 ], [ 76.669560855816428, 12.285771540762296 ], [ 76.670211308279988, 12.284564163091417 ], [ 76.685543270766786, 12.285564117698689 ], [ 76.686605712014469, 12.284477151707319 ], [ 76.687717440435577, 12.283322638533184 ], [ 76.688881728467877, 12.283819615719386 ], [ 76.691132727830393, 12.284779197800363 ], [ 76.691192273896547, 12.284878814183955 ], [ 76.69136083933239, 12.284782272158166 ], [ 76.693791618289069, 12.285949693603271 ], [ 76.694403584278689, 12.286243594879469 ], [ 76.694734240007719, 12.286247269886458 ], [ 76.694798296659627, 12.286247981526083 ], [ 76.699108349464368, 12.286295843699497 ], [ 76.700009346408279, 12.286419594486398 ], [ 76.699636819292081, 12.28581406187002 ], [ 76.699627112607914, 12.285813541255841 ], [ 76.69997534705432, 12.286370822102757 ], [ 76.699065630103917, 12.286250595595559 ], [ 76.697090552921253, 12.286236449232815 ], [ 76.697043118419302, 12.286236109652826 ], [ 76.694836870558674, 12.284762444111967 ], [ 76.687432653710474, 12.279816519886323 ], [ 76.685401958752394, 12.278459968750294 ], [ 76.685287047792173, 12.278383204740571 ], [ 76.684226971867702, 12.278173960839075 ], [ 76.683958828506661, 12.278168060921464 ], [ 76.681555494965835, 12.278115166885396 ], [ 76.679746672897181, 12.27807534401588 ], [ 76.67960566926827, 12.276811553817478 ], [ 76.678951006573399, 12.272279760917048 ], [ 76.678871407430961, 12.271985625194679 ], [ 76.678906686988256, 12.271972966008953 ], [ 76.678769917372563, 12.271026201242497 ] ] ] } },
{ "type": "Feature", "properties": { "OBJECTID": 511, "KGISHobliID": 1008, "KGISHobliCode": "260402", "KGISHobliName": "Varuna", "BhuCodeHobli": null, "SHAPE.STArea()": 201999201.44758368, "SHAPE.STLength()": 106559.95575849761, "KGISTalukCode": "2604", "created_user": null, "created_date": null, "last_edited_user": "SURESHBV1", "last_edited_date": 1669190398000.0, "_overlap_percent": 0.1370668600371962, "_police_station": "Krishnaraja PS", "_police_feature_index": "315", "_admin_layer": "Hobli", "_geometry_clipped": true }, "geometry": { "type": "MultiPolygon", "coordinates": [ [ [ [ 76.685401958752394, 12.278459968750294 ], [ 76.687432653710474, 12.279816519886323 ], [ 76.694836870558674, 12.284762444111967 ], [ 76.697043118419302, 12.286236109652826 ], [ 76.697090552921253, 12.286236449232815 ], [ 76.699065630103917, 12.286250595595559 ], [ 76.69997534705432, 12.286370822102757 ], [ 76.699627112607914, 12.285813541255841 ], [ 76.699591669623558, 12.285811640285349 ], [ 76.698527606447968, 12.285269997341835 ], [ 76.685690121915627, 12.2784351750275 ], [ 76.685323193585873, 12.278390339405856 ], [ 76.685287047792173, 12.278383204740571 ], [ 76.685401958752394, 12.278459968750294 ] ] ], [ [ [ 76.67960566926827, 12.276811553817478 ], [ 76.679746672897181, 12.27807534401588 ], [ 76.681555494965835, 12.278115166885396 ], [ 76.683958828506661, 12.278168060921464 ], [ 76.684226971867702, 12.278173960839075 ], [ 76.680338390169368, 12.277406410150416 ], [ 76.680017119410977, 12.276219274082418 ], [ 76.678951006573399, 12.272279760917048 ], [ 76.67960566926827, 12.276811553817478 ] ] ], [ [ [ 76.685964194493081, 12.268979970062375 ], [ 76.684997467557295, 12.26925139898532 ], [ 76.681195617810687, 12.27033914715892 ], [ 76.67924596936372, 12.270935965099039 ], [ 76.678769917372563, 12.271026201242497 ], [ 76.678906686988256, 12.271972966008953 ], [ 76.679351786543108, 12.27181325317911 ], [ 76.681252844447229, 12.271131092073588 ], [ 76.684947745356382, 12.269805194902659 ], [ 76.687001043950175, 12.269068352484309 ], [ 76.686852600661069, 12.269017497117577 ], [ 76.686845143682191, 12.269014943216463 ], [ 76.686390146794352, 12.268860373130918 ], [ 76.685964194493081, 12.268979970062375 ] ] ] ] } }
]
}
