{
"type": "FeatureCollection",
"name": "police_station_boundary.writing_20260805_172659",
"crs": { "type": "name", "properties": { "name": "urn:ogc:def:crs:OGC:1.3:CRS84" } },
"features": [
{ "type": "Feature", "properties": { "Shape.STArea()": 1382350.0350688349, "Shape.STLength()": 6098.7572696410243, "OBJECTID": 854, "KGISPS_BOUNDID": 99, "PS_BOUNDName": "Commercial Street PS", "PS_BOUNDCode": "PSB - 99", "KGISPS_SUB_DIVID": 135, "_source_layer": "Police Station Boundary", "_source_layer_url": "https://kgis.ksrsac.in/kgismaps/rest/services/Home/Home_Department/MapServer/82", "_police_station": "Commercial Street PS" }, "geometry": { "type": "Polygon", "coordinates": [ [ [ 77.615767348506566, 12.982552378057767 ], [ 77.615749564793177, 12.982547496998084 ], [ 77.61570900314257, 12.982541669848207 ], [ 77.615639513865631, 12.982543473227446 ], [ 77.615096206670515, 12.98255757037084 ], [ 77.614925132449756, 12.982539855581049 ], [ 77.614827732092294, 12.982530672119095 ], [ 77.614573645633513, 12.982514030814267 ], [ 77.61431581269126, 12.982524529574162 ], [ 77.614035940533213, 12.982574774444073 ], [ 77.61379052588542, 12.982637985289863 ], [ 77.613681340666247, 12.982666107462192 ], [ 77.613591801976597, 12.982689168891497 ], [ 77.61344736605966, 12.982726370731687 ], [ 77.613160985641144, 12.982800566650157 ], [ 77.6128549819705, 12.98285299919792 ], [ 77.612779320849896, 12.982901566284786 ], [ 77.612684332524466, 12.983141552309355 ], [ 77.612512825774999, 12.983785493175739 ], [ 77.612423410778959, 12.984121213926008 ], [ 77.612374803320705, 12.984217132892937 ], [ 77.612345795177447, 12.984274377162611 ], [ 77.612240136358011, 12.984368063635415 ], [ 77.612161209873946, 12.984395747433386 ], [ 77.612048615395764, 12.984408831561444 ], [ 77.61181988175106, 12.984430002338804 ], [ 77.611631057787037, 12.984447479733493 ], [ 77.611077445388631, 12.984481337615662 ], [ 77.611058533677067, 12.98448436349512 ], [ 77.610678981446071, 12.984545099130745 ], [ 77.610564058323646, 12.984626926742656 ], [ 77.610435337883644, 12.984846336160729 ], [ 77.610331769891744, 12.985140189733292 ], [ 77.610178801412516, 12.985371794094071 ], [ 77.610103082499975, 12.985433036236945 ], [ 77.609943141515814, 12.985562398732656 ], [ 77.609596777584372, 12.985655514531919 ], [ 77.609195171188702, 12.985710341951107 ], [ 77.609037408120699, 12.985774671716451 ], [ 77.608922769660325, 12.98588122717659 ], [ 77.608906260959102, 12.985896572280733 ], [ 77.608826180838122, 12.985971005460904 ], [ 77.608416099170597, 12.986381476848859 ], [ 77.608228431720562, 12.986499889145994 ], [ 77.607900718904332, 12.986628670007866 ], [ 77.607335565118134, 12.986777761096345 ], [ 77.60714121524714, 12.986816038213687 ], [ 77.607147578535816, 12.986760000824363 ], [ 77.607127886915393, 12.986620417724136 ], [ 77.60708987456394, 12.98635096041342 ], [ 77.606977983449724, 12.985789163161133 ], [ 77.60693400277799, 12.985437137426741 ], [ 77.606915044166342, 12.985254751627783 ], [ 77.6068971268692, 12.984845708436218 ], [ 77.606872961606797, 12.98439848317974 ], [ 77.60685759865811, 12.984234183089244 ], [ 77.606846420341128, 12.984200178257925 ], [ 77.606801210447216, 12.984062646148212 ], [ 77.606667396015368, 12.983791634489787 ], [ 77.605319407480849, 12.984145496210374 ], [ 77.604933550868296, 12.984181599746149 ], [ 77.604268068379795, 12.984196329599106 ], [ 77.603577963701881, 12.984213989446001 ], [ 77.603255270081348, 12.984265575739563 ], [ 77.601960329916267, 12.984598214850946 ], [ 77.601884318271075, 12.984596345196291 ], [ 77.601783799737746, 12.984666052953962 ], [ 77.601663097712148, 12.984727446142482 ], [ 77.60129023428199, 12.98469625798603 ], [ 77.599220607403879, 12.984289847449316 ], [ 77.598738410197981, 12.984229573553833 ], [ 77.597713736362849, 12.984101486534081 ], [ 77.597421860638221, 12.984117105533885 ], [ 77.597207100761068, 12.984275058007642 ], [ 77.597139874164256, 12.984391458675717 ], [ 77.597132755787243, 12.984310710591309 ], [ 77.597091691606551, 12.983844890388236 ], [ 77.597088061043905, 12.983661036665358 ], [ 77.597072399929246, 12.982868032994983 ], [ 77.5969793378529, 12.982121983458445 ], [ 77.59697929173079, 12.981967258481552 ], [ 77.596979280367805, 12.981928570911409 ], [ 77.59674943607375, 12.981785610912988 ], [ 77.596345926797881, 12.981534633863216 ], [ 77.59634590454985, 12.981534620533981 ], [ 77.596135438405412, 12.981498568251336 ], [ 77.596575330375614, 12.981312407745046 ], [ 77.596794031187457, 12.981248073818524 ], [ 77.596900919391572, 12.981213541815952 ], [ 77.596993085195749, 12.981169594047829 ], [ 77.597046056997172, 12.981106916738742 ], [ 77.597055358388843, 12.981063797832809 ], [ 77.597049690039754, 12.980987363563667 ], [ 77.597039046812512, 12.980901417977062 ], [ 77.597425450053152, 12.980868875536578 ], [ 77.59757700371317, 12.980814214768836 ], [ 77.597760125547381, 12.980748167761547 ], [ 77.598405778691344, 12.980552489318582 ], [ 77.598419031177002, 12.980548472982552 ], [ 77.599296622144962, 12.980283349747632 ], [ 77.600915026034613, 12.979722843936187 ], [ 77.602320587594974, 12.979236734469 ], [ 77.602447982152441, 12.979195934069759 ], [ 77.603415993378917, 12.978879075393449 ], [ 77.605190764634244, 12.978297782286104 ], [ 77.605481126958225, 12.978204529578189 ], [ 77.606681039285249, 12.977820966671953 ], [ 77.607614096221255, 12.977521383907487 ], [ 77.60877383121084, 12.977150637537489 ], [ 77.608921889191294, 12.977103980579923 ], [ 77.610431027354707, 12.976606723554239 ], [ 77.61044475031774, 12.976602201453833 ], [ 77.611647342670366, 12.97620594253203 ], [ 77.612478171143906, 12.975932215322208 ], [ 77.614292510227614, 12.975334391582647 ], [ 77.614387116515914, 12.97530321820507 ], [ 77.614770289143863, 12.976433158766525 ], [ 77.615018653000817, 12.977272140528843 ], [ 77.615038268453162, 12.977338401575617 ], [ 77.61537497520159, 12.978497357325615 ], [ 77.615432458476064, 12.978695213509621 ], [ 77.615435525931403, 12.978736936938152 ], [ 77.615439842436075, 12.978795644753363 ], [ 77.615427573189294, 12.978943703310604 ], [ 77.615258620078023, 12.979084304069852 ], [ 77.614839052748991, 12.979264691976431 ], [ 77.614202643925964, 12.979553685003461 ], [ 77.614119050838738, 12.979601136809961 ], [ 77.614326825141319, 12.980240844841457 ], [ 77.614538030815041, 12.980859004808128 ], [ 77.614676835336908, 12.980846852369782 ], [ 77.615068183229624, 12.980860841772575 ], [ 77.615468525733704, 12.980867779210667 ], [ 77.615498005344023, 12.980942941650754 ], [ 77.615525887077283, 12.980966375859142 ], [ 77.615588219571052, 12.981035763665096 ], [ 77.615647810108342, 12.981228270055743 ], [ 77.615649546349402, 12.981394190105989 ], [ 77.615683368764479, 12.982315404281175 ], [ 77.615666620931293, 12.982420595440482 ], [ 77.615629041397085, 12.982515832788316 ], [ 77.615733784271939, 12.982532272392824 ], [ 77.615767348506566, 12.982552378057767 ] ] ] } }
]
}
